<?xml version="1.0" encoding="UTF-8"?>
<gpx xmlns="http://www.topografix.com/GPX/1/1" version="1.1" creator="GPSBabel - http://www.gpsbabel.org">
	<metadata>
		<author>
			<name><![CDATA[Andy 的游历]]></name>
		</author>
	</metadata>
	<trk>
		<trkseg>
			<trkpt lat="29.972762" lon="120.128370">
				<speed>0.589616</speed>
				<ele>103.000000</ele>
				<time>2025-02-04T02:03:51Z</time>
			</trkpt>
			<trkpt lat="29.972679" lon="120.128424">
				<speed>0.523199</speed>
				<ele>104.000000</ele>
				<time>2025-02-04T02:04:08Z</time>
			</trkpt>
			<trkpt lat="29.972612" lon="120.128502">
				<speed>0.791543</speed>
				<ele>108.000000</ele>
				<time>2025-02-04T02:04:20Z</time>
			</trkpt>
			<trkpt lat="29.972552" lon="120.128584">
				<speed>0.458290</speed>
				<ele>111.000000</ele>
				<time>2025-02-04T02:04:32Z</time>
			</trkpt>
			<trkpt lat="29.972504" lon="120.128673">
				<speed>0.502190</speed>
				<ele>114.000000</ele>
				<time>2025-02-04T02:04:46Z</time>
			</trkpt>
			<trkpt lat="29.972485" lon="120.128774">
				<speed>0.567637</speed>
				<ele>117.000000</ele>
				<time>2025-02-04T02:04:58Z</time>
			</trkpt>
			<trkpt lat="29.972481" lon="120.128882">
				<speed>0.390633</speed>
				<ele>119.000000</ele>
				<time>2025-02-04T02:05:12Z</time>
			</trkpt>
			<trkpt lat="29.972443" lon="120.128983">
				<speed>0.486049</speed>
				<ele>123.000000</ele>
				<time>2025-02-04T02:05:26Z</time>
			</trkpt>
			<trkpt lat="29.972404" lon="120.129080">
				<speed>0.390182</speed>
				<ele>126.000000</ele>
				<time>2025-02-04T02:05:42Z</time>
			</trkpt>
			<trkpt lat="29.972397" lon="120.129191">
				<speed>0.427058</speed>
				<ele>128.000000</ele>
				<time>2025-02-04T02:05:56Z</time>
			</trkpt>
			<trkpt lat="29.972382" lon="120.129301">
				<speed>0.373468</speed>
				<ele>133.000000</ele>
				<time>2025-02-04T02:06:11Z</time>
			</trkpt>
			<trkpt lat="29.972359" lon="120.129405">
				<speed>0.402549</speed>
				<ele>137.000000</ele>
				<time>2025-02-04T02:06:24Z</time>
			</trkpt>
			<trkpt lat="29.972334" lon="120.129507">
				<speed>0.724187</speed>
				<ele>139.000000</ele>
				<time>2025-02-04T02:06:37Z</time>
			</trkpt>
			<trkpt lat="29.972287" lon="120.129605">
				<speed>0.582699</speed>
				<ele>142.000000</ele>
				<time>2025-02-04T02:06:51Z</time>
			</trkpt>
			<trkpt lat="29.972248" lon="120.129704">
				<speed>0.529382</speed>
				<ele>145.000000</ele>
				<time>2025-02-04T02:07:05Z</time>
			</trkpt>
			<trkpt lat="29.972213" lon="120.129814">
				<speed>0.933460</speed>
				<ele>148.000000</ele>
				<time>2025-02-04T02:07:20Z</time>
			</trkpt>
			<trkpt lat="29.972208" lon="120.129927">
				<speed>0.471569</speed>
				<ele>152.000000</ele>
				<time>2025-02-04T02:07:38Z</time>
			</trkpt>
			<trkpt lat="29.972206" lon="120.130034">
				<speed>0.353595</speed>
				<ele>155.000000</ele>
				<time>2025-02-04T02:07:52Z</time>
			</trkpt>
			<trkpt lat="29.972173" lon="120.130131">
				<speed>0.375797</speed>
				<ele>159.000000</ele>
				<time>2025-02-04T02:08:06Z</time>
			</trkpt>
			<trkpt lat="29.972150" lon="120.130233">
				<speed>0.537038</speed>
				<ele>162.000000</ele>
				<time>2025-02-04T02:08:19Z</time>
			</trkpt>
			<trkpt lat="29.972126" lon="120.130335">
				<speed>0.224220</speed>
				<ele>166.000000</ele>
				<time>2025-02-04T02:08:35Z</time>
			</trkpt>
			<trkpt lat="29.972105" lon="120.130439">
				<speed>0.130075</speed>
				<ele>171.000000</ele>
				<time>2025-02-04T02:08:54Z</time>
			</trkpt>
			<trkpt lat="29.972028" lon="120.130495">
				<speed>0.161652</speed>
				<ele>177.000000</ele>
				<time>2025-02-04T02:09:21Z</time>
			</trkpt>
			<trkpt lat="29.971962" lon="120.130573">
				<speed>0.339172</speed>
				<ele>180.000000</ele>
				<time>2025-02-04T02:09:37Z</time>
			</trkpt>
			<trkpt lat="29.971884" lon="120.130628">
				<speed>0.333858</speed>
				<ele>184.000000</ele>
				<time>2025-02-04T02:09:55Z</time>
			</trkpt>
			<trkpt lat="29.971820" lon="120.130714">
				<speed>0.706329</speed>
				<ele>190.000000</ele>
				<time>2025-02-04T02:10:14Z</time>
			</trkpt>
			<trkpt lat="29.971783" lon="120.130815">
				<speed>0.696026</speed>
				<ele>192.000000</ele>
				<time>2025-02-04T02:10:27Z</time>
			</trkpt>
			<trkpt lat="29.971748" lon="120.130919">
				<speed>0.281157</speed>
				<ele>199.000000</ele>
				<time>2025-02-04T02:10:48Z</time>
			</trkpt>
			<trkpt lat="29.971689" lon="120.131006">
				<speed>0.205919</speed>
				<ele>205.000000</ele>
				<time>2025-02-04T02:11:09Z</time>
			</trkpt>
			<trkpt lat="29.971618" lon="120.131083">
				<speed>0.533793</speed>
				<ele>212.000000</ele>
				<time>2025-02-04T02:11:28Z</time>
			</trkpt>
			<trkpt lat="29.971568" lon="120.131176">
				<speed>0.141089</speed>
				<ele>215.000000</ele>
				<time>2025-02-04T02:11:46Z</time>
			</trkpt>
			<trkpt lat="29.971524" lon="120.131274">
				<speed>0.401730</speed>
				<ele>220.000000</ele>
				<time>2025-02-04T02:12:03Z</time>
			</trkpt>
			<trkpt lat="29.971514" lon="120.131389">
				<speed>0.647775</speed>
				<ele>221.000000</ele>
				<time>2025-02-04T02:12:22Z</time>
			</trkpt>
			<trkpt lat="29.971433" lon="120.131441">
				<speed>0.379174</speed>
				<ele>221.000000</ele>
				<time>2025-02-04T02:12:40Z</time>
			</trkpt>
			<trkpt lat="29.971335" lon="120.131445">
				<speed>0.110351</speed>
				<ele>225.000000</ele>
				<time>2025-02-04T02:13:40Z</time>
			</trkpt>
			<trkpt lat="29.971245" lon="120.131461">
				<speed>0.029579</speed>
				<ele>231.000000</ele>
				<time>2025-02-04T02:18:00Z</time>
			</trkpt>
			<trkpt lat="29.971173" lon="120.131534">
				<speed>0.035013</speed>
				<ele>236.000000</ele>
				<time>2025-02-04T02:18:20Z</time>
			</trkpt>
			<trkpt lat="29.971114" lon="120.131613">
				<speed>0.135195</speed>
				<ele>240.000000</ele>
				<time>2025-02-04T02:18:34Z</time>
			</trkpt>
			<trkpt lat="29.971023" lon="120.131628">
				<speed>0.179201</speed>
				<ele>244.000000</ele>
				<time>2025-02-04T02:18:55Z</time>
			</trkpt>
			<trkpt lat="29.970966" lon="120.131716">
				<speed>0.068313</speed>
				<ele>248.000000</ele>
				<time>2025-02-04T02:19:17Z</time>
			</trkpt>
			<trkpt lat="29.970902" lon="120.131797">
				<speed>0.058697</speed>
				<ele>254.000000</ele>
				<time>2025-02-04T02:19:40Z</time>
			</trkpt>
			<trkpt lat="29.970855" lon="120.131889">
				<speed>0.232897</speed>
				<ele>257.000000</ele>
				<time>2025-02-04T02:20:00Z</time>
			</trkpt>
			<trkpt lat="29.970795" lon="120.131970">
				<speed>0.160374</speed>
				<ele>260.000000</ele>
				<time>2025-02-04T02:20:19Z</time>
			</trkpt>
			<trkpt lat="29.970739" lon="120.132053">
				<speed>0.204307</speed>
				<ele>268.000000</ele>
				<time>2025-02-04T02:20:41Z</time>
			</trkpt>
			<trkpt lat="29.970662" lon="120.132113">
				<speed>0.438101</speed>
				<ele>271.000000</ele>
				<time>2025-02-04T02:21:01Z</time>
			</trkpt>
			<trkpt lat="29.970624" lon="120.132211">
				<speed>0.537635</speed>
				<ele>276.000000</ele>
				<time>2025-02-04T02:21:22Z</time>
			</trkpt>
			<trkpt lat="29.970542" lon="120.132266">
				<speed>0.181577</speed>
				<ele>278.000000</ele>
				<time>2025-02-04T02:21:49Z</time>
			</trkpt>
			<trkpt lat="29.970461" lon="120.132316">
				<speed>0.413783</speed>
				<ele>285.000000</ele>
				<time>2025-02-04T02:22:24Z</time>
			</trkpt>
			<trkpt lat="29.970391" lon="120.132382">
				<speed>0.411852</speed>
				<ele>286.000000</ele>
				<time>2025-02-04T02:22:46Z</time>
			</trkpt>
			<trkpt lat="29.970314" lon="120.132438">
				<speed>0.117822</speed>
				<ele>291.000000</ele>
				<time>2025-02-04T02:23:15Z</time>
			</trkpt>
			<trkpt lat="29.970260" lon="120.132525">
				<speed>0.203863</speed>
				<ele>296.000000</ele>
				<time>2025-02-04T02:23:40Z</time>
			</trkpt>
			<trkpt lat="29.970210" lon="120.132614">
				<speed>0.156594</speed>
				<ele>300.000000</ele>
				<time>2025-02-04T02:24:01Z</time>
			</trkpt>
			<trkpt lat="29.970120" lon="120.132599">
				<speed>0.071239</speed>
				<ele>306.000000</ele>
				<time>2025-02-04T02:25:53Z</time>
			</trkpt>
			<trkpt lat="29.970085" lon="120.132704">
				<speed>0.595811</speed>
				<ele>309.000000</ele>
				<time>2025-02-04T02:27:07Z</time>
			</trkpt>
			<trkpt lat="29.970042" lon="120.132799">
				<speed>0.344238</speed>
				<ele>313.000000</ele>
				<time>2025-02-04T02:27:27Z</time>
			</trkpt>
			<trkpt lat="29.970056" lon="120.132904">
				<speed>0.712136</speed>
				<ele>316.000000</ele>
				<time>2025-02-04T02:27:46Z</time>
			</trkpt>
			<trkpt lat="29.970008" lon="120.132992">
				<speed>0.282714</speed>
				<ele>320.000000</ele>
				<time>2025-02-04T02:28:04Z</time>
			</trkpt>
			<trkpt lat="29.969976" lon="120.133092">
				<speed>0.191632</speed>
				<ele>326.000000</ele>
				<time>2025-02-04T02:28:21Z</time>
			</trkpt>
			<trkpt lat="29.969913" lon="120.133171">
				<speed>0.831165</speed>
				<ele>330.000000</ele>
				<time>2025-02-04T02:28:43Z</time>
			</trkpt>
			<trkpt lat="29.969820" lon="120.133170">
				<speed>0.316907</speed>
				<ele>336.000000</ele>
				<time>2025-02-04T02:29:07Z</time>
			</trkpt>
			<trkpt lat="29.969740" lon="120.133228">
				<speed>0.134329</speed>
				<ele>338.000000</ele>
				<time>2025-02-04T02:29:25Z</time>
			</trkpt>
			<trkpt lat="29.969658" lon="120.133282">
				<speed>0.620898</speed>
				<ele>342.000000</ele>
				<time>2025-02-04T02:30:18Z</time>
			</trkpt>
			<trkpt lat="29.969581" lon="120.133345">
				<speed>0.052605</speed>
				<ele>349.000000</ele>
				<time>2025-02-04T02:30:52Z</time>
			</trkpt>
			<trkpt lat="29.969543" lon="120.133442">
				<speed>0.331704</speed>
				<ele>349.000000</ele>
				<time>2025-02-04T02:31:12Z</time>
			</trkpt>
			<trkpt lat="29.969501" lon="120.133538">
				<speed>0.044850</speed>
				<ele>352.000000</ele>
				<time>2025-02-04T02:31:28Z</time>
			</trkpt>
			<trkpt lat="29.969430" lon="120.133605">
				<speed>0.063194</speed>
				<ele>359.000000</ele>
				<time>2025-02-04T02:32:12Z</time>
			</trkpt>
			<trkpt lat="29.969372" lon="120.133694">
				<speed>0.345211</speed>
				<ele>363.000000</ele>
				<time>2025-02-04T02:32:31Z</time>
			</trkpt>
			<trkpt lat="29.969297" lon="120.133626">
				<speed>0.093682</speed>
				<ele>367.000000</ele>
				<time>2025-02-04T02:33:43Z</time>
			</trkpt>
			<trkpt lat="29.969224" lon="120.133565">
				<speed>0.053501</speed>
				<ele>369.000000</ele>
				<time>2025-02-04T02:33:56Z</time>
			</trkpt>
			<trkpt lat="29.969158" lon="120.133490">
				<speed>0.138205</speed>
				<ele>377.000000</ele>
				<time>2025-02-04T02:34:13Z</time>
			</trkpt>
			<trkpt lat="29.969071" lon="120.133454">
				<speed>0.042990</speed>
				<ele>378.000000</ele>
				<time>2025-02-04T02:34:30Z</time>
			</trkpt>
			<trkpt lat="29.969026" lon="120.133364">
				<speed>0.177505</speed>
				<ele>383.000000</ele>
				<time>2025-02-04T02:35:42Z</time>
			</trkpt>
			<trkpt lat="29.968948" lon="120.133298">
				<speed>0.151559</speed>
				<ele>383.000000</ele>
				<time>2025-02-04T02:35:56Z</time>
			</trkpt>
			<trkpt lat="29.968879" lon="120.133369">
				<speed>0.276680</speed>
				<ele>387.000000</ele>
				<time>2025-02-04T02:36:13Z</time>
			</trkpt>
			<trkpt lat="29.968855" lon="120.133475">
				<speed>0.444231</speed>
				<ele>389.000000</ele>
				<time>2025-02-04T02:36:29Z</time>
			</trkpt>
			<trkpt lat="29.968827" lon="120.133575">
				<speed>0.760999</speed>
				<ele>391.000000</ele>
				<time>2025-02-04T02:36:39Z</time>
			</trkpt>
			<trkpt lat="29.968835" lon="120.133680">
				<speed>0.487477</speed>
				<ele>395.000000</ele>
				<time>2025-02-04T02:36:55Z</time>
			</trkpt>
			<trkpt lat="29.968853" lon="120.133781">
				<speed>0.184068</speed>
				<ele>398.000000</ele>
				<time>2025-02-04T02:37:10Z</time>
			</trkpt>
			<trkpt lat="29.968773" lon="120.133726">
				<speed>0.282814</speed>
				<ele>405.000000</ele>
				<time>2025-02-04T02:37:32Z</time>
			</trkpt>
			<trkpt lat="29.968681" lon="120.133702">
				<speed>0.523777</speed>
				<ele>408.000000</ele>
				<time>2025-02-04T02:37:48Z</time>
			</trkpt>
			<trkpt lat="29.968595" lon="120.133658">
				<speed>0.526846</speed>
				<ele>412.000000</ele>
				<time>2025-02-04T02:38:04Z</time>
			</trkpt>
			<trkpt lat="29.968510" lon="120.133615">
				<speed>0.278546</speed>
				<ele>413.000000</ele>
				<time>2025-02-04T02:38:23Z</time>
			</trkpt>
			<trkpt lat="29.968422" lon="120.133640">
				<speed>0.172872</speed>
				<ele>420.000000</ele>
				<time>2025-02-04T02:38:53Z</time>
			</trkpt>
			<trkpt lat="29.968342" lon="120.133580">
				<speed>0.717864</speed>
				<ele>423.000000</ele>
				<time>2025-02-04T02:39:14Z</time>
			</trkpt>
			<trkpt lat="29.968265" lon="120.133520">
				<speed>0.628948</speed>
				<ele>428.000000</ele>
				<time>2025-02-04T02:39:37Z</time>
			</trkpt>
			<trkpt lat="29.968200" lon="120.133606">
				<speed>0.509877</speed>
				<ele>431.000000</ele>
				<time>2025-02-04T02:40:27Z</time>
			</trkpt>
			<trkpt lat="29.968188" lon="120.133709">
				<speed>0.371449</speed>
				<ele>433.000000</ele>
				<time>2025-02-04T02:40:38Z</time>
			</trkpt>
			<trkpt lat="29.968204" lon="120.133814">
				<speed>0.465174</speed>
				<ele>435.000000</ele>
				<time>2025-02-04T02:40:51Z</time>
			</trkpt>
			<trkpt lat="29.968222" lon="120.133917">
				<speed>0.538142</speed>
				<ele>440.000000</ele>
				<time>2025-02-04T02:41:07Z</time>
			</trkpt>
			<trkpt lat="29.968267" lon="120.134014">
				<speed>0.480781</speed>
				<ele>445.000000</ele>
				<time>2025-02-04T02:41:22Z</time>
			</trkpt>
			<trkpt lat="29.968311" lon="120.134107">
				<speed>0.307397</speed>
				<ele>446.000000</ele>
				<time>2025-02-04T02:41:36Z</time>
			</trkpt>
			<trkpt lat="29.968216" lon="120.134096">
				<speed>0.080369</speed>
				<ele>453.000000</ele>
				<time>2025-02-04T02:42:12Z</time>
			</trkpt>
			<trkpt lat="29.968127" lon="120.134062">
				<speed>0.115761</speed>
				<ele>455.000000</ele>
				<time>2025-02-04T02:42:28Z</time>
			</trkpt>
			<trkpt lat="29.968038" lon="120.134022">
				<speed>0.551181</speed>
				<ele>456.000000</ele>
				<time>2025-02-04T02:42:39Z</time>
			</trkpt>
			<trkpt lat="29.967965" lon="120.133956">
				<speed>0.481164</speed>
				<ele>460.000000</ele>
				<time>2025-02-04T02:42:51Z</time>
			</trkpt>
			<trkpt lat="29.967894" lon="120.133880">
				<speed>0.500564</speed>
				<ele>461.000000</ele>
				<time>2025-02-04T02:43:03Z</time>
			</trkpt>
			<trkpt lat="29.967814" lon="120.133819">
				<speed>0.603090</speed>
				<ele>462.000000</ele>
				<time>2025-02-04T02:43:14Z</time>
			</trkpt>
			<trkpt lat="29.967743" lon="120.133750">
				<speed>0.616700</speed>
				<ele>463.000000</ele>
				<time>2025-02-04T02:43:25Z</time>
			</trkpt>
			<trkpt lat="29.967677" lon="120.133673">
				<speed>0.718226</speed>
				<ele>465.000000</ele>
				<time>2025-02-04T02:43:37Z</time>
			</trkpt>
			<trkpt lat="29.967594" lon="120.133619">
				<speed>0.467860</speed>
				<ele>466.000000</ele>
				<time>2025-02-04T02:43:52Z</time>
			</trkpt>
			<trkpt lat="29.967523" lon="120.133538">
				<speed>0.623256</speed>
				<ele>471.000000</ele>
				<time>2025-02-04T02:44:11Z</time>
			</trkpt>
			<trkpt lat="29.967464" lon="120.133617">
				<speed>0.227950</speed>
				<ele>481.000000</ele>
				<time>2025-02-04T02:44:49Z</time>
			</trkpt>
			<trkpt lat="29.967378" lon="120.133575">
				<speed>1.170935</speed>
				<ele>479.000000</ele>
				<time>2025-02-04T02:45:06Z</time>
			</trkpt>
			<trkpt lat="29.967281" lon="120.133564">
				<speed>0.635550</speed>
				<ele>488.000000</ele>
				<time>2025-02-04T02:45:48Z</time>
			</trkpt>
			<trkpt lat="29.967194" lon="120.133620">
				<speed>0.414090</speed>
				<ele>494.000000</ele>
				<time>2025-02-04T02:46:13Z</time>
			</trkpt>
			<trkpt lat="29.967106" lon="120.133594">
				<speed>0.207390</speed>
				<ele>501.000000</ele>
				<time>2025-02-04T02:46:35Z</time>
			</trkpt>
			<trkpt lat="29.967050" lon="120.133680">
				<speed>0.114377</speed>
				<ele>505.000000</ele>
				<time>2025-02-04T02:46:55Z</time>
			</trkpt>
			<trkpt lat="29.966964" lon="120.133716">
				<speed>0.443260</speed>
				<ele>509.000000</ele>
				<time>2025-02-04T02:47:12Z</time>
			</trkpt>
			<trkpt lat="29.966906" lon="120.133800">
				<speed>0.415276</speed>
				<ele>514.000000</ele>
				<time>2025-02-04T02:47:38Z</time>
			</trkpt>
			<trkpt lat="29.966816" lon="120.133816">
				<speed>0.613116</speed>
				<ele>520.000000</ele>
				<time>2025-02-04T02:48:13Z</time>
			</trkpt>
			<trkpt lat="29.966749" lon="120.133894">
				<speed>0.551852</speed>
				<ele>521.000000</ele>
				<time>2025-02-04T02:48:32Z</time>
			</trkpt>
			<trkpt lat="29.966667" lon="120.133838">
				<speed>0.494519</speed>
				<ele>525.000000</ele>
				<time>2025-02-04T02:49:27Z</time>
			</trkpt>
			<trkpt lat="29.966578" lon="120.133804">
				<speed>0.476550</speed>
				<ele>526.000000</ele>
				<time>2025-02-04T02:49:45Z</time>
			</trkpt>
			<trkpt lat="29.966509" lon="120.133728">
				<speed>0.524020</speed>
				<ele>527.000000</ele>
				<time>2025-02-04T02:50:00Z</time>
			</trkpt>
			<trkpt lat="29.966580" lon="120.133800">
				<speed>0.706605</speed>
				<ele>526.000000</ele>
				<time>2025-02-04T02:50:14Z</time>
			</trkpt>
			<trkpt lat="29.966495" lon="120.133842">
				<speed>0.588561</speed>
				<ele>525.000000</ele>
				<time>2025-02-04T02:50:28Z</time>
			</trkpt>
			<trkpt lat="29.966401" lon="120.133852">
				<speed>0.400567</speed>
				<ele>524.000000</ele>
				<time>2025-02-04T02:50:43Z</time>
			</trkpt>
			<trkpt lat="29.966310" lon="120.133877">
				<speed>0.826564</speed>
				<ele>521.000000</ele>
				<time>2025-02-04T02:50:58Z</time>
			</trkpt>
			<trkpt lat="29.966211" lon="120.133898">
				<speed>0.799169</speed>
				<ele>520.000000</ele>
				<time>2025-02-04T02:51:14Z</time>
			</trkpt>
			<trkpt lat="29.966115" lon="120.133886">
				<speed>0.592358</speed>
				<ele>518.000000</ele>
				<time>2025-02-04T02:51:32Z</time>
			</trkpt>
			<trkpt lat="29.966042" lon="120.133820">
				<speed>0.497024</speed>
				<ele>513.000000</ele>
				<time>2025-02-04T02:51:48Z</time>
			</trkpt>
			<trkpt lat="29.965964" lon="120.133757">
				<speed>0.695692</speed>
				<ele>507.000000</ele>
				<time>2025-02-04T02:52:04Z</time>
			</trkpt>
			<trkpt lat="29.965868" lon="120.133786">
				<speed>0.983848</speed>
				<ele>505.000000</ele>
				<time>2025-02-04T02:52:17Z</time>
			</trkpt>
			<trkpt lat="29.965774" lon="120.133779">
				<speed>1.119288</speed>
				<ele>504.000000</ele>
				<time>2025-02-04T02:52:25Z</time>
			</trkpt>
			<trkpt lat="29.965686" lon="120.133746">
				<speed>1.184537</speed>
				<ele>504.000000</ele>
				<time>2025-02-04T02:52:34Z</time>
			</trkpt>
			<trkpt lat="29.965601" lon="120.133708">
				<speed>1.123734</speed>
				<ele>505.000000</ele>
				<time>2025-02-04T02:52:43Z</time>
			</trkpt>
			<trkpt lat="29.965515" lon="120.133664">
				<speed>1.111148</speed>
				<ele>504.000000</ele>
				<time>2025-02-04T02:52:52Z</time>
			</trkpt>
			<trkpt lat="29.965435" lon="120.133602">
				<speed>1.063169</speed>
				<ele>505.000000</ele>
				<time>2025-02-04T02:53:02Z</time>
			</trkpt>
			<trkpt lat="29.965361" lon="120.133537">
				<speed>1.169750</speed>
				<ele>505.000000</ele>
				<time>2025-02-04T02:53:11Z</time>
			</trkpt>
			<trkpt lat="29.965271" lon="120.133509">
				<speed>1.112030</speed>
				<ele>506.000000</ele>
				<time>2025-02-04T02:53:19Z</time>
			</trkpt>
			<trkpt lat="29.965173" lon="120.133487">
				<speed>0.101157</speed>
				<ele>504.000000</ele>
				<time>2025-02-04T02:54:04Z</time>
			</trkpt>
			<trkpt lat="29.965077" lon="120.133486">
				<speed>0.093385</speed>
				<ele>505.000000</ele>
				<time>2025-02-04T02:54:12Z</time>
			</trkpt>
			<trkpt lat="29.964983" lon="120.133479">
				<speed>0.129769</speed>
				<ele>505.000000</ele>
				<time>2025-02-04T02:54:20Z</time>
			</trkpt>
			<trkpt lat="29.964886" lon="120.133469">
				<speed>0.124202</speed>
				<ele>506.000000</ele>
				<time>2025-02-04T02:54:28Z</time>
			</trkpt>
			<trkpt lat="29.964787" lon="120.133503">
				<speed>1.252236</speed>
				<ele>504.000000</ele>
				<time>2025-02-04T02:54:36Z</time>
			</trkpt>
			<trkpt lat="29.964695" lon="120.133537">
				<speed>1.197375</speed>
				<ele>504.000000</ele>
				<time>2025-02-04T02:54:44Z</time>
			</trkpt>
			<trkpt lat="29.964632" lon="120.133613">
				<speed>1.025000</speed>
				<ele>505.000000</ele>
				<time>2025-02-04T02:54:52Z</time>
			</trkpt>
			<trkpt lat="29.964555" lon="120.133678">
				<speed>1.088115</speed>
				<ele>504.000000</ele>
				<time>2025-02-04T02:55:11Z</time>
			</trkpt>
			<trkpt lat="29.964462" lon="120.133676">
				<speed>1.348880</speed>
				<ele>503.000000</ele>
				<time>2025-02-04T02:55:20Z</time>
			</trkpt>
			<trkpt lat="29.964367" lon="120.133703">
				<speed>1.088480</speed>
				<ele>503.000000</ele>
				<time>2025-02-04T02:55:37Z</time>
			</trkpt>
			<trkpt lat="29.964277" lon="120.133660">
				<speed>1.009603</speed>
				<ele>507.000000</ele>
				<time>2025-02-04T02:55:47Z</time>
			</trkpt>
			<trkpt lat="29.964188" lon="120.133640">
				<speed>1.011735</speed>
				<ele>508.000000</ele>
				<time>2025-02-04T02:55:57Z</time>
			</trkpt>
			<trkpt lat="29.964113" lon="120.133580">
				<speed>0.811264</speed>
				<ele>511.000000</ele>
				<time>2025-02-04T02:56:09Z</time>
			</trkpt>
			<trkpt lat="29.964039" lon="120.133504">
				<speed>0.869233</speed>
				<ele>514.000000</ele>
				<time>2025-02-04T02:56:21Z</time>
			</trkpt>
			<trkpt lat="29.963970" lon="120.133432">
				<speed>0.720034</speed>
				<ele>519.000000</ele>
				<time>2025-02-04T02:56:35Z</time>
			</trkpt>
			<trkpt lat="29.963878" lon="120.133448">
				<speed>0.928985</speed>
				<ele>521.000000</ele>
				<time>2025-02-04T02:56:47Z</time>
			</trkpt>
			<trkpt lat="29.963790" lon="120.133479">
				<speed>0.469611</speed>
				<ele>525.000000</ele>
				<time>2025-02-04T02:57:03Z</time>
			</trkpt>
			<trkpt lat="29.963694" lon="120.133482">
				<speed>0.759874</speed>
				<ele>530.000000</ele>
				<time>2025-02-04T02:57:29Z</time>
			</trkpt>
			<trkpt lat="29.963603" lon="120.133469">
				<speed>0.437142</speed>
				<ele>534.000000</ele>
				<time>2025-02-04T02:57:52Z</time>
			</trkpt>
			<trkpt lat="29.963517" lon="120.133399">
				<speed>1.439877</speed>
				<ele>539.000000</ele>
				<time>2025-02-04T02:58:19Z</time>
			</trkpt>
			<trkpt lat="29.963428" lon="120.133364">
				<speed>0.827780</speed>
				<ele>541.000000</ele>
				<time>2025-02-04T02:58:33Z</time>
			</trkpt>
			<trkpt lat="29.963348" lon="120.133304">
				<speed>0.873416</speed>
				<ele>541.000000</ele>
				<time>2025-02-04T02:58:45Z</time>
			</trkpt>
			<trkpt lat="29.963300" lon="120.133209">
				<speed>0.997467</speed>
				<ele>541.000000</ele>
				<time>2025-02-04T02:58:56Z</time>
			</trkpt>
			<trkpt lat="29.963246" lon="120.133116">
				<speed>1.018828</speed>
				<ele>541.000000</ele>
				<time>2025-02-04T02:59:08Z</time>
			</trkpt>
			<trkpt lat="29.963200" lon="120.133025">
				<speed>0.412427</speed>
				<ele>543.000000</ele>
				<time>2025-02-04T02:59:18Z</time>
			</trkpt>
			<trkpt lat="29.963151" lon="120.132922">
				<speed>0.918138</speed>
				<ele>546.000000</ele>
				<time>2025-02-04T02:59:36Z</time>
			</trkpt>
			<trkpt lat="29.963095" lon="120.132840">
				<speed>0.695105</speed>
				<ele>548.000000</ele>
				<time>2025-02-04T02:59:47Z</time>
			</trkpt>
			<trkpt lat="29.963053" lon="120.132742">
				<speed>0.763332</speed>
				<ele>551.000000</ele>
				<time>2025-02-04T02:59:58Z</time>
			</trkpt>
			<trkpt lat="29.962995" lon="120.132655">
				<speed>1.087366</speed>
				<ele>551.000000</ele>
				<time>2025-02-04T03:00:08Z</time>
			</trkpt>
			<trkpt lat="29.962919" lon="120.132593">
				<speed>0.248475</speed>
				<ele>551.000000</ele>
				<time>2025-02-04T03:00:18Z</time>
			</trkpt>
			<trkpt lat="29.962871" lon="120.132495">
				<speed>1.162138</speed>
				<ele>552.000000</ele>
				<time>2025-02-04T03:00:27Z</time>
			</trkpt>
			<trkpt lat="29.962813" lon="120.132404">
				<speed>0.757072</speed>
				<ele>553.000000</ele>
				<time>2025-02-04T03:00:37Z</time>
			</trkpt>
			<trkpt lat="29.962750" lon="120.132318">
				<speed>1.028376</speed>
				<ele>556.000000</ele>
				<time>2025-02-04T03:00:47Z</time>
			</trkpt>
			<trkpt lat="29.962692" lon="120.132231">
				<speed>0.857910</speed>
				<ele>558.000000</ele>
				<time>2025-02-04T03:00:57Z</time>
			</trkpt>
			<trkpt lat="29.962633" lon="120.132148">
				<speed>0.535558</speed>
				<ele>562.000000</ele>
				<time>2025-02-04T03:01:09Z</time>
			</trkpt>
			<trkpt lat="29.962583" lon="120.132055">
				<speed>0.370424</speed>
				<ele>564.000000</ele>
				<time>2025-02-04T03:01:21Z</time>
			</trkpt>
			<trkpt lat="29.962523" lon="120.131973">
				<speed>0.594170</speed>
				<ele>567.000000</ele>
				<time>2025-02-04T03:01:32Z</time>
			</trkpt>
			<trkpt lat="29.962464" lon="120.131881">
				<speed>0.748460</speed>
				<ele>572.000000</ele>
				<time>2025-02-04T03:01:43Z</time>
			</trkpt>
			<trkpt lat="29.962404" lon="120.131796">
				<speed>0.723897</speed>
				<ele>576.000000</ele>
				<time>2025-02-04T03:01:54Z</time>
			</trkpt>
			<trkpt lat="29.962319" lon="120.131748">
				<speed>0.582669</speed>
				<ele>578.000000</ele>
				<time>2025-02-04T03:02:06Z</time>
			</trkpt>
			<trkpt lat="29.962234" lon="120.131694">
				<speed>0.981926</speed>
				<ele>579.000000</ele>
				<time>2025-02-04T03:02:16Z</time>
			</trkpt>
			<trkpt lat="29.962138" lon="120.131665">
				<speed>0.551833</speed>
				<ele>581.000000</ele>
				<time>2025-02-04T03:02:37Z</time>
			</trkpt>
			<trkpt lat="29.962044" lon="120.131640">
				<speed>0.761478</speed>
				<ele>583.000000</ele>
				<time>2025-02-04T03:02:49Z</time>
			</trkpt>
			<trkpt lat="29.961953" lon="120.131616">
				<speed>0.695636</speed>
				<ele>586.000000</ele>
				<time>2025-02-04T03:03:08Z</time>
			</trkpt>
			<trkpt lat="29.961864" lon="120.131592">
				<speed>0.387886</speed>
				<ele>589.000000</ele>
				<time>2025-02-04T03:03:34Z</time>
			</trkpt>
			<trkpt lat="29.961776" lon="120.131565">
				<speed>0.662290</speed>
				<ele>592.000000</ele>
				<time>2025-02-04T03:03:52Z</time>
			</trkpt>
			<trkpt lat="29.961711" lon="120.131493">
				<speed>0.870106</speed>
				<ele>595.000000</ele>
				<time>2025-02-04T03:04:05Z</time>
			</trkpt>
			<trkpt lat="29.961661" lon="120.131395">
				<speed>0.874635</speed>
				<ele>595.000000</ele>
				<time>2025-02-04T03:04:16Z</time>
			</trkpt>
			<trkpt lat="29.961607" lon="120.131308">
				<speed>0.556199</speed>
				<ele>592.000000</ele>
				<time>2025-02-04T03:04:29Z</time>
			</trkpt>
			<trkpt lat="29.961574" lon="120.131202">
				<speed>0.762607</speed>
				<ele>590.000000</ele>
				<time>2025-02-04T03:04:42Z</time>
			</trkpt>
			<trkpt lat="29.961531" lon="120.131109">
				<speed>0.209819</speed>
				<ele>587.000000</ele>
				<time>2025-02-04T03:04:56Z</time>
			</trkpt>
			<trkpt lat="29.961449" lon="120.131066">
				<speed>0.344616</speed>
				<ele>585.000000</ele>
				<time>2025-02-04T03:05:38Z</time>
			</trkpt>
			<trkpt lat="29.961371" lon="120.131009">
				<speed>0.353273</speed>
				<ele>577.000000</ele>
				<time>2025-02-04T03:05:57Z</time>
			</trkpt>
			<trkpt lat="29.961290" lon="120.130950">
				<speed>0.513609</speed>
				<ele>575.000000</ele>
				<time>2025-02-04T03:06:13Z</time>
			</trkpt>
			<trkpt lat="29.961239" lon="120.130861">
				<speed>0.917145</speed>
				<ele>574.000000</ele>
				<time>2025-02-04T03:06:22Z</time>
			</trkpt>
			<trkpt lat="29.961178" lon="120.130764">
				<speed>1.138562</speed>
				<ele>572.000000</ele>
				<time>2025-02-04T03:06:31Z</time>
			</trkpt>
			<trkpt lat="29.961121" lon="120.130674">
				<speed>0.793621</speed>
				<ele>573.000000</ele>
				<time>2025-02-04T03:06:41Z</time>
			</trkpt>
			<trkpt lat="29.961089" lon="120.130562">
				<speed>0.790934</speed>
				<ele>574.000000</ele>
				<time>2025-02-04T03:06:51Z</time>
			</trkpt>
			<trkpt lat="29.961038" lon="120.130465">
				<speed>0.817289</speed>
				<ele>574.000000</ele>
				<time>2025-02-04T03:07:01Z</time>
			</trkpt>
			<trkpt lat="29.960973" lon="120.130385">
				<speed>0.586281</speed>
				<ele>576.000000</ele>
				<time>2025-02-04T03:07:10Z</time>
			</trkpt>
			<trkpt lat="29.960914" lon="120.130301">
				<speed>0.746768</speed>
				<ele>579.000000</ele>
				<time>2025-02-04T03:07:20Z</time>
			</trkpt>
			<trkpt lat="29.960859" lon="120.130215">
				<speed>0.712109</speed>
				<ele>582.000000</ele>
				<time>2025-02-04T03:07:29Z</time>
			</trkpt>
			<trkpt lat="29.960773" lon="120.130159">
				<speed>0.599713</speed>
				<ele>585.000000</ele>
				<time>2025-02-04T03:07:41Z</time>
			</trkpt>
			<trkpt lat="29.960688" lon="120.130108">
				<speed>0.739963</speed>
				<ele>585.000000</ele>
				<time>2025-02-04T03:07:50Z</time>
			</trkpt>
			<trkpt lat="29.960604" lon="120.130056">
				<speed>0.813453</speed>
				<ele>587.000000</ele>
				<time>2025-02-04T03:08:00Z</time>
			</trkpt>
			<trkpt lat="29.960536" lon="120.129975">
				<speed>0.868839</speed>
				<ele>591.000000</ele>
				<time>2025-02-04T03:08:11Z</time>
			</trkpt>
			<trkpt lat="29.960514" lon="120.129870">
				<speed>0.362719</speed>
				<ele>590.000000</ele>
				<time>2025-02-04T03:08:24Z</time>
			</trkpt>
			<trkpt lat="29.960494" lon="120.129765">
				<speed>0.325685</speed>
				<ele>585.000000</ele>
				<time>2025-02-04T03:08:45Z</time>
			</trkpt>
			<trkpt lat="29.960508" lon="120.129661">
				<speed>0.566811</speed>
				<ele>582.000000</ele>
				<time>2025-02-04T03:09:07Z</time>
			</trkpt>
			<trkpt lat="29.960486" lon="120.129555">
				<speed>0.367610</speed>
				<ele>575.000000</ele>
				<time>2025-02-04T03:09:32Z</time>
			</trkpt>
			<trkpt lat="29.960460" lon="120.129454">
				<speed>0.501131</speed>
				<ele>567.000000</ele>
				<time>2025-02-04T03:09:56Z</time>
			</trkpt>
			<trkpt lat="29.960410" lon="120.129365">
				<speed>0.342014</speed>
				<ele>562.000000</ele>
				<time>2025-02-04T03:10:41Z</time>
			</trkpt>
			<trkpt lat="29.960362" lon="120.129271">
				<speed>0.663160</speed>
				<ele>557.000000</ele>
				<time>2025-02-04T03:10:55Z</time>
			</trkpt>
			<trkpt lat="29.960317" lon="120.129175">
				<speed>0.625278</speed>
				<ele>553.000000</ele>
				<time>2025-02-04T03:11:06Z</time>
			</trkpt>
			<trkpt lat="29.960306" lon="120.129071">
				<speed>1.057447</speed>
				<ele>551.000000</ele>
				<time>2025-02-04T03:11:14Z</time>
			</trkpt>
			<trkpt lat="29.960292" lon="120.128963">
				<speed>0.966631</speed>
				<ele>549.000000</ele>
				<time>2025-02-04T03:11:24Z</time>
			</trkpt>
			<trkpt lat="29.960271" lon="120.128849">
				<speed>1.002841</speed>
				<ele>548.000000</ele>
				<time>2025-02-04T03:11:33Z</time>
			</trkpt>
			<trkpt lat="29.960264" lon="120.128733">
				<speed>1.008719</speed>
				<ele>547.000000</ele>
				<time>2025-02-04T03:11:44Z</time>
			</trkpt>
			<trkpt lat="29.960230" lon="120.128622">
				<speed>1.156781</speed>
				<ele>547.000000</ele>
				<time>2025-02-04T03:11:55Z</time>
			</trkpt>
			<trkpt lat="29.960211" lon="120.128520">
				<speed>0.246664</speed>
				<ele>541.000000</ele>
				<time>2025-02-04T03:12:15Z</time>
			</trkpt>
			<trkpt lat="29.960189" lon="120.128410">
				<speed>0.874473</speed>
				<ele>538.000000</ele>
				<time>2025-02-04T03:12:28Z</time>
			</trkpt>
			<trkpt lat="29.960186" lon="120.128303">
				<speed>0.698253</speed>
				<ele>535.000000</ele>
				<time>2025-02-04T03:12:39Z</time>
			</trkpt>
			<trkpt lat="29.960186" lon="120.128198">
				<speed>0.493981</speed>
				<ele>532.000000</ele>
				<time>2025-02-04T03:12:52Z</time>
			</trkpt>
			<trkpt lat="29.960166" lon="120.128096">
				<speed>0.250470</speed>
				<ele>528.000000</ele>
				<time>2025-02-04T03:13:10Z</time>
			</trkpt>
			<trkpt lat="29.960121" lon="120.128004">
				<speed>0.846440</speed>
				<ele>522.000000</ele>
				<time>2025-02-04T03:13:31Z</time>
			</trkpt>
			<trkpt lat="29.960086" lon="120.127905">
				<speed>0.447631</speed>
				<ele>517.000000</ele>
				<time>2025-02-04T03:14:06Z</time>
			</trkpt>
			<trkpt lat="29.960035" lon="120.127817">
				<speed>0.196881</speed>
				<ele>512.000000</ele>
				<time>2025-02-04T03:14:58Z</time>
			</trkpt>
			<trkpt lat="29.960035" lon="120.127710">
				<speed>0.044312</speed>
				<ele>506.000000</ele>
				<time>2025-02-04T03:15:18Z</time>
			</trkpt>
			<trkpt lat="29.960046" lon="120.127600">
				<speed>0.409108</speed>
				<ele>500.000000</ele>
				<time>2025-02-04T03:15:38Z</time>
			</trkpt>
			<trkpt lat="29.960039" lon="120.127495">
				<speed>0.483549</speed>
				<ele>496.000000</ele>
				<time>2025-02-04T03:15:57Z</time>
			</trkpt>
			<trkpt lat="29.960023" lon="120.127387">
				<speed>0.452846</speed>
				<ele>491.000000</ele>
				<time>2025-02-04T03:16:16Z</time>
			</trkpt>
			<trkpt lat="29.960072" lon="120.127289">
				<speed>0.941130</speed>
				<ele>487.000000</ele>
				<time>2025-02-04T03:16:31Z</time>
			</trkpt>
			<trkpt lat="29.960096" lon="120.127182">
				<speed>0.663102</speed>
				<ele>487.000000</ele>
				<time>2025-02-04T03:16:41Z</time>
			</trkpt>
			<trkpt lat="29.960122" lon="120.127077">
				<speed>0.535389</speed>
				<ele>492.000000</ele>
				<time>2025-02-04T03:17:22Z</time>
			</trkpt>
			<trkpt lat="29.960138" lon="120.126968">
				<speed>0.528923</speed>
				<ele>498.000000</ele>
				<time>2025-02-04T03:17:47Z</time>
			</trkpt>
			<trkpt lat="29.960129" lon="120.126861">
				<speed>0.304443</speed>
				<ele>505.000000</ele>
				<time>2025-02-04T03:18:47Z</time>
			</trkpt>
			<trkpt lat="29.960111" lon="120.126755">
				<speed>0.554105</speed>
				<ele>509.000000</ele>
				<time>2025-02-04T03:19:07Z</time>
			</trkpt>
			<trkpt lat="29.960098" lon="120.126648">
				<speed>0.443462</speed>
				<ele>521.000000</ele>
				<time>2025-02-04T03:20:03Z</time>
			</trkpt>
			<trkpt lat="29.960124" lon="120.126542">
				<speed>0.277103</speed>
				<ele>525.000000</ele>
				<time>2025-02-04T03:20:27Z</time>
			</trkpt>
			<trkpt lat="29.960156" lon="120.126439">
				<speed>0.945432</speed>
				<ele>532.000000</ele>
				<time>2025-02-04T03:21:03Z</time>
			</trkpt>
			<trkpt lat="29.960229" lon="120.126370">
				<speed>0.450041</speed>
				<ele>539.000000</ele>
				<time>2025-02-04T03:21:39Z</time>
			</trkpt>
			<trkpt lat="29.960250" lon="120.126269">
				<speed>0.152922</speed>
				<ele>547.000000</ele>
				<time>2025-02-04T03:22:18Z</time>
			</trkpt>
			<trkpt lat="29.960296" lon="120.126179">
				<speed>0.582118</speed>
				<ele>555.000000</ele>
				<time>2025-02-04T03:22:56Z</time>
			</trkpt>
			<trkpt lat="29.960350" lon="120.126096">
				<speed>0.737477</speed>
				<ele>560.000000</ele>
				<time>2025-02-04T03:23:39Z</time>
			</trkpt>
			<trkpt lat="29.960389" lon="120.126000">
				<speed>0.292080</speed>
				<ele>563.000000</ele>
				<time>2025-02-04T03:24:14Z</time>
			</trkpt>
			<trkpt lat="29.960369" lon="120.125897">
				<speed>0.485967</speed>
				<ele>565.000000</ele>
				<time>2025-02-04T03:24:31Z</time>
			</trkpt>
			<trkpt lat="29.960326" lon="120.125798">
				<speed>0.948866</speed>
				<ele>565.000000</ele>
				<time>2025-02-04T03:24:41Z</time>
			</trkpt>
			<trkpt lat="29.960284" lon="120.125698">
				<speed>0.853600</speed>
				<ele>565.000000</ele>
				<time>2025-02-04T03:24:52Z</time>
			</trkpt>
			<trkpt lat="29.960240" lon="120.125607">
				<speed>0.723165</speed>
				<ele>565.000000</ele>
				<time>2025-02-04T03:25:02Z</time>
			</trkpt>
			<trkpt lat="29.960186" lon="120.125514">
				<speed>0.385457</speed>
				<ele>565.000000</ele>
				<time>2025-02-04T03:25:16Z</time>
			</trkpt>
			<trkpt lat="29.960132" lon="120.125429">
				<speed>0.854759</speed>
				<ele>564.000000</ele>
				<time>2025-02-04T03:25:27Z</time>
			</trkpt>
			<trkpt lat="29.960082" lon="120.125335">
				<speed>0.820018</speed>
				<ele>561.000000</ele>
				<time>2025-02-04T03:25:36Z</time>
			</trkpt>
			<trkpt lat="29.960036" lon="120.125240">
				<speed>0.800117</speed>
				<ele>563.000000</ele>
				<time>2025-02-04T03:25:48Z</time>
			</trkpt>
			<trkpt lat="29.959966" lon="120.125160">
				<speed>0.662564</speed>
				<ele>566.000000</ele>
				<time>2025-02-04T03:26:00Z</time>
			</trkpt>
			<trkpt lat="29.959912" lon="120.125071">
				<speed>0.784355</speed>
				<ele>566.000000</ele>
				<time>2025-02-04T03:26:11Z</time>
			</trkpt>
			<trkpt lat="29.959846" lon="120.124992">
				<speed>0.888987</speed>
				<ele>566.000000</ele>
				<time>2025-02-04T03:26:21Z</time>
			</trkpt>
			<trkpt lat="29.959792" lon="120.124894">
				<speed>1.097690</speed>
				<ele>566.000000</ele>
				<time>2025-02-04T03:26:31Z</time>
			</trkpt>
			<trkpt lat="29.959716" lon="120.124823">
				<speed>1.014068</speed>
				<ele>566.000000</ele>
				<time>2025-02-04T03:26:42Z</time>
			</trkpt>
			<trkpt lat="29.959642" lon="120.124746">
				<speed>0.924719</speed>
				<ele>565.000000</ele>
				<time>2025-02-04T03:26:52Z</time>
			</trkpt>
			<trkpt lat="29.959610" lon="120.124648">
				<speed>0.702062</speed>
				<ele>563.000000</ele>
				<time>2025-02-04T03:27:03Z</time>
			</trkpt>
			<trkpt lat="29.959564" lon="120.124551">
				<speed>0.832182</speed>
				<ele>558.000000</ele>
				<time>2025-02-04T03:27:19Z</time>
			</trkpt>
			<trkpt lat="29.959522" lon="120.124457">
				<speed>0.627643</speed>
				<ele>557.000000</ele>
				<time>2025-02-04T03:27:29Z</time>
			</trkpt>
			<trkpt lat="29.959487" lon="120.124344">
				<speed>0.960707</speed>
				<ele>556.000000</ele>
				<time>2025-02-04T03:27:47Z</time>
			</trkpt>
			<trkpt lat="29.959393" lon="120.124315">
				<speed>0.894332</speed>
				<ele>553.000000</ele>
				<time>2025-02-04T03:28:13Z</time>
			</trkpt>
			<trkpt lat="29.959308" lon="120.124253">
				<speed>1.208254</speed>
				<ele>551.000000</ele>
				<time>2025-02-04T03:28:25Z</time>
			</trkpt>
			<trkpt lat="29.959217" lon="120.124233">
				<speed>0.816749</speed>
				<ele>550.000000</ele>
				<time>2025-02-04T03:28:34Z</time>
			</trkpt>
			<trkpt lat="29.959139" lon="120.124177">
				<speed>1.297278</speed>
				<ele>550.000000</ele>
				<time>2025-02-04T03:28:41Z</time>
			</trkpt>
			<trkpt lat="29.959059" lon="120.124118">
				<speed>0.711935</speed>
				<ele>550.000000</ele>
				<time>2025-02-04T03:28:51Z</time>
			</trkpt>
			<trkpt lat="29.958988" lon="120.124036">
				<speed>0.786970</speed>
				<ele>550.000000</ele>
				<time>2025-02-04T03:29:02Z</time>
			</trkpt>
			<trkpt lat="29.958962" lon="120.123929">
				<speed>0.289204</speed>
				<ele>546.000000</ele>
				<time>2025-02-04T03:29:18Z</time>
			</trkpt>
			<trkpt lat="29.958925" lon="120.123825">
				<speed>0.594748</speed>
				<ele>542.000000</ele>
				<time>2025-02-04T03:29:44Z</time>
			</trkpt>
			<trkpt lat="29.958894" lon="120.123725">
				<speed>0.644024</speed>
				<ele>537.000000</ele>
				<time>2025-02-04T03:30:02Z</time>
			</trkpt>
			<trkpt lat="29.958847" lon="120.123622">
				<speed>0.778424</speed>
				<ele>534.000000</ele>
				<time>2025-02-04T03:30:16Z</time>
			</trkpt>
			<trkpt lat="29.958811" lon="120.123525">
				<speed>0.381388</speed>
				<ele>532.000000</ele>
				<time>2025-02-04T03:30:26Z</time>
			</trkpt>
			<trkpt lat="29.958763" lon="120.123436">
				<speed>0.138315</speed>
				<ele>531.000000</ele>
				<time>2025-02-04T03:30:36Z</time>
			</trkpt>
			<trkpt lat="29.958711" lon="120.123348">
				<speed>0.758309</speed>
				<ele>530.000000</ele>
				<time>2025-02-04T03:31:12Z</time>
			</trkpt>
			<trkpt lat="29.958641" lon="120.123276">
				<speed>0.907608</speed>
				<ele>527.000000</ele>
				<time>2025-02-04T03:31:25Z</time>
			</trkpt>
			<trkpt lat="29.958576" lon="120.123200">
				<speed>0.619719</speed>
				<ele>526.000000</ele>
				<time>2025-02-04T03:31:35Z</time>
			</trkpt>
			<trkpt lat="29.958515" lon="120.123108">
				<speed>0.703575</speed>
				<ele>526.000000</ele>
				<time>2025-02-04T03:31:45Z</time>
			</trkpt>
			<trkpt lat="29.958463" lon="120.123017">
				<speed>0.915561</speed>
				<ele>525.000000</ele>
				<time>2025-02-04T03:31:53Z</time>
			</trkpt>
			<trkpt lat="29.958406" lon="120.122931">
				<speed>0.959335</speed>
				<ele>522.000000</ele>
				<time>2025-02-04T03:32:05Z</time>
			</trkpt>
			<trkpt lat="29.958391" lon="120.122826">
				<speed>1.448658</speed>
				<ele>520.000000</ele>
				<time>2025-02-04T03:32:22Z</time>
			</trkpt>
			<trkpt lat="29.958317" lon="120.122761">
				<speed>1.196625</speed>
				<ele>517.000000</ele>
				<time>2025-02-04T03:32:43Z</time>
			</trkpt>
			<trkpt lat="29.958278" lon="120.122661">
				<speed>0.483455</speed>
				<ele>514.000000</ele>
				<time>2025-02-04T03:33:04Z</time>
			</trkpt>
			<trkpt lat="29.958235" lon="120.122564">
				<speed>1.026129</speed>
				<ele>507.000000</ele>
				<time>2025-02-04T03:33:20Z</time>
			</trkpt>
			<trkpt lat="29.958186" lon="120.122468">
				<speed>0.906676</speed>
				<ele>506.000000</ele>
				<time>2025-02-04T03:33:33Z</time>
			</trkpt>
			<trkpt lat="29.958127" lon="120.122376">
				<speed>1.110814</speed>
				<ele>507.000000</ele>
				<time>2025-02-04T03:33:41Z</time>
			</trkpt>
			<trkpt lat="29.958057" lon="120.122305">
				<speed>0.842529</speed>
				<ele>507.000000</ele>
				<time>2025-02-04T03:33:51Z</time>
			</trkpt>
			<trkpt lat="29.958032" lon="120.122203">
				<speed>0.267413</speed>
				<ele>511.000000</ele>
				<time>2025-02-04T03:34:29Z</time>
			</trkpt>
			<trkpt lat="29.958068" lon="120.122104">
				<speed>1.020426</speed>
				<ele>514.000000</ele>
				<time>2025-02-04T03:34:44Z</time>
			</trkpt>
			<trkpt lat="29.958092" lon="120.121998">
				<speed>0.583264</speed>
				<ele>522.000000</ele>
				<time>2025-02-04T03:35:27Z</time>
			</trkpt>
			<trkpt lat="29.958046" lon="120.121907">
				<speed>0.561876</speed>
				<ele>526.000000</ele>
				<time>2025-02-04T03:35:52Z</time>
			</trkpt>
			<trkpt lat="29.958011" lon="120.121807">
				<speed>0.422721</speed>
				<ele>533.000000</ele>
				<time>2025-02-04T03:36:29Z</time>
			</trkpt>
			<trkpt lat="29.957954" lon="120.121723">
				<speed>0.297346</speed>
				<ele>538.000000</ele>
				<time>2025-02-04T03:36:45Z</time>
			</trkpt>
			<trkpt lat="29.957903" lon="120.121633">
				<speed>0.267364</speed>
				<ele>544.000000</ele>
				<time>2025-02-04T03:37:05Z</time>
			</trkpt>
			<trkpt lat="29.957883" lon="120.121529">
				<speed>0.429802</speed>
				<ele>550.000000</ele>
				<time>2025-02-04T03:37:36Z</time>
			</trkpt>
			<trkpt lat="29.957880" lon="120.121419">
				<speed>0.703162</speed>
				<ele>553.000000</ele>
				<time>2025-02-04T03:38:00Z</time>
			</trkpt>
			<trkpt lat="29.957820" lon="120.121340">
				<speed>0.322273</speed>
				<ele>559.000000</ele>
				<time>2025-02-04T03:39:02Z</time>
			</trkpt>
			<trkpt lat="29.957749" lon="120.121274">
				<speed>0.778920</speed>
				<ele>562.000000</ele>
				<time>2025-02-04T03:39:27Z</time>
			</trkpt>
			<trkpt lat="29.957685" lon="120.121193">
				<speed>0.382411</speed>
				<ele>570.000000</ele>
				<time>2025-02-04T03:40:12Z</time>
			</trkpt>
			<trkpt lat="29.957604" lon="120.121144">
				<speed>0.165827</speed>
				<ele>578.000000</ele>
				<time>2025-02-04T03:41:02Z</time>
			</trkpt>
			<trkpt lat="29.957539" lon="120.121063">
				<speed>0.597612</speed>
				<ele>585.000000</ele>
				<time>2025-02-04T03:41:30Z</time>
			</trkpt>
			<trkpt lat="29.957514" lon="120.120961">
				<speed>0.776670</speed>
				<ele>595.000000</ele>
				<time>2025-02-04T03:42:33Z</time>
			</trkpt>
			<trkpt lat="29.957458" lon="120.120879">
				<speed>0.032092</speed>
				<ele>596.000000</ele>
				<time>2025-02-04T03:42:56Z</time>
			</trkpt>
			<trkpt lat="29.957486" lon="120.120780">
				<speed>1.456699</speed>
				<ele>599.000000</ele>
				<time>2025-02-04T03:43:12Z</time>
			</trkpt>
			<trkpt lat="29.957455" lon="120.120681">
				<speed>0.200312</speed>
				<ele>606.000000</ele>
				<time>2025-02-04T03:45:08Z</time>
			</trkpt>
			<trkpt lat="29.957408" lon="120.120589">
				<speed>0.377724</speed>
				<ele>607.000000</ele>
				<time>2025-02-04T03:45:41Z</time>
			</trkpt>
			<trkpt lat="29.957380" lon="120.120489">
				<speed>0.327409</speed>
				<ele>611.000000</ele>
				<time>2025-02-04T03:46:08Z</time>
			</trkpt>
			<trkpt lat="29.957311" lon="120.120415">
				<speed>0.450505</speed>
				<ele>615.000000</ele>
				<time>2025-02-04T03:46:31Z</time>
			</trkpt>
			<trkpt lat="29.957250" lon="120.120337">
				<speed>0.467287</speed>
				<ele>620.000000</ele>
				<time>2025-02-04T03:46:56Z</time>
			</trkpt>
			<trkpt lat="29.957161" lon="120.120304">
				<speed>0.610458</speed>
				<ele>621.000000</ele>
				<time>2025-02-04T03:47:13Z</time>
			</trkpt>
			<trkpt lat="29.957094" lon="120.120227">
				<speed>0.467483</speed>
				<ele>622.000000</ele>
				<time>2025-02-04T03:47:43Z</time>
			</trkpt>
			<trkpt lat="29.957018" lon="120.120171">
				<speed>0.684633</speed>
				<ele>624.000000</ele>
				<time>2025-02-04T03:48:10Z</time>
			</trkpt>
			<trkpt lat="29.956950" lon="120.120101">
				<speed>0.756045</speed>
				<ele>631.000000</ele>
				<time>2025-02-04T03:48:28Z</time>
			</trkpt>
			<trkpt lat="29.956871" lon="120.120047">
				<speed>0.450339</speed>
				<ele>637.000000</ele>
				<time>2025-02-04T03:48:48Z</time>
			</trkpt>
			<trkpt lat="29.956789" lon="120.119984">
				<speed>0.947484</speed>
				<ele>637.000000</ele>
				<time>2025-02-04T03:49:02Z</time>
			</trkpt>
			<trkpt lat="29.956718" lon="120.119917">
				<speed>0.477967</speed>
				<ele>642.000000</ele>
				<time>2025-02-04T03:49:27Z</time>
			</trkpt>
			<trkpt lat="29.956653" lon="120.119845">
				<speed>0.437735</speed>
				<ele>647.000000</ele>
				<time>2025-02-04T03:49:47Z</time>
			</trkpt>
			<trkpt lat="29.956600" lon="120.119756">
				<speed>0.403754</speed>
				<ele>652.000000</ele>
				<time>2025-02-04T03:51:54Z</time>
			</trkpt>
			<trkpt lat="29.956530" lon="120.119684">
				<speed>0.490403</speed>
				<ele>657.000000</ele>
				<time>2025-02-04T03:53:08Z</time>
			</trkpt>
			<trkpt lat="29.956536" lon="120.119579">
				<speed>0.657210</speed>
				<ele>662.000000</ele>
				<time>2025-02-04T03:53:34Z</time>
			</trkpt>
			<trkpt lat="29.956587" lon="120.119493">
				<speed>0.738695</speed>
				<ele>656.000000</ele>
				<time>2025-02-04T03:53:48Z</time>
			</trkpt>
			<trkpt lat="29.956608" lon="120.119391">
				<speed>0.759432</speed>
				<ele>653.000000</ele>
				<time>2025-02-04T03:54:08Z</time>
			</trkpt>
			<trkpt lat="29.956634" lon="120.119286">
				<speed>0.752079</speed>
				<ele>649.000000</ele>
				<time>2025-02-04T03:54:22Z</time>
			</trkpt>
			<trkpt lat="29.956671" lon="120.119191">
				<speed>0.821740</speed>
				<ele>649.000000</ele>
				<time>2025-02-04T03:54:31Z</time>
			</trkpt>
			<trkpt lat="29.956697" lon="120.119090">
				<speed>0.989596</speed>
				<ele>649.000000</ele>
				<time>2025-02-04T03:54:41Z</time>
			</trkpt>
			<trkpt lat="29.956708" lon="120.118983">
				<speed>0.443659</speed>
				<ele>644.000000</ele>
				<time>2025-02-04T03:54:57Z</time>
			</trkpt>
			<trkpt lat="29.956689" lon="120.118880">
				<speed>0.484624</speed>
				<ele>639.000000</ele>
				<time>2025-02-04T03:55:12Z</time>
			</trkpt>
			<trkpt lat="29.956678" lon="120.118770">
				<speed>0.552317</speed>
				<ele>637.000000</ele>
				<time>2025-02-04T03:55:26Z</time>
			</trkpt>
			<trkpt lat="29.956673" lon="120.118658">
				<speed>0.997774</speed>
				<ele>635.000000</ele>
				<time>2025-02-04T03:55:36Z</time>
			</trkpt>
			<trkpt lat="29.956657" lon="120.118547">
				<speed>1.027541</speed>
				<ele>636.000000</ele>
				<time>2025-02-04T03:55:44Z</time>
			</trkpt>
			<trkpt lat="29.956644" lon="120.118434">
				<speed>1.437910</speed>
				<ele>636.000000</ele>
				<time>2025-02-04T03:55:52Z</time>
			</trkpt>
			<trkpt lat="29.956598" lon="120.118342">
				<speed>0.399744</speed>
				<ele>632.000000</ele>
				<time>2025-02-04T03:56:07Z</time>
			</trkpt>
			<trkpt lat="29.956543" lon="120.118251">
				<speed>0.640489</speed>
				<ele>627.000000</ele>
				<time>2025-02-04T03:56:22Z</time>
			</trkpt>
			<trkpt lat="29.956495" lon="120.118159">
				<speed>0.776298</speed>
				<ele>625.000000</ele>
				<time>2025-02-04T03:56:31Z</time>
			</trkpt>
			<trkpt lat="29.956451" lon="120.118061">
				<speed>0.770811</speed>
				<ele>624.000000</ele>
				<time>2025-02-04T03:56:39Z</time>
			</trkpt>
			<trkpt lat="29.956403" lon="120.117972">
				<speed>1.051047</speed>
				<ele>624.000000</ele>
				<time>2025-02-04T03:56:46Z</time>
			</trkpt>
			<trkpt lat="29.956351" lon="120.117883">
				<speed>1.160843</speed>
				<ele>624.000000</ele>
				<time>2025-02-04T03:56:54Z</time>
			</trkpt>
			<trkpt lat="29.956297" lon="120.117795">
				<speed>1.245570</speed>
				<ele>622.000000</ele>
				<time>2025-02-04T03:57:02Z</time>
			</trkpt>
			<trkpt lat="29.956249" lon="120.117706">
				<speed>1.188030</speed>
				<ele>621.000000</ele>
				<time>2025-02-04T03:57:10Z</time>
			</trkpt>
			<trkpt lat="29.956210" lon="120.117611">
				<speed>1.131782</speed>
				<ele>621.000000</ele>
				<time>2025-02-04T03:57:18Z</time>
			</trkpt>
			<trkpt lat="29.956163" lon="120.117519">
				<speed>0.782635</speed>
				<ele>622.000000</ele>
				<time>2025-02-04T03:57:26Z</time>
			</trkpt>
			<trkpt lat="29.956142" lon="120.117408">
				<speed>0.835080</speed>
				<ele>625.000000</ele>
				<time>2025-02-04T03:57:35Z</time>
			</trkpt>
			<trkpt lat="29.956144" lon="120.117303">
				<speed>0.624944</speed>
				<ele>627.000000</ele>
				<time>2025-02-04T03:57:44Z</time>
			</trkpt>
			<trkpt lat="29.956158" lon="120.117201">
				<speed>0.849200</speed>
				<ele>630.000000</ele>
				<time>2025-02-04T03:57:52Z</time>
			</trkpt>
			<trkpt lat="29.956166" lon="120.117094">
				<speed>0.934545</speed>
				<ele>630.000000</ele>
				<time>2025-02-04T03:58:02Z</time>
			</trkpt>
			<trkpt lat="29.956198" lon="120.116993">
				<speed>0.395664</speed>
				<ele>631.000000</ele>
				<time>2025-02-04T03:58:24Z</time>
			</trkpt>
			<trkpt lat="29.956226" lon="120.116891">
				<speed>0.627432</speed>
				<ele>627.000000</ele>
				<time>2025-02-04T03:58:50Z</time>
			</trkpt>
			<trkpt lat="29.956250" lon="120.116781">
				<speed>0.938651</speed>
				<ele>624.000000</ele>
				<time>2025-02-04T03:59:08Z</time>
			</trkpt>
			<trkpt lat="29.956272" lon="120.116672">
				<speed>0.892315</speed>
				<ele>625.000000</ele>
				<time>2025-02-04T03:59:19Z</time>
			</trkpt>
			<trkpt lat="29.956277" lon="120.116566">
				<speed>0.927968</speed>
				<ele>626.000000</ele>
				<time>2025-02-04T03:59:29Z</time>
			</trkpt>
			<trkpt lat="29.956282" lon="120.116460">
				<speed>1.036229</speed>
				<ele>626.000000</ele>
				<time>2025-02-04T03:59:39Z</time>
			</trkpt>
			<trkpt lat="29.956311" lon="120.116359">
				<speed>1.387600</speed>
				<ele>624.000000</ele>
				<time>2025-02-04T03:59:47Z</time>
			</trkpt>
			<trkpt lat="29.956335" lon="120.116250">
				<speed>0.977807</speed>
				<ele>618.000000</ele>
				<time>2025-02-04T03:59:56Z</time>
			</trkpt>
			<trkpt lat="29.956363" lon="120.116141">
				<speed>1.259491</speed>
				<ele>616.000000</ele>
				<time>2025-02-04T04:00:04Z</time>
			</trkpt>
			<trkpt lat="29.956348" lon="120.116032">
				<speed>1.193923</speed>
				<ele>616.000000</ele>
				<time>2025-02-04T04:00:13Z</time>
			</trkpt>
			<trkpt lat="29.956342" lon="120.115919">
				<speed>1.040110</speed>
				<ele>615.000000</ele>
				<time>2025-02-04T04:00:25Z</time>
			</trkpt>
			<trkpt lat="29.956360" lon="120.115817">
				<speed>1.242394</speed>
				<ele>614.000000</ele>
				<time>2025-02-04T04:00:33Z</time>
			</trkpt>
			<trkpt lat="29.956370" lon="120.115700">
				<speed>0.978997</speed>
				<ele>615.000000</ele>
				<time>2025-02-04T04:00:47Z</time>
			</trkpt>
			<trkpt lat="29.956389" lon="120.115590">
				<speed>0.842755</speed>
				<ele>615.000000</ele>
				<time>2025-02-04T04:00:58Z</time>
			</trkpt>
			<trkpt lat="29.956406" lon="120.115477">
				<speed>0.942779</speed>
				<ele>617.000000</ele>
				<time>2025-02-04T04:01:10Z</time>
			</trkpt>
			<trkpt lat="29.956436" lon="120.115379">
				<speed>0.476500</speed>
				<ele>616.000000</ele>
				<time>2025-02-04T04:01:22Z</time>
			</trkpt>
			<trkpt lat="29.956476" lon="120.115473">
				<speed>0.468373</speed>
				<ele>612.000000</ele>
				<time>2025-02-04T04:05:27Z</time>
			</trkpt>
			<trkpt lat="29.956553" lon="120.115536">
				<speed>0.602469</speed>
				<ele>604.000000</ele>
				<time>2025-02-04T04:05:45Z</time>
			</trkpt>
			<trkpt lat="29.956605" lon="120.115630">
				<speed>0.920992</speed>
				<ele>601.000000</ele>
				<time>2025-02-04T04:06:01Z</time>
			</trkpt>
			<trkpt lat="29.956682" lon="120.115689">
				<speed>0.884716</speed>
				<ele>592.000000</ele>
				<time>2025-02-04T04:06:18Z</time>
			</trkpt>
			<trkpt lat="29.956758" lon="120.115757">
				<speed>0.809185</speed>
				<ele>590.000000</ele>
				<time>2025-02-04T04:06:32Z</time>
			</trkpt>
			<trkpt lat="29.956794" lon="120.115856">
				<speed>0.478680</speed>
				<ele>583.000000</ele>
				<time>2025-02-04T04:06:48Z</time>
			</trkpt>
			<trkpt lat="29.956869" lon="120.115924">
				<speed>0.600971</speed>
				<ele>578.000000</ele>
				<time>2025-02-04T04:07:07Z</time>
			</trkpt>
			<trkpt lat="29.956949" lon="120.115992">
				<speed>0.754250</speed>
				<ele>570.000000</ele>
				<time>2025-02-04T04:07:41Z</time>
			</trkpt>
			<trkpt lat="29.957025" lon="120.116054">
				<speed>0.573804</speed>
				<ele>566.000000</ele>
				<time>2025-02-04T04:07:59Z</time>
			</trkpt>
			<trkpt lat="29.957095" lon="120.116131">
				<speed>0.426468</speed>
				<ele>561.000000</ele>
				<time>2025-02-04T04:08:15Z</time>
			</trkpt>
			<trkpt lat="29.957151" lon="120.116216">
				<speed>0.493158</speed>
				<ele>556.000000</ele>
				<time>2025-02-04T04:08:30Z</time>
			</trkpt>
			<trkpt lat="29.957231" lon="120.116269">
				<speed>0.315799</speed>
				<ele>552.000000</ele>
				<time>2025-02-04T04:08:46Z</time>
			</trkpt>
			<trkpt lat="29.957310" lon="120.116332">
				<speed>0.736665</speed>
				<ele>548.000000</ele>
				<time>2025-02-04T04:09:09Z</time>
			</trkpt>
			<trkpt lat="29.957394" lon="120.116388">
				<speed>0.435436</speed>
				<ele>542.000000</ele>
				<time>2025-02-04T04:09:27Z</time>
			</trkpt>
			<trkpt lat="29.957459" lon="120.116460">
				<speed>0.626320</speed>
				<ele>540.000000</ele>
				<time>2025-02-04T04:09:40Z</time>
			</trkpt>
			<trkpt lat="29.957553" lon="120.116496">
				<speed>0.412254</speed>
				<ele>535.000000</ele>
				<time>2025-02-04T04:09:57Z</time>
			</trkpt>
			<trkpt lat="29.957641" lon="120.116541">
				<speed>0.413188</speed>
				<ele>530.000000</ele>
				<time>2025-02-04T04:10:14Z</time>
			</trkpt>
			<trkpt lat="29.957709" lon="120.116628">
				<speed>0.810118</speed>
				<ele>526.000000</ele>
				<time>2025-02-04T04:10:28Z</time>
			</trkpt>
			<trkpt lat="29.957789" lon="120.116680">
				<speed>0.683000</speed>
				<ele>522.000000</ele>
				<time>2025-02-04T04:10:44Z</time>
			</trkpt>
			<trkpt lat="29.957868" lon="120.116735">
				<speed>0.371851</speed>
				<ele>519.000000</ele>
				<time>2025-02-04T04:10:58Z</time>
			</trkpt>
			<trkpt lat="29.957949" lon="120.116793">
				<speed>0.386666</speed>
				<ele>514.000000</ele>
				<time>2025-02-04T04:11:13Z</time>
			</trkpt>
			<trkpt lat="29.958036" lon="120.116829">
				<speed>0.407956</speed>
				<ele>510.000000</ele>
				<time>2025-02-04T04:11:29Z</time>
			</trkpt>
			<trkpt lat="29.958093" lon="120.116909">
				<speed>0.553250</speed>
				<ele>506.000000</ele>
				<time>2025-02-04T04:11:44Z</time>
			</trkpt>
			<trkpt lat="29.958185" lon="120.116890">
				<speed>0.037318</speed>
				<ele>507.000000</ele>
				<time>2025-02-04T04:12:12Z</time>
			</trkpt>
			<trkpt lat="29.958270" lon="120.116937">
				<speed>0.476578</speed>
				<ele>500.000000</ele>
				<time>2025-02-04T04:13:33Z</time>
			</trkpt>
			<trkpt lat="29.958364" lon="120.116946">
				<speed>0.570150</speed>
				<ele>501.000000</ele>
				<time>2025-02-04T04:13:54Z</time>
			</trkpt>
			<trkpt lat="29.958460" lon="120.116941">
				<speed>0.326362</speed>
				<ele>497.000000</ele>
				<time>2025-02-04T04:14:14Z</time>
			</trkpt>
			<trkpt lat="29.958552" lon="120.116951">
				<speed>0.845427</speed>
				<ele>492.000000</ele>
				<time>2025-02-04T04:14:25Z</time>
			</trkpt>
			<trkpt lat="29.958628" lon="120.117032">
				<speed>0.720132</speed>
				<ele>490.000000</ele>
				<time>2025-02-04T04:14:38Z</time>
			</trkpt>
			<trkpt lat="29.958697" lon="120.117108">
				<speed>0.674989</speed>
				<ele>486.000000</ele>
				<time>2025-02-04T04:14:50Z</time>
			</trkpt>
			<trkpt lat="29.958786" lon="120.117128">
				<speed>0.099996</speed>
				<ele>487.000000</ele>
				<time>2025-02-04T04:15:00Z</time>
			</trkpt>
			<trkpt lat="29.958879" lon="120.117135">
				<speed>1.117373</speed>
				<ele>489.000000</ele>
				<time>2025-02-04T04:15:19Z</time>
			</trkpt>
			<trkpt lat="29.958971" lon="120.117119">
				<speed>0.205853</speed>
				<ele>480.000000</ele>
				<time>2025-02-04T04:15:40Z</time>
			</trkpt>
			<trkpt lat="29.959028" lon="120.117203">
				<speed>0.488048</speed>
				<ele>475.000000</ele>
				<time>2025-02-04T04:15:54Z</time>
			</trkpt>
			<trkpt lat="29.959119" lon="120.117232">
				<speed>1.082875</speed>
				<ele>475.000000</ele>
				<time>2025-02-04T04:16:10Z</time>
			</trkpt>
			<trkpt lat="29.959210" lon="120.117281">
				<speed>0.825881</speed>
				<ele>474.000000</ele>
				<time>2025-02-04T04:16:22Z</time>
			</trkpt>
			<trkpt lat="29.959286" lon="120.117344">
				<speed>0.679757</speed>
				<ele>471.000000</ele>
				<time>2025-02-04T04:16:33Z</time>
			</trkpt>
			<trkpt lat="29.959356" lon="120.117413">
				<speed>0.918700</speed>
				<ele>469.000000</ele>
				<time>2025-02-04T04:16:41Z</time>
			</trkpt>
			<trkpt lat="29.959447" lon="120.117458">
				<speed>1.270362</speed>
				<ele>467.000000</ele>
				<time>2025-02-04T04:16:49Z</time>
			</trkpt>
			<trkpt lat="29.959533" lon="120.117510">
				<speed>1.182738</speed>
				<ele>467.000000</ele>
				<time>2025-02-04T04:17:01Z</time>
			</trkpt>
			<trkpt lat="29.959616" lon="120.117565">
				<speed>0.961301</speed>
				<ele>464.000000</ele>
				<time>2025-02-04T04:17:11Z</time>
			</trkpt>
			<trkpt lat="29.959698" lon="120.117614">
				<speed>0.632479</speed>
				<ele>461.000000</ele>
				<time>2025-02-04T04:17:24Z</time>
			</trkpt>
			<trkpt lat="29.959783" lon="120.117663">
				<speed>0.534640</speed>
				<ele>461.000000</ele>
				<time>2025-02-04T04:17:37Z</time>
			</trkpt>
			<trkpt lat="29.959713" lon="120.117748">
				<speed>0.934358</speed>
				<ele>456.000000</ele>
				<time>2025-02-04T04:17:57Z</time>
			</trkpt>
			<trkpt lat="29.959783" lon="120.117815">
				<speed>0.124597</speed>
				<ele>452.000000</ele>
				<time>2025-02-04T04:18:10Z</time>
			</trkpt>
			<trkpt lat="29.959739" lon="120.117906">
				<speed>0.349555</speed>
				<ele>445.000000</ele>
				<time>2025-02-04T04:18:45Z</time>
			</trkpt>
			<trkpt lat="29.959804" lon="120.117983">
				<speed>0.551090</speed>
				<ele>439.000000</ele>
				<time>2025-02-04T04:19:10Z</time>
			</trkpt>
			<trkpt lat="29.959849" lon="120.118075">
				<speed>0.476737</speed>
				<ele>436.000000</ele>
				<time>2025-02-04T04:19:48Z</time>
			</trkpt>
			<trkpt lat="29.959886" lon="120.118172">
				<speed>0.399531</speed>
				<ele>430.000000</ele>
				<time>2025-02-04T04:20:10Z</time>
			</trkpt>
			<trkpt lat="29.959835" lon="120.118267">
				<speed>0.727384</speed>
				<ele>426.000000</ele>
				<time>2025-02-04T04:20:38Z</time>
			</trkpt>
			<trkpt lat="29.959878" lon="120.118361">
				<speed>0.522080</speed>
				<ele>420.000000</ele>
				<time>2025-02-04T04:20:58Z</time>
			</trkpt>
			<trkpt lat="29.959939" lon="120.118443">
				<speed>0.495900</speed>
				<ele>417.000000</ele>
				<time>2025-02-04T04:21:23Z</time>
			</trkpt>
			<trkpt lat="29.959987" lon="120.118538">
				<speed>0.917614</speed>
				<ele>414.000000</ele>
				<time>2025-02-04T04:21:40Z</time>
			</trkpt>
			<trkpt lat="29.960019" lon="120.118639">
				<speed>0.672844</speed>
				<ele>407.000000</ele>
				<time>2025-02-04T04:22:03Z</time>
			</trkpt>
			<trkpt lat="29.960088" lon="120.118715">
				<speed>0.516240</speed>
				<ele>404.000000</ele>
				<time>2025-02-04T04:22:21Z</time>
			</trkpt>
			<trkpt lat="29.960142" lon="120.118798">
				<speed>0.386283</speed>
				<ele>400.000000</ele>
				<time>2025-02-04T04:22:47Z</time>
			</trkpt>
			<trkpt lat="29.960197" lon="120.118892">
				<speed>1.067671</speed>
				<ele>395.000000</ele>
				<time>2025-02-04T04:23:07Z</time>
			</trkpt>
			<trkpt lat="29.960277" lon="120.118960">
				<speed>0.669112</speed>
				<ele>388.000000</ele>
				<time>2025-02-04T04:23:24Z</time>
			</trkpt>
			<trkpt lat="29.960356" lon="120.119022">
				<speed>0.408739</speed>
				<ele>386.000000</ele>
				<time>2025-02-04T04:23:37Z</time>
			</trkpt>
			<trkpt lat="29.960445" lon="120.119041">
				<speed>0.361467</speed>
				<ele>383.000000</ele>
				<time>2025-02-04T04:23:59Z</time>
			</trkpt>
			<trkpt lat="29.960545" lon="120.119084">
				<speed>1.518653</speed>
				<ele>376.000000</ele>
				<time>2025-02-04T04:24:29Z</time>
			</trkpt>
			<trkpt lat="29.960639" lon="120.119104">
				<speed>0.407757</speed>
				<ele>371.000000</ele>
				<time>2025-02-04T04:24:45Z</time>
			</trkpt>
			<trkpt lat="29.960726" lon="120.119138">
				<speed>0.402206</speed>
				<ele>371.000000</ele>
				<time>2025-02-04T04:24:58Z</time>
			</trkpt>
			<trkpt lat="29.960758" lon="120.119241">
				<speed>0.531387</speed>
				<ele>365.000000</ele>
				<time>2025-02-04T04:25:22Z</time>
			</trkpt>
			<trkpt lat="29.960829" lon="120.119309">
				<speed>0.521893</speed>
				<ele>360.000000</ele>
				<time>2025-02-04T04:25:59Z</time>
			</trkpt>
			<trkpt lat="29.960918" lon="120.119329">
				<speed>0.292878</speed>
				<ele>355.000000</ele>
				<time>2025-02-04T04:26:16Z</time>
			</trkpt>
			<trkpt lat="29.961004" lon="120.119372">
				<speed>0.315827</speed>
				<ele>351.000000</ele>
				<time>2025-02-04T04:26:31Z</time>
			</trkpt>
			<trkpt lat="29.961073" lon="120.119442">
				<speed>0.339433</speed>
				<ele>345.000000</ele>
				<time>2025-02-04T04:26:49Z</time>
			</trkpt>
			<trkpt lat="29.961156" lon="120.119502">
				<speed>0.512153</speed>
				<ele>344.000000</ele>
				<time>2025-02-04T04:27:04Z</time>
			</trkpt>
			<trkpt lat="29.961192" lon="120.119600">
				<speed>0.200578</speed>
				<ele>341.000000</ele>
				<time>2025-02-04T04:27:32Z</time>
			</trkpt>
			<trkpt lat="29.961274" lon="120.119653">
				<speed>0.281737</speed>
				<ele>337.000000</ele>
				<time>2025-02-04T04:27:54Z</time>
			</trkpt>
			<trkpt lat="29.961342" lon="120.119728">
				<speed>0.352735</speed>
				<ele>331.000000</ele>
				<time>2025-02-04T04:28:31Z</time>
			</trkpt>
			<trkpt lat="29.961404" lon="120.119804">
				<speed>0.673491</speed>
				<ele>323.000000</ele>
				<time>2025-02-04T04:28:50Z</time>
			</trkpt>
			<trkpt lat="29.961454" lon="120.119891">
				<speed>0.280121</speed>
				<ele>320.000000</ele>
				<time>2025-02-04T04:29:05Z</time>
			</trkpt>
			<trkpt lat="29.961474" lon="120.119995">
				<speed>0.347237</speed>
				<ele>315.000000</ele>
				<time>2025-02-04T04:29:21Z</time>
			</trkpt>
			<trkpt lat="29.961493" lon="120.120101">
				<speed>0.575837</speed>
				<ele>309.000000</ele>
				<time>2025-02-04T04:29:39Z</time>
			</trkpt>
			<trkpt lat="29.961586" lon="120.120128">
				<speed>0.214680</speed>
				<ele>306.000000</ele>
				<time>2025-02-04T04:29:58Z</time>
			</trkpt>
			<trkpt lat="29.961679" lon="120.120136">
				<speed>0.095991</speed>
				<ele>304.000000</ele>
				<time>2025-02-04T04:30:16Z</time>
			</trkpt>
			<trkpt lat="29.961767" lon="120.120167">
				<speed>0.433980</speed>
				<ele>300.000000</ele>
				<time>2025-02-04T04:30:53Z</time>
			</trkpt>
			<trkpt lat="29.961858" lon="120.120152">
				<speed>0.407451</speed>
				<ele>296.000000</ele>
				<time>2025-02-04T04:31:07Z</time>
			</trkpt>
			<trkpt lat="29.961948" lon="120.120116">
				<speed>0.501937</speed>
				<ele>293.000000</ele>
				<time>2025-02-04T04:31:22Z</time>
			</trkpt>
			<trkpt lat="29.962044" lon="120.120149">
				<speed>0.634208</speed>
				<ele>291.000000</ele>
				<time>2025-02-04T04:31:40Z</time>
			</trkpt>
			<trkpt lat="29.962133" lon="120.120162">
				<speed>0.531172</speed>
				<ele>288.000000</ele>
				<time>2025-02-04T04:32:07Z</time>
			</trkpt>
			<trkpt lat="29.962225" lon="120.120152">
				<speed>0.512139</speed>
				<ele>283.000000</ele>
				<time>2025-02-04T04:32:30Z</time>
			</trkpt>
			<trkpt lat="29.962313" lon="120.120123">
				<speed>0.621924</speed>
				<ele>274.000000</ele>
				<time>2025-02-04T04:33:08Z</time>
			</trkpt>
			<trkpt lat="29.962412" lon="120.120122">
				<speed>0.699809</speed>
				<ele>270.000000</ele>
				<time>2025-02-04T04:33:28Z</time>
			</trkpt>
			<trkpt lat="29.962508" lon="120.120113">
				<speed>0.299965</speed>
				<ele>267.000000</ele>
				<time>2025-02-04T04:33:46Z</time>
			</trkpt>
			<trkpt lat="29.962597" lon="120.120123">
				<speed>0.566324</speed>
				<ele>264.000000</ele>
				<time>2025-02-04T04:34:02Z</time>
			</trkpt>
			<trkpt lat="29.962689" lon="120.120117">
				<speed>0.299730</speed>
				<ele>260.000000</ele>
				<time>2025-02-04T04:34:21Z</time>
			</trkpt>
			<trkpt lat="29.962773" lon="120.120067">
				<speed>0.630424</speed>
				<ele>256.000000</ele>
				<time>2025-02-04T04:34:37Z</time>
			</trkpt>
			<trkpt lat="29.962859" lon="120.120016">
				<speed>0.495108</speed>
				<ele>254.000000</ele>
				<time>2025-02-04T04:34:48Z</time>
			</trkpt>
			<trkpt lat="29.962925" lon="120.119939">
				<speed>0.332291</speed>
				<ele>248.000000</ele>
				<time>2025-02-04T04:35:03Z</time>
			</trkpt>
			<trkpt lat="29.963021" lon="120.119938">
				<speed>0.247818</speed>
				<ele>247.000000</ele>
				<time>2025-02-04T04:35:25Z</time>
			</trkpt>
			<trkpt lat="29.963112" lon="120.119952">
				<speed>0.416615</speed>
				<ele>243.000000</ele>
				<time>2025-02-04T04:35:43Z</time>
			</trkpt>
			<trkpt lat="29.963203" lon="120.119968">
				<speed>0.358950</speed>
				<ele>240.000000</ele>
				<time>2025-02-04T04:36:01Z</time>
			</trkpt>
			<trkpt lat="29.963293" lon="120.119989">
				<speed>0.347453</speed>
				<ele>235.000000</ele>
				<time>2025-02-04T04:36:15Z</time>
			</trkpt>
			<trkpt lat="29.963382" lon="120.120013">
				<speed>0.880631</speed>
				<ele>233.000000</ele>
				<time>2025-02-04T04:36:28Z</time>
			</trkpt>
			<trkpt lat="29.963474" lon="120.120026">
				<speed>0.943034</speed>
				<ele>235.000000</ele>
				<time>2025-02-04T04:37:20Z</time>
			</trkpt>
			<trkpt lat="29.963571" lon="120.119998">
				<speed>0.671245</speed>
				<ele>228.000000</ele>
				<time>2025-02-04T04:38:03Z</time>
			</trkpt>
			<trkpt lat="29.963661" lon="120.119967">
				<speed>0.500624</speed>
				<ele>228.000000</ele>
				<time>2025-02-04T04:38:18Z</time>
			</trkpt>
			<trkpt lat="29.963751" lon="120.119943">
				<speed>0.157288</speed>
				<ele>222.000000</ele>
				<time>2025-02-04T04:38:39Z</time>
			</trkpt>
			<trkpt lat="29.963835" lon="120.119903">
				<speed>0.289963</speed>
				<ele>219.000000</ele>
				<time>2025-02-04T04:38:52Z</time>
			</trkpt>
			<trkpt lat="29.963926" lon="120.119869">
				<speed>0.447665</speed>
				<ele>217.000000</ele>
				<time>2025-02-04T04:39:05Z</time>
			</trkpt>
			<trkpt lat="29.963988" lon="120.119793">
				<speed>0.506306</speed>
				<ele>213.000000</ele>
				<time>2025-02-04T04:39:18Z</time>
			</trkpt>
			<trkpt lat="29.964061" lon="120.119729">
				<speed>0.425491</speed>
				<ele>210.000000</ele>
				<time>2025-02-04T04:39:29Z</time>
			</trkpt>
			<trkpt lat="29.964145" lon="120.119669">
				<speed>0.222031</speed>
				<ele>208.000000</ele>
				<time>2025-02-04T04:39:41Z</time>
			</trkpt>
			<trkpt lat="29.964216" lon="120.119605">
				<speed>0.454880</speed>
				<ele>208.000000</ele>
				<time>2025-02-04T04:39:55Z</time>
			</trkpt>
			<trkpt lat="29.964307" lon="120.119600">
				<speed>0.451390</speed>
				<ele>205.000000</ele>
				<time>2025-02-04T04:40:12Z</time>
			</trkpt>
			<trkpt lat="29.964398" lon="120.119576">
				<speed>0.105453</speed>
				<ele>203.000000</ele>
				<time>2025-02-04T04:40:32Z</time>
			</trkpt>
			<trkpt lat="29.964479" lon="120.119517">
				<speed>0.399919</speed>
				<ele>201.000000</ele>
				<time>2025-02-04T04:40:44Z</time>
			</trkpt>
			<trkpt lat="29.964568" lon="120.119483">
				<speed>0.256617</speed>
				<ele>196.000000</ele>
				<time>2025-02-04T04:41:00Z</time>
			</trkpt>
			<trkpt lat="29.964654" lon="120.119440">
				<speed>0.542110</speed>
				<ele>192.000000</ele>
				<time>2025-02-04T04:41:12Z</time>
			</trkpt>
			<trkpt lat="29.964741" lon="120.119377">
				<speed>0.887570</speed>
				<ele>193.000000</ele>
				<time>2025-02-04T04:41:23Z</time>
			</trkpt>
			<trkpt lat="29.964828" lon="120.119317">
				<speed>1.017641</speed>
				<ele>191.000000</ele>
				<time>2025-02-04T04:41:36Z</time>
			</trkpt>
			<trkpt lat="29.964910" lon="120.119255">
				<speed>0.634015</speed>
				<ele>189.000000</ele>
				<time>2025-02-04T04:41:50Z</time>
			</trkpt>
			<trkpt lat="29.964994" lon="120.119213">
				<speed>0.567170</speed>
				<ele>187.000000</ele>
				<time>2025-02-04T04:42:00Z</time>
			</trkpt>
			<trkpt lat="29.965079" lon="120.119165">
				<speed>0.541479</speed>
				<ele>186.000000</ele>
				<time>2025-02-04T04:42:14Z</time>
			</trkpt>
			<trkpt lat="29.965159" lon="120.119106">
				<speed>0.526456</speed>
				<ele>185.000000</ele>
				<time>2025-02-04T04:42:29Z</time>
			</trkpt>
			<trkpt lat="29.965241" lon="120.119062">
				<speed>0.653422</speed>
				<ele>182.000000</ele>
				<time>2025-02-04T04:42:41Z</time>
			</trkpt>
			<trkpt lat="29.965329" lon="120.119030">
				<speed>0.912515</speed>
				<ele>183.000000</ele>
				<time>2025-02-04T04:42:58Z</time>
			</trkpt>
			<trkpt lat="29.965400" lon="120.118964">
				<speed>0.511300</speed>
				<ele>180.000000</ele>
				<time>2025-02-04T04:43:14Z</time>
			</trkpt>
			<trkpt lat="29.965477" lon="120.118903">
				<speed>0.980165</speed>
				<ele>178.000000</ele>
				<time>2025-02-04T04:43:25Z</time>
			</trkpt>
			<trkpt lat="29.965542" lon="120.118828">
				<speed>0.281719</speed>
				<ele>175.000000</ele>
				<time>2025-02-04T04:43:38Z</time>
			</trkpt>
			<trkpt lat="29.965607" lon="120.118747">
				<speed>0.744703</speed>
				<ele>174.000000</ele>
				<time>2025-02-04T04:43:51Z</time>
			</trkpt>
			<trkpt lat="29.965683" lon="120.118682">
				<speed>0.507509</speed>
				<ele>171.000000</ele>
				<time>2025-02-04T04:44:07Z</time>
			</trkpt>
			<trkpt lat="29.965771" lon="120.118649">
				<speed>0.359059</speed>
				<ele>168.000000</ele>
				<time>2025-02-04T04:44:21Z</time>
			</trkpt>
			<trkpt lat="29.965866" lon="120.118613">
				<speed>0.742703</speed>
				<ele>164.000000</ele>
				<time>2025-02-04T04:44:38Z</time>
			</trkpt>
			<trkpt lat="29.965952" lon="120.118574">
				<speed>0.274213</speed>
				<ele>162.000000</ele>
				<time>2025-02-04T04:44:54Z</time>
			</trkpt>
			<trkpt lat="29.966030" lon="120.118521">
				<speed>0.359513</speed>
				<ele>157.000000</ele>
				<time>2025-02-04T04:45:09Z</time>
			</trkpt>
			<trkpt lat="29.966120" lon="120.118502">
				<speed>0.404468</speed>
				<ele>153.000000</ele>
				<time>2025-02-04T04:45:24Z</time>
			</trkpt>
			<trkpt lat="29.966214" lon="120.118490">
				<speed>0.436926</speed>
				<ele>151.000000</ele>
				<time>2025-02-04T04:45:43Z</time>
			</trkpt>
			<trkpt lat="29.966307" lon="120.118475">
				<speed>0.580999</speed>
				<ele>149.000000</ele>
				<time>2025-02-04T04:46:00Z</time>
			</trkpt>
			<trkpt lat="29.966398" lon="120.118454">
				<speed>0.936773</speed>
				<ele>144.000000</ele>
				<time>2025-02-04T04:46:21Z</time>
			</trkpt>
			<trkpt lat="29.966437" lon="120.118354">
				<speed>1.425070</speed>
				<ele>143.000000</ele>
				<time>2025-02-04T04:46:29Z</time>
			</trkpt>
			<trkpt lat="29.966509" lon="120.118275">
				<speed>1.015837</speed>
				<ele>138.000000</ele>
				<time>2025-02-04T04:46:41Z</time>
			</trkpt>
			<trkpt lat="29.966561" lon="120.118189">
				<speed>0.622255</speed>
				<ele>135.000000</ele>
				<time>2025-02-04T04:46:51Z</time>
			</trkpt>
			<trkpt lat="29.966607" lon="120.118090">
				<speed>1.083330</speed>
				<ele>134.000000</ele>
				<time>2025-02-04T04:47:02Z</time>
			</trkpt>
			<trkpt lat="29.966628" lon="120.117987">
				<speed>1.046368</speed>
				<ele>132.000000</ele>
				<time>2025-02-04T04:47:11Z</time>
			</trkpt>
			<trkpt lat="29.966659" lon="120.117884">
				<speed>1.027921</speed>
				<ele>130.000000</ele>
				<time>2025-02-04T04:47:20Z</time>
			</trkpt>
			<trkpt lat="29.966675" lon="120.117774">
				<speed>1.007097</speed>
				<ele>129.000000</ele>
				<time>2025-02-04T04:47:29Z</time>
			</trkpt>
			<trkpt lat="29.966726" lon="120.117678">
				<speed>1.032463</speed>
				<ele>129.000000</ele>
				<time>2025-02-04T04:47:39Z</time>
			</trkpt>
			<trkpt lat="29.966817" lon="120.117660">
				<speed>1.356163</speed>
				<ele>129.000000</ele>
				<time>2025-02-04T04:47:49Z</time>
			</trkpt>
			<trkpt lat="29.966899" lon="120.117717">
				<speed>1.069731</speed>
				<ele>128.000000</ele>
				<time>2025-02-04T04:47:58Z</time>
			</trkpt>
			<trkpt lat="29.966980" lon="120.117770">
				<speed>1.257374</speed>
				<ele>127.000000</ele>
				<time>2025-02-04T04:48:06Z</time>
			</trkpt>
			<trkpt lat="29.967043" lon="120.117859">
				<speed>1.121178</speed>
				<ele>126.000000</ele>
				<time>2025-02-04T04:48:16Z</time>
			</trkpt>
			<trkpt lat="29.967092" lon="120.117950">
				<speed>1.100437</speed>
				<ele>126.000000</ele>
				<time>2025-02-04T04:48:25Z</time>
			</trkpt>
			<trkpt lat="29.967165" lon="120.118022">
				<speed>1.266161</speed>
				<ele>125.000000</ele>
				<time>2025-02-04T04:48:34Z</time>
			</trkpt>
			<trkpt lat="29.967235" lon="120.118103">
				<speed>1.061877</speed>
				<ele>126.000000</ele>
				<time>2025-02-04T04:48:43Z</time>
			</trkpt>
			<trkpt lat="29.967313" lon="120.118165">
				<speed>0.968973</speed>
				<ele>127.000000</ele>
				<time>2025-02-04T04:48:52Z</time>
			</trkpt>
			<trkpt lat="29.967399" lon="120.118226">
				<speed>1.251257</speed>
				<ele>125.000000</ele>
				<time>2025-02-04T04:49:01Z</time>
			</trkpt>
			<trkpt lat="29.967465" lon="120.118301">
				<speed>1.234999</speed>
				<ele>122.000000</ele>
				<time>2025-02-04T04:49:09Z</time>
			</trkpt>
			<trkpt lat="29.967520" lon="120.118394">
				<speed>1.214837</speed>
				<ele>120.000000</ele>
				<time>2025-02-04T04:49:18Z</time>
			</trkpt>
			<trkpt lat="29.967556" lon="120.118493">
				<speed>0.981404</speed>
				<ele>121.000000</ele>
				<time>2025-02-04T04:49:27Z</time>
			</trkpt>
			<trkpt lat="29.967561" lon="120.118604">
				<speed>1.211033</speed>
				<ele>122.000000</ele>
				<time>2025-02-04T04:49:36Z</time>
			</trkpt>
			<trkpt lat="29.967555" lon="120.118721">
				<speed>1.621883</speed>
				<ele>121.000000</ele>
				<time>2025-02-04T04:49:44Z</time>
			</trkpt>
			<trkpt lat="29.967556" lon="120.118840">
				<speed>1.270438</speed>
				<ele>122.000000</ele>
				<time>2025-02-04T04:49:53Z</time>
			</trkpt>
			<trkpt lat="29.967553" lon="120.118950">
				<speed>1.380590</speed>
				<ele>120.000000</ele>
				<time>2025-02-04T04:50:01Z</time>
			</trkpt>
			<trkpt lat="29.967550" lon="120.119067">
				<speed>1.165127</speed>
				<ele>120.000000</ele>
				<time>2025-02-04T04:50:11Z</time>
			</trkpt>
			<trkpt lat="29.967488" lon="120.119145">
				<speed>1.131112</speed>
				<ele>121.000000</ele>
				<time>2025-02-04T04:50:19Z</time>
			</trkpt>
			<trkpt lat="29.967443" lon="120.119238">
				<speed>1.150370</speed>
				<ele>120.000000</ele>
				<time>2025-02-04T04:50:28Z</time>
			</trkpt>
			<trkpt lat="29.967433" lon="120.119351">
				<speed>1.188432</speed>
				<ele>119.000000</ele>
				<time>2025-02-04T04:50:37Z</time>
			</trkpt>
			<trkpt lat="29.967446" lon="120.119463">
				<speed>1.123480</speed>
				<ele>118.000000</ele>
				<time>2025-02-04T04:50:46Z</time>
			</trkpt>
			<trkpt lat="29.967479" lon="120.119565">
				<speed>1.245351</speed>
				<ele>119.000000</ele>
				<time>2025-02-04T04:50:54Z</time>
			</trkpt>
			<trkpt lat="29.967498" lon="120.119673">
				<speed>1.135776</speed>
				<ele>116.000000</ele>
				<time>2025-02-04T04:51:02Z</time>
			</trkpt>
			<trkpt lat="29.967532" lon="120.119772">
				<speed>1.219271</speed>
				<ele>115.000000</ele>
				<time>2025-02-04T04:51:10Z</time>
			</trkpt>
			<trkpt lat="29.967569" lon="120.119868">
				<speed>1.265175</speed>
				<ele>114.000000</ele>
				<time>2025-02-04T04:51:18Z</time>
			</trkpt>
			<trkpt lat="29.967623" lon="120.119952">
				<speed>1.064536</speed>
				<ele>113.000000</ele>
				<time>2025-02-04T04:51:26Z</time>
			</trkpt>
			<trkpt lat="29.967699" lon="120.120017">
				<speed>1.023339</speed>
				<ele>112.000000</ele>
				<time>2025-02-04T04:51:34Z</time>
			</trkpt>
			<trkpt lat="29.967778" lon="120.120076">
				<speed>1.242999</speed>
				<ele>112.000000</ele>
				<time>2025-02-04T04:51:42Z</time>
			</trkpt>
			<trkpt lat="29.967865" lon="120.120132">
				<speed>1.266834</speed>
				<ele>113.000000</ele>
				<time>2025-02-04T04:51:51Z</time>
			</trkpt>
			<trkpt lat="29.967950" lon="120.120182">
				<speed>1.265738</speed>
				<ele>114.000000</ele>
				<time>2025-02-04T04:51:59Z</time>
			</trkpt>
			<trkpt lat="29.968025" lon="120.120240">
				<speed>1.184218</speed>
				<ele>115.000000</ele>
				<time>2025-02-04T04:52:07Z</time>
			</trkpt>
			<trkpt lat="29.968098" lon="120.120302">
				<speed>1.182980</speed>
				<ele>114.000000</ele>
				<time>2025-02-04T04:52:15Z</time>
			</trkpt>
			<trkpt lat="29.968172" lon="120.120362">
				<speed>1.081896</speed>
				<ele>114.000000</ele>
				<time>2025-02-04T04:52:24Z</time>
			</trkpt>
			<trkpt lat="29.968260" lon="120.120411">
				<speed>1.056415</speed>
				<ele>114.000000</ele>
				<time>2025-02-04T04:52:32Z</time>
			</trkpt>
			<trkpt lat="29.968349" lon="120.120453">
				<speed>0.949287</speed>
				<ele>113.000000</ele>
				<time>2025-02-04T04:52:41Z</time>
			</trkpt>
			<trkpt lat="29.968437" lon="120.120500">
				<speed>1.307192</speed>
				<ele>111.000000</ele>
				<time>2025-02-04T04:52:48Z</time>
			</trkpt>
			<trkpt lat="29.968471" lon="120.120599">
				<speed>0.831136</speed>
				<ele>112.000000</ele>
				<time>2025-02-04T04:52:57Z</time>
			</trkpt>
			<trkpt lat="29.968483" lon="120.120706">
				<speed>1.250214</speed>
				<ele>113.000000</ele>
				<time>2025-02-04T04:53:04Z</time>
			</trkpt>
			<trkpt lat="29.968487" lon="120.120815">
				<speed>0.823806</speed>
				<ele>115.000000</ele>
				<time>2025-02-04T04:53:12Z</time>
			</trkpt>
			<trkpt lat="29.968515" lon="120.120922">
				<speed>1.005335</speed>
				<ele>116.000000</ele>
				<time>2025-02-04T04:53:20Z</time>
			</trkpt>
			<trkpt lat="29.968544" lon="120.121024">
				<speed>1.016098</speed>
				<ele>117.000000</ele>
				<time>2025-02-04T04:53:29Z</time>
			</trkpt>
			<trkpt lat="29.968557" lon="120.121139">
				<speed>1.461986</speed>
				<ele>115.000000</ele>
				<time>2025-02-04T04:53:37Z</time>
			</trkpt>
			<trkpt lat="29.968575" lon="120.121250">
				<speed>0.763507</speed>
				<ele>113.000000</ele>
				<time>2025-02-04T04:53:47Z</time>
			</trkpt>
			<trkpt lat="29.968566" lon="120.121359">
				<speed>1.073507</speed>
				<ele>113.000000</ele>
				<time>2025-02-04T04:53:55Z</time>
			</trkpt>
			<trkpt lat="29.968556" lon="120.121477">
				<speed>1.248482</speed>
				<ele>112.000000</ele>
				<time>2025-02-04T04:54:03Z</time>
			</trkpt>
			<trkpt lat="29.968564" lon="120.121586">
				<speed>0.820643</speed>
				<ele>112.000000</ele>
				<time>2025-02-04T04:54:12Z</time>
			</trkpt>
			<trkpt lat="29.968573" lon="120.121691">
				<speed>1.118434</speed>
				<ele>111.000000</ele>
				<time>2025-02-04T04:54:21Z</time>
			</trkpt>
			<trkpt lat="29.968595" lon="120.121792">
				<speed>1.046742</speed>
				<ele>111.000000</ele>
				<time>2025-02-04T04:54:28Z</time>
			</trkpt>
			<trkpt lat="29.968604" lon="120.121912">
				<speed>1.447418</speed>
				<ele>110.000000</ele>
				<time>2025-02-04T04:54:36Z</time>
			</trkpt>
			<trkpt lat="29.968622" lon="120.122025">
				<speed>1.631803</speed>
				<ele>108.000000</ele>
				<time>2025-02-04T04:54:45Z</time>
			</trkpt>
			<trkpt lat="29.968584" lon="120.122130">
				<speed>1.345539</speed>
				<ele>107.000000</ele>
				<time>2025-02-04T04:54:54Z</time>
			</trkpt>
			<trkpt lat="29.968575" lon="120.122239">
				<speed>1.270726</speed>
				<ele>107.000000</ele>
				<time>2025-02-04T04:55:01Z</time>
			</trkpt>
			<trkpt lat="29.968589" lon="120.122350">
				<speed>1.175901</speed>
				<ele>106.000000</ele>
				<time>2025-02-04T04:55:10Z</time>
			</trkpt>
			<trkpt lat="29.968605" lon="120.122458">
				<speed>0.983394</speed>
				<ele>105.000000</ele>
				<time>2025-02-04T04:55:19Z</time>
			</trkpt>
			<trkpt lat="29.968643" lon="120.122558">
				<speed>1.026598</speed>
				<ele>105.000000</ele>
				<time>2025-02-04T04:55:27Z</time>
			</trkpt>
			<trkpt lat="29.968713" lon="120.122630">
				<speed>1.208931</speed>
				<ele>105.000000</ele>
				<time>2025-02-04T04:55:35Z</time>
			</trkpt>
			<trkpt lat="29.968782" lon="120.122704">
				<speed>1.100851</speed>
				<ele>106.000000</ele>
				<time>2025-02-04T04:55:45Z</time>
			</trkpt>
			<trkpt lat="29.968870" lon="120.122748">
				<speed>1.245473</speed>
				<ele>108.000000</ele>
				<time>2025-02-04T04:55:52Z</time>
			</trkpt>
			<trkpt lat="29.968968" lon="120.122765">
				<speed>1.062447</speed>
				<ele>109.000000</ele>
				<time>2025-02-04T04:56:03Z</time>
			</trkpt>
			<trkpt lat="29.969061" lon="120.122784">
				<speed>0.822079</speed>
				<ele>109.000000</ele>
				<time>2025-02-04T04:56:14Z</time>
			</trkpt>
			<trkpt lat="29.969089" lon="120.122658">
				<speed>1.267397</speed>
				<ele>109.000000</ele>
				<time>2025-02-04T04:56:39Z</time>
			</trkpt>
			<trkpt lat="29.969126" lon="120.122561">
				<speed>0.549713</speed>
				<ele>110.000000</ele>
				<time>2025-02-04T04:56:52Z</time>
			</trkpt>
			<trkpt lat="29.969214" lon="120.122590">
				<speed>1.160490</speed>
				<ele>111.000000</ele>
				<time>2025-02-04T04:57:03Z</time>
			</trkpt>
			<trkpt lat="29.969295" lon="120.122648">
				<speed>0.997113</speed>
				<ele>110.000000</ele>
				<time>2025-02-04T04:57:11Z</time>
			</trkpt>
			<trkpt lat="29.969393" lon="120.122682">
				<speed>1.147871</speed>
				<ele>110.000000</ele>
				<time>2025-02-04T04:57:20Z</time>
			</trkpt>
			<trkpt lat="29.969491" lon="120.122672">
				<speed>0.939103</speed>
				<ele>111.000000</ele>
				<time>2025-02-04T04:57:30Z</time>
			</trkpt>
			<trkpt lat="29.969589" lon="120.122669">
				<speed>1.119612</speed>
				<ele>109.000000</ele>
				<time>2025-02-04T04:57:42Z</time>
			</trkpt>
			<trkpt lat="29.969685" lon="120.122662">
				<speed>1.187034</speed>
				<ele>108.000000</ele>
				<time>2025-02-04T04:57:51Z</time>
			</trkpt>
			<trkpt lat="29.969776" lon="120.122703">
				<speed>1.031359</speed>
				<ele>107.000000</ele>
				<time>2025-02-04T04:57:59Z</time>
			</trkpt>
			<trkpt lat="29.969835" lon="120.122791">
				<speed>1.365137</speed>
				<ele>104.000000</ele>
				<time>2025-02-04T04:58:08Z</time>
			</trkpt>
			<trkpt lat="29.969855" lon="120.122903">
				<speed>1.309580</speed>
				<ele>105.000000</ele>
				<time>2025-02-04T04:58:16Z</time>
			</trkpt>
			<trkpt lat="29.969859" lon="120.123008">
				<speed>0.773195</speed>
				<ele>107.000000</ele>
				<time>2025-02-04T04:58:24Z</time>
			</trkpt>
			<trkpt lat="29.969844" lon="120.123111">
				<speed>1.224203</speed>
				<ele>105.000000</ele>
				<time>2025-02-04T04:58:32Z</time>
			</trkpt>
			<trkpt lat="29.969811" lon="120.123213">
				<speed>1.325930</speed>
				<ele>104.000000</ele>
				<time>2025-02-04T04:58:40Z</time>
			</trkpt>
			<trkpt lat="29.969775" lon="120.123310">
				<speed>1.235620</speed>
				<ele>103.000000</ele>
				<time>2025-02-04T04:58:48Z</time>
			</trkpt>
			<trkpt lat="29.969753" lon="120.123416">
				<speed>1.191710</speed>
				<ele>103.000000</ele>
				<time>2025-02-04T04:58:56Z</time>
			</trkpt>
			<trkpt lat="29.969766" lon="120.123530">
				<speed>1.258936</speed>
				<ele>101.000000</ele>
				<time>2025-02-04T04:59:05Z</time>
			</trkpt>
			<trkpt lat="29.969752" lon="120.123635">
				<speed>1.119222</speed>
				<ele>101.000000</ele>
				<time>2025-02-04T04:59:14Z</time>
			</trkpt>
			<trkpt lat="29.969728" lon="120.123740">
				<speed>1.269067</speed>
				<ele>101.000000</ele>
				<time>2025-02-04T04:59:22Z</time>
			</trkpt>
			<trkpt lat="29.969700" lon="120.123842">
				<speed>1.182958</speed>
				<ele>100.000000</ele>
				<time>2025-02-04T04:59:30Z</time>
			</trkpt>
			<trkpt lat="29.969680" lon="120.123946">
				<speed>1.267833</speed>
				<ele>100.000000</ele>
				<time>2025-02-04T04:59:37Z</time>
			</trkpt>
			<trkpt lat="29.969660" lon="120.124054">
				<speed>1.330129</speed>
				<ele>99.000000</ele>
				<time>2025-02-04T04:59:45Z</time>
			</trkpt>
			<trkpt lat="29.969632" lon="120.124156">
				<speed>1.396317</speed>
				<ele>99.000000</ele>
				<time>2025-02-04T04:59:52Z</time>
			</trkpt>
			<trkpt lat="29.969616" lon="120.124265">
				<speed>1.214038</speed>
				<ele>99.000000</ele>
				<time>2025-02-04T05:00:00Z</time>
			</trkpt>
			<trkpt lat="29.969635" lon="120.124370">
				<speed>1.083088</speed>
				<ele>100.000000</ele>
				<time>2025-02-04T05:00:08Z</time>
			</trkpt>
			<trkpt lat="29.969640" lon="120.124487">
				<speed>1.350054</speed>
				<ele>101.000000</ele>
				<time>2025-02-04T05:00:16Z</time>
			</trkpt>
			<trkpt lat="29.969670" lon="120.124603">
				<speed>1.552294</speed>
				<ele>102.000000</ele>
				<time>2025-02-04T05:00:24Z</time>
			</trkpt>
			<trkpt lat="29.969711" lon="120.124697">
				<speed>1.367501</speed>
				<ele>102.000000</ele>
				<time>2025-02-04T05:00:31Z</time>
			</trkpt>
			<trkpt lat="29.969772" lon="120.124783">
				<speed>1.428611</speed>
				<ele>102.000000</ele>
				<time>2025-02-04T05:00:38Z</time>
			</trkpt>
			<trkpt lat="29.969828" lon="120.124866">
				<speed>1.162918</speed>
				<ele>102.000000</ele>
				<time>2025-02-04T05:00:46Z</time>
			</trkpt>
			<trkpt lat="29.969884" lon="120.124961">
				<speed>1.380001</speed>
				<ele>101.000000</ele>
				<time>2025-02-04T05:00:54Z</time>
			</trkpt>
			<trkpt lat="29.969924" lon="120.125056">
				<speed>1.254225</speed>
				<ele>102.000000</ele>
				<time>2025-02-04T05:01:03Z</time>
			</trkpt>
			<trkpt lat="29.969968" lon="120.125156">
				<speed>1.286567</speed>
				<ele>104.000000</ele>
				<time>2025-02-04T05:01:12Z</time>
			</trkpt>
			<trkpt lat="29.970030" lon="120.125249">
				<speed>1.297206</speed>
				<ele>103.000000</ele>
				<time>2025-02-04T05:01:21Z</time>
			</trkpt>
			<trkpt lat="29.970089" lon="120.125331">
				<speed>1.187826</speed>
				<ele>103.000000</ele>
				<time>2025-02-04T05:01:29Z</time>
			</trkpt>
			<trkpt lat="29.970155" lon="120.125415">
				<speed>2.021399</speed>
				<ele>105.000000</ele>
				<time>2025-02-04T05:01:36Z</time>
			</trkpt>
			<trkpt lat="29.970221" lon="120.125496">
				<speed>1.232606</speed>
				<ele>107.000000</ele>
				<time>2025-02-04T05:01:45Z</time>
			</trkpt>
			<trkpt lat="29.970309" lon="120.125543">
				<speed>1.421963</speed>
				<ele>108.000000</ele>
				<time>2025-02-04T05:01:53Z</time>
			</trkpt>
			<trkpt lat="29.970391" lon="120.125593">
				<speed>1.199249</speed>
				<ele>107.000000</ele>
				<time>2025-02-04T05:02:00Z</time>
			</trkpt>
			<trkpt lat="29.970481" lon="120.125650">
				<speed>1.288301</speed>
				<ele>105.000000</ele>
				<time>2025-02-04T05:02:08Z</time>
			</trkpt>
			<trkpt lat="29.970567" lon="120.125698">
				<speed>1.316816</speed>
				<ele>104.000000</ele>
				<time>2025-02-04T05:02:16Z</time>
			</trkpt>
			<trkpt lat="29.970654" lon="120.125747">
				<speed>1.220475</speed>
				<ele>103.000000</ele>
				<time>2025-02-04T05:02:24Z</time>
			</trkpt>
			<trkpt lat="29.970740" lon="120.125801">
				<speed>1.267282</speed>
				<ele>101.000000</ele>
				<time>2025-02-04T05:02:31Z</time>
			</trkpt>
			<trkpt lat="29.970835" lon="120.125826">
				<speed>1.228220</speed>
				<ele>100.000000</ele>
				<time>2025-02-04T05:02:39Z</time>
			</trkpt>
			<trkpt lat="29.970926" lon="120.125849">
				<speed>1.378819</speed>
				<ele>100.000000</ele>
				<time>2025-02-04T05:02:46Z</time>
			</trkpt>
			<trkpt lat="29.971021" lon="120.125863">
				<speed>1.113332</speed>
				<ele>100.000000</ele>
				<time>2025-02-04T05:02:54Z</time>
			</trkpt>
			<trkpt lat="29.971113" lon="120.125894">
				<speed>1.276481</speed>
				<ele>98.000000</ele>
				<time>2025-02-04T05:03:01Z</time>
			</trkpt>
			<trkpt lat="29.971207" lon="120.125908">
				<speed>1.286610</speed>
				<ele>99.000000</ele>
				<time>2025-02-04T05:03:09Z</time>
			</trkpt>
			<trkpt lat="29.971311" lon="120.125927">
				<speed>1.370050</speed>
				<ele>99.000000</ele>
				<time>2025-02-04T05:03:18Z</time>
			</trkpt>
			<trkpt lat="29.971407" lon="120.125949">
				<speed>1.314618</speed>
				<ele>100.000000</ele>
				<time>2025-02-04T05:03:26Z</time>
			</trkpt>
			<trkpt lat="29.971505" lon="120.125956">
				<speed>0.901306</speed>
				<ele>101.000000</ele>
				<time>2025-02-04T05:03:35Z</time>
			</trkpt>
			<trkpt lat="29.971600" lon="120.125955">
				<speed>1.185615</speed>
				<ele>100.000000</ele>
				<time>2025-02-04T05:03:42Z</time>
			</trkpt>
			<trkpt lat="29.971674" lon="120.126027">
				<speed>1.302534</speed>
				<ele>100.000000</ele>
				<time>2025-02-04T05:03:50Z</time>
			</trkpt>
			<trkpt lat="29.971734" lon="120.126108">
				<speed>1.261186</speed>
				<ele>102.000000</ele>
				<time>2025-02-04T05:03:57Z</time>
			</trkpt>
			<trkpt lat="29.971786" lon="120.126200">
				<speed>1.146516</speed>
				<ele>102.000000</ele>
				<time>2025-02-04T05:04:05Z</time>
			</trkpt>
			<trkpt lat="29.971840" lon="120.126292">
				<speed>1.469220</speed>
				<ele>103.000000</ele>
				<time>2025-02-04T05:04:12Z</time>
			</trkpt>
			<trkpt lat="29.971886" lon="120.126386">
				<speed>0.918486</speed>
				<ele>102.000000</ele>
				<time>2025-02-04T05:04:20Z</time>
			</trkpt>
			<trkpt lat="29.971939" lon="120.126476">
				<speed>1.401150</speed>
				<ele>103.000000</ele>
				<time>2025-02-04T05:04:27Z</time>
			</trkpt>
			<trkpt lat="29.971980" lon="120.126584">
				<speed>1.240061</speed>
				<ele>105.000000</ele>
				<time>2025-02-04T05:04:35Z</time>
			</trkpt>
			<trkpt lat="29.972019" lon="120.126682">
				<speed>1.205439</speed>
				<ele>105.000000</ele>
				<time>2025-02-04T05:04:43Z</time>
			</trkpt>
			<trkpt lat="29.972058" lon="120.126787">
				<speed>1.278279</speed>
				<ele>100.000000</ele>
				<time>2025-02-04T05:04:52Z</time>
			</trkpt>
			<trkpt lat="29.972093" lon="120.126895">
				<speed>1.219213</speed>
				<ele>101.000000</ele>
				<time>2025-02-04T05:04:59Z</time>
			</trkpt>
			<trkpt lat="29.972130" lon="120.126999">
				<speed>1.132579</speed>
				<ele>101.000000</ele>
				<time>2025-02-04T05:05:07Z</time>
			</trkpt>
			<trkpt lat="29.972174" lon="120.127092">
				<speed>1.015355</speed>
				<ele>100.000000</ele>
				<time>2025-02-04T05:05:15Z</time>
			</trkpt>
			<trkpt lat="29.972195" lon="120.127197">
				<speed>1.055184</speed>
				<ele>100.000000</ele>
				<time>2025-02-04T05:05:22Z</time>
			</trkpt>
			<trkpt lat="29.972222" lon="120.127296">
				<speed>0.996207</speed>
				<ele>99.000000</ele>
				<time>2025-02-04T05:05:29Z</time>
			</trkpt>
			<trkpt lat="29.972274" lon="120.127394">
				<speed>1.132729</speed>
				<ele>97.000000</ele>
				<time>2025-02-04T05:05:38Z</time>
			</trkpt>
			<trkpt lat="29.972339" lon="120.127482">
				<speed>1.333242</speed>
				<ele>97.000000</ele>
				<time>2025-02-04T05:05:45Z</time>
			</trkpt>
			<trkpt lat="29.972419" lon="120.127554">
				<speed>1.249321</speed>
				<ele>96.000000</ele>
				<time>2025-02-04T05:05:54Z</time>
			</trkpt>
			<trkpt lat="29.972504" lon="120.127603">
				<speed>1.171552</speed>
				<ele>95.000000</ele>
				<time>2025-02-04T05:06:01Z</time>
			</trkpt>
			<trkpt lat="29.972584" lon="120.127651">
				<speed>1.376562</speed>
				<ele>95.000000</ele>
				<time>2025-02-04T05:06:08Z</time>
			</trkpt>
			<trkpt lat="29.972678" lon="120.127677">
				<speed>1.040439</speed>
				<ele>94.000000</ele>
				<time>2025-02-04T05:06:16Z</time>
			</trkpt>
			<trkpt lat="29.972768" lon="120.127715">
				<speed>1.275534</speed>
				<ele>95.000000</ele>
				<time>2025-02-04T05:06:23Z</time>
			</trkpt>
			<trkpt lat="29.972852" lon="120.127751">
				<speed>1.250171</speed>
				<ele>95.000000</ele>
				<time>2025-02-04T05:06:30Z</time>
			</trkpt>
			<trkpt lat="29.972946" lon="120.127784">
				<speed>1.392680</speed>
				<ele>96.000000</ele>
				<time>2025-02-04T05:06:38Z</time>
			</trkpt>
			<trkpt lat="29.973034" lon="120.127814">
				<speed>1.090839</speed>
				<ele>96.000000</ele>
				<time>2025-02-04T05:06:47Z</time>
			</trkpt>
			<trkpt lat="29.973098" lon="120.127902">
				<speed>0.935536</speed>
				<ele>93.000000</ele>
				<time>2025-02-04T05:07:01Z</time>
			</trkpt>
		</trkseg>
	</trk>
	<extensions>
		<name>2025-02-04 10:03:35</name>
		<TrackTypeId>8</TrackTypeId>
		<SportType>3</SportType>
		<TrackTags><![CDATA[爬山]]></TrackTags>
		<BeginTime>1738634615000</BeginTime>
		<EndTime>1738645726299</EndTime>
		<PauseTime>2308</PauseTime>
		<StartDistrictId>0</StartDistrictId>
		<EndDistrictId>0</EndDistrictId>
		<CreaterId>56392261</CreaterId>
		<CreaterName><![CDATA[Andy 的游历]]></CreaterName>
		<OriginCreaterId>56392261</OriginCreaterId>
		<OriginCreaterName><![CDATA[Andy 的游历]]></OriginCreaterName>
		<Distance>6859.882394</Distance>
		<ElevationGain>677.120000</ElevationGain>
		<ElevationLoss>678.690000</ElevationLoss>
		<SportAvgSpeed>0.779248</SportAvgSpeed>
	</extensions>
</gpx>
