<?xml version="1.0" encoding="UTF-8"?>
<gpx version="1.1" creator="MyWorld" xmlns="http://www.topografix.com/GPX/1/1">
  <metadata><name>恩施清江古河床</name></metadata>
  <trk>
    <name>恩施清江古河床</name>
    <trkseg>
      <trkpt lat="30.34426" lon="109.013872"><ele>1084</ele><time>2025-05-02T23:23:49Z</time></trkpt>
      <trkpt lat="30.344382" lon="109.014046"><ele>1086</ele><time>2025-05-02T23:24:06Z</time></trkpt>
      <trkpt lat="30.344449" lon="109.014365"><ele>1094</ele><time>2025-05-02T23:26:46Z</time></trkpt>
      <trkpt lat="30.344355" lon="109.014547"><ele>1101</ele><time>2025-05-02T23:27:20Z</time></trkpt>
      <trkpt lat="30.344467" lon="109.014961"><ele>1111</ele><time>2025-05-02T23:29:28Z</time></trkpt>
      <trkpt lat="30.344555" lon="109.01501"><ele>1109</ele><time>2025-05-02T23:30:26Z</time></trkpt>
      <trkpt lat="30.344561" lon="109.01512"><ele>1118</ele><time>2025-05-02T23:30:36Z</time></trkpt>
      <trkpt lat="30.344496" lon="109.015044"><ele>1119</ele><time>2025-05-02T23:33:28Z</time></trkpt>
      <trkpt lat="30.344945" lon="109.014946"><ele>1121</ele><time>2025-05-02T23:33:55Z</time></trkpt>
      <trkpt lat="30.344365" lon="109.015063"><ele>1120</ele><time>2025-05-02T23:34:02Z</time></trkpt>
      <trkpt lat="30.344898" lon="109.014856"><ele>1119</ele><time>2025-05-02T23:34:16Z</time></trkpt>
      <trkpt lat="30.344759" lon="109.015145"><ele>1118</ele><time>2025-05-02T23:34:32Z</time></trkpt>
      <trkpt lat="30.344418" lon="109.014428"><ele>1098</ele><time>2025-05-02T23:36:06Z</time></trkpt>
      <trkpt lat="30.344278" lon="109.014482"><ele>1098</ele><time>2025-05-02T23:36:07Z</time></trkpt>
      <trkpt lat="30.344241" lon="109.014735"><ele>1105</ele><time>2025-05-02T23:36:15Z</time></trkpt>
      <trkpt lat="30.344063" lon="109.014715"><ele>1115</ele><time>2025-05-02T23:39:32Z</time></trkpt>
      <trkpt lat="30.344071" lon="109.014827"><ele>1113</ele><time>2025-05-02T23:39:53Z</time></trkpt>
      <trkpt lat="30.344438" lon="109.015152"><ele>1098</ele><time>2025-05-02T23:40:46Z</time></trkpt>
      <trkpt lat="30.344765" lon="109.015678"><ele>1145</ele><time>2025-05-02T23:41:44Z</time></trkpt>
      <trkpt lat="30.344952" lon="109.015704"><ele>1154</ele><time>2025-05-02T23:42:20Z</time></trkpt>
      <trkpt lat="30.345067" lon="109.015874"><ele>1159</ele><time>2025-05-02T23:42:59Z</time></trkpt>
      <trkpt lat="30.345158" lon="109.015885"><ele>1160</ele><time>2025-05-02T23:43:15Z</time></trkpt>
      <trkpt lat="30.345152" lon="109.015993"><ele>1160</ele><time>2025-05-02T23:43:29Z</time></trkpt>
      <trkpt lat="30.345239" lon="109.015961"><ele>1144</ele><time>2025-05-02T23:44:14Z</time></trkpt>
      <trkpt lat="30.345252" lon="109.015857"><ele>1134</ele><time>2025-05-02T23:45:34Z</time></trkpt>
      <trkpt lat="30.345265" lon="109.016067"><ele>1134</ele><time>2025-05-02T23:46:21Z</time></trkpt>
      <trkpt lat="30.34536" lon="109.016064"><ele>1143</ele><time>2025-05-02T23:46:52Z</time></trkpt>
      <trkpt lat="30.345445" lon="109.016261"><ele>1120</ele><time>2025-05-02T23:47:32Z</time></trkpt>
      <trkpt lat="30.345454" lon="109.016149"><ele>1137</ele><time>2025-05-02T23:47:43Z</time></trkpt>
      <trkpt lat="30.345463" lon="109.016269"><ele>1141</ele><time>2025-05-02T23:48:11Z</time></trkpt>
      <trkpt lat="30.345575" lon="109.016423"><ele>1134</ele><time>2025-05-02T23:49:49Z</time></trkpt>
      <trkpt lat="30.345666" lon="109.016444"><ele>1157</ele><time>2025-05-02T23:50:59Z</time></trkpt>
      <trkpt lat="30.345607" lon="109.016527"><ele>1162</ele><time>2025-05-02T23:51:25Z</time></trkpt>
      <trkpt lat="30.345696" lon="109.016561"><ele>1170</ele><time>2025-05-02T23:51:38Z</time></trkpt>
      <trkpt lat="30.345917" lon="109.01691"><ele>1178</ele><time>2025-05-02T23:54:44Z</time></trkpt>
      <trkpt lat="30.346005" lon="109.016932"><ele>1180</ele><time>2025-05-02T23:55:54Z</time></trkpt>
      <trkpt lat="30.346126" lon="109.017102"><ele>1182</ele><time>2025-05-02T23:57:22Z</time></trkpt>
      <trkpt lat="30.346679" lon="109.017185"><ele>1177</ele><time>2025-05-03T00:01:08Z</time></trkpt>
      <trkpt lat="30.347246" lon="109.017551"><ele>1150</ele><time>2025-05-03T00:03:33Z</time></trkpt>
      <trkpt lat="30.34772" lon="109.017621"><ele>1111</ele><time>2025-05-03T00:05:11Z</time></trkpt>
      <trkpt lat="30.347971" lon="109.017765"><ele>1098</ele><time>2025-05-03T00:06:01Z</time></trkpt>
      <trkpt lat="30.347914" lon="109.01797"><ele>1086</ele><time>2025-05-03T00:06:51Z</time></trkpt>
      <trkpt lat="30.348248" lon="109.018158"><ele>1075</ele><time>2025-05-03T00:07:47Z</time></trkpt>
      <trkpt lat="30.348273" lon="109.018261"><ele>1068</ele><time>2025-05-03T00:08:11Z</time></trkpt>
      <trkpt lat="30.348726" lon="109.018307"><ele>1050</ele><time>2025-05-03T00:10:41Z</time></trkpt>
      <trkpt lat="30.349202" lon="109.018664"><ele>1051</ele><time>2025-05-03T00:11:41Z</time></trkpt>
      <trkpt lat="30.349254" lon="109.018756"><ele>1053</ele><time>2025-05-03T00:12:36Z</time></trkpt>
      <trkpt lat="30.349091" lon="109.018851"><ele>1071</ele><time>2025-05-03T00:17:25Z</time></trkpt>
      <trkpt lat="30.349279" lon="109.018843"><ele>1060</ele><time>2025-05-03T00:19:59Z</time></trkpt>
      <trkpt lat="30.34911" lon="109.018782"><ele>1058</ele><time>2025-05-03T00:25:22Z</time></trkpt>
      <trkpt lat="30.349089" lon="109.018893"><ele>1073</ele><time>2025-05-03T00:26:44Z</time></trkpt>
      <trkpt lat="30.34915" lon="109.018807"><ele>1076</ele><time>2025-05-03T00:32:29Z</time></trkpt>
      <trkpt lat="30.349295" lon="109.018953"><ele>1072</ele><time>2025-05-03T00:33:01Z</time></trkpt>
      <trkpt lat="30.349558" lon="109.019051"><ele>1067</ele><time>2025-05-03T00:33:31Z</time></trkpt>
      <trkpt lat="30.349569" lon="109.019158"><ele>1061</ele><time>2025-05-03T00:33:47Z</time></trkpt>
      <trkpt lat="30.349934" lon="109.019811"><ele>1055</ele><time>2025-05-03T00:36:17Z</time></trkpt>
      <trkpt lat="30.349997" lon="109.019733"><ele>1064</ele><time>2025-05-03T00:36:37Z</time></trkpt>
      <trkpt lat="30.350078" lon="109.019793"><ele>1074</ele><time>2025-05-03T00:38:28Z</time></trkpt>
      <trkpt lat="30.35006" lon="109.019896"><ele>1072</ele><time>2025-05-03T00:38:36Z</time></trkpt>
      <trkpt lat="30.350551" lon="109.020482"><ele>1073</ele><time>2025-05-03T00:39:50Z</time></trkpt>
      <trkpt lat="30.350728" lon="109.02088"><ele>1076</ele><time>2025-05-03T00:46:19Z</time></trkpt>
      <trkpt lat="30.351141" lon="109.022214"><ele>1059</ele><time>2025-05-03T00:47:38Z</time></trkpt>
      <trkpt lat="30.350966" lon="109.022486"><ele>1021</ele><time>2025-05-03T00:48:04Z</time></trkpt>
      <trkpt lat="30.350972" lon="109.02259"><ele>1018</ele><time>2025-05-03T00:48:17Z</time></trkpt>
      <trkpt lat="30.351143" lon="109.022648"><ele>1016</ele><time>2025-05-03T00:48:46Z</time></trkpt>
      <trkpt lat="30.351529" lon="109.023125"><ele>1018</ele><time>2025-05-03T00:49:52Z</time></trkpt>
      <trkpt lat="30.351582" lon="109.023441"><ele>1041</ele><time>2025-05-03T00:51:04Z</time></trkpt>
      <trkpt lat="30.351692" lon="109.023614"><ele>1057</ele><time>2025-05-03T00:52:25Z</time></trkpt>
      <trkpt lat="30.351597" lon="109.023614"><ele>1072</ele><time>2025-05-03T00:52:37Z</time></trkpt>
      <trkpt lat="30.351609" lon="109.023408"><ele>1080</ele><time>2025-05-03T00:54:40Z</time></trkpt>
      <trkpt lat="30.351592" lon="109.023527"><ele>1080</ele><time>2025-05-03T00:55:40Z</time></trkpt>
      <trkpt lat="30.351525" lon="109.023451"><ele>1078</ele><time>2025-05-03T00:57:21Z</time></trkpt>
      <trkpt lat="30.351601" lon="109.023377"><ele>1077</ele><time>2025-05-03T00:57:50Z</time></trkpt>
      <trkpt lat="30.351364" lon="109.023054"><ele>1072</ele><time>2025-05-03T00:58:32Z</time></trkpt>
      <trkpt lat="30.351779" lon="109.023223"><ele>1072</ele><time>2025-05-03T01:09:22Z</time></trkpt>
      <trkpt lat="30.353464" lon="109.02584"><ele>1043</ele><time>2025-05-03T01:12:31Z</time></trkpt>
      <trkpt lat="30.353618" lon="109.02599"><ele>1041</ele><time>2025-05-03T01:12:55Z</time></trkpt>
      <trkpt lat="30.353709" lon="109.025992"><ele>1038</ele><time>2025-05-03T01:13:06Z</time></trkpt>
      <trkpt lat="30.353678" lon="109.026097"><ele>1041</ele><time>2025-05-03T01:13:18Z</time></trkpt>
      <trkpt lat="30.353735" lon="109.026187"><ele>1043</ele><time>2025-05-03T01:13:30Z</time></trkpt>
      <trkpt lat="30.353825" lon="109.026167"><ele>1042</ele><time>2025-05-03T01:13:39Z</time></trkpt>
      <trkpt lat="30.353977" lon="109.026528"><ele>1051</ele><time>2025-05-03T01:14:36Z</time></trkpt>
      <trkpt lat="30.354747" lon="109.027386"><ele>1068</ele><time>2025-05-03T01:17:12Z</time></trkpt>
      <trkpt lat="30.354851" lon="109.027899"><ele>1069</ele><time>2025-05-03T01:21:35Z</time></trkpt>
      <trkpt lat="30.355096" lon="109.028058"><ele>1069</ele><time>2025-05-03T01:22:49Z</time></trkpt>
      <trkpt lat="30.354951" lon="109.028254"><ele>1073</ele><time>2025-05-03T01:23:46Z</time></trkpt>
      <trkpt lat="30.354954" lon="109.02821"><ele>1078</ele><time>2025-05-03T01:23:56Z</time></trkpt>
      <trkpt lat="30.355047" lon="109.028239"><ele>1083</ele><time>2025-05-03T01:24:15Z</time></trkpt>
      <trkpt lat="30.354739" lon="109.028116"><ele>1082</ele><time>2025-05-03T01:25:20Z</time></trkpt>
      <trkpt lat="30.354504" lon="109.027925"><ele>1023</ele><time>2025-05-03T01:29:32Z</time></trkpt>
      <trkpt lat="30.354908" lon="109.028414"><ele>1023</ele><time>2025-05-03T01:31:19Z</time></trkpt>
      <trkpt lat="30.35505" lon="109.028705"><ele>1019</ele><time>2025-05-03T01:31:42Z</time></trkpt>
      <trkpt lat="30.355081" lon="109.028915"><ele>1013</ele><time>2025-05-03T01:31:57Z</time></trkpt>
      <trkpt lat="30.355039" lon="109.029015"><ele>1015</ele><time>2025-05-03T01:32:06Z</time></trkpt>
      <trkpt lat="30.355218" lon="109.029075"><ele>1026</ele><time>2025-05-03T01:34:29Z</time></trkpt>
      <trkpt lat="30.355463" lon="109.029551"><ele>1029</ele><time>2025-05-03T01:36:04Z</time></trkpt>
      <trkpt lat="30.355719" lon="109.030275"><ele>1035</ele><time>2025-05-03T01:37:52Z</time></trkpt>
      <trkpt lat="30.355768" lon="109.03124"><ele>1020</ele><time>2025-05-03T01:40:09Z</time></trkpt>
      <trkpt lat="30.355956" lon="109.031471"><ele>1033</ele><time>2025-05-03T01:41:12Z</time></trkpt>
      <trkpt lat="30.355922" lon="109.031568"><ele>1038</ele><time>2025-05-03T01:42:30Z</time></trkpt>
      <trkpt lat="30.355742" lon="109.031525"><ele>1050</ele><time>2025-05-03T01:44:11Z</time></trkpt>
      <trkpt lat="30.355913" lon="109.031601"><ele>1050</ele><time>2025-05-03T01:44:37Z</time></trkpt>
      <trkpt lat="30.355892" lon="109.031798"><ele>1048</ele><time>2025-05-03T01:50:43Z</time></trkpt>
      <trkpt lat="30.355734" lon="109.031928"><ele>1048</ele><time>2025-05-03T01:51:21Z</time></trkpt>
      <trkpt lat="30.355779" lon="109.032022"><ele>1048</ele><time>2025-05-03T01:51:36Z</time></trkpt>
      <trkpt lat="30.355694" lon="109.031976"><ele>1038</ele><time>2025-05-03T01:52:05Z</time></trkpt>
      <trkpt lat="30.355773" lon="109.031923"><ele>1018</ele><time>2025-05-03T01:52:47Z</time></trkpt>
      <trkpt lat="30.355854" lon="109.032109"><ele>1035</ele><time>2025-05-03T01:53:48Z</time></trkpt>
      <trkpt lat="30.355884" lon="109.032525"><ele>1043</ele><time>2025-05-03T01:54:49Z</time></trkpt>
      <trkpt lat="30.355789" lon="109.032517"><ele>1043</ele><time>2025-05-03T01:55:00Z</time></trkpt>
      <trkpt lat="30.355763" lon="109.032415"><ele>1043</ele><time>2025-05-03T01:55:11Z</time></trkpt>
      <trkpt lat="30.355805" lon="109.032516"><ele>1044</ele><time>2025-05-03T01:55:24Z</time></trkpt>
      <trkpt lat="30.355468" lon="109.032467"><ele>1054</ele><time>2025-05-03T01:56:23Z</time></trkpt>
      <trkpt lat="30.355552" lon="109.032581"><ele>1054</ele><time>2025-05-03T01:56:25Z</time></trkpt>
      <trkpt lat="30.355954" lon="109.032716"><ele>1048</ele><time>2025-05-03T01:56:51Z</time></trkpt>
      <trkpt lat="30.355973" lon="109.032936"><ele>1040</ele><time>2025-05-03T01:57:17Z</time></trkpt>
      <trkpt lat="30.355883" lon="109.033005"><ele>1038</ele><time>2025-05-03T01:57:22Z</time></trkpt>
      <trkpt lat="30.35572" lon="109.033396"><ele>1013</ele><time>2025-05-03T01:58:14Z</time></trkpt>
      <trkpt lat="30.35574" lon="109.033608"><ele>1002</ele><time>2025-05-03T01:58:40Z</time></trkpt>
      <trkpt lat="30.355636" lon="109.034013"><ele>989</ele><time>2025-05-03T01:59:47Z</time></trkpt>
      <trkpt lat="30.355582" lon="109.034104"><ele>988</ele><time>2025-05-03T01:59:59Z</time></trkpt>
      <trkpt lat="30.355501" lon="109.034059"><ele>1001</ele><time>2025-05-03T02:01:33Z</time></trkpt>
      <trkpt lat="30.355628" lon="109.034023"><ele>1005</ele><time>2025-05-03T02:02:00Z</time></trkpt>
      <trkpt lat="30.355545" lon="109.034087"><ele>997</ele><time>2025-05-03T02:03:48Z</time></trkpt>
      <trkpt lat="30.355614" lon="109.03416"><ele>1003</ele><time>2025-05-03T02:05:39Z</time></trkpt>
      <trkpt lat="30.355559" lon="109.034075"><ele>998</ele><time>2025-05-03T02:06:05Z</time></trkpt>
      <trkpt lat="30.355529" lon="109.034307"><ele>990</ele><time>2025-05-03T02:07:11Z</time></trkpt>
      <trkpt lat="30.355341" lon="109.034458"><ele>992</ele><time>2025-05-03T02:07:41Z</time></trkpt>
      <trkpt lat="30.355402" lon="109.034541"><ele>993</ele><time>2025-05-03T02:07:57Z</time></trkpt>
      <trkpt lat="30.355393" lon="109.03476"><ele>994</ele><time>2025-05-03T02:09:35Z</time></trkpt>
      <trkpt lat="30.355325" lon="109.034831"><ele>994</ele><time>2025-05-03T02:09:42Z</time></trkpt>
      <trkpt lat="30.355227" lon="109.035356"><ele>999</ele><time>2025-05-03T02:15:51Z</time></trkpt>
      <trkpt lat="30.355174" lon="109.035265"><ele>1009</ele><time>2025-05-03T02:17:24Z</time></trkpt>
      <trkpt lat="30.355344" lon="109.035291"><ele>1010</ele><time>2025-05-03T02:17:35Z</time></trkpt>
      <trkpt lat="30.355209" lon="109.035585"><ele>990</ele><time>2025-05-03T02:18:52Z</time></trkpt>
      <trkpt lat="30.355252" lon="109.035803"><ele>988</ele><time>2025-05-03T02:20:13Z</time></trkpt>
      <trkpt lat="30.355332" lon="109.035864"><ele>993</ele><time>2025-05-03T02:20:23Z</time></trkpt>
      <trkpt lat="30.355308" lon="109.035967"><ele>988</ele><time>2025-05-03T02:20:34Z</time></trkpt>
      <trkpt lat="30.35536" lon="109.035879"><ele>988</ele><time>2025-05-03T02:21:43Z</time></trkpt>
      <trkpt lat="30.355284" lon="109.036181"><ele>983</ele><time>2025-05-03T02:23:45Z</time></trkpt>
      <trkpt lat="30.355381" lon="109.036342"><ele>985</ele><time>2025-05-03T02:26:45Z</time></trkpt>
      <trkpt lat="30.355618" lon="109.036361"><ele>991</ele><time>2025-05-03T02:28:53Z</time></trkpt>
      <trkpt lat="30.356104" lon="109.036272"><ele>989</ele><time>2025-05-03T02:29:09Z</time></trkpt>
      <trkpt lat="30.355862" lon="109.036703"><ele>989</ele><time>2025-05-03T02:30:05Z</time></trkpt>
      <trkpt lat="30.355603" lon="109.03679"><ele>979</ele><time>2025-05-03T02:31:24Z</time></trkpt>
      <trkpt lat="30.35566" lon="109.037112"><ele>987</ele><time>2025-05-03T02:34:28Z</time></trkpt>
      <trkpt lat="30.35562" lon="109.037211"><ele>984</ele><time>2025-05-03T02:35:21Z</time></trkpt>
      <trkpt lat="30.355728" lon="109.037389"><ele>982</ele><time>2025-05-03T02:37:59Z</time></trkpt>
      <trkpt lat="30.355818" lon="109.037388"><ele>981</ele><time>2025-05-03T02:40:23Z</time></trkpt>
      <trkpt lat="30.355727" lon="109.037401"><ele>984</ele><time>2025-05-03T02:56:30Z</time></trkpt>
      <trkpt lat="30.355794" lon="109.037485"><ele>981</ele><time>2025-05-03T02:56:47Z</time></trkpt>
      <trkpt lat="30.355648" lon="109.037884"><ele>983</ele><time>2025-05-03T02:59:50Z</time></trkpt>
      <trkpt lat="30.355902" lon="109.038909"><ele>1004</ele><time>2025-05-03T03:02:43Z</time></trkpt>
      <trkpt lat="30.356244" lon="109.039285"><ele>987</ele><time>2025-05-03T03:03:50Z</time></trkpt>
      <trkpt lat="30.356478" lon="109.039854"><ele>991</ele><time>2025-05-03T03:06:56Z</time></trkpt>
      <trkpt lat="30.356699" lon="109.040664"><ele>984</ele><time>2025-05-03T03:10:56Z</time></trkpt>
      <trkpt lat="30.356666" lon="109.040868"><ele>978</ele><time>2025-05-03T03:12:19Z</time></trkpt>
      <trkpt lat="30.356714" lon="109.041078"><ele>980</ele><time>2025-05-03T03:13:09Z</time></trkpt>
      <trkpt lat="30.356594" lon="109.041368"><ele>978</ele><time>2025-05-03T03:15:54Z</time></trkpt>
      <trkpt lat="30.356509" lon="109.041904"><ele>978</ele><time>2025-05-03T03:17:43Z</time></trkpt>
      <trkpt lat="30.356442" lon="109.041978"><ele>984</ele><time>2025-05-03T03:18:10Z</time></trkpt>
      <trkpt lat="30.356491" lon="109.042066"><ele>979</ele><time>2025-05-03T03:18:35Z</time></trkpt>
      <trkpt lat="30.356404" lon="109.042008"><ele>990</ele><time>2025-05-03T03:19:19Z</time></trkpt>
      <trkpt lat="30.356306" lon="109.042323"><ele>989</ele><time>2025-05-03T03:20:16Z</time></trkpt>
      <trkpt lat="30.356344" lon="109.042418"><ele>991</ele><time>2025-05-03T03:20:33Z</time></trkpt>
      <trkpt lat="30.356409" lon="109.042319"><ele>992</ele><time>2025-05-03T03:20:58Z</time></trkpt>
      <trkpt lat="30.356371" lon="109.042453"><ele>996</ele><time>2025-05-03T03:21:31Z</time></trkpt>
      <trkpt lat="30.356462" lon="109.042429"><ele>988</ele><time>2025-05-03T03:21:55Z</time></trkpt>
      <trkpt lat="30.356381" lon="109.042491"><ele>987</ele><time>2025-05-03T03:22:32Z</time></trkpt>
      <trkpt lat="30.356429" lon="109.042396"><ele>988</ele><time>2025-05-03T03:23:56Z</time></trkpt>
      <trkpt lat="30.356336" lon="109.042432"><ele>983</ele><time>2025-05-03T03:24:49Z</time></trkpt>
      <trkpt lat="30.356515" lon="109.042468"><ele>983</ele><time>2025-05-03T03:25:59Z</time></trkpt>
      <trkpt lat="30.35681" lon="109.043"><ele>984</ele><time>2025-05-03T03:28:07Z</time></trkpt>
      <trkpt lat="30.356696" lon="109.043167"><ele>979</ele><time>2025-05-03T03:29:00Z</time></trkpt>
      <trkpt lat="30.356679" lon="109.043798"><ele>954</ele><time>2025-05-03T03:30:00Z</time></trkpt>
      <trkpt lat="30.356854" lon="109.043844"><ele>955</ele><time>2025-05-03T03:30:22Z</time></trkpt>
      <trkpt lat="30.357008" lon="109.044236"><ele>974</ele><time>2025-05-03T03:31:06Z</time></trkpt>
      <trkpt lat="30.357313" lon="109.044661"><ele>955</ele><time>2025-05-03T03:31:48Z</time></trkpt>
      <trkpt lat="30.357485" lon="109.044569"><ele>956</ele><time>2025-05-03T03:32:03Z</time></trkpt>
      <trkpt lat="30.357578" lon="109.044592"><ele>953</ele><time>2025-05-03T03:32:16Z</time></trkpt>
      <trkpt lat="30.357734" lon="109.044699"><ele>952</ele><time>2025-05-03T03:32:34Z</time></trkpt>
      <trkpt lat="30.357836" lon="109.044883"><ele>951</ele><time>2025-05-03T03:32:54Z</time></trkpt>
      <trkpt lat="30.358025" lon="109.044913"><ele>954</ele><time>2025-05-03T03:33:28Z</time></trkpt>
      <trkpt lat="30.358145" lon="109.045098"><ele>958</ele><time>2025-05-03T03:33:40Z</time></trkpt>
      <trkpt lat="30.358585" lon="109.044914"><ele>980</ele><time>2025-05-03T03:34:56Z</time></trkpt>
      <trkpt lat="30.358652" lon="109.045354"><ele>987</ele><time>2025-05-03T03:35:38Z</time></trkpt>
      <trkpt lat="30.358835" lon="109.045337"><ele>988</ele><time>2025-05-03T03:35:56Z</time></trkpt>
      <trkpt lat="30.358909" lon="109.045407"><ele>988</ele><time>2025-05-03T03:36:06Z</time></trkpt>
      <trkpt lat="30.358997" lon="109.045837"><ele>1000</ele><time>2025-05-03T03:36:41Z</time></trkpt>
      <trkpt lat="30.359342" lon="109.046492"><ele>1005</ele><time>2025-05-03T03:37:36Z</time></trkpt>
      <trkpt lat="30.35941" lon="109.04683"><ele>1010</ele><time>2025-05-03T03:38:01Z</time></trkpt>
      <trkpt lat="30.359668" lon="109.047429"><ele>1008</ele><time>2025-05-03T03:38:42Z</time></trkpt>
      <trkpt lat="30.360047" lon="109.048081"><ele>1007</ele><time>2025-05-03T03:39:39Z</time></trkpt>
      <trkpt lat="30.360313" lon="109.048173"><ele>1012</ele><time>2025-05-03T03:40:02Z</time></trkpt>
      <trkpt lat="30.360414" lon="109.048478"><ele>1008</ele><time>2025-05-03T03:40:20Z</time></trkpt>
      <trkpt lat="30.360045" lon="109.049986"><ele>1012</ele><time>2025-05-03T03:42:47Z</time></trkpt>
      <trkpt lat="30.36006" lon="109.050227"><ele>1004</ele><time>2025-05-03T03:43:24Z</time></trkpt>
      <trkpt lat="30.360212" lon="109.050507"><ele>998</ele><time>2025-05-03T03:43:44Z</time></trkpt>
      <trkpt lat="30.360193" lon="109.050642"><ele>1003</ele><time>2025-05-03T03:44:08Z</time></trkpt>
      <trkpt lat="30.359751" lon="109.051953"><ele>999</ele><time>2025-05-03T03:44:48Z</time></trkpt>
      <trkpt lat="30.359769" lon="109.052181"><ele>997</ele><time>2025-05-03T03:45:02Z</time></trkpt>
      <trkpt lat="30.359876" lon="109.05236"><ele>995</ele><time>2025-05-03T03:45:15Z</time></trkpt>
      <trkpt lat="30.360426" lon="109.052803"><ele>995</ele><time>2025-05-03T03:46:03Z</time></trkpt>
      <trkpt lat="30.360854" lon="109.053252"><ele>996</ele><time>2025-05-03T03:46:44Z</time></trkpt>
      <trkpt lat="30.361256" lon="109.053572"><ele>998</ele><time>2025-05-03T03:47:18Z</time></trkpt>
      <trkpt lat="30.361694" lon="109.053814"><ele>993</ele><time>2025-05-03T03:47:50Z</time></trkpt>
      <trkpt lat="30.362461" lon="109.054912"><ele>982</ele><time>2025-05-03T03:48:45Z</time></trkpt>
      <trkpt lat="30.362957" lon="109.055313"><ele>983</ele><time>2025-05-03T03:49:16Z</time></trkpt>
      <trkpt lat="30.363405" lon="109.05608"><ele>961</ele><time>2025-05-03T03:49:45Z</time></trkpt>
      <trkpt lat="30.363974" lon="109.057615"><ele>955</ele><time>2025-05-03T03:51:26Z</time></trkpt>
      <trkpt lat="30.363996" lon="109.058524"><ele>942</ele><time>2025-05-03T03:52:23Z</time></trkpt>
      <trkpt lat="30.363782" lon="109.060294"><ele>949</ele><time>2025-05-03T03:54:19Z</time></trkpt>
      <trkpt lat="30.363634" lon="109.060857"><ele>949</ele><time>2025-05-03T03:54:54Z</time></trkpt>
      <trkpt lat="30.363547" lon="109.061165"><ele>945</ele><time>2025-05-03T03:55:14Z</time></trkpt>
      <trkpt lat="30.363182" lon="109.061554"><ele>950</ele><time>2025-05-03T03:55:49Z</time></trkpt>
      <trkpt lat="30.362993" lon="109.06157"><ele>949</ele><time>2025-05-03T03:56:03Z</time></trkpt>
      <trkpt lat="30.36286" lon="109.061263"><ele>942</ele><time>2025-05-03T03:56:27Z</time></trkpt>
      <trkpt lat="30.36296" lon="109.061677"><ele>942</ele><time>2025-05-03T03:56:46Z</time></trkpt>
      <trkpt lat="30.362747" lon="109.062046"><ele>971</ele><time>2025-05-03T03:57:23Z</time></trkpt>
      <trkpt lat="30.362867" lon="109.062896"><ele>979</ele><time>2025-05-03T03:57:34Z</time></trkpt>
      <trkpt lat="30.363002" lon="109.062765"><ele>988</ele><time>2025-05-03T03:58:04Z</time></trkpt>
      <trkpt lat="30.363602" lon="109.060992"><ele>989</ele><time>2025-05-03T03:58:10Z</time></trkpt>
      <trkpt lat="30.363591" lon="109.060415"><ele>988</ele><time>2025-05-03T03:58:15Z</time></trkpt>
      <trkpt lat="30.363189" lon="109.061539"><ele>988</ele><time>2025-05-03T03:58:16Z</time></trkpt>
      <trkpt lat="30.363414" lon="109.061469"><ele>981</ele><time>2025-05-03T03:58:25Z</time></trkpt>
      <trkpt lat="30.363455" lon="109.06158"><ele>979</ele><time>2025-05-03T03:58:28Z</time></trkpt>
      <trkpt lat="30.363705" lon="109.061378"><ele>972</ele><time>2025-05-03T03:58:58Z</time></trkpt>
      <trkpt lat="30.363765" lon="109.061437"><ele>972</ele><time>2025-05-03T03:59:01Z</time></trkpt>
      <trkpt lat="30.363231" lon="109.061682"><ele>979</ele><time>2025-05-03T04:01:16Z</time></trkpt>
      <trkpt lat="30.363334" lon="109.061977"><ele>947</ele><time>2025-05-03T04:01:46Z</time></trkpt>
      <trkpt lat="30.363304" lon="109.06209"><ele>950</ele><time>2025-05-03T04:02:06Z</time></trkpt>
      <trkpt lat="30.363209" lon="109.062114"><ele>950</ele><time>2025-05-03T04:04:08Z</time></trkpt>
      <trkpt lat="30.363138" lon="109.061917"><ele>964</ele><time>2025-05-03T04:07:14Z</time></trkpt>
      <trkpt lat="30.363042" lon="109.061894"><ele>971</ele><time>2025-05-03T04:07:30Z</time></trkpt>
      <trkpt lat="30.363051" lon="109.061788"><ele>974</ele><time>2025-05-03T04:08:00Z</time></trkpt>
      <trkpt lat="30.362477" lon="109.061715"><ele>1002</ele><time>2025-05-03T04:11:04Z</time></trkpt>
      <trkpt lat="30.362299" lon="109.06176"><ele>1012</ele><time>2025-05-03T04:12:13Z</time></trkpt>
      <trkpt lat="30.362214" lon="109.061815"><ele>1007</ele><time>2025-05-03T04:12:23Z</time></trkpt>
      <trkpt lat="30.362063" lon="109.062355"><ele>998</ele><time>2025-05-03T04:14:01Z</time></trkpt>
      <trkpt lat="30.361974" lon="109.06239"><ele>994</ele><time>2025-05-03T04:14:11Z</time></trkpt>
      <trkpt lat="30.361699" lon="109.062325"><ele>993</ele><time>2025-05-03T04:14:35Z</time></trkpt>
      <trkpt lat="30.361092" lon="109.062865"><ele>1011</ele><time>2025-05-03T04:15:54Z</time></trkpt>
      <trkpt lat="30.360859" lon="109.063591"><ele>1020</ele><time>2025-05-03T04:16:54Z</time></trkpt>
      <trkpt lat="30.360998" lon="109.063861"><ele>1018</ele><time>2025-05-03T04:17:37Z</time></trkpt>
      <trkpt lat="30.36115" lon="109.064385"><ele>1023</ele><time>2025-05-03T04:19:12Z</time></trkpt>
      <trkpt lat="30.361064" lon="109.064682"><ele>1030</ele><time>2025-05-03T04:30:11Z</time></trkpt>
      <trkpt lat="30.360913" lon="109.064812"><ele>1032</ele><time>2025-05-03T04:30:34Z</time></trkpt>
      <trkpt lat="30.360992" lon="109.065344"><ele>1052</ele><time>2025-05-03T04:31:44Z</time></trkpt>
      <trkpt lat="30.360589" lon="109.065118"><ele>1078</ele><time>2025-05-03T04:34:43Z</time></trkpt>
      <trkpt lat="30.360578" lon="109.065006"><ele>1080</ele><time>2025-05-03T04:34:54Z</time></trkpt>
      <trkpt lat="30.360459" lon="109.06484"><ele>1086</ele><time>2025-05-03T04:35:39Z</time></trkpt>
      <trkpt lat="30.360393" lon="109.064911"><ele>1093</ele><time>2025-05-03T04:36:10Z</time></trkpt>
      <trkpt lat="30.36014" lon="109.064783"><ele>1107</ele><time>2025-05-03T04:36:52Z</time></trkpt>
      <trkpt lat="30.359786" lon="109.064932"><ele>1121</ele><time>2025-05-03T04:37:59Z</time></trkpt>
      <trkpt lat="30.359699" lon="109.064902"><ele>1124</ele><time>2025-05-03T04:38:10Z</time></trkpt>
      <trkpt lat="30.358726" lon="109.065557"><ele>1155</ele><time>2025-05-03T04:40:40Z</time></trkpt>
      <trkpt lat="30.358361" lon="109.065606"><ele>1156</ele><time>2025-05-03T04:41:12Z</time></trkpt>
      <trkpt lat="30.358153" lon="109.065822"><ele>1159</ele><time>2025-05-03T04:41:55Z</time></trkpt>
      <trkpt lat="30.358009" lon="109.06612"><ele>1162</ele><time>2025-05-03T04:42:20Z</time></trkpt>
      <trkpt lat="30.357545" lon="109.066169"><ele>1169</ele><time>2025-05-03T04:43:02Z</time></trkpt>
      <trkpt lat="30.35712" lon="109.066446"><ele>1168</ele><time>2025-05-03T04:43:42Z</time></trkpt>
      <trkpt lat="30.35685" lon="109.066757"><ele>1168</ele><time>2025-05-03T04:44:14Z</time></trkpt>
      <trkpt lat="30.356595" lon="109.066897"><ele>1168</ele><time>2025-05-03T04:44:38Z</time></trkpt>
      <trkpt lat="30.356613" lon="109.067005"><ele>1161</ele><time>2025-05-03T04:44:53Z</time></trkpt>
      <trkpt lat="30.356512" lon="109.067181"><ele>1163</ele><time>2025-05-03T04:45:08Z</time></trkpt>
      <trkpt lat="30.356334" lon="109.067245"><ele>1165</ele><time>2025-05-03T04:45:34Z</time></trkpt>
      <trkpt lat="30.356598" lon="109.067072"><ele>1170</ele><time>2025-05-03T04:48:57Z</time></trkpt>
      <trkpt lat="30.356619" lon="109.06684"><ele>1160</ele><time>2025-05-03T04:49:10Z</time></trkpt>
      <trkpt lat="30.356798" lon="109.066752"><ele>1157</ele><time>2025-05-03T04:49:23Z</time></trkpt>
      <trkpt lat="30.356608" lon="109.066831"><ele>1162</ele><time>2025-05-03T04:49:49Z</time></trkpt>
      <trkpt lat="30.356613" lon="109.067056"><ele>1161</ele><time>2025-05-03T04:50:02Z</time></trkpt>
      <trkpt lat="30.356383" lon="109.067282"><ele>1159</ele><time>2025-05-03T04:50:22Z</time></trkpt>
      <trkpt lat="30.356293" lon="109.067294"><ele>1167</ele><time>2025-05-03T04:50:29Z</time></trkpt>
    </trkseg>
  </trk>
</gpx>
