<?xml version="1.0" encoding="UTF-8"?>
<gpx version="1.1" creator="MyWorld" xmlns="http://www.topografix.com/GPX/1/1">
  <metadata><name>杭州寺坞岭</name></metadata>
  <trk>
    <name>杭州寺坞岭</name>
    <trkseg>
      <trkpt lat="30.052126" lon="120.150929"><ele>34</ele><time>2025-02-23T03:00:10Z</time></trkpt>
      <trkpt lat="30.051829" lon="120.149647"><ele>33</ele><time>2025-02-23T03:01:53Z</time></trkpt>
      <trkpt lat="30.051275" lon="120.148601"><ele>41</ele><time>2025-02-23T03:03:19Z</time></trkpt>
      <trkpt lat="30.050702" lon="120.147737"><ele>50</ele><time>2025-02-23T03:04:39Z</time></trkpt>
      <trkpt lat="30.05069" lon="120.147628"><ele>50</ele><time>2025-02-23T03:04:47Z</time></trkpt>
      <trkpt lat="30.050738" lon="120.147311"><ele>50</ele><time>2025-02-23T03:05:11Z</time></trkpt>
      <trkpt lat="30.051052" lon="120.146922"><ele>46</ele><time>2025-02-23T03:05:48Z</time></trkpt>
      <trkpt lat="30.051178" lon="120.146388"><ele>47</ele><time>2025-02-23T03:06:27Z</time></trkpt>
      <trkpt lat="30.051355" lon="120.146127"><ele>45</ele><time>2025-02-23T03:06:50Z</time></trkpt>
      <trkpt lat="30.051344" lon="120.145888"><ele>51</ele><time>2025-02-23T03:07:06Z</time></trkpt>
      <trkpt lat="30.051171" lon="120.145364"><ele>50</ele><time>2025-02-23T03:07:49Z</time></trkpt>
      <trkpt lat="30.051413" lon="120.14489"><ele>60</ele><time>2025-02-23T03:08:34Z</time></trkpt>
      <trkpt lat="30.051368" lon="120.144571"><ele>71</ele><time>2025-02-23T03:09:22Z</time></trkpt>
      <trkpt lat="30.051403" lon="120.14436"><ele>83</ele><time>2025-02-23T03:10:00Z</time></trkpt>
      <trkpt lat="30.051483" lon="120.144301"><ele>87</ele><time>2025-02-23T03:11:18Z</time></trkpt>
      <trkpt lat="30.051744" lon="120.14444"><ele>94</ele><time>2025-02-23T03:11:51Z</time></trkpt>
      <trkpt lat="30.051831" lon="120.144414"><ele>97</ele><time>2025-02-23T03:12:08Z</time></trkpt>
      <trkpt lat="30.052244" lon="120.144166"><ele>81</ele><time>2025-02-23T03:13:26Z</time></trkpt>
      <trkpt lat="30.052393" lon="120.143894"><ele>82</ele><time>2025-02-23T03:14:28Z</time></trkpt>
      <trkpt lat="30.05224" lon="120.143038"><ele>112</ele><time>2025-02-23T03:18:58Z</time></trkpt>
      <trkpt lat="30.052104" lon="120.141444"><ele>174</ele><time>2025-02-23T03:23:20Z</time></trkpt>
      <trkpt lat="30.051952" lon="120.140961"><ele>189</ele><time>2025-02-23T03:25:05Z</time></trkpt>
      <trkpt lat="30.051945" lon="120.140747"><ele>195</ele><time>2025-02-23T03:25:37Z</time></trkpt>
      <trkpt lat="30.051864" lon="120.140557"><ele>199</ele><time>2025-02-23T03:26:03Z</time></trkpt>
      <trkpt lat="30.051532" lon="120.140161"><ele>215</ele><time>2025-02-23T03:27:05Z</time></trkpt>
      <trkpt lat="30.051444" lon="120.139851"><ele>225</ele><time>2025-02-23T03:27:46Z</time></trkpt>
      <trkpt lat="30.051476" lon="120.139219"><ele>246</ele><time>2025-02-23T03:29:14Z</time></trkpt>
      <trkpt lat="30.051431" lon="120.138896"><ele>252</ele><time>2025-02-23T03:29:51Z</time></trkpt>
      <trkpt lat="30.051458" lon="120.138792"><ele>255</ele><time>2025-02-23T03:30:03Z</time></trkpt>
      <trkpt lat="30.051766" lon="120.138544"><ele>257</ele><time>2025-02-23T03:30:50Z</time></trkpt>
      <trkpt lat="30.051815" lon="120.138338"><ele>267</ele><time>2025-02-23T03:31:18Z</time></trkpt>
      <trkpt lat="30.051658" lon="120.137941"><ele>274</ele><time>2025-02-23T03:32:13Z</time></trkpt>
      <trkpt lat="30.051638" lon="120.137623"><ele>274</ele><time>2025-02-23T03:32:45Z</time></trkpt>
      <trkpt lat="30.05189" lon="120.137163"><ele>286</ele><time>2025-02-23T03:34:00Z</time></trkpt>
      <trkpt lat="30.051874" lon="120.136846"><ele>289</ele><time>2025-02-23T03:34:57Z</time></trkpt>
      <trkpt lat="30.051704" lon="120.136248"><ele>301</ele><time>2025-02-23T03:36:25Z</time></trkpt>
      <trkpt lat="30.051527" lon="120.136183"><ele>306</ele><time>2025-02-23T03:37:07Z</time></trkpt>
      <trkpt lat="30.051495" lon="120.135969"><ele>306</ele><time>2025-02-23T03:38:09Z</time></trkpt>
      <trkpt lat="30.051672" lon="120.135489"><ele>318</ele><time>2025-02-23T03:40:19Z</time></trkpt>
      <trkpt lat="30.051594" lon="120.135681"><ele>315</ele><time>2025-02-23T03:41:54Z</time></trkpt>
      <trkpt lat="30.051597" lon="120.1359"><ele>312</ele><time>2025-02-23T03:42:24Z</time></trkpt>
      <trkpt lat="30.051439" lon="120.136159"><ele>306</ele><time>2025-02-23T03:43:17Z</time></trkpt>
      <trkpt lat="30.051373" lon="120.136786"><ele>294</ele><time>2025-02-23T03:45:07Z</time></trkpt>
      <trkpt lat="30.051283" lon="120.136822"><ele>293</ele><time>2025-02-23T03:45:28Z</time></trkpt>
      <trkpt lat="30.051283" lon="120.136928"><ele>293</ele><time>2025-02-23T03:45:46Z</time></trkpt>
      <trkpt lat="30.051192" lon="120.13693"><ele>291</ele><time>2025-02-23T03:46:37Z</time></trkpt>
      <trkpt lat="30.051269" lon="120.13712"><ele>285</ele><time>2025-02-23T03:47:25Z</time></trkpt>
      <trkpt lat="30.051367" lon="120.137092"><ele>281</ele><time>2025-02-23T03:48:01Z</time></trkpt>
      <trkpt lat="30.051519" lon="120.137205"><ele>274</ele><time>2025-02-23T03:49:15Z</time></trkpt>
      <trkpt lat="30.051532" lon="120.13753"><ele>273</ele><time>2025-02-23T03:50:43Z</time></trkpt>
      <trkpt lat="30.051427" lon="120.137707"><ele>267</ele><time>2025-02-23T03:51:19Z</time></trkpt>
      <trkpt lat="30.051338" lon="120.138111"><ele>258</ele><time>2025-02-23T03:52:48Z</time></trkpt>
      <trkpt lat="30.051366" lon="120.138325"><ele>254</ele><time>2025-02-23T03:53:28Z</time></trkpt>
      <trkpt lat="30.051307" lon="120.138643"><ele>254</ele><time>2025-02-23T03:54:31Z</time></trkpt>
      <trkpt lat="30.051453" lon="120.138911"><ele>254</ele><time>2025-02-23T03:55:24Z</time></trkpt>
      <trkpt lat="30.051471" lon="120.139881"><ele>230</ele><time>2025-02-23T03:57:18Z</time></trkpt>
      <trkpt lat="30.051529" lon="120.140087"><ele>223</ele><time>2025-02-23T03:57:43Z</time></trkpt>
      <trkpt lat="30.051857" lon="120.140479"><ele>209</ele><time>2025-02-23T03:58:42Z</time></trkpt>
      <trkpt lat="30.051976" lon="120.140773"><ele>198</ele><time>2025-02-23T03:59:29Z</time></trkpt>
      <trkpt lat="30.051994" lon="120.141088"><ele>194</ele><time>2025-02-23T04:00:12Z</time></trkpt>
      <trkpt lat="30.052166" lon="120.141577"><ele>175</ele><time>2025-02-23T04:02:03Z</time></trkpt>
      <trkpt lat="30.052252" lon="120.143007"><ele>119</ele><time>2025-02-23T04:08:53Z</time></trkpt>
      <trkpt lat="30.052335" lon="120.143197"><ele>110</ele><time>2025-02-23T04:09:52Z</time></trkpt>
      <trkpt lat="30.052412" lon="120.144053"><ele>78</ele><time>2025-02-23T04:11:46Z</time></trkpt>
      <trkpt lat="30.052559" lon="120.144153"><ele>74</ele><time>2025-02-23T04:12:18Z</time></trkpt>
      <trkpt lat="30.052564" lon="120.143714"><ele>80</ele><time>2025-02-23T04:12:51Z</time></trkpt>
      <trkpt lat="30.052852" lon="120.143433"><ele>82</ele><time>2025-02-23T04:13:22Z</time></trkpt>
      <trkpt lat="30.05298" lon="120.143145"><ele>86</ele><time>2025-02-23T04:13:48Z</time></trkpt>
      <trkpt lat="30.053262" lon="120.142883"><ele>100</ele><time>2025-02-23T04:14:43Z</time></trkpt>
      <trkpt lat="30.054068" lon="120.141687"><ele>147</ele><time>2025-02-23T04:18:02Z</time></trkpt>
      <trkpt lat="30.054394" lon="120.140332"><ele>183</ele><time>2025-02-23T04:21:01Z</time></trkpt>
      <trkpt lat="30.054442" lon="120.139357"><ele>201</ele><time>2025-02-23T04:22:41Z</time></trkpt>
      <trkpt lat="30.055289" lon="120.137429"><ele>235</ele><time>2025-02-23T04:26:17Z</time></trkpt>
      <trkpt lat="30.055332" lon="120.137007"><ele>243</ele><time>2025-02-23T04:27:13Z</time></trkpt>
      <trkpt lat="30.055636" lon="120.136237"><ele>261</ele><time>2025-02-23T04:29:16Z</time></trkpt>
      <trkpt lat="30.055519" lon="120.136085"><ele>267</ele><time>2025-02-23T04:29:54Z</time></trkpt>
      <trkpt lat="30.055233" lon="120.136036"><ele>270</ele><time>2025-02-23T04:30:30Z</time></trkpt>
      <trkpt lat="30.054696" lon="120.135281"><ele>292</ele><time>2025-02-23T04:32:46Z</time></trkpt>
      <trkpt lat="30.054191" lon="120.133991"><ele>324</ele><time>2025-02-23T04:35:47Z</time></trkpt>
      <trkpt lat="30.053831" lon="120.132769"><ele>350</ele><time>2025-02-23T04:39:00Z</time></trkpt>
      <trkpt lat="30.053239" lon="120.132066"><ele>373</ele><time>2025-02-23T04:40:55Z</time></trkpt>
      <trkpt lat="30.052884" lon="120.131541"><ele>384</ele><time>2025-02-23T04:42:11Z</time></trkpt>
      <trkpt lat="30.052733" lon="120.131261"><ele>390</ele><time>2025-02-23T04:42:50Z</time></trkpt>
      <trkpt lat="30.052599" lon="120.130732"><ele>401</ele><time>2025-02-23T04:43:45Z</time></trkpt>
      <trkpt lat="30.051979" lon="120.12979"><ele>428</ele><time>2025-02-23T04:46:24Z</time></trkpt>
      <trkpt lat="30.051908" lon="120.129472"><ele>433</ele><time>2025-02-23T04:47:12Z</time></trkpt>
      <trkpt lat="30.051846" lon="120.129552"><ele>434</ele><time>2025-02-23T04:49:00Z</time></trkpt>
      <trkpt lat="30.051789" lon="120.12947"><ele>436</ele><time>2025-02-23T04:49:20Z</time></trkpt>
      <trkpt lat="30.051508" lon="120.129499"><ele>441</ele><time>2025-02-23T04:50:04Z</time></trkpt>
      <trkpt lat="30.051116" lon="120.129759"><ele>458</ele><time>2025-02-23T04:51:31Z</time></trkpt>
      <trkpt lat="30.050652" lon="120.129809"><ele>479</ele><time>2025-02-23T04:52:59Z</time></trkpt>
      <trkpt lat="30.050308" lon="120.130182"><ele>490</ele><time>2025-02-23T04:54:26Z</time></trkpt>
      <trkpt lat="30.05026" lon="120.130278"><ele>494</ele><time>2025-02-23T04:55:00Z</time></trkpt>
      <trkpt lat="30.050295" lon="120.130377"><ele>497</ele><time>2025-02-23T04:55:16Z</time></trkpt>
      <trkpt lat="30.050229" lon="120.130451"><ele>497</ele><time>2025-02-23T04:55:46Z</time></trkpt>
      <trkpt lat="30.050075" lon="120.130173"><ele>495</ele><time>2025-02-23T04:56:31Z</time></trkpt>
      <trkpt lat="30.049987" lon="120.130196"><ele>497</ele><time>2025-02-23T04:56:43Z</time></trkpt>
      <trkpt lat="30.049918" lon="120.129881"><ele>496</ele><time>2025-02-23T04:57:17Z</time></trkpt>
      <trkpt lat="30.049135" lon="120.129454"><ele>508</ele><time>2025-02-23T04:58:38Z</time></trkpt>
      <trkpt lat="30.048844" lon="120.129181"><ele>510</ele><time>2025-02-23T04:59:12Z</time></trkpt>
      <trkpt lat="30.048202" lon="120.129314"><ele>508</ele><time>2025-02-23T05:00:11Z</time></trkpt>
      <trkpt lat="30.047539" lon="120.129185"><ele>502</ele><time>2025-02-23T05:01:08Z</time></trkpt>
      <trkpt lat="30.047072" lon="120.129315"><ele>496</ele><time>2025-02-23T05:01:47Z</time></trkpt>
      <trkpt lat="30.046699" lon="120.129315"><ele>497</ele><time>2025-02-23T05:02:17Z</time></trkpt>
      <trkpt lat="30.046459" lon="120.129512"><ele>494</ele><time>2025-02-23T05:02:42Z</time></trkpt>
      <trkpt lat="30.046077" lon="120.129489"><ele>492</ele><time>2025-02-23T05:03:15Z</time></trkpt>
      <trkpt lat="30.045878" lon="120.12927"><ele>489</ele><time>2025-02-23T05:03:50Z</time></trkpt>
      <trkpt lat="30.045811" lon="120.128939"><ele>488</ele><time>2025-02-23T05:04:13Z</time></trkpt>
      <trkpt lat="30.045488" lon="120.128414"><ele>483</ele><time>2025-02-23T05:05:17Z</time></trkpt>
      <trkpt lat="30.045455" lon="120.127971"><ele>479</ele><time>2025-02-23T05:05:46Z</time></trkpt>
      <trkpt lat="30.045282" lon="120.127599"><ele>474</ele><time>2025-02-23T05:06:13Z</time></trkpt>
      <trkpt lat="30.045148" lon="120.127439"><ele>469</ele><time>2025-02-23T05:06:27Z</time></trkpt>
      <trkpt lat="30.044512" lon="120.127125"><ele>460</ele><time>2025-02-23T05:07:21Z</time></trkpt>
      <trkpt lat="30.043985" lon="120.127406"><ele>456</ele><time>2025-02-23T05:08:06Z</time></trkpt>
      <trkpt lat="30.043445" lon="120.127866"><ele>448</ele><time>2025-02-23T05:09:03Z</time></trkpt>
      <trkpt lat="30.043442" lon="120.128298"><ele>446</ele><time>2025-02-23T05:09:41Z</time></trkpt>
      <trkpt lat="30.043129" lon="120.12855"><ele>447</ele><time>2025-02-23T05:10:13Z</time></trkpt>
      <trkpt lat="30.043044" lon="120.128741"><ele>445</ele><time>2025-02-23T05:10:28Z</time></trkpt>
      <trkpt lat="30.042884" lon="120.128855"><ele>442</ele><time>2025-02-23T05:10:43Z</time></trkpt>
      <trkpt lat="30.042135" lon="120.128696"><ele>439</ele><time>2025-02-23T05:11:41Z</time></trkpt>
      <trkpt lat="30.041696" lon="120.128311"><ele>433</ele><time>2025-02-23T05:12:52Z</time></trkpt>
      <trkpt lat="30.041334" lon="120.128316"><ele>435</ele><time>2025-02-23T05:13:27Z</time></trkpt>
      <trkpt lat="30.041509" lon="120.128403"><ele>437</ele><time>2025-02-23T05:14:00Z</time></trkpt>
      <trkpt lat="30.04152" lon="120.128517"><ele>435</ele><time>2025-02-23T05:14:13Z</time></trkpt>
      <trkpt lat="30.041014" lon="120.128818"><ele>429</ele><time>2025-02-23T05:15:35Z</time></trkpt>
      <trkpt lat="30.040873" lon="120.128968"><ele>420</ele><time>2025-02-23T05:16:25Z</time></trkpt>
      <trkpt lat="30.040771" lon="120.130029"><ele>414</ele><time>2025-02-23T05:19:24Z</time></trkpt>
      <trkpt lat="30.040945" lon="120.130876"><ele>383</ele><time>2025-02-23T05:21:35Z</time></trkpt>
      <trkpt lat="30.041284" lon="120.131871"><ele>341</ele><time>2025-02-23T05:24:41Z</time></trkpt>
      <trkpt lat="30.041457" lon="120.133138"><ele>300</ele><time>2025-02-23T05:28:13Z</time></trkpt>
      <trkpt lat="30.041658" lon="120.133629"><ele>297</ele><time>2025-02-23T05:29:09Z</time></trkpt>
      <trkpt lat="30.041635" lon="120.134054"><ele>283</ele><time>2025-02-23T05:30:22Z</time></trkpt>
      <trkpt lat="30.041693" lon="120.134481"><ele>267</ele><time>2025-02-23T05:32:09Z</time></trkpt>
      <trkpt lat="30.041636" lon="120.1348"><ele>263</ele><time>2025-02-23T05:32:46Z</time></trkpt>
      <trkpt lat="30.041801" lon="120.135183"><ele>244</ele><time>2025-02-23T05:33:54Z</time></trkpt>
      <trkpt lat="30.042055" lon="120.135324"><ele>234</ele><time>2025-02-23T05:34:36Z</time></trkpt>
      <trkpt lat="30.042103" lon="120.135418"><ele>236</ele><time>2025-02-23T05:34:50Z</time></trkpt>
      <trkpt lat="30.042448" lon="120.136633"><ele>207</ele><time>2025-02-23T05:37:53Z</time></trkpt>
      <trkpt lat="30.042679" lon="120.137086"><ele>190</ele><time>2025-02-23T05:39:11Z</time></trkpt>
      <trkpt lat="30.042735" lon="120.137405"><ele>182</ele><time>2025-02-23T05:39:50Z</time></trkpt>
      <trkpt lat="30.042849" lon="120.137579"><ele>174</ele><time>2025-02-23T05:40:23Z</time></trkpt>
      <trkpt lat="30.042898" lon="120.138218"><ele>160</ele><time>2025-02-23T05:41:40Z</time></trkpt>
      <trkpt lat="30.042861" lon="120.138643"><ele>154</ele><time>2025-02-23T05:42:23Z</time></trkpt>
      <trkpt lat="30.043049" lon="120.138889"><ele>146</ele><time>2025-02-23T05:42:58Z</time></trkpt>
      <trkpt lat="30.043341" lon="120.139698"><ele>135</ele><time>2025-02-23T05:45:41Z</time></trkpt>
      <trkpt lat="30.04429" lon="120.141643"><ele>117</ele><time>2025-02-23T05:49:06Z</time></trkpt>
      <trkpt lat="30.044311" lon="120.141969"><ele>111</ele><time>2025-02-23T05:49:37Z</time></trkpt>
      <trkpt lat="30.044141" lon="120.14251"><ele>89</ele><time>2025-02-23T05:52:03Z</time></trkpt>
      <trkpt lat="30.044335" lon="120.143257"><ele>78</ele><time>2025-02-23T05:53:03Z</time></trkpt>
      <trkpt lat="30.044347" lon="120.143679"><ele>80</ele><time>2025-02-23T05:53:35Z</time></trkpt>
      <trkpt lat="30.044292" lon="120.143774"><ele>80</ele><time>2025-02-23T05:53:52Z</time></trkpt>
      <trkpt lat="30.044387" lon="120.143794"><ele>80</ele><time>2025-02-23T05:54:06Z</time></trkpt>
      <trkpt lat="30.044461" lon="120.144222"><ele>75</ele><time>2025-02-23T05:54:40Z</time></trkpt>
      <trkpt lat="30.044774" lon="120.144655"><ele>77</ele><time>2025-02-23T05:55:19Z</time></trkpt>
      <trkpt lat="30.044843" lon="120.144857"><ele>74</ele><time>2025-02-23T05:55:37Z</time></trkpt>
      <trkpt lat="30.044878" lon="120.145077"><ele>71</ele><time>2025-02-23T05:55:55Z</time></trkpt>
      <trkpt lat="30.044733" lon="120.145598"><ele>66</ele><time>2025-02-23T05:56:36Z</time></trkpt>
      <trkpt lat="30.044987" lon="120.14592"><ele>63</ele><time>2025-02-23T05:57:08Z</time></trkpt>
      <trkpt lat="30.045095" lon="120.146224"><ele>62</ele><time>2025-02-23T05:57:32Z</time></trkpt>
      <trkpt lat="30.045008" lon="120.147218"><ele>62</ele><time>2025-02-23T05:58:45Z</time></trkpt>
      <trkpt lat="30.044929" lon="120.147444"><ele>58</ele><time>2025-02-23T05:59:03Z</time></trkpt>
      <trkpt lat="30.045074" lon="120.147751"><ele>56</ele><time>2025-02-23T05:59:41Z</time></trkpt>
      <trkpt lat="30.045275" lon="120.147985"><ele>53</ele><time>2025-02-23T06:00:09Z</time></trkpt>
      <trkpt lat="30.045781" lon="120.148323"><ele>52</ele><time>2025-02-23T06:00:56Z</time></trkpt>
      <trkpt lat="30.045938" lon="120.148587"><ele>55</ele><time>2025-02-23T06:01:18Z</time></trkpt>
      <trkpt lat="30.046148" lon="120.149307"><ele>50</ele><time>2025-02-23T06:02:13Z</time></trkpt>
      <trkpt lat="30.046629" lon="120.149371"><ele>55</ele><time>2025-02-23T06:03:10Z</time></trkpt>
      <trkpt lat="30.046791" lon="120.149642"><ele>50</ele><time>2025-02-23T06:03:34Z</time></trkpt>
      <trkpt lat="30.046881" lon="120.149685"><ele>49</ele><time>2025-02-23T06:03:42Z</time></trkpt>
      <trkpt lat="30.047268" lon="120.149671"><ele>51</ele><time>2025-02-23T06:04:09Z</time></trkpt>
      <trkpt lat="30.047604" lon="120.150344"><ele>45</ele><time>2025-02-23T06:05:02Z</time></trkpt>
      <trkpt lat="30.047791" lon="120.150599"><ele>42</ele><time>2025-02-23T06:05:27Z</time></trkpt>
      <trkpt lat="30.048097" lon="120.15087"><ele>39</ele><time>2025-02-23T06:05:59Z</time></trkpt>
      <trkpt lat="30.048509" lon="120.151478"><ele>39</ele><time>2025-02-23T06:06:53Z</time></trkpt>
      <trkpt lat="30.049237" lon="120.152179"><ele>39</ele><time>2025-02-23T06:08:06Z</time></trkpt>
      <trkpt lat="30.049553" lon="120.152584"><ele>37</ele><time>2025-02-23T06:08:45Z</time></trkpt>
      <trkpt lat="30.049839" lon="120.15352"><ele>37</ele><time>2025-02-23T06:09:56Z</time></trkpt>
      <trkpt lat="30.050407" lon="120.154438"><ele>36</ele><time>2025-02-23T06:11:12Z</time></trkpt>
      <trkpt lat="30.050845" lon="120.155015"><ele>35</ele><time>2025-02-23T06:12:03Z</time></trkpt>
      <trkpt lat="30.051015" lon="120.154898"><ele>33</ele><time>2025-02-23T06:12:19Z</time></trkpt>
      <trkpt lat="30.051213" lon="120.154379"><ele>33</ele><time>2025-02-23T06:12:55Z</time></trkpt>
      <trkpt lat="30.05173" lon="120.153584"><ele>35</ele><time>2025-02-23T06:13:59Z</time></trkpt>
      <trkpt lat="30.052084" lon="120.152438"><ele>32</ele><time>2025-02-23T06:15:14Z</time></trkpt>
      <trkpt lat="30.052252" lon="120.151688"><ele>38</ele><time>2025-02-23T06:16:00Z</time></trkpt>
    </trkseg>
  </trk>
</gpx>
