<?xml version="1.0" encoding="UTF-8"?>
<gpx version="1.1" creator="MyWorld" xmlns="http://www.topografix.com/GPX/1/1">
  <metadata><name>深圳马峦山公园</name></metadata>
  <trk>
    <name>深圳马峦山公园</name>
    <trkseg>
      <trkpt lat="22.66958" lon="114.346056"><ele>52</ele><time>2025-04-04T05:05:06Z</time></trkpt>
      <trkpt lat="22.669409" lon="114.345923"><ele>53</ele><time>2025-04-04T05:05:24Z</time></trkpt>
      <trkpt lat="22.669385" lon="114.345718"><ele>55</ele><time>2025-04-04T05:05:45Z</time></trkpt>
      <trkpt lat="22.66876" lon="114.345465"><ele>53</ele><time>2025-04-04T05:06:52Z</time></trkpt>
      <trkpt lat="22.668725" lon="114.34537"><ele>55</ele><time>2025-04-04T05:07:00Z</time></trkpt>
      <trkpt lat="22.668804" lon="114.34497"><ele>59</ele><time>2025-04-04T05:07:34Z</time></trkpt>
      <trkpt lat="22.668746" lon="114.344767"><ele>58</ele><time>2025-04-04T05:07:52Z</time></trkpt>
      <trkpt lat="22.668161" lon="114.344046"><ele>58</ele><time>2025-04-04T05:09:04Z</time></trkpt>
      <trkpt lat="22.668097" lon="114.343757"><ele>56</ele><time>2025-04-04T05:09:31Z</time></trkpt>
      <trkpt lat="22.668143" lon="114.343674"><ele>56</ele><time>2025-04-04T05:09:38Z</time></trkpt>
      <trkpt lat="22.66839" lon="114.343352"><ele>51</ele><time>2025-04-04T05:10:09Z</time></trkpt>
      <trkpt lat="22.668793" lon="114.343033"><ele>51</ele><time>2025-04-04T05:10:50Z</time></trkpt>
      <trkpt lat="22.668865" lon="114.34285"><ele>53</ele><time>2025-04-04T05:11:04Z</time></trkpt>
      <trkpt lat="22.668831" lon="114.342752"><ele>55</ele><time>2025-04-04T05:11:11Z</time></trkpt>
      <trkpt lat="22.668556" lon="114.342656"><ele>50</ele><time>2025-04-04T05:11:35Z</time></trkpt>
      <trkpt lat="22.668325" lon="114.342473"><ele>50</ele><time>2025-04-04T05:11:57Z</time></trkpt>
      <trkpt lat="22.66822" lon="114.342435"><ele>51</ele><time>2025-04-04T05:12:04Z</time></trkpt>
      <trkpt lat="22.668034" lon="114.342501"><ele>49</ele><time>2025-04-04T05:12:20Z</time></trkpt>
      <trkpt lat="22.667554" lon="114.342995"><ele>50</ele><time>2025-04-04T05:13:12Z</time></trkpt>
      <trkpt lat="22.667056" lon="114.343308"><ele>53</ele><time>2025-04-04T05:13:59Z</time></trkpt>
      <trkpt lat="22.666314" lon="114.343485"><ele>51</ele><time>2025-04-04T05:14:58Z</time></trkpt>
      <trkpt lat="22.665272" lon="114.34348"><ele>55</ele><time>2025-04-04T05:16:25Z</time></trkpt>
      <trkpt lat="22.665202" lon="114.343558"><ele>52</ele><time>2025-04-04T05:16:34Z</time></trkpt>
      <trkpt lat="22.66528" lon="114.343608"><ele>51</ele><time>2025-04-04T05:16:58Z</time></trkpt>
      <trkpt lat="22.665193" lon="114.343638"><ele>49</ele><time>2025-04-04T05:22:39Z</time></trkpt>
      <trkpt lat="22.665096" lon="114.343915"><ele>58</ele><time>2025-04-04T05:23:16Z</time></trkpt>
      <trkpt lat="22.664718" lon="114.343855"><ele>53</ele><time>2025-04-04T05:23:54Z</time></trkpt>
      <trkpt lat="22.664168" lon="114.343632"><ele>54</ele><time>2025-04-04T05:24:44Z</time></trkpt>
      <trkpt lat="22.663494" lon="114.343543"><ele>49</ele><time>2025-04-04T05:25:45Z</time></trkpt>
      <trkpt lat="22.663098" lon="114.343577"><ele>47</ele><time>2025-04-04T05:26:20Z</time></trkpt>
      <trkpt lat="22.662441" lon="114.343466"><ele>44</ele><time>2025-04-04T05:27:20Z</time></trkpt>
      <trkpt lat="22.66226" lon="114.343524"><ele>48</ele><time>2025-04-04T05:27:40Z</time></trkpt>
      <trkpt lat="22.66212" lon="114.343798"><ele>47</ele><time>2025-04-04T05:28:06Z</time></trkpt>
      <trkpt lat="22.661955" lon="114.343881"><ele>47</ele><time>2025-04-04T05:28:26Z</time></trkpt>
      <trkpt lat="22.661473" lon="114.343841"><ele>46</ele><time>2025-04-04T05:29:14Z</time></trkpt>
      <trkpt lat="22.661147" lon="114.343632"><ele>53</ele><time>2025-04-04T05:29:55Z</time></trkpt>
      <trkpt lat="22.661021" lon="114.34335"><ele>52</ele><time>2025-04-04T05:30:24Z</time></trkpt>
      <trkpt lat="22.660732" lon="114.343085"><ele>51</ele><time>2025-04-04T05:30:54Z</time></trkpt>
      <trkpt lat="22.659208" lon="114.342857"><ele>63</ele><time>2025-04-04T05:32:56Z</time></trkpt>
      <trkpt lat="22.658441" lon="114.342444"><ele>72</ele><time>2025-04-04T05:34:13Z</time></trkpt>
      <trkpt lat="22.658031" lon="114.34163"><ele>73</ele><time>2025-04-04T05:35:20Z</time></trkpt>
      <trkpt lat="22.65806" lon="114.341229"><ele>74</ele><time>2025-04-04T05:35:48Z</time></trkpt>
      <trkpt lat="22.657688" lon="114.340368"><ele>68</ele><time>2025-04-04T05:37:40Z</time></trkpt>
      <trkpt lat="22.65739" lon="114.340324"><ele>66</ele><time>2025-04-04T05:38:06Z</time></trkpt>
      <trkpt lat="22.657355" lon="114.340228"><ele>64</ele><time>2025-04-04T05:38:54Z</time></trkpt>
      <trkpt lat="22.65725" lon="114.340225"><ele>63</ele><time>2025-04-04T05:39:07Z</time></trkpt>
      <trkpt lat="22.656977" lon="114.3403"><ele>57</ele><time>2025-04-04T05:39:31Z</time></trkpt>
      <trkpt lat="22.656777" lon="114.340239"><ele>60</ele><time>2025-04-04T05:39:46Z</time></trkpt>
      <trkpt lat="22.6565" lon="114.340279"><ele>61</ele><time>2025-04-04T05:40:12Z</time></trkpt>
      <trkpt lat="22.656131" lon="114.340388"><ele>63</ele><time>2025-04-04T05:40:43Z</time></trkpt>
      <trkpt lat="22.655256" lon="114.34034"><ele>62</ele><time>2025-04-04T05:41:53Z</time></trkpt>
      <trkpt lat="22.654964" lon="114.340076"><ele>67</ele><time>2025-04-04T05:42:22Z</time></trkpt>
      <trkpt lat="22.654654" lon="114.339421"><ele>67</ele><time>2025-04-04T05:43:18Z</time></trkpt>
      <trkpt lat="22.654378" lon="114.33914"><ele>69</ele><time>2025-04-04T05:43:48Z</time></trkpt>
      <trkpt lat="22.65412" lon="114.338998"><ele>72</ele><time>2025-04-04T05:44:12Z</time></trkpt>
      <trkpt lat="22.65375" lon="114.338942"><ele>78</ele><time>2025-04-04T05:44:46Z</time></trkpt>
      <trkpt lat="22.652933" lon="114.338415"><ele>96</ele><time>2025-04-04T05:46:10Z</time></trkpt>
      <trkpt lat="22.652745" lon="114.338465"><ele>94</ele><time>2025-04-04T05:46:26Z</time></trkpt>
      <trkpt lat="22.652559" lon="114.338418"><ele>94</ele><time>2025-04-04T05:46:42Z</time></trkpt>
      <trkpt lat="22.652209" lon="114.338094"><ele>104</ele><time>2025-04-04T05:47:24Z</time></trkpt>
      <trkpt lat="22.65178" lon="114.337901"><ele>111</ele><time>2025-04-04T05:48:03Z</time></trkpt>
      <trkpt lat="22.651592" lon="114.337962"><ele>113</ele><time>2025-04-04T05:48:17Z</time></trkpt>
      <trkpt lat="22.65147" lon="114.338113"><ele>118</ele><time>2025-04-04T05:48:35Z</time></trkpt>
      <trkpt lat="22.651185" lon="114.338167"><ele>118</ele><time>2025-04-04T05:49:01Z</time></trkpt>
      <trkpt lat="22.650723" lon="114.337792"><ele>131</ele><time>2025-04-04T05:49:53Z</time></trkpt>
      <trkpt lat="22.650445" lon="114.337662"><ele>135</ele><time>2025-04-04T05:50:46Z</time></trkpt>
      <trkpt lat="22.650353" lon="114.337684"><ele>135</ele><time>2025-04-04T05:50:54Z</time></trkpt>
      <trkpt lat="22.650363" lon="114.33808"><ele>143</ele><time>2025-04-04T05:51:25Z</time></trkpt>
      <trkpt lat="22.650136" lon="114.33824"><ele>149</ele><time>2025-04-04T05:51:52Z</time></trkpt>
      <trkpt lat="22.649699" lon="114.338085"><ele>151</ele><time>2025-04-04T05:52:31Z</time></trkpt>
      <trkpt lat="22.64952" lon="114.33814"><ele>155</ele><time>2025-04-04T05:52:47Z</time></trkpt>
      <trkpt lat="22.64926" lon="114.33803"><ele>155</ele><time>2025-04-04T05:53:12Z</time></trkpt>
      <trkpt lat="22.649078" lon="114.338079"><ele>161</ele><time>2025-04-04T05:53:32Z</time></trkpt>
      <trkpt lat="22.648891" lon="114.338049"><ele>159</ele><time>2025-04-04T05:53:51Z</time></trkpt>
      <trkpt lat="22.648542" lon="114.338221"><ele>162</ele><time>2025-04-04T05:54:19Z</time></trkpt>
      <trkpt lat="22.648156" lon="114.338198"><ele>163</ele><time>2025-04-04T05:54:51Z</time></trkpt>
      <trkpt lat="22.647997" lon="114.338295"><ele>164</ele><time>2025-04-04T05:55:06Z</time></trkpt>
      <trkpt lat="22.647624" lon="114.338341"><ele>175</ele><time>2025-04-04T05:55:41Z</time></trkpt>
      <trkpt lat="22.64753" lon="114.338322"><ele>178</ele><time>2025-04-04T05:55:49Z</time></trkpt>
      <trkpt lat="22.647235" lon="114.338038"><ele>182</ele><time>2025-04-04T05:56:21Z</time></trkpt>
      <trkpt lat="22.646764" lon="114.337953"><ele>185</ele><time>2025-04-04T05:57:01Z</time></trkpt>
      <trkpt lat="22.646668" lon="114.338138"><ele>186</ele><time>2025-04-04T05:57:19Z</time></trkpt>
      <trkpt lat="22.646574" lon="114.33865"><ele>196</ele><time>2025-04-04T05:58:04Z</time></trkpt>
      <trkpt lat="22.64625" lon="114.339042"><ele>194</ele><time>2025-04-04T05:58:41Z</time></trkpt>
      <trkpt lat="22.64596" lon="114.33914"><ele>197</ele><time>2025-04-04T05:59:05Z</time></trkpt>
      <trkpt lat="22.645582" lon="114.339448"><ele>203</ele><time>2025-04-04T05:59:43Z</time></trkpt>
      <trkpt lat="22.644942" lon="114.339624"><ele>200</ele><time>2025-04-04T06:00:39Z</time></trkpt>
      <trkpt lat="22.644753" lon="114.339576"><ele>199</ele><time>2025-04-04T06:00:54Z</time></trkpt>
      <trkpt lat="22.644627" lon="114.339299"><ele>202</ele><time>2025-04-04T06:01:18Z</time></trkpt>
      <trkpt lat="22.644092" lon="114.339435"><ele>204</ele><time>2025-04-04T06:02:00Z</time></trkpt>
      <trkpt lat="22.643724" lon="114.339358"><ele>209</ele><time>2025-04-04T06:02:28Z</time></trkpt>
      <trkpt lat="22.643462" lon="114.33922"><ele>206</ele><time>2025-04-04T06:02:52Z</time></trkpt>
      <trkpt lat="22.642886" lon="114.33917"><ele>206</ele><time>2025-04-04T06:03:41Z</time></trkpt>
      <trkpt lat="22.642521" lon="114.339255"><ele>208</ele><time>2025-04-04T06:04:13Z</time></trkpt>
      <trkpt lat="22.642311" lon="114.339053"><ele>208</ele><time>2025-04-04T06:04:36Z</time></trkpt>
      <trkpt lat="22.642224" lon="114.338763"><ele>210</ele><time>2025-04-04T06:05:00Z</time></trkpt>
      <trkpt lat="22.641886" lon="114.338573"><ele>210</ele><time>2025-04-04T06:05:30Z</time></trkpt>
      <trkpt lat="22.641839" lon="114.338476"><ele>211</ele><time>2025-04-04T06:05:38Z</time></trkpt>
      <trkpt lat="22.641843" lon="114.338081"><ele>212</ele><time>2025-04-04T06:06:10Z</time></trkpt>
      <trkpt lat="22.641675" lon="114.337827"><ele>213</ele><time>2025-04-04T06:06:48Z</time></trkpt>
      <trkpt lat="22.641693" lon="114.337414"><ele>213</ele><time>2025-04-04T06:07:22Z</time></trkpt>
      <trkpt lat="22.641535" lon="114.337285"><ele>214</ele><time>2025-04-04T06:07:39Z</time></trkpt>
      <trkpt lat="22.641257" lon="114.337316"><ele>216</ele><time>2025-04-04T06:08:02Z</time></trkpt>
      <trkpt lat="22.641175" lon="114.337252"><ele>218</ele><time>2025-04-04T06:08:11Z</time></trkpt>
      <trkpt lat="22.641168" lon="114.336852"><ele>224</ele><time>2025-04-04T06:08:48Z</time></trkpt>
      <trkpt lat="22.640847" lon="114.336647"><ele>220</ele><time>2025-04-04T06:09:26Z</time></trkpt>
      <trkpt lat="22.640731" lon="114.336486"><ele>222</ele><time>2025-04-04T06:09:44Z</time></trkpt>
      <trkpt lat="22.640751" lon="114.336376"><ele>218</ele><time>2025-04-04T06:09:54Z</time></trkpt>
      <trkpt lat="22.641016" lon="114.336277"><ele>213</ele><time>2025-04-04T06:10:20Z</time></trkpt>
      <trkpt lat="22.641106" lon="114.336111"><ele>212</ele><time>2025-04-04T06:10:35Z</time></trkpt>
      <trkpt lat="22.641063" lon="114.335919"><ele>217</ele><time>2025-04-04T06:10:51Z</time></trkpt>
      <trkpt lat="22.640804" lon="114.335768"><ele>218</ele><time>2025-04-04T06:11:14Z</time></trkpt>
      <trkpt lat="22.640366" lon="114.335224"><ele>219</ele><time>2025-04-04T06:12:16Z</time></trkpt>
      <trkpt lat="22.64039" lon="114.334921"><ele>215</ele><time>2025-04-04T06:12:39Z</time></trkpt>
      <trkpt lat="22.640554" lon="114.33481"><ele>214</ele><time>2025-04-04T06:12:58Z</time></trkpt>
      <trkpt lat="22.640633" lon="114.334617"><ele>215</ele><time>2025-04-04T06:13:13Z</time></trkpt>
      <trkpt lat="22.640597" lon="114.33452"><ele>213</ele><time>2025-04-04T06:13:30Z</time></trkpt>
      <trkpt lat="22.640511" lon="114.334482"><ele>206</ele><time>2025-04-04T06:13:46Z</time></trkpt>
      <trkpt lat="22.640049" lon="114.334545"><ele>194</ele><time>2025-04-04T06:14:48Z</time></trkpt>
      <trkpt lat="22.63987" lon="114.334505"><ele>192</ele><time>2025-04-04T06:15:14Z</time></trkpt>
      <trkpt lat="22.639738" lon="114.33435"><ele>192</ele><time>2025-04-04T06:15:41Z</time></trkpt>
      <trkpt lat="22.639732" lon="114.334048"><ele>193</ele><time>2025-04-04T06:16:17Z</time></trkpt>
      <trkpt lat="22.639738" lon="114.33435"><ele>190</ele><time>2025-04-04T06:17:45Z</time></trkpt>
      <trkpt lat="22.639894" lon="114.334485"><ele>192</ele><time>2025-04-04T06:18:13Z</time></trkpt>
      <trkpt lat="22.640081" lon="114.334539"><ele>195</ele><time>2025-04-04T06:18:50Z</time></trkpt>
      <trkpt lat="22.640552" lon="114.334489"><ele>208</ele><time>2025-04-04T06:20:23Z</time></trkpt>
      <trkpt lat="22.640605" lon="114.334575"><ele>211</ele><time>2025-04-04T06:20:41Z</time></trkpt>
      <trkpt lat="22.640584" lon="114.334765"><ele>212</ele><time>2025-04-04T06:20:56Z</time></trkpt>
      <trkpt lat="22.64037" lon="114.334963"><ele>208</ele><time>2025-04-04T06:21:23Z</time></trkpt>
      <trkpt lat="22.640379" lon="114.335371"><ele>216</ele><time>2025-04-04T06:22:00Z</time></trkpt>
      <trkpt lat="22.640625" lon="114.335532"><ele>213</ele><time>2025-04-04T06:22:23Z</time></trkpt>
      <trkpt lat="22.641043" lon="114.33596"><ele>214</ele><time>2025-04-04T06:23:10Z</time></trkpt>
      <trkpt lat="22.641099" lon="114.336149"><ele>214</ele><time>2025-04-04T06:23:25Z</time></trkpt>
      <trkpt lat="22.641044" lon="114.336235"><ele>213</ele><time>2025-04-04T06:23:32Z</time></trkpt>
      <trkpt lat="22.640784" lon="114.336371"><ele>211</ele><time>2025-04-04T06:23:57Z</time></trkpt>
      <trkpt lat="22.64074" lon="114.336559"><ele>220</ele><time>2025-04-04T06:24:17Z</time></trkpt>
      <trkpt lat="22.640803" lon="114.336635"><ele>222</ele><time>2025-04-04T06:24:26Z</time></trkpt>
      <trkpt lat="22.640963" lon="114.3364"><ele>223</ele><time>2025-04-04T06:24:56Z</time></trkpt>
      <trkpt lat="22.64124" lon="114.336402"><ele>221</ele><time>2025-04-04T06:25:17Z</time></trkpt>
      <trkpt lat="22.641744" lon="114.336098"><ele>223</ele><time>2025-04-04T06:26:03Z</time></trkpt>
      <trkpt lat="22.641856" lon="114.335911"><ele>227</ele><time>2025-04-04T06:26:18Z</time></trkpt>
      <trkpt lat="22.642175" lon="114.335696"><ele>230</ele><time>2025-04-04T06:26:53Z</time></trkpt>
      <trkpt lat="22.642221" lon="114.335604"><ele>233</ele><time>2025-04-04T06:27:01Z</time></trkpt>
      <trkpt lat="22.642108" lon="114.335439"><ele>238</ele><time>2025-04-04T06:27:16Z</time></trkpt>
      <trkpt lat="22.641931" lon="114.335364"><ele>240</ele><time>2025-04-04T06:27:33Z</time></trkpt>
      <trkpt lat="22.641815" lon="114.334856"><ele>250</ele><time>2025-04-04T06:28:12Z</time></trkpt>
      <trkpt lat="22.641612" lon="114.334637"><ele>250</ele><time>2025-04-04T06:28:35Z</time></trkpt>
      <trkpt lat="22.64154" lon="114.334436"><ele>253</ele><time>2025-04-04T06:28:52Z</time></trkpt>
      <trkpt lat="22.641551" lon="114.334213"><ele>254</ele><time>2025-04-04T06:29:08Z</time></trkpt>
      <trkpt lat="22.64181" lon="114.333791"><ele>252</ele><time>2025-04-04T06:29:48Z</time></trkpt>
      <trkpt lat="22.641971" lon="114.333192"><ele>257</ele><time>2025-04-04T06:30:36Z</time></trkpt>
      <trkpt lat="22.641799" lon="114.332177"><ele>272</ele><time>2025-04-04T06:31:57Z</time></trkpt>
      <trkpt lat="22.641629" lon="114.331939"><ele>277</ele><time>2025-04-04T06:32:21Z</time></trkpt>
      <trkpt lat="22.641501" lon="114.331431"><ele>275</ele><time>2025-04-04T06:33:00Z</time></trkpt>
      <trkpt lat="22.641043" lon="114.331039"><ele>278</ele><time>2025-04-04T06:33:50Z</time></trkpt>
      <trkpt lat="22.640721" lon="114.330535"><ele>270</ele><time>2025-04-04T06:34:33Z</time></trkpt>
      <trkpt lat="22.640378" lon="114.330341"><ele>266</ele><time>2025-04-04T06:35:05Z</time></trkpt>
      <trkpt lat="22.640092" lon="114.329916"><ele>258</ele><time>2025-04-04T06:35:44Z</time></trkpt>
      <trkpt lat="22.639988" lon="114.329625"><ele>259</ele><time>2025-04-04T06:36:07Z</time></trkpt>
      <trkpt lat="22.640004" lon="114.329522"><ele>257</ele><time>2025-04-04T06:36:14Z</time></trkpt>
      <trkpt lat="22.640145" lon="114.329369"><ele>255</ele><time>2025-04-04T06:36:30Z</time></trkpt>
      <trkpt lat="22.640705" lon="114.32896"><ele>260</ele><time>2025-04-04T06:37:25Z</time></trkpt>
      <trkpt lat="22.641081" lon="114.328895"><ele>259</ele><time>2025-04-04T06:37:58Z</time></trkpt>
      <trkpt lat="22.641263" lon="114.328946"><ele>258</ele><time>2025-04-04T06:38:18Z</time></trkpt>
      <trkpt lat="22.641329" lon="114.329026"><ele>261</ele><time>2025-04-04T06:38:25Z</time></trkpt>
      <trkpt lat="22.641496" lon="114.329523"><ele>262</ele><time>2025-04-04T06:39:14Z</time></trkpt>
      <trkpt lat="22.641627" lon="114.329674"><ele>263</ele><time>2025-04-04T06:39:32Z</time></trkpt>
      <trkpt lat="22.641505" lon="114.329513"><ele>263</ele><time>2025-04-04T06:40:01Z</time></trkpt>
      <trkpt lat="22.641479" lon="114.329321"><ele>267</ele><time>2025-04-04T06:40:17Z</time></trkpt>
      <trkpt lat="22.641287" lon="114.328971"><ele>259</ele><time>2025-04-04T06:40:50Z</time></trkpt>
      <trkpt lat="22.640914" lon="114.32889"><ele>260</ele><time>2025-04-04T06:41:18Z</time></trkpt>
      <trkpt lat="22.640908" lon="114.328786"><ele>258</ele><time>2025-04-04T06:41:26Z</time></trkpt>
      <trkpt lat="22.641314" lon="114.328356"><ele>269</ele><time>2025-04-04T06:42:15Z</time></trkpt>
      <trkpt lat="22.641494" lon="114.328301"><ele>266</ele><time>2025-04-04T06:42:30Z</time></trkpt>
      <trkpt lat="22.641715" lon="114.328092"><ele>262</ele><time>2025-04-04T06:42:56Z</time></trkpt>
      <trkpt lat="22.642101" lon="114.328108"><ele>261</ele><time>2025-04-04T06:43:32Z</time></trkpt>
      <trkpt lat="22.642645" lon="114.327889"><ele>261</ele><time>2025-04-04T06:44:25Z</time></trkpt>
      <trkpt lat="22.643316" lon="114.32783"><ele>263</ele><time>2025-04-04T06:45:23Z</time></trkpt>
      <trkpt lat="22.643585" lon="114.327902"><ele>266</ele><time>2025-04-04T06:45:48Z</time></trkpt>
      <trkpt lat="22.643962" lon="114.327787"><ele>268</ele><time>2025-04-04T06:46:24Z</time></trkpt>
      <trkpt lat="22.644535" lon="114.327737"><ele>274</ele><time>2025-04-04T06:47:14Z</time></trkpt>
      <trkpt lat="22.645017" lon="114.327796"><ele>273</ele><time>2025-04-04T06:48:00Z</time></trkpt>
      <trkpt lat="22.645188" lon="114.327695"><ele>273</ele><time>2025-04-04T06:48:16Z</time></trkpt>
      <trkpt lat="22.645472" lon="114.327775"><ele>273</ele><time>2025-04-04T06:48:47Z</time></trkpt>
      <trkpt lat="22.645661" lon="114.328019"><ele>286</ele><time>2025-04-04T06:49:21Z</time></trkpt>
      <trkpt lat="22.645934" lon="114.327934"><ele>285</ele><time>2025-04-04T06:49:44Z</time></trkpt>
      <trkpt lat="22.646154" lon="114.327733"><ele>283</ele><time>2025-04-04T06:50:12Z</time></trkpt>
      <trkpt lat="22.646416" lon="114.327598"><ele>282</ele><time>2025-04-04T06:50:39Z</time></trkpt>
      <trkpt lat="22.646614" lon="114.327563"><ele>279</ele><time>2025-04-04T06:50:54Z</time></trkpt>
      <trkpt lat="22.646658" lon="114.327472"><ele>280</ele><time>2025-04-04T06:51:02Z</time></trkpt>
      <trkpt lat="22.646626" lon="114.327268"><ele>282</ele><time>2025-04-04T06:51:21Z</time></trkpt>
      <trkpt lat="22.646894" lon="114.327012"><ele>283</ele><time>2025-04-04T06:52:43Z</time></trkpt>
      <trkpt lat="22.646894" lon="114.326812"><ele>296</ele><time>2025-04-04T06:53:34Z</time></trkpt>
      <trkpt lat="22.647085" lon="114.3266"><ele>303</ele><time>2025-04-04T06:54:22Z</time></trkpt>
      <trkpt lat="22.647349" lon="114.326506"><ele>315</ele><time>2025-04-04T06:55:52Z</time></trkpt>
      <trkpt lat="22.647498" lon="114.326142"><ele>335</ele><time>2025-04-04T06:59:06Z</time></trkpt>
      <trkpt lat="22.64777" lon="114.326022"><ele>337</ele><time>2025-04-04T07:00:16Z</time></trkpt>
      <trkpt lat="22.647863" lon="114.325848"><ele>341</ele><time>2025-04-04T07:00:47Z</time></trkpt>
      <trkpt lat="22.648345" lon="114.32535"><ele>330</ele><time>2025-04-04T07:02:39Z</time></trkpt>
      <trkpt lat="22.648357" lon="114.325146"><ele>326</ele><time>2025-04-04T07:03:04Z</time></trkpt>
      <trkpt lat="22.64824" lon="114.324869"><ele>331</ele><time>2025-04-04T07:03:43Z</time></trkpt>
      <trkpt lat="22.648221" lon="114.324468"><ele>321</ele><time>2025-04-04T07:04:25Z</time></trkpt>
      <trkpt lat="22.648298" lon="114.32429"><ele>322</ele><time>2025-04-04T07:04:46Z</time></trkpt>
      <trkpt lat="22.64852" lon="114.324106"><ele>319</ele><time>2025-04-04T07:05:21Z</time></trkpt>
      <trkpt lat="22.648776" lon="114.324003"><ele>316</ele><time>2025-04-04T07:05:52Z</time></trkpt>
      <trkpt lat="22.648764" lon="114.323601"><ele>309</ele><time>2025-04-04T07:06:33Z</time></trkpt>
      <trkpt lat="22.648947" lon="114.323545"><ele>301</ele><time>2025-04-04T07:06:58Z</time></trkpt>
      <trkpt lat="22.64902" lon="114.323611"><ele>310</ele><time>2025-04-04T07:07:11Z</time></trkpt>
      <trkpt lat="22.649297" lon="114.323525"><ele>304</ele><time>2025-04-04T07:07:42Z</time></trkpt>
      <trkpt lat="22.649295" lon="114.323317"><ele>304</ele><time>2025-04-04T07:08:01Z</time></trkpt>
      <trkpt lat="22.64938" lon="114.32314"><ele>307</ele><time>2025-04-04T07:08:22Z</time></trkpt>
      <trkpt lat="22.650138" lon="114.322236"><ele>299</ele><time>2025-04-04T07:10:52Z</time></trkpt>
      <trkpt lat="22.650263" lon="114.321968"><ele>286</ele><time>2025-04-04T07:11:25Z</time></trkpt>
      <trkpt lat="22.650356" lon="114.321973"><ele>287</ele><time>2025-04-04T07:11:34Z</time></trkpt>
      <trkpt lat="22.650412" lon="114.32189"><ele>285</ele><time>2025-04-04T07:11:47Z</time></trkpt>
      <trkpt lat="22.65076" lon="114.321712"><ele>289</ele><time>2025-04-04T07:12:30Z</time></trkpt>
      <trkpt lat="22.651038" lon="114.321461"><ele>293</ele><time>2025-04-04T07:13:46Z</time></trkpt>
      <trkpt lat="22.651237" lon="114.321471"><ele>298</ele><time>2025-04-04T07:14:07Z</time></trkpt>
      <trkpt lat="22.6515" lon="114.321386"><ele>303</ele><time>2025-04-04T07:17:55Z</time></trkpt>
      <trkpt lat="22.65186" lon="114.321212"><ele>313</ele><time>2025-04-04T07:18:23Z</time></trkpt>
      <trkpt lat="22.651922" lon="114.321127"><ele>316</ele><time>2025-04-04T07:18:33Z</time></trkpt>
      <trkpt lat="22.652308" lon="114.321058"><ele>331</ele><time>2025-04-04T07:20:55Z</time></trkpt>
      <trkpt lat="22.653037" lon="114.321138"><ele>358</ele><time>2025-04-04T07:25:12Z</time></trkpt>
      <trkpt lat="22.653388" lon="114.321026"><ele>370</ele><time>2025-04-04T07:26:04Z</time></trkpt>
      <trkpt lat="22.654097" lon="114.321542"><ele>381</ele><time>2025-04-04T07:28:16Z</time></trkpt>
      <trkpt lat="22.654464" lon="114.321554"><ele>389</ele><time>2025-04-04T07:28:53Z</time></trkpt>
      <trkpt lat="22.654736" lon="114.321709"><ele>388</ele><time>2025-04-04T07:29:26Z</time></trkpt>
      <trkpt lat="22.655112" lon="114.321788"><ele>393</ele><time>2025-04-04T07:30:27Z</time></trkpt>
      <trkpt lat="22.655359" lon="114.321964"><ele>400</ele><time>2025-04-04T07:37:40Z</time></trkpt>
      <trkpt lat="22.655457" lon="114.321949"><ele>404</ele><time>2025-04-04T07:38:07Z</time></trkpt>
      <trkpt lat="22.655559" lon="114.322121"><ele>415</ele><time>2025-04-04T07:38:29Z</time></trkpt>
      <trkpt lat="22.655741" lon="114.322148"><ele>419</ele><time>2025-04-04T07:39:35Z</time></trkpt>
      <trkpt lat="22.655723" lon="114.322332"><ele>438</ele><time>2025-04-04T07:41:14Z</time></trkpt>
      <trkpt lat="22.655662" lon="114.322259"><ele>418</ele><time>2025-04-04T07:44:42Z</time></trkpt>
      <trkpt lat="22.655774" lon="114.322424"><ele>423</ele><time>2025-04-04T07:45:13Z</time></trkpt>
      <trkpt lat="22.655734" lon="114.322623"><ele>420</ele><time>2025-04-04T07:45:38Z</time></trkpt>
      <trkpt lat="22.655772" lon="114.322917"><ele>417</ele><time>2025-04-04T07:46:06Z</time></trkpt>
      <trkpt lat="22.655869" lon="114.323088"><ele>415</ele><time>2025-04-04T07:46:27Z</time></trkpt>
      <trkpt lat="22.655909" lon="114.323506"><ele>409</ele><time>2025-04-04T07:47:04Z</time></trkpt>
      <trkpt lat="22.656276" lon="114.323944"><ele>408</ele><time>2025-04-04T07:48:19Z</time></trkpt>
      <trkpt lat="22.656337" lon="114.324535"><ele>390</ele><time>2025-04-04T07:50:18Z</time></trkpt>
      <trkpt lat="22.656477" lon="114.324789"><ele>371</ele><time>2025-04-04T07:52:27Z</time></trkpt>
      <trkpt lat="22.656543" lon="114.325193"><ele>351</ele><time>2025-04-04T07:54:20Z</time></trkpt>
      <trkpt lat="22.65669" lon="114.325347"><ele>348</ele><time>2025-04-04T07:54:46Z</time></trkpt>
      <trkpt lat="22.657008" lon="114.32553"><ele>342</ele><time>2025-04-04T07:57:03Z</time></trkpt>
      <trkpt lat="22.657067" lon="114.325718"><ele>336</ele><time>2025-04-04T07:57:25Z</time></trkpt>
      <trkpt lat="22.657046" lon="114.325913"><ele>332</ele><time>2025-04-04T07:57:47Z</time></trkpt>
      <trkpt lat="22.657185" lon="114.326311"><ele>327</ele><time>2025-04-04T07:58:41Z</time></trkpt>
      <trkpt lat="22.657589" lon="114.326713"><ele>317</ele><time>2025-04-04T08:00:08Z</time></trkpt>
      <trkpt lat="22.657606" lon="114.327313"><ele>301</ele><time>2025-04-04T08:01:16Z</time></trkpt>
      <trkpt lat="22.657873" lon="114.327835"><ele>288</ele><time>2025-04-04T08:02:51Z</time></trkpt>
      <trkpt lat="22.658015" lon="114.327957"><ele>285</ele><time>2025-04-04T08:03:34Z</time></trkpt>
      <trkpt lat="22.657971" lon="114.328043"><ele>280</ele><time>2025-04-04T08:03:55Z</time></trkpt>
      <trkpt lat="22.658056" lon="114.328327"><ele>264</ele><time>2025-04-04T08:05:22Z</time></trkpt>
      <trkpt lat="22.65805" lon="114.328536"><ele>250</ele><time>2025-04-04T08:06:08Z</time></trkpt>
      <trkpt lat="22.657896" lon="114.328776"><ele>236</ele><time>2025-04-04T08:07:06Z</time></trkpt>
      <trkpt lat="22.658335" lon="114.328945"><ele>235</ele><time>2025-04-04T08:08:41Z</time></trkpt>
      <trkpt lat="22.658723" lon="114.329223"><ele>211</ele><time>2025-04-04T08:12:10Z</time></trkpt>
      <trkpt lat="22.658842" lon="114.329384"><ele>205</ele><time>2025-04-04T08:12:27Z</time></trkpt>
      <trkpt lat="22.658546" lon="114.330155"><ele>178</ele><time>2025-04-04T08:14:14Z</time></trkpt>
      <trkpt lat="22.658072" lon="114.330518"><ele>172</ele><time>2025-04-04T08:15:45Z</time></trkpt>
      <trkpt lat="22.657868" lon="114.330994"><ele>165</ele><time>2025-04-04T08:16:42Z</time></trkpt>
      <trkpt lat="22.657599" lon="114.331301"><ele>147</ele><time>2025-04-04T08:17:49Z</time></trkpt>
      <trkpt lat="22.657559" lon="114.331499"><ele>145</ele><time>2025-04-04T08:18:21Z</time></trkpt>
      <trkpt lat="22.657227" lon="114.332005"><ele>162</ele><time>2025-04-04T08:19:49Z</time></trkpt>
      <trkpt lat="22.657255" lon="114.332497"><ele>160</ele><time>2025-04-04T08:21:26Z</time></trkpt>
      <trkpt lat="22.656777" lon="114.333229"><ele>114</ele><time>2025-04-04T08:25:50Z</time></trkpt>
      <trkpt lat="22.656855" lon="114.334322"><ele>75</ele><time>2025-04-04T08:29:48Z</time></trkpt>
      <trkpt lat="22.656783" lon="114.334391"><ele>71</ele><time>2025-04-04T08:30:14Z</time></trkpt>
      <trkpt lat="22.656759" lon="114.334596"><ele>71</ele><time>2025-04-04T08:30:35Z</time></trkpt>
      <trkpt lat="22.656795" lon="114.334685"><ele>71</ele><time>2025-04-04T08:30:43Z</time></trkpt>
      <trkpt lat="22.65716" lon="114.334787"><ele>73</ele><time>2025-04-04T08:31:17Z</time></trkpt>
      <trkpt lat="22.657716" lon="114.334651"><ele>70</ele><time>2025-04-04T08:32:30Z</time></trkpt>
      <trkpt lat="22.658292" lon="114.334611"><ele>66</ele><time>2025-04-04T08:33:20Z</time></trkpt>
      <trkpt lat="22.658756" lon="114.334659"><ele>63</ele><time>2025-04-04T08:34:01Z</time></trkpt>
      <trkpt lat="22.659233" lon="114.334797"><ele>61</ele><time>2025-04-04T08:34:43Z</time></trkpt>
      <trkpt lat="22.659524" lon="114.335084"><ele>64</ele><time>2025-04-04T08:35:16Z</time></trkpt>
      <trkpt lat="22.659695" lon="114.335568"><ele>64</ele><time>2025-04-04T08:35:58Z</time></trkpt>
      <trkpt lat="22.659741" lon="114.335873"><ele>61</ele><time>2025-04-04T08:36:23Z</time></trkpt>
      <trkpt lat="22.659667" lon="114.336369"><ele>61</ele><time>2025-04-04T08:37:04Z</time></trkpt>
      <trkpt lat="22.659573" lon="114.33655"><ele>62</ele><time>2025-04-04T08:37:20Z</time></trkpt>
      <trkpt lat="22.659042" lon="114.336842"><ele>56</ele><time>2025-04-04T08:38:11Z</time></trkpt>
      <trkpt lat="22.658812" lon="114.33704"><ele>57</ele><time>2025-04-04T08:38:36Z</time></trkpt>
      <trkpt lat="22.658371" lon="114.337247"><ele>58</ele><time>2025-04-04T08:39:19Z</time></trkpt>
      <trkpt lat="22.658307" lon="114.337328"><ele>58</ele><time>2025-04-04T08:39:28Z</time></trkpt>
      <trkpt lat="22.658201" lon="114.337824"><ele>56</ele><time>2025-04-04T08:40:08Z</time></trkpt>
      <trkpt lat="22.657912" lon="114.338255"><ele>59</ele><time>2025-04-04T08:40:49Z</time></trkpt>
      <trkpt lat="22.65816" lon="114.339907"><ele>69</ele><time>2025-04-04T08:43:02Z</time></trkpt>
      <trkpt lat="22.6581" lon="114.339728"><ele>71</ele><time>2025-04-04T08:43:31Z</time></trkpt>
      <trkpt lat="22.657998" lon="114.33988"><ele>75</ele><time>2025-04-04T08:44:14Z</time></trkpt>
      <trkpt lat="22.657845" lon="114.340885"><ele>75</ele><time>2025-04-04T08:45:59Z</time></trkpt>
      <trkpt lat="22.658034" lon="114.341374"><ele>72</ele><time>2025-04-04T08:46:49Z</time></trkpt>
      <trkpt lat="22.657953" lon="114.341547"><ele>66</ele><time>2025-04-04T08:47:06Z</time></trkpt>
      <trkpt lat="22.658112" lon="114.342029"><ele>79</ele><time>2025-04-04T08:47:42Z</time></trkpt>
      <trkpt lat="22.658255" lon="114.342288"><ele>74</ele><time>2025-04-04T08:48:07Z</time></trkpt>
      <trkpt lat="22.658422" lon="114.342375"><ele>69</ele><time>2025-04-04T08:48:21Z</time></trkpt>
      <trkpt lat="22.6586" lon="114.3426"><ele>73</ele><time>2025-04-04T08:48:47Z</time></trkpt>
      <trkpt lat="22.658979" lon="114.3427"><ele>68</ele><time>2025-04-04T08:49:24Z</time></trkpt>
      <trkpt lat="22.659215" lon="114.342867"><ele>69</ele><time>2025-04-04T08:49:44Z</time></trkpt>
      <trkpt lat="22.659492" lon="114.342833"><ele>69</ele><time>2025-04-04T08:50:09Z</time></trkpt>
      <trkpt lat="22.66042" lon="114.343031"><ele>70</ele><time>2025-04-04T08:51:33Z</time></trkpt>
      <trkpt lat="22.66076" lon="114.34321"><ele>67</ele><time>2025-04-04T08:52:06Z</time></trkpt>
      <trkpt lat="22.661025" lon="114.343647"><ele>67</ele><time>2025-04-04T08:52:48Z</time></trkpt>
      <trkpt lat="22.661185" lon="114.343783"><ele>64</ele><time>2025-04-04T08:53:06Z</time></trkpt>
      <trkpt lat="22.661467" lon="114.343912"><ele>56</ele><time>2025-04-04T08:53:33Z</time></trkpt>
      <trkpt lat="22.661763" lon="114.343936"><ele>51</ele><time>2025-04-04T08:54:00Z</time></trkpt>
      <trkpt lat="22.661938" lon="114.343873"><ele>52</ele><time>2025-04-04T08:54:16Z</time></trkpt>
      <trkpt lat="22.662158" lon="114.34354"><ele>52</ele><time>2025-04-04T08:54:49Z</time></trkpt>
      <trkpt lat="22.66232" lon="114.34343"><ele>50</ele><time>2025-04-04T08:55:05Z</time></trkpt>
      <trkpt lat="22.664024" lon="114.343584"><ele>56</ele><time>2025-04-04T08:57:33Z</time></trkpt>
      <trkpt lat="22.665008" lon="114.3439"><ele>58</ele><time>2025-04-04T08:59:02Z</time></trkpt>
      <trkpt lat="22.665087" lon="114.343707"><ele>57</ele><time>2025-04-04T08:59:22Z</time></trkpt>
      <trkpt lat="22.665175" lon="114.343667"><ele>56</ele><time>2025-04-04T09:01:05Z</time></trkpt>
      <trkpt lat="22.665103" lon="114.343608"><ele>61</ele><time>2025-04-04T09:01:14Z</time></trkpt>
      <trkpt lat="22.665117" lon="114.343497"><ele>61</ele><time>2025-04-04T09:01:21Z</time></trkpt>
      <trkpt lat="22.665205" lon="114.343442"><ele>61</ele><time>2025-04-04T09:01:29Z</time></trkpt>
      <trkpt lat="22.666057" lon="114.343499"><ele>52</ele><time>2025-04-04T09:02:43Z</time></trkpt>
      <trkpt lat="22.66698" lon="114.343249"><ele>54</ele><time>2025-04-04T09:04:02Z</time></trkpt>
      <trkpt lat="22.667496" lon="114.342954"><ele>53</ele><time>2025-04-04T09:04:52Z</time></trkpt>
      <trkpt lat="22.667911" lon="114.342497"><ele>53</ele><time>2025-04-04T09:05:42Z</time></trkpt>
      <trkpt lat="22.668088" lon="114.342415"><ele>56</ele><time>2025-04-04T09:06:00Z</time></trkpt>
      <trkpt lat="22.668272" lon="114.342447"><ele>55</ele><time>2025-04-04T09:06:15Z</time></trkpt>
      <trkpt lat="22.668496" lon="114.342628"><ele>56</ele><time>2025-04-04T09:06:40Z</time></trkpt>
      <trkpt lat="22.668687" lon="114.342683"><ele>58</ele><time>2025-04-04T09:06:58Z</time></trkpt>
      <trkpt lat="22.668765" lon="114.342742"><ele>55</ele><time>2025-04-04T09:07:06Z</time></trkpt>
      <trkpt lat="22.668725" lon="114.342936"><ele>56</ele><time>2025-04-04T09:07:23Z</time></trkpt>
      <trkpt lat="22.668482" lon="114.343126"><ele>55</ele><time>2025-04-04T09:07:46Z</time></trkpt>
      <trkpt lat="22.66809" lon="114.343579"><ele>55</ele><time>2025-04-04T09:08:37Z</time></trkpt>
      <trkpt lat="22.668022" lon="114.343884"><ele>56</ele><time>2025-04-04T09:09:01Z</time></trkpt>
      <trkpt lat="22.66823" lon="114.344247"><ele>52</ele><time>2025-04-04T09:09:31Z</time></trkpt>
      <trkpt lat="22.668679" lon="114.344783"><ele>51</ele><time>2025-04-04T09:10:25Z</time></trkpt>
      <trkpt lat="22.668736" lon="114.344978"><ele>51</ele><time>2025-04-04T09:10:41Z</time></trkpt>
      <trkpt lat="22.668661" lon="114.345378"><ele>54</ele><time>2025-04-04T09:11:11Z</time></trkpt>
      <trkpt lat="22.669091" lon="114.345621"><ele>53</ele><time>2025-04-04T09:11:55Z</time></trkpt>
      <trkpt lat="22.66927" lon="114.345656"><ele>50</ele><time>2025-04-04T09:12:16Z</time></trkpt>
      <trkpt lat="22.669459" lon="114.346014"><ele>52</ele><time>2025-04-04T09:12:56Z</time></trkpt>
      <trkpt lat="22.670554" lon="114.346415"><ele>55</ele><time>2025-04-04T09:14:37Z</time></trkpt>
      <trkpt lat="22.670686" lon="114.346271"><ele>55</ele><time>2025-04-04T09:14:52Z</time></trkpt>
      <trkpt lat="22.67079" lon="114.346253"><ele>56</ele><time>2025-04-04T09:15:03Z</time></trkpt>
      <trkpt lat="22.670982" lon="114.345899"><ele>63</ele><time>2025-04-04T09:15:38Z</time></trkpt>
      <trkpt lat="22.670651" lon="114.34643"><ele>58</ele><time>2025-04-04T09:19:17Z</time></trkpt>
      <trkpt lat="22.670719" lon="114.346504"><ele>55</ele><time>2025-04-04T09:20:04Z</time></trkpt>
      <trkpt lat="22.671048" lon="114.346577"><ele>54</ele><time>2025-04-04T09:20:11Z</time></trkpt>
      <trkpt lat="22.671105" lon="114.346691"><ele>55</ele><time>2025-04-04T09:20:15Z</time></trkpt>
      <trkpt lat="22.671018" lon="114.346926"><ele>55</ele><time>2025-04-04T09:20:21Z</time></trkpt>
      <trkpt lat="22.669295" lon="114.348875"><ele>52</ele><time>2025-04-04T09:20:43Z</time></trkpt>
    </trkseg>
  </trk>
</gpx>
