<?xml version="1.0" encoding="UTF-8"?>
<gpx version="1.1" creator="MyWorld" xmlns="http://www.topografix.com/GPX/1/1">
  <metadata><name>杭州半山公园</name></metadata>
  <trk>
    <name>杭州半山公园</name>
    <trkseg>
      <trkpt lat="30.354992" lon="120.18278"><ele>25</ele><time>2025-01-11T01:32:57Z</time></trkpt>
      <trkpt lat="30.355197" lon="120.181812"><ele>29</ele><time>2025-01-11T01:34:13Z</time></trkpt>
      <trkpt lat="30.35537" lon="120.18173"><ele>29</ele><time>2025-01-11T01:34:26Z</time></trkpt>
      <trkpt lat="30.355545" lon="120.181348"><ele>33</ele><time>2025-01-11T01:35:02Z</time></trkpt>
      <trkpt lat="30.355676" lon="120.18013"><ele>39</ele><time>2025-01-11T01:36:53Z</time></trkpt>
      <trkpt lat="30.355868" lon="120.179884"><ele>48</ele><time>2025-01-11T01:37:38Z</time></trkpt>
      <trkpt lat="30.35572" lon="120.17935"><ele>45</ele><time>2025-01-11T01:38:31Z</time></trkpt>
      <trkpt lat="30.355727" lon="120.179138"><ele>46</ele><time>2025-01-11T01:38:46Z</time></trkpt>
      <trkpt lat="30.35583" lon="120.178829"><ele>52</ele><time>2025-01-11T01:39:13Z</time></trkpt>
      <trkpt lat="30.355961" lon="120.178685"><ele>55</ele><time>2025-01-11T01:40:01Z</time></trkpt>
      <trkpt lat="30.356228" lon="120.178577"><ele>63</ele><time>2025-01-11T01:40:43Z</time></trkpt>
      <trkpt lat="30.356366" lon="120.178424"><ele>64</ele><time>2025-01-11T01:40:58Z</time></trkpt>
      <trkpt lat="30.35641" lon="120.178222"><ele>66</ele><time>2025-01-11T01:41:15Z</time></trkpt>
      <trkpt lat="30.356356" lon="120.178127"><ele>66</ele><time>2025-01-11T01:41:25Z</time></trkpt>
      <trkpt lat="30.355799" lon="120.177974"><ele>65</ele><time>2025-01-11T01:42:20Z</time></trkpt>
      <trkpt lat="30.355574" lon="120.17764"><ele>71</ele><time>2025-01-11T01:42:55Z</time></trkpt>
      <trkpt lat="30.355466" lon="120.17688"><ele>76</ele><time>2025-01-11T01:43:58Z</time></trkpt>
      <trkpt lat="30.355561" lon="120.176574"><ele>79</ele><time>2025-01-11T01:44:24Z</time></trkpt>
      <trkpt lat="30.355238" lon="120.175638"><ele>84</ele><time>2025-01-11T01:45:37Z</time></trkpt>
      <trkpt lat="30.355251" lon="120.175431"><ele>86</ele><time>2025-01-11T01:45:55Z</time></trkpt>
      <trkpt lat="30.355421" lon="120.175343"><ele>87</ele><time>2025-01-11T01:46:12Z</time></trkpt>
      <trkpt lat="30.355924" lon="120.175353"><ele>93</ele><time>2025-01-11T01:46:54Z</time></trkpt>
      <trkpt lat="30.356111" lon="120.175291"><ele>94</ele><time>2025-01-11T01:47:12Z</time></trkpt>
      <trkpt lat="30.356492" lon="120.175334"><ele>101</ele><time>2025-01-11T01:47:45Z</time></trkpt>
      <trkpt lat="30.357062" lon="120.174914"><ele>104</ele><time>2025-01-11T01:48:51Z</time></trkpt>
      <trkpt lat="30.357242" lon="120.174666"><ele>108</ele><time>2025-01-11T01:49:14Z</time></trkpt>
      <trkpt lat="30.35733" lon="120.174633"><ele>109</ele><time>2025-01-11T01:49:22Z</time></trkpt>
      <trkpt lat="30.357619" lon="120.174667"><ele>112</ele><time>2025-01-11T01:49:46Z</time></trkpt>
      <trkpt lat="30.358056" lon="120.174896"><ele>119</ele><time>2025-01-11T01:50:27Z</time></trkpt>
      <trkpt lat="30.358366" lon="120.174642"><ele>116</ele><time>2025-01-11T01:50:59Z</time></trkpt>
      <trkpt lat="30.358657" lon="120.174674"><ele>121</ele><time>2025-01-11T01:51:31Z</time></trkpt>
      <trkpt lat="30.359092" lon="120.1749"><ele>124</ele><time>2025-01-11T01:52:11Z</time></trkpt>
      <trkpt lat="30.359584" lon="120.175414"><ele>133</ele><time>2025-01-11T01:53:11Z</time></trkpt>
      <trkpt lat="30.359749" lon="120.175506"><ele>133</ele><time>2025-01-11T01:53:26Z</time></trkpt>
      <trkpt lat="30.359933" lon="120.175452"><ele>134</ele><time>2025-01-11T01:53:42Z</time></trkpt>
      <trkpt lat="30.360192" lon="120.174981"><ele>129</ele><time>2025-01-11T01:54:28Z</time></trkpt>
      <trkpt lat="30.360288" lon="120.174979"><ele>130</ele><time>2025-01-11T01:54:47Z</time></trkpt>
      <trkpt lat="30.360365" lon="120.175037"><ele>132</ele><time>2025-01-11T01:54:55Z</time></trkpt>
      <trkpt lat="30.36015" lon="120.175268"><ele>136</ele><time>2025-01-11T01:55:22Z</time></trkpt>
      <trkpt lat="30.359888" lon="120.175743"><ele>143</ele><time>2025-01-11T01:56:06Z</time></trkpt>
      <trkpt lat="30.359801" lon="120.17578"><ele>144</ele><time>2025-01-11T01:56:14Z</time></trkpt>
      <trkpt lat="30.359342" lon="120.175587"><ele>145</ele><time>2025-01-11T01:56:55Z</time></trkpt>
      <trkpt lat="30.358946" lon="120.175262"><ele>146</ele><time>2025-01-11T01:57:36Z</time></trkpt>
      <trkpt lat="30.358672" lon="120.175184"><ele>146</ele><time>2025-01-11T01:57:59Z</time></trkpt>
      <trkpt lat="30.358325" lon="120.175369"><ele>149</ele><time>2025-01-11T01:58:30Z</time></trkpt>
      <trkpt lat="30.357828" lon="120.175506"><ele>150</ele><time>2025-01-11T01:59:12Z</time></trkpt>
      <trkpt lat="30.357787" lon="120.175606"><ele>152</ele><time>2025-01-11T01:59:20Z</time></trkpt>
      <trkpt lat="30.357936" lon="120.175718"><ele>160</ele><time>2025-01-11T01:59:34Z</time></trkpt>
      <trkpt lat="30.358622" lon="120.175392"><ele>160</ele><time>2025-01-11T02:00:32Z</time></trkpt>
      <trkpt lat="30.358715" lon="120.17541"><ele>160</ele><time>2025-01-11T02:00:40Z</time></trkpt>
      <trkpt lat="30.359235" lon="120.175894"><ele>166</ele><time>2025-01-11T02:01:30Z</time></trkpt>
      <trkpt lat="30.359599" lon="120.176433"><ele>172</ele><time>2025-01-11T02:02:17Z</time></trkpt>
      <trkpt lat="30.359781" lon="120.176475"><ele>175</ele><time>2025-01-11T02:02:31Z</time></trkpt>
      <trkpt lat="30.360253" lon="120.176332"><ele>173</ele><time>2025-01-11T02:03:10Z</time></trkpt>
      <trkpt lat="30.360329" lon="120.176396"><ele>173</ele><time>2025-01-11T02:03:17Z</time></trkpt>
      <trkpt lat="30.360296" lon="120.176501"><ele>174</ele><time>2025-01-11T02:03:24Z</time></trkpt>
      <trkpt lat="30.359753" lon="120.176645"><ele>181</ele><time>2025-01-11T02:04:08Z</time></trkpt>
      <trkpt lat="30.359551" lon="120.176626"><ele>186</ele><time>2025-01-11T02:04:24Z</time></trkpt>
      <trkpt lat="30.359374" lon="120.176528"><ele>187</ele><time>2025-01-11T02:04:42Z</time></trkpt>
      <trkpt lat="30.358961" lon="120.176069"><ele>186</ele><time>2025-01-11T02:05:32Z</time></trkpt>
      <trkpt lat="30.358595" lon="120.175893"><ele>189</ele><time>2025-01-11T02:06:11Z</time></trkpt>
      <trkpt lat="30.358175" lon="120.176164"><ele>193</ele><time>2025-01-11T02:06:54Z</time></trkpt>
      <trkpt lat="30.357615" lon="120.176162"><ele>190</ele><time>2025-01-11T02:07:41Z</time></trkpt>
      <trkpt lat="30.357577" lon="120.176267"><ele>191</ele><time>2025-01-11T02:07:50Z</time></trkpt>
      <trkpt lat="30.357661" lon="120.176332"><ele>192</ele><time>2025-01-11T02:08:00Z</time></trkpt>
      <trkpt lat="30.357857" lon="120.176315"><ele>195</ele><time>2025-01-11T02:08:19Z</time></trkpt>
      <trkpt lat="30.357887" lon="120.176414"><ele>194</ele><time>2025-01-11T02:09:16Z</time></trkpt>
      <trkpt lat="30.358426" lon="120.176427"><ele>204</ele><time>2025-01-11T02:10:31Z</time></trkpt>
      <trkpt lat="30.358659" lon="120.176601"><ele>210</ele><time>2025-01-11T02:11:15Z</time></trkpt>
      <trkpt lat="30.359055" lon="120.177802"><ele>236</ele><time>2025-01-11T02:13:30Z</time></trkpt>
      <trkpt lat="30.359021" lon="120.178128"><ele>241</ele><time>2025-01-11T02:14:12Z</time></trkpt>
      <trkpt lat="30.359122" lon="120.178645"><ele>243</ele><time>2025-01-11T02:15:25Z</time></trkpt>
      <trkpt lat="30.35908" lon="120.178852"><ele>248</ele><time>2025-01-11T02:15:46Z</time></trkpt>
      <trkpt lat="30.359203" lon="120.179149"><ele>246</ele><time>2025-01-11T02:16:16Z</time></trkpt>
      <trkpt lat="30.359829" lon="120.179602"><ele>237</ele><time>2025-01-11T02:17:50Z</time></trkpt>
      <trkpt lat="30.360107" lon="120.179906"><ele>237</ele><time>2025-01-11T02:18:25Z</time></trkpt>
      <trkpt lat="30.360182" lon="120.180095"><ele>236</ele><time>2025-01-11T02:18:50Z</time></trkpt>
      <trkpt lat="30.360488" lon="120.180502"><ele>246</ele><time>2025-01-11T02:20:05Z</time></trkpt>
      <trkpt lat="30.36055" lon="120.181043"><ele>265</ele><time>2025-01-11T02:21:45Z</time></trkpt>
      <trkpt lat="30.360982" lon="120.181252"><ele>269</ele><time>2025-01-11T02:22:38Z</time></trkpt>
      <trkpt lat="30.361361" lon="120.181299"><ele>270</ele><time>2025-01-11T02:23:18Z</time></trkpt>
      <trkpt lat="30.361501" lon="120.181459"><ele>274</ele><time>2025-01-11T02:23:56Z</time></trkpt>
      <trkpt lat="30.361404" lon="120.181437"><ele>274</ele><time>2025-01-11T02:24:08Z</time></trkpt>
      <trkpt lat="30.361774" lon="120.181394"><ele>275</ele><time>2025-01-11T02:24:29Z</time></trkpt>
      <trkpt lat="30.361562" lon="120.181271"><ele>275</ele><time>2025-01-11T02:24:40Z</time></trkpt>
      <trkpt lat="30.361439" lon="120.181269"><ele>270</ele><time>2025-01-11T02:25:25Z</time></trkpt>
      <trkpt lat="30.361361" lon="120.181459"><ele>270</ele><time>2025-01-11T02:31:16Z</time></trkpt>
      <trkpt lat="30.361411" lon="120.181264"><ele>269</ele><time>2025-01-11T02:33:37Z</time></trkpt>
      <trkpt lat="30.361679" lon="120.181359"><ele>275</ele><time>2025-01-11T02:34:00Z</time></trkpt>
      <trkpt lat="30.361803" lon="120.181985"><ele>279</ele><time>2025-01-11T02:35:00Z</time></trkpt>
      <trkpt lat="30.361935" lon="120.18214"><ele>276</ele><time>2025-01-11T02:35:27Z</time></trkpt>
      <trkpt lat="30.361925" lon="120.182245"><ele>273</ele><time>2025-01-11T02:35:36Z</time></trkpt>
      <trkpt lat="30.36183" lon="120.182291"><ele>270</ele><time>2025-01-11T02:35:45Z</time></trkpt>
      <trkpt lat="30.362016" lon="120.182248"><ele>268</ele><time>2025-01-11T02:36:18Z</time></trkpt>
      <trkpt lat="30.362737" lon="120.182452"><ele>256</ele><time>2025-01-11T02:38:29Z</time></trkpt>
      <trkpt lat="30.363169" lon="120.182702"><ele>253</ele><time>2025-01-11T02:39:15Z</time></trkpt>
      <trkpt lat="30.363438" lon="120.182766"><ele>254</ele><time>2025-01-11T02:39:39Z</time></trkpt>
      <trkpt lat="30.363656" lon="120.183113"><ele>255</ele><time>2025-01-11T02:40:16Z</time></trkpt>
      <trkpt lat="30.363692" lon="120.183443"><ele>254</ele><time>2025-01-11T02:40:54Z</time></trkpt>
      <trkpt lat="30.363654" lon="120.18354"><ele>251</ele><time>2025-01-11T02:41:08Z</time></trkpt>
      <trkpt lat="30.363609" lon="120.182999"><ele>256</ele><time>2025-01-11T02:42:11Z</time></trkpt>
      <trkpt lat="30.363849" lon="120.183145"><ele>259</ele><time>2025-01-11T02:42:51Z</time></trkpt>
      <trkpt lat="30.363897" lon="120.183352"><ele>261</ele><time>2025-01-11T02:43:12Z</time></trkpt>
      <trkpt lat="30.363796" lon="120.183758"><ele>254</ele><time>2025-01-11T02:44:02Z</time></trkpt>
      <trkpt lat="30.363852" lon="120.184498"><ele>264</ele><time>2025-01-11T02:45:22Z</time></trkpt>
      <trkpt lat="30.364126" lon="120.18516"><ele>258</ele><time>2025-01-11T02:46:31Z</time></trkpt>
      <trkpt lat="30.364447" lon="120.18539"><ele>263</ele><time>2025-01-11T02:47:14Z</time></trkpt>
      <trkpt lat="30.364635" lon="120.185609"><ele>273</ele><time>2025-01-11T02:48:04Z</time></trkpt>
      <trkpt lat="30.364628" lon="120.185816"><ele>267</ele><time>2025-01-11T02:48:35Z</time></trkpt>
      <trkpt lat="30.36472" lon="120.185833"><ele>267</ele><time>2025-01-11T02:48:47Z</time></trkpt>
      <trkpt lat="30.364796" lon="120.185764"><ele>269</ele><time>2025-01-11T02:49:04Z</time></trkpt>
      <trkpt lat="30.365144" lon="120.185926"><ele>258</ele><time>2025-01-11T02:50:12Z</time></trkpt>
      <trkpt lat="30.365243" lon="120.186222"><ele>247</ele><time>2025-01-11T02:51:17Z</time></trkpt>
      <trkpt lat="30.365391" lon="120.186347"><ele>240</ele><time>2025-01-11T02:51:53Z</time></trkpt>
      <trkpt lat="30.365421" lon="120.186656"><ele>232</ele><time>2025-01-11T02:52:30Z</time></trkpt>
      <trkpt lat="30.365537" lon="120.186822"><ele>227</ele><time>2025-01-11T02:52:51Z</time></trkpt>
      <trkpt lat="30.365705" lon="120.187317"><ele>217</ele><time>2025-01-11T02:54:09Z</time></trkpt>
      <trkpt lat="30.365985" lon="120.187622"><ele>215</ele><time>2025-01-11T02:54:58Z</time></trkpt>
      <trkpt lat="30.366148" lon="120.188011"><ele>213</ele><time>2025-01-11T02:55:34Z</time></trkpt>
      <trkpt lat="30.366455" lon="120.188246"><ele>214</ele><time>2025-01-11T02:56:15Z</time></trkpt>
      <trkpt lat="30.367266" lon="120.188453"><ele>198</ele><time>2025-01-11T02:58:01Z</time></trkpt>
      <trkpt lat="30.36822" lon="120.188945"><ele>198</ele><time>2025-01-11T02:59:51Z</time></trkpt>
      <trkpt lat="30.368492" lon="120.188963"><ele>207</ele><time>2025-01-11T03:00:41Z</time></trkpt>
      <trkpt lat="30.369192" lon="120.189545"><ele>229</ele><time>2025-01-11T03:02:40Z</time></trkpt>
      <trkpt lat="30.369373" lon="120.189813"><ele>231</ele><time>2025-01-11T03:03:12Z</time></trkpt>
      <trkpt lat="30.369422" lon="120.190127"><ele>234</ele><time>2025-01-11T03:03:38Z</time></trkpt>
      <trkpt lat="30.369606" lon="120.190369"><ele>231</ele><time>2025-01-11T03:04:15Z</time></trkpt>
      <trkpt lat="30.369963" lon="120.190499"><ele>234</ele><time>2025-01-11T03:04:58Z</time></trkpt>
      <trkpt lat="30.370021" lon="120.19058"><ele>236</ele><time>2025-01-11T03:05:10Z</time></trkpt>
      <trkpt lat="30.37029" lon="120.190643"><ele>244</ele><time>2025-01-11T03:05:58Z</time></trkpt>
      <trkpt lat="30.370345" lon="120.19073"><ele>246</ele><time>2025-01-11T03:06:10Z</time></trkpt>
      <trkpt lat="30.370613" lon="120.190786"><ele>253</ele><time>2025-01-11T03:06:53Z</time></trkpt>
      <trkpt lat="30.370689" lon="120.190989"><ele>251</ele><time>2025-01-11T03:07:21Z</time></trkpt>
      <trkpt lat="30.37061" lon="120.191283"><ele>250</ele><time>2025-01-11T03:07:58Z</time></trkpt>
      <trkpt lat="30.370718" lon="120.19215"><ele>229</ele><time>2025-01-11T03:09:54Z</time></trkpt>
      <trkpt lat="30.370667" lon="120.192238"><ele>228</ele><time>2025-01-11T03:10:09Z</time></trkpt>
      <trkpt lat="30.370575" lon="120.19225"><ele>226</ele><time>2025-01-11T03:10:50Z</time></trkpt>
      <trkpt lat="30.370541" lon="120.192348"><ele>221</ele><time>2025-01-11T03:11:32Z</time></trkpt>
      <trkpt lat="30.37083" lon="120.192769"><ele>208</ele><time>2025-01-11T03:13:04Z</time></trkpt>
      <trkpt lat="30.370177" lon="120.192729"><ele>190</ele><time>2025-01-11T03:14:43Z</time></trkpt>
      <trkpt lat="30.369956" lon="120.192517"><ele>187</ele><time>2025-01-11T03:15:19Z</time></trkpt>
      <trkpt lat="30.369727" lon="120.192052"><ele>170</ele><time>2025-01-11T03:16:35Z</time></trkpt>
      <trkpt lat="30.369636" lon="120.192045"><ele>165</ele><time>2025-01-11T03:17:01Z</time></trkpt>
      <trkpt lat="30.369491" lon="120.192668"><ele>148</ele><time>2025-01-11T03:18:29Z</time></trkpt>
      <trkpt lat="30.369498" lon="120.192896"><ele>145</ele><time>2025-01-11T03:18:52Z</time></trkpt>
      <trkpt lat="30.369561" lon="120.192977"><ele>145</ele><time>2025-01-11T03:19:00Z</time></trkpt>
      <trkpt lat="30.369333" lon="120.192799"><ele>132</ele><time>2025-01-11T03:19:57Z</time></trkpt>
      <trkpt lat="30.369245" lon="120.192832"><ele>127</ele><time>2025-01-11T03:20:24Z</time></trkpt>
      <trkpt lat="30.369231" lon="120.193148"><ele>119</ele><time>2025-01-11T03:21:02Z</time></trkpt>
      <trkpt lat="30.369138" lon="120.193167"><ele>114</ele><time>2025-01-11T03:21:23Z</time></trkpt>
      <trkpt lat="30.369014" lon="120.193006"><ele>110</ele><time>2025-01-11T03:21:49Z</time></trkpt>
      <trkpt lat="30.368955" lon="120.192681"><ele>104</ele><time>2025-01-11T03:22:23Z</time></trkpt>
      <trkpt lat="30.368852" lon="120.192501"><ele>102</ele><time>2025-01-11T03:22:50Z</time></trkpt>
      <trkpt lat="30.368823" lon="120.192602"><ele>100</ele><time>2025-01-11T03:23:08Z</time></trkpt>
      <trkpt lat="30.36864" lon="120.192638"><ele>96</ele><time>2025-01-11T03:23:46Z</time></trkpt>
      <trkpt lat="30.368532" lon="120.192824"><ele>88</ele><time>2025-01-11T03:24:15Z</time></trkpt>
      <trkpt lat="30.368562" lon="120.192933"><ele>87</ele><time>2025-01-11T03:24:35Z</time></trkpt>
      <trkpt lat="30.368482" lon="120.192988"><ele>85</ele><time>2025-01-11T03:24:48Z</time></trkpt>
      <trkpt lat="30.368399" lon="120.192933"><ele>82</ele><time>2025-01-11T03:24:58Z</time></trkpt>
      <trkpt lat="30.368256" lon="120.193066"><ele>79</ele><time>2025-01-11T03:25:23Z</time></trkpt>
      <trkpt lat="30.36765" lon="120.194173"><ele>55</ele><time>2025-01-11T03:27:43Z</time></trkpt>
      <trkpt lat="30.367345" lon="120.194441"><ele>50</ele><time>2025-01-11T03:28:26Z</time></trkpt>
      <trkpt lat="30.367496" lon="120.194715"><ele>50</ele><time>2025-01-11T03:28:55Z</time></trkpt>
      <trkpt lat="30.367346" lon="120.195112"><ele>48</ele><time>2025-01-11T03:29:32Z</time></trkpt>
      <trkpt lat="30.367383" lon="120.195341"><ele>44</ele><time>2025-01-11T03:29:54Z</time></trkpt>
      <trkpt lat="30.367346" lon="120.195663"><ele>42</ele><time>2025-01-11T03:30:25Z</time></trkpt>
      <trkpt lat="30.367111" lon="120.196373"><ele>34</ele><time>2025-01-11T03:31:37Z</time></trkpt>
      <trkpt lat="30.366907" lon="120.196372"><ele>34</ele><time>2025-01-11T03:31:54Z</time></trkpt>
      <trkpt lat="30.366708" lon="120.196174"><ele>33</ele><time>2025-01-11T03:32:22Z</time></trkpt>
      <trkpt lat="30.366541" lon="120.196271"><ele>32</ele><time>2025-01-11T03:32:56Z</time></trkpt>
      <trkpt lat="30.366167" lon="120.19618"><ele>31</ele><time>2025-01-11T03:33:33Z</time></trkpt>
      <trkpt lat="30.365713" lon="120.195979"><ele>27</ele><time>2025-01-11T03:34:23Z</time></trkpt>
      <trkpt lat="30.365556" lon="120.195841"><ele>25</ele><time>2025-01-11T03:34:43Z</time></trkpt>
      <trkpt lat="30.365098" lon="120.195762"><ele>27</ele><time>2025-01-11T03:35:24Z</time></trkpt>
      <trkpt lat="30.364815" lon="120.195826"><ele>27</ele><time>2025-01-11T03:35:51Z</time></trkpt>
      <trkpt lat="30.364654" lon="120.195938"><ele>28</ele><time>2025-01-11T03:36:12Z</time></trkpt>
      <trkpt lat="30.364184" lon="120.195958"><ele>26</ele><time>2025-01-11T03:36:53Z</time></trkpt>
      <trkpt lat="30.363787" lon="120.196251"><ele>24</ele><time>2025-01-11T03:37:42Z</time></trkpt>
      <trkpt lat="30.363695" lon="120.196234"><ele>20</ele><time>2025-01-11T03:37:49Z</time></trkpt>
      <trkpt lat="30.363514" lon="120.195986"><ele>18</ele><time>2025-01-11T03:38:32Z</time></trkpt>
      <trkpt lat="30.363227" lon="120.196034"><ele>18</ele><time>2025-01-11T03:38:58Z</time></trkpt>
      <trkpt lat="30.363059" lon="120.195939"><ele>17</ele><time>2025-01-11T03:39:18Z</time></trkpt>
      <trkpt lat="30.362789" lon="120.195957"><ele>18</ele><time>2025-01-11T03:39:49Z</time></trkpt>
      <trkpt lat="30.362076" lon="120.19632"><ele>16</ele><time>2025-01-11T03:40:54Z</time></trkpt>
      <trkpt lat="30.361992" lon="120.196513"><ele>15</ele><time>2025-01-11T03:41:10Z</time></trkpt>
      <trkpt lat="30.361658" lon="120.196723"><ele>13</ele><time>2025-01-11T03:41:43Z</time></trkpt>
      <trkpt lat="30.361511" lon="120.19633"><ele>17</ele><time>2025-01-11T03:42:17Z</time></trkpt>
      <trkpt lat="30.361613" lon="120.196034"><ele>22</ele><time>2025-01-11T03:42:39Z</time></trkpt>
      <trkpt lat="30.361273" lon="120.195369"><ele>25</ele><time>2025-01-11T03:43:44Z</time></trkpt>
      <trkpt lat="30.361192" lon="120.195316"><ele>26</ele><time>2025-01-11T03:43:58Z</time></trkpt>
      <trkpt lat="30.361002" lon="120.195372"><ele>26</ele><time>2025-01-11T03:44:17Z</time></trkpt>
      <trkpt lat="30.360777" lon="120.195163"><ele>29</ele><time>2025-01-11T03:44:48Z</time></trkpt>
      <trkpt lat="30.360193" lon="120.195071"><ele>26</ele><time>2025-01-11T03:45:54Z</time></trkpt>
      <trkpt lat="30.360123" lon="120.195139"><ele>25</ele><time>2025-01-11T03:46:05Z</time></trkpt>
      <trkpt lat="30.360086" lon="120.195467"><ele>20</ele><time>2025-01-11T03:46:40Z</time></trkpt>
      <trkpt lat="30.360027" lon="120.195551"><ele>19</ele><time>2025-01-11T03:46:48Z</time></trkpt>
      <trkpt lat="30.359678" lon="120.195362"><ele>15</ele><time>2025-01-11T03:47:24Z</time></trkpt>
      <trkpt lat="30.35955" lon="120.195081"><ele>14</ele><time>2025-01-11T03:47:54Z</time></trkpt>
      <trkpt lat="30.359537" lon="120.194975"><ele>14</ele><time>2025-01-11T03:48:03Z</time></trkpt>
      <trkpt lat="30.359709" lon="120.194724"><ele>19</ele><time>2025-01-11T03:48:29Z</time></trkpt>
      <trkpt lat="30.359766" lon="120.19421"><ele>12</ele><time>2025-01-11T03:49:17Z</time></trkpt>
      <trkpt lat="30.359948" lon="120.194123"><ele>14</ele><time>2025-01-11T03:49:34Z</time></trkpt>
      <trkpt lat="30.360028" lon="120.194178"><ele>16</ele><time>2025-01-11T03:49:46Z</time></trkpt>
      <trkpt lat="30.360389" lon="120.194021"><ele>19</ele><time>2025-01-11T03:50:23Z</time></trkpt>
      <trkpt lat="30.360431" lon="120.193811"><ele>20</ele><time>2025-01-11T03:50:44Z</time></trkpt>
      <trkpt lat="30.360333" lon="120.193627"><ele>18</ele><time>2025-01-11T03:51:03Z</time></trkpt>
      <trkpt lat="30.360402" lon="120.193553"><ele>19</ele><time>2025-01-11T03:51:13Z</time></trkpt>
      <trkpt lat="30.360587" lon="120.193577"><ele>23</ele><time>2025-01-11T03:51:34Z</time></trkpt>
      <trkpt lat="30.360825" lon="120.193388"><ele>31</ele><time>2025-01-11T03:52:11Z</time></trkpt>
      <trkpt lat="30.360247" lon="120.192478"><ele>24</ele><time>2025-01-11T03:53:42Z</time></trkpt>
      <trkpt lat="30.360135" lon="120.192055"><ele>24</ele><time>2025-01-11T03:54:14Z</time></trkpt>
      <trkpt lat="30.360154" lon="120.191842"><ele>26</ele><time>2025-01-11T03:54:29Z</time></trkpt>
      <trkpt lat="30.360095" lon="120.191756"><ele>26</ele><time>2025-01-11T03:54:43Z</time></trkpt>
      <trkpt lat="30.359675" lon="120.19147"><ele>24</ele><time>2025-01-11T03:55:30Z</time></trkpt>
      <trkpt lat="30.359319" lon="120.191316"><ele>24</ele><time>2025-01-11T03:56:01Z</time></trkpt>
      <trkpt lat="30.358761" lon="120.190553"><ele>30</ele><time>2025-01-11T03:57:13Z</time></trkpt>
      <trkpt lat="30.358852" lon="120.190524"><ele>30</ele><time>2025-01-11T03:57:22Z</time></trkpt>
      <trkpt lat="30.359143" lon="120.190799"><ele>37</ele><time>2025-01-11T03:57:53Z</time></trkpt>
      <trkpt lat="30.359235" lon="120.190762"><ele>39</ele><time>2025-01-11T03:58:01Z</time></trkpt>
      <trkpt lat="30.359513" lon="120.190168"><ele>39</ele><time>2025-01-11T03:58:54Z</time></trkpt>
      <trkpt lat="30.359696" lon="120.190094"><ele>41</ele><time>2025-01-11T03:59:11Z</time></trkpt>
      <trkpt lat="30.360056" lon="120.189732"><ele>43</ele><time>2025-01-11T04:00:06Z</time></trkpt>
      <trkpt lat="30.360242" lon="120.189692"><ele>43</ele><time>2025-01-11T04:00:23Z</time></trkpt>
      <trkpt lat="30.360224" lon="120.189589"><ele>44</ele><time>2025-01-11T04:00:37Z</time></trkpt>
      <trkpt lat="30.360031" lon="120.189364"><ele>46</ele><time>2025-01-11T04:01:04Z</time></trkpt>
      <trkpt lat="30.359814" lon="120.188763"><ele>47</ele><time>2025-01-11T04:01:54Z</time></trkpt>
      <trkpt lat="30.359472" lon="120.188397"><ele>47</ele><time>2025-01-11T04:02:40Z</time></trkpt>
      <trkpt lat="30.359338" lon="120.187868"><ele>48</ele><time>2025-01-11T04:03:22Z</time></trkpt>
      <trkpt lat="30.359367" lon="120.187541"><ele>47</ele><time>2025-01-11T04:03:51Z</time></trkpt>
      <trkpt lat="30.359228" lon="120.187262"><ele>48</ele><time>2025-01-11T04:04:18Z</time></trkpt>
      <trkpt lat="30.359042" lon="120.187294"><ele>47</ele><time>2025-01-11T04:04:35Z</time></trkpt>
      <trkpt lat="30.35886" lon="120.187228"><ele>45</ele><time>2025-01-11T04:04:51Z</time></trkpt>
      <trkpt lat="30.358443" lon="120.186812"><ele>47</ele><time>2025-01-11T04:05:36Z</time></trkpt>
      <trkpt lat="30.357959" lon="120.186727"><ele>42</ele><time>2025-01-11T04:06:16Z</time></trkpt>
      <trkpt lat="30.357713" lon="120.186558"><ele>39</ele><time>2025-01-11T04:06:40Z</time></trkpt>
      <trkpt lat="30.357666" lon="120.186468"><ele>38</ele><time>2025-01-11T04:06:47Z</time></trkpt>
      <trkpt lat="30.35769" lon="120.186242"><ele>39</ele><time>2025-01-11T04:07:02Z</time></trkpt>
      <trkpt lat="30.357368" lon="120.185331"><ele>37</ele><time>2025-01-11T04:08:12Z</time></trkpt>
      <trkpt lat="30.35727" lon="120.184892"><ele>36</ele><time>2025-01-11T04:08:46Z</time></trkpt>
      <trkpt lat="30.356818" lon="120.184725"><ele>32</ele><time>2025-01-11T04:09:25Z</time></trkpt>
      <trkpt lat="30.35654" lon="120.184715"><ele>30</ele><time>2025-01-11T04:09:48Z</time></trkpt>
      <trkpt lat="30.356518" lon="120.184499"><ele>32</ele><time>2025-01-11T04:10:04Z</time></trkpt>
      <trkpt lat="30.356587" lon="120.184178"><ele>31</ele><time>2025-01-11T04:10:29Z</time></trkpt>
      <trkpt lat="30.356506" lon="120.184126"><ele>31</ele><time>2025-01-11T04:10:37Z</time></trkpt>
      <trkpt lat="30.356354" lon="120.184247"><ele>29</ele><time>2025-01-11T04:10:56Z</time></trkpt>
      <trkpt lat="30.356255" lon="120.184248"><ele>29</ele><time>2025-01-11T04:11:04Z</time></trkpt>
      <trkpt lat="30.356112" lon="120.184131"><ele>31</ele><time>2025-01-11T04:11:21Z</time></trkpt>
      <trkpt lat="30.356555" lon="120.183569"><ele>37</ele><time>2025-01-11T04:12:18Z</time></trkpt>
      <trkpt lat="30.356615" lon="120.182936"><ele>45</ele><time>2025-01-11T04:13:12Z</time></trkpt>
      <trkpt lat="30.356789" lon="120.182564"><ele>51</ele><time>2025-01-11T04:13:42Z</time></trkpt>
      <trkpt lat="30.356422" lon="120.182597"><ele>44</ele><time>2025-01-11T04:14:30Z</time></trkpt>
      <trkpt lat="30.356079" lon="120.182423"><ele>43</ele><time>2025-01-11T04:15:02Z</time></trkpt>
      <trkpt lat="30.355987" lon="120.182449"><ele>42</ele><time>2025-01-11T04:15:11Z</time></trkpt>
      <trkpt lat="30.355854" lon="120.182749"><ele>40</ele><time>2025-01-11T04:15:36Z</time></trkpt>
      <trkpt lat="30.355516" lon="120.182944"><ele>32</ele><time>2025-01-11T04:16:12Z</time></trkpt>
      <trkpt lat="30.355425" lon="120.182938"><ele>30</ele><time>2025-01-11T04:16:20Z</time></trkpt>
      <trkpt lat="30.35517" lon="120.182797"><ele>26</ele><time>2025-01-11T04:16:47Z</time></trkpt>
      <trkpt lat="30.354893" lon="120.182497"><ele>22</ele><time>2025-01-11T04:17:19Z</time></trkpt>
      <trkpt lat="30.353836" lon="120.182432"><ele>15</ele><time>2025-01-11T04:18:46Z</time></trkpt>
      <trkpt lat="30.35378" lon="120.181994"><ele>15</ele><time>2025-01-11T04:19:17Z</time></trkpt>
    </trkseg>
  </trk>
</gpx>
