<?xml version="1.0" encoding="UTF-8"?>
<gpx version="1.1" creator="MyWorld" xmlns="http://www.topografix.com/GPX/1/1">
  <metadata><name>深圳东西涌</name></metadata>
  <trk>
    <name>深圳东西涌</name>
    <trkseg>
      <trkpt lat="22.496107" lon="114.569048"><ele>5</ele><time>2025-04-06T01:04:10Z</time></trkpt>
      <trkpt lat="22.495824" lon="114.56895"><ele>4</ele><time>2025-04-06T01:04:44Z</time></trkpt>
      <trkpt lat="22.495731" lon="114.568983"><ele>5</ele><time>2025-04-06T01:04:53Z</time></trkpt>
      <trkpt lat="22.495588" lon="114.569256"><ele>5</ele><time>2025-04-06T01:05:16Z</time></trkpt>
      <trkpt lat="22.495501" lon="114.569299"><ele>5</ele><time>2025-04-06T01:05:26Z</time></trkpt>
      <trkpt lat="22.495402" lon="114.569311"><ele>5</ele><time>2025-04-06T01:05:34Z</time></trkpt>
      <trkpt lat="22.495244" lon="114.569191"><ele>5</ele><time>2025-04-06T01:05:52Z</time></trkpt>
      <trkpt lat="22.495159" lon="114.569226"><ele>6</ele><time>2025-04-06T01:06:01Z</time></trkpt>
      <trkpt lat="22.49459" lon="114.569946"><ele>7</ele><time>2025-04-06T01:07:16Z</time></trkpt>
      <trkpt lat="22.494317" lon="114.570077"><ele>6</ele><time>2025-04-06T01:07:40Z</time></trkpt>
      <trkpt lat="22.493753" lon="114.570014"><ele>9</ele><time>2025-04-06T01:08:25Z</time></trkpt>
      <trkpt lat="22.493049" lon="114.571281"><ele>8</ele><time>2025-04-06T01:10:14Z</time></trkpt>
      <trkpt lat="22.492696" lon="114.571457"><ele>6</ele><time>2025-04-06T01:10:43Z</time></trkpt>
      <trkpt lat="22.491517" lon="114.57243"><ele>8</ele><time>2025-04-06T01:12:42Z</time></trkpt>
      <trkpt lat="22.490855" lon="114.572375"><ele>21</ele><time>2025-04-06T01:14:27Z</time></trkpt>
      <trkpt lat="22.490672" lon="114.572413"><ele>24</ele><time>2025-04-06T01:14:45Z</time></trkpt>
      <trkpt lat="22.490376" lon="114.572664"><ele>31</ele><time>2025-04-06T01:15:20Z</time></trkpt>
      <trkpt lat="22.489924" lon="114.573439"><ele>40</ele><time>2025-04-06T01:16:46Z</time></trkpt>
      <trkpt lat="22.489406" lon="114.573888"><ele>52</ele><time>2025-04-06T01:17:53Z</time></trkpt>
      <trkpt lat="22.489217" lon="114.573887"><ele>56</ele><time>2025-04-06T01:18:14Z</time></trkpt>
      <trkpt lat="22.48895" lon="114.573759"><ele>59</ele><time>2025-04-06T01:18:42Z</time></trkpt>
      <trkpt lat="22.488162" lon="114.573215"><ele>56</ele><time>2025-04-06T01:20:10Z</time></trkpt>
      <trkpt lat="22.487964" lon="114.573016"><ele>59</ele><time>2025-04-06T01:20:35Z</time></trkpt>
      <trkpt lat="22.488268" lon="114.572532"><ele>65</ele><time>2025-04-06T01:21:38Z</time></trkpt>
      <trkpt lat="22.488097" lon="114.572305"><ele>54</ele><time>2025-04-06T01:23:38Z</time></trkpt>
      <trkpt lat="22.487743" lon="114.572333"><ele>41</ele><time>2025-04-06T01:25:08Z</time></trkpt>
      <trkpt lat="22.487722" lon="114.572232"><ele>39</ele><time>2025-04-06T01:25:30Z</time></trkpt>
      <trkpt lat="22.487909" lon="114.572013"><ele>41</ele><time>2025-04-06T01:26:02Z</time></trkpt>
      <trkpt lat="22.48792" lon="114.571797"><ele>42</ele><time>2025-04-06T01:26:29Z</time></trkpt>
      <trkpt lat="22.48736" lon="114.571815"><ele>46</ele><time>2025-04-06T01:27:41Z</time></trkpt>
      <trkpt lat="22.487273" lon="114.571511"><ele>52</ele><time>2025-04-06T01:29:31Z</time></trkpt>
      <trkpt lat="22.487097" lon="114.571445"><ele>48</ele><time>2025-04-06T01:29:54Z</time></trkpt>
      <trkpt lat="22.487069" lon="114.57135"><ele>46</ele><time>2025-04-06T01:30:36Z</time></trkpt>
      <trkpt lat="22.487265" lon="114.571124"><ele>48</ele><time>2025-04-06T01:31:13Z</time></trkpt>
      <trkpt lat="22.487284" lon="114.571028"><ele>48</ele><time>2025-04-06T01:31:22Z</time></trkpt>
      <trkpt lat="22.487197" lon="114.57084"><ele>45</ele><time>2025-04-06T01:31:47Z</time></trkpt>
      <trkpt lat="22.487183" lon="114.570636"><ele>42</ele><time>2025-04-06T01:32:10Z</time></trkpt>
      <trkpt lat="22.487054" lon="114.57049"><ele>33</ele><time>2025-04-06T01:32:52Z</time></trkpt>
      <trkpt lat="22.487001" lon="114.570306"><ele>29</ele><time>2025-04-06T01:33:30Z</time></trkpt>
      <trkpt lat="22.486716" lon="114.570335"><ele>14</ele><time>2025-04-06T01:35:08Z</time></trkpt>
      <trkpt lat="22.486667" lon="114.570424"><ele>11</ele><time>2025-04-06T01:35:37Z</time></trkpt>
      <trkpt lat="22.486684" lon="114.570625"><ele>5</ele><time>2025-04-06T01:36:09Z</time></trkpt>
      <trkpt lat="22.486593" lon="114.570616"><ele>5</ele><time>2025-04-06T01:36:28Z</time></trkpt>
      <trkpt lat="22.48642" lon="114.570533"><ele>4</ele><time>2025-04-06T01:37:49Z</time></trkpt>
      <trkpt lat="22.48638" lon="114.570342"><ele>5</ele><time>2025-04-06T01:38:16Z</time></trkpt>
      <trkpt lat="22.486214" lon="114.57027"><ele>5</ele><time>2025-04-06T01:38:52Z</time></trkpt>
      <trkpt lat="22.486035" lon="114.570307"><ele>7</ele><time>2025-04-06T01:40:32Z</time></trkpt>
      <trkpt lat="22.485933" lon="114.570152"><ele>14</ele><time>2025-04-06T01:42:11Z</time></trkpt>
      <trkpt lat="22.485742" lon="114.570172"><ele>10</ele><time>2025-04-06T01:45:06Z</time></trkpt>
      <trkpt lat="22.485906" lon="114.570076"><ele>13</ele><time>2025-04-06T01:47:08Z</time></trkpt>
      <trkpt lat="22.485834" lon="114.570017"><ele>4</ele><time>2025-04-06T01:49:12Z</time></trkpt>
      <trkpt lat="22.485883" lon="114.569934"><ele>7</ele><time>2025-04-06T01:49:30Z</time></trkpt>
      <trkpt lat="22.485843" lon="114.569327"><ele>4</ele><time>2025-04-06T01:53:38Z</time></trkpt>
      <trkpt lat="22.48558" lon="114.568905"><ele>8</ele><time>2025-04-06T01:55:23Z</time></trkpt>
      <trkpt lat="22.485398" lon="114.568936"><ele>14</ele><time>2025-04-06T01:56:13Z</time></trkpt>
      <trkpt lat="22.4853" lon="114.568745"><ele>18</ele><time>2025-04-06T01:57:42Z</time></trkpt>
      <trkpt lat="22.485315" lon="114.568645"><ele>28</ele><time>2025-04-06T02:01:04Z</time></trkpt>
      <trkpt lat="22.485112" lon="114.568449"><ele>39</ele><time>2025-04-06T02:05:11Z</time></trkpt>
      <trkpt lat="22.484974" lon="114.568186"><ele>45</ele><time>2025-04-06T02:05:55Z</time></trkpt>
      <trkpt lat="22.484714" lon="114.568091"><ele>39</ele><time>2025-04-06T02:06:27Z</time></trkpt>
      <trkpt lat="22.484757" lon="114.567901"><ele>38</ele><time>2025-04-06T02:10:31Z</time></trkpt>
      <trkpt lat="22.484588" lon="114.567856"><ele>21</ele><time>2025-04-06T02:15:20Z</time></trkpt>
      <trkpt lat="22.484427" lon="114.567593"><ele>8</ele><time>2025-04-06T02:19:27Z</time></trkpt>
      <trkpt lat="22.484345" lon="114.566919"><ele>7</ele><time>2025-04-06T02:24:16Z</time></trkpt>
      <trkpt lat="22.484407" lon="114.566723"><ele>9</ele><time>2025-04-06T02:25:34Z</time></trkpt>
      <trkpt lat="22.484333" lon="114.566666"><ele>5</ele><time>2025-04-06T02:26:11Z</time></trkpt>
      <trkpt lat="22.484407" lon="114.566607"><ele>7</ele><time>2025-04-06T02:30:34Z</time></trkpt>
      <trkpt lat="22.48442" lon="114.566409"><ele>6</ele><time>2025-04-06T02:31:10Z</time></trkpt>
      <trkpt lat="22.484524" lon="114.566244"><ele>8</ele><time>2025-04-06T02:31:53Z</time></trkpt>
      <trkpt lat="22.484506" lon="114.565941"><ele>7</ele><time>2025-04-06T02:32:41Z</time></trkpt>
      <trkpt lat="22.484649" lon="114.565253"><ele>10</ele><time>2025-04-06T02:34:35Z</time></trkpt>
      <trkpt lat="22.484676" lon="114.564757"><ele>7</ele><time>2025-04-06T02:36:03Z</time></trkpt>
      <trkpt lat="22.48473" lon="114.564672"><ele>7</ele><time>2025-04-06T02:36:17Z</time></trkpt>
      <trkpt lat="22.484638" lon="114.564281"><ele>7</ele><time>2025-04-06T02:37:05Z</time></trkpt>
      <trkpt lat="22.484266" lon="114.563826"><ele>11</ele><time>2025-04-06T02:41:33Z</time></trkpt>
      <trkpt lat="22.484388" lon="114.563684"><ele>16</ele><time>2025-04-06T02:42:04Z</time></trkpt>
      <trkpt lat="22.483953" lon="114.563476"><ele>29</ele><time>2025-04-06T02:46:09Z</time></trkpt>
      <trkpt lat="22.483835" lon="114.563307"><ele>28</ele><time>2025-04-06T02:46:33Z</time></trkpt>
      <trkpt lat="22.483599" lon="114.56315"><ele>27</ele><time>2025-04-06T02:47:11Z</time></trkpt>
      <trkpt lat="22.483513" lon="114.562865"><ele>27</ele><time>2025-04-06T02:49:07Z</time></trkpt>
      <trkpt lat="22.483397" lon="114.562705"><ele>13</ele><time>2025-04-06T02:50:56Z</time></trkpt>
      <trkpt lat="22.483129" lon="114.562757"><ele>11</ele><time>2025-04-06T02:55:55Z</time></trkpt>
      <trkpt lat="22.483045" lon="114.562719"><ele>10</ele><time>2025-04-06T02:56:31Z</time></trkpt>
      <trkpt lat="22.482965" lon="114.562672"><ele>8</ele><time>2025-04-06T02:56:57Z</time></trkpt>
      <trkpt lat="22.482853" lon="114.562393"><ele>10</ele><time>2025-04-06T02:57:47Z</time></trkpt>
      <trkpt lat="22.48258" lon="114.562368"><ele>6</ele><time>2025-04-06T02:58:35Z</time></trkpt>
      <trkpt lat="22.482513" lon="114.5623"><ele>7</ele><time>2025-04-06T02:58:46Z</time></trkpt>
      <trkpt lat="22.482595" lon="114.562106"><ele>14</ele><time>2025-04-06T02:59:56Z</time></trkpt>
      <trkpt lat="22.48257" lon="114.56201"><ele>16</ele><time>2025-04-06T03:01:43Z</time></trkpt>
      <trkpt lat="22.482479" lon="114.561965"><ele>19</ele><time>2025-04-06T03:02:30Z</time></trkpt>
      <trkpt lat="22.482383" lon="114.561681"><ele>31</ele><time>2025-04-06T03:03:11Z</time></trkpt>
      <trkpt lat="22.48252" lon="114.561204"><ele>48</ele><time>2025-04-06T03:06:29Z</time></trkpt>
      <trkpt lat="22.482566" lon="114.560392"><ele>72</ele><time>2025-04-06T03:11:28Z</time></trkpt>
      <trkpt lat="22.482742" lon="114.559924"><ele>87</ele><time>2025-04-06T03:15:22Z</time></trkpt>
      <trkpt lat="22.482711" lon="114.559535"><ele>101</ele><time>2025-04-06T03:18:46Z</time></trkpt>
      <trkpt lat="22.482984" lon="114.559164"><ele>119</ele><time>2025-04-06T03:22:18Z</time></trkpt>
      <trkpt lat="22.48314" lon="114.558585"><ele>140</ele><time>2025-04-06T03:25:18Z</time></trkpt>
      <trkpt lat="22.483083" lon="114.558088"><ele>148</ele><time>2025-04-06T03:26:20Z</time></trkpt>
      <trkpt lat="22.482989" lon="114.558061"><ele>150</ele><time>2025-04-06T03:26:28Z</time></trkpt>
      <trkpt lat="22.482974" lon="114.557961"><ele>154</ele><time>2025-04-06T03:28:08Z</time></trkpt>
      <trkpt lat="22.483101" lon="114.557374"><ele>158</ele><time>2025-04-06T03:29:04Z</time></trkpt>
      <trkpt lat="22.482909" lon="114.557155"><ele>159</ele><time>2025-04-06T03:29:40Z</time></trkpt>
      <trkpt lat="22.482904" lon="114.557043"><ele>159</ele><time>2025-04-06T03:30:15Z</time></trkpt>
      <trkpt lat="22.482855" lon="114.557128"><ele>160</ele><time>2025-04-06T03:32:05Z</time></trkpt>
      <trkpt lat="22.482757" lon="114.557113"><ele>160</ele><time>2025-04-06T03:41:25Z</time></trkpt>
      <trkpt lat="22.482266" lon="114.557414"><ele>153</ele><time>2025-04-06T03:42:23Z</time></trkpt>
      <trkpt lat="22.481991" lon="114.557386"><ele>155</ele><time>2025-04-06T03:43:03Z</time></trkpt>
      <trkpt lat="22.481731" lon="114.557259"><ele>154</ele><time>2025-04-06T03:43:38Z</time></trkpt>
      <trkpt lat="22.481522" lon="114.556925"><ele>158</ele><time>2025-04-06T03:44:38Z</time></trkpt>
      <trkpt lat="22.481229" lon="114.556687"><ele>157</ele><time>2025-04-06T03:45:54Z</time></trkpt>
      <trkpt lat="22.481149" lon="114.556639"><ele>156</ele><time>2025-04-06T03:46:11Z</time></trkpt>
      <trkpt lat="22.480968" lon="114.556672"><ele>143</ele><time>2025-04-06T03:47:56Z</time></trkpt>
      <trkpt lat="22.480144" lon="114.557306"><ele>94</ele><time>2025-04-06T03:53:05Z</time></trkpt>
      <trkpt lat="22.479757" lon="114.557732"><ele>80</ele><time>2025-04-06T03:55:13Z</time></trkpt>
      <trkpt lat="22.479311" lon="114.557855"><ele>61</ele><time>2025-04-06T03:56:42Z</time></trkpt>
      <trkpt lat="22.478566" lon="114.557877"><ele>36</ele><time>2025-04-06T04:00:23Z</time></trkpt>
      <trkpt lat="22.478391" lon="114.557951"><ele>29</ele><time>2025-04-06T04:01:03Z</time></trkpt>
      <trkpt lat="22.478426" lon="114.558148"><ele>23</ele><time>2025-04-06T04:02:57Z</time></trkpt>
      <trkpt lat="22.478568" lon="114.558265"><ele>23</ele><time>2025-04-06T04:03:56Z</time></trkpt>
      <trkpt lat="22.478543" lon="114.558463"><ele>9</ele><time>2025-04-06T04:04:45Z</time></trkpt>
      <trkpt lat="22.478454" lon="114.558646"><ele>8</ele><time>2025-04-06T04:05:15Z</time></trkpt>
      <trkpt lat="22.478276" lon="114.55868"><ele>0</ele><time>2025-04-06T04:07:05Z</time></trkpt>
      <trkpt lat="22.478105" lon="114.559134"><ele>0</ele><time>2025-04-06T04:07:23Z</time></trkpt>
      <trkpt lat="22.477981" lon="114.559202"><ele>0</ele><time>2025-04-06T04:07:25Z</time></trkpt>
      <trkpt lat="22.477667" lon="114.559253"><ele>1</ele><time>2025-04-06T04:07:29Z</time></trkpt>
      <trkpt lat="22.477502" lon="114.559189"><ele>0</ele><time>2025-04-06T04:07:31Z</time></trkpt>
      <trkpt lat="22.477269" lon="114.559031"><ele>0</ele><time>2025-04-06T04:07:34Z</time></trkpt>
      <trkpt lat="22.477046" lon="114.558723"><ele>0</ele><time>2025-04-06T04:07:38Z</time></trkpt>
      <trkpt lat="22.476884" lon="114.558257"><ele>0</ele><time>2025-04-06T04:07:43Z</time></trkpt>
      <trkpt lat="22.476877" lon="114.557947"><ele>0</ele><time>2025-04-06T04:07:46Z</time></trkpt>
      <trkpt lat="22.477308" lon="114.555866"><ele>0</ele><time>2025-04-06T04:08:06Z</time></trkpt>
      <trkpt lat="22.477383" lon="114.554722"><ele>0</ele><time>2025-04-06T04:08:17Z</time></trkpt>
      <trkpt lat="22.477835" lon="114.553304"><ele>1</ele><time>2025-04-06T04:08:31Z</time></trkpt>
      <trkpt lat="22.478298" lon="114.552552"><ele>1</ele><time>2025-04-06T04:08:39Z</time></trkpt>
      <trkpt lat="22.478784" lon="114.551826"><ele>2</ele><time>2025-04-06T04:08:46Z</time></trkpt>
      <trkpt lat="22.479666" lon="114.550695"><ele>2</ele><time>2025-04-06T04:09:00Z</time></trkpt>
      <trkpt lat="22.480701" lon="114.549631"><ele>2</ele><time>2025-04-06T04:09:14Z</time></trkpt>
      <trkpt lat="22.481568" lon="114.548604"><ele>2</ele><time>2025-04-06T04:09:27Z</time></trkpt>
      <trkpt lat="22.482187" lon="114.548093"><ele>2</ele><time>2025-04-06T04:09:36Z</time></trkpt>
      <trkpt lat="22.482815" lon="114.547663"><ele>2</ele><time>2025-04-06T04:09:44Z</time></trkpt>
      <trkpt lat="22.483147" lon="114.547567"><ele>1</ele><time>2025-04-06T04:09:48Z</time></trkpt>
      <trkpt lat="22.483728" lon="114.547767"><ele>2</ele><time>2025-04-06T04:10:25Z</time></trkpt>
      <trkpt lat="22.484122" lon="114.548029"><ele>5</ele><time>2025-04-06T04:11:31Z</time></trkpt>
      <trkpt lat="22.484219" lon="114.547992"><ele>5</ele><time>2025-04-06T04:11:43Z</time></trkpt>
    </trkseg>
  </trk>
</gpx>
