<?xml version="1.0" encoding="UTF-8"?>
<gpx version="1.1" creator="MyWorld" xmlns="http://www.topografix.com/GPX/1/1">
  <metadata><name>宣城铁匠峰</name></metadata>
  <trk>
    <name>宣城铁匠峰</name>
    <trkseg>
      <trkpt lat="30.31134" lon="119.190818"><ele>431</ele><time>2025-12-14T01:23:30Z</time></trkpt>
      <trkpt lat="30.311219" lon="119.190715"><ele>433</ele><time>2025-12-14T01:23:42Z</time></trkpt>
      <trkpt lat="30.310924" lon="119.190689"><ele>445</ele><time>2025-12-14T01:24:14Z</time></trkpt>
      <trkpt lat="30.310772" lon="119.190468"><ele>449</ele><time>2025-12-14T01:24:43Z</time></trkpt>
      <trkpt lat="30.310581" lon="119.190407"><ele>455</ele><time>2025-12-14T01:25:09Z</time></trkpt>
      <trkpt lat="30.3106" lon="119.190242"><ele>457</ele><time>2025-12-14T01:25:29Z</time></trkpt>
      <trkpt lat="30.310486" lon="119.189936"><ele>453</ele><time>2025-12-14T01:26:04Z</time></trkpt>
      <trkpt lat="30.310347" lon="119.189952"><ele>467</ele><time>2025-12-14T01:26:48Z</time></trkpt>
      <trkpt lat="30.310275" lon="119.189883"><ele>466</ele><time>2025-12-14T01:27:08Z</time></trkpt>
      <trkpt lat="30.31018" lon="119.189932"><ele>468</ele><time>2025-12-14T01:27:21Z</time></trkpt>
      <trkpt lat="30.309702" lon="119.189743"><ele>506</ele><time>2025-12-14T01:28:32Z</time></trkpt>
      <trkpt lat="30.309513" lon="119.18977"><ele>513</ele><time>2025-12-14T01:29:04Z</time></trkpt>
      <trkpt lat="30.309469" lon="119.18979"><ele>518</ele><time>2025-12-14T01:29:13Z</time></trkpt>
      <trkpt lat="30.309517" lon="119.189817"><ele>518</ele><time>2025-12-14T01:29:30Z</time></trkpt>
      <trkpt lat="30.309363" lon="119.189693"><ele>505</ele><time>2025-12-14T01:30:05Z</time></trkpt>
      <trkpt lat="30.309172" lon="119.189674"><ele>502</ele><time>2025-12-14T01:31:25Z</time></trkpt>
      <trkpt lat="30.309073" lon="119.189559"><ele>521</ele><time>2025-12-14T01:31:51Z</time></trkpt>
      <trkpt lat="30.308982" lon="119.189592"><ele>515</ele><time>2025-12-14T01:32:03Z</time></trkpt>
      <trkpt lat="30.308873" lon="119.189496"><ele>519</ele><time>2025-12-14T01:32:25Z</time></trkpt>
      <trkpt lat="30.308701" lon="119.189603"><ele>516</ele><time>2025-12-14T01:32:49Z</time></trkpt>
      <trkpt lat="30.308326" lon="119.189606"><ele>535</ele><time>2025-12-14T01:33:59Z</time></trkpt>
      <trkpt lat="30.308204" lon="119.189523"><ele>539</ele><time>2025-12-14T01:35:00Z</time></trkpt>
      <trkpt lat="30.308096" lon="119.189204"><ele>544</ele><time>2025-12-14T01:36:50Z</time></trkpt>
      <trkpt lat="30.30788" lon="119.189089"><ele>553</ele><time>2025-12-14T01:37:47Z</time></trkpt>
      <trkpt lat="30.307497" lon="119.189092"><ele>571</ele><time>2025-12-14T01:39:07Z</time></trkpt>
      <trkpt lat="30.307474" lon="119.189043"><ele>573</ele><time>2025-12-14T01:39:21Z</time></trkpt>
      <trkpt lat="30.307326" lon="119.189127"><ele>563</ele><time>2025-12-14T01:40:13Z</time></trkpt>
      <trkpt lat="30.306934" lon="119.188955"><ele>574</ele><time>2025-12-14T01:41:28Z</time></trkpt>
      <trkpt lat="30.306832" lon="119.188839"><ele>569</ele><time>2025-12-14T01:41:49Z</time></trkpt>
      <trkpt lat="30.306415" lon="119.188703"><ele>580</ele><time>2025-12-14T01:42:55Z</time></trkpt>
      <trkpt lat="30.306334" lon="119.188753"><ele>581</ele><time>2025-12-14T01:43:10Z</time></trkpt>
      <trkpt lat="30.306144" lon="119.188691"><ele>593</ele><time>2025-12-14T01:43:39Z</time></trkpt>
      <trkpt lat="30.306117" lon="119.18875"><ele>592</ele><time>2025-12-14T01:43:45Z</time></trkpt>
      <trkpt lat="30.305555" lon="119.188622"><ele>604</ele><time>2025-12-14T01:45:05Z</time></trkpt>
      <trkpt lat="30.305354" lon="119.188734"><ele>601</ele><time>2025-12-14T01:45:32Z</time></trkpt>
      <trkpt lat="30.304844" lon="119.188371"><ele>615</ele><time>2025-12-14T01:47:37Z</time></trkpt>
      <trkpt lat="30.304824" lon="119.188179"><ele>618</ele><time>2025-12-14T01:48:09Z</time></trkpt>
      <trkpt lat="30.304398" lon="119.188043"><ele>625</ele><time>2025-12-14T01:49:37Z</time></trkpt>
      <trkpt lat="30.304252" lon="119.187909"><ele>627</ele><time>2025-12-14T01:50:12Z</time></trkpt>
      <trkpt lat="30.304302" lon="119.187819"><ele>629</ele><time>2025-12-14T01:50:29Z</time></trkpt>
      <trkpt lat="30.304271" lon="119.187654"><ele>630</ele><time>2025-12-14T01:51:32Z</time></trkpt>
      <trkpt lat="30.304153" lon="119.187563"><ele>636</ele><time>2025-12-14T01:52:04Z</time></trkpt>
      <trkpt lat="30.304122" lon="119.187421"><ele>638</ele><time>2025-12-14T01:52:29Z</time></trkpt>
      <trkpt lat="30.304036" lon="119.187386"><ele>644</ele><time>2025-12-14T01:52:55Z</time></trkpt>
      <trkpt lat="30.304071" lon="119.187349"><ele>644</ele><time>2025-12-14T01:53:05Z</time></trkpt>
      <trkpt lat="30.303972" lon="119.18726"><ele>646</ele><time>2025-12-14T01:53:12Z</time></trkpt>
      <trkpt lat="30.303985" lon="119.187013"><ele>650</ele><time>2025-12-14T01:54:02Z</time></trkpt>
      <trkpt lat="30.303916" lon="119.186936"><ele>653</ele><time>2025-12-14T01:54:18Z</time></trkpt>
      <trkpt lat="30.303785" lon="119.186959"><ele>654</ele><time>2025-12-14T01:54:40Z</time></trkpt>
      <trkpt lat="30.30362" lon="119.186856"><ele>659</ele><time>2025-12-14T01:55:20Z</time></trkpt>
      <trkpt lat="30.303527" lon="119.186902"><ele>654</ele><time>2025-12-14T01:55:31Z</time></trkpt>
      <trkpt lat="30.303436" lon="119.186859"><ele>658</ele><time>2025-12-14T01:55:50Z</time></trkpt>
      <trkpt lat="30.3034" lon="119.186943"><ele>666</ele><time>2025-12-14T01:56:09Z</time></trkpt>
      <trkpt lat="30.303215" lon="119.186782"><ele>680</ele><time>2025-12-14T01:56:48Z</time></trkpt>
      <trkpt lat="30.303172" lon="119.186876"><ele>678</ele><time>2025-12-14T01:56:59Z</time></trkpt>
      <trkpt lat="30.303069" lon="119.186752"><ele>675</ele><time>2025-12-14T01:58:53Z</time></trkpt>
      <trkpt lat="30.302693" lon="119.186752"><ele>689</ele><time>2025-12-14T02:01:01Z</time></trkpt>
      <trkpt lat="30.302666" lon="119.186604"><ele>686</ele><time>2025-12-14T02:01:47Z</time></trkpt>
      <trkpt lat="30.302469" lon="119.186581"><ele>691</ele><time>2025-12-14T02:02:11Z</time></trkpt>
      <trkpt lat="30.302324" lon="119.18636"><ele>696</ele><time>2025-12-14T02:02:50Z</time></trkpt>
      <trkpt lat="30.302053" lon="119.186255"><ele>709</ele><time>2025-12-14T02:03:53Z</time></trkpt>
      <trkpt lat="30.301997" lon="119.186337"><ele>711</ele><time>2025-12-14T02:04:12Z</time></trkpt>
      <trkpt lat="30.301996" lon="119.186283"><ele>713</ele><time>2025-12-14T02:04:26Z</time></trkpt>
      <trkpt lat="30.301909" lon="119.186327"><ele>721</ele><time>2025-12-14T02:05:06Z</time></trkpt>
      <trkpt lat="30.301873" lon="119.186229"><ele>721</ele><time>2025-12-14T02:05:25Z</time></trkpt>
      <trkpt lat="30.301679" lon="119.186092"><ele>727</ele><time>2025-12-14T02:06:00Z</time></trkpt>
      <trkpt lat="30.301494" lon="119.186072"><ele>734</ele><time>2025-12-14T02:06:39Z</time></trkpt>
      <trkpt lat="30.301732" lon="119.18633"><ele>739</ele><time>2025-12-14T02:07:33Z</time></trkpt>
      <trkpt lat="30.301772" lon="119.186497"><ele>738</ele><time>2025-12-14T02:07:55Z</time></trkpt>
      <trkpt lat="30.301389" lon="119.186713"><ele>745</ele><time>2025-12-14T02:09:43Z</time></trkpt>
      <trkpt lat="30.301242" lon="119.186704"><ele>751</ele><time>2025-12-14T02:10:02Z</time></trkpt>
      <trkpt lat="30.301083" lon="119.186597"><ele>754</ele><time>2025-12-14T02:10:26Z</time></trkpt>
      <trkpt lat="30.300809" lon="119.1866"><ele>764</ele><time>2025-12-14T02:12:18Z</time></trkpt>
      <trkpt lat="30.300747" lon="119.186491"><ele>773</ele><time>2025-12-14T02:13:02Z</time></trkpt>
      <trkpt lat="30.300606" lon="119.186492"><ele>780</ele><time>2025-12-14T02:13:45Z</time></trkpt>
      <trkpt lat="30.300245" lon="119.186726"><ele>802</ele><time>2025-12-14T02:16:22Z</time></trkpt>
      <trkpt lat="30.300138" lon="119.186897"><ele>818</ele><time>2025-12-14T02:17:42Z</time></trkpt>
      <trkpt lat="30.3" lon="119.186882"><ele>822</ele><time>2025-12-14T02:18:18Z</time></trkpt>
      <trkpt lat="30.299965" lon="119.186981"><ele>825</ele><time>2025-12-14T02:18:46Z</time></trkpt>
      <trkpt lat="30.300037" lon="119.187042"><ele>830</ele><time>2025-12-14T02:19:06Z</time></trkpt>
      <trkpt lat="30.300044" lon="119.187145"><ele>831</ele><time>2025-12-14T02:19:21Z</time></trkpt>
      <trkpt lat="30.300215" lon="119.187244"><ele>839</ele><time>2025-12-14T02:20:09Z</time></trkpt>
      <trkpt lat="30.299955" lon="119.187729"><ele>876</ele><time>2025-12-14T02:24:00Z</time></trkpt>
      <trkpt lat="30.299591" lon="119.187967"><ele>898</ele><time>2025-12-14T02:25:58Z</time></trkpt>
      <trkpt lat="30.29956" lon="119.187924"><ele>901</ele><time>2025-12-14T02:26:22Z</time></trkpt>
      <trkpt lat="30.299239" lon="119.187978"><ele>924</ele><time>2025-12-14T02:28:22Z</time></trkpt>
      <trkpt lat="30.299191" lon="119.188222"><ele>934</ele><time>2025-12-14T02:29:21Z</time></trkpt>
      <trkpt lat="30.299016" lon="119.188286"><ele>943</ele><time>2025-12-14T02:30:11Z</time></trkpt>
      <trkpt lat="30.298893" lon="119.188436"><ele>956</ele><time>2025-12-14T02:31:13Z</time></trkpt>
      <trkpt lat="30.298719" lon="119.188414"><ele>965</ele><time>2025-12-14T02:32:08Z</time></trkpt>
      <trkpt lat="30.29868" lon="119.188516"><ele>970</ele><time>2025-12-14T02:32:29Z</time></trkpt>
      <trkpt lat="30.298591" lon="119.188493"><ele>973</ele><time>2025-12-14T02:32:57Z</time></trkpt>
      <trkpt lat="30.298311" lon="119.18868"><ele>992</ele><time>2025-12-14T02:34:25Z</time></trkpt>
      <trkpt lat="30.298221" lon="119.188645"><ele>995</ele><time>2025-12-14T02:34:48Z</time></trkpt>
      <trkpt lat="30.298088" lon="119.188415"><ele>997</ele><time>2025-12-14T02:35:31Z</time></trkpt>
      <trkpt lat="30.298024" lon="119.188069"><ele>1010</ele><time>2025-12-14T02:36:41Z</time></trkpt>
      <trkpt lat="30.297616" lon="119.188176"><ele>1032</ele><time>2025-12-14T02:38:12Z</time></trkpt>
      <trkpt lat="30.297217" lon="119.188476"><ele>1053</ele><time>2025-12-14T02:40:09Z</time></trkpt>
      <trkpt lat="30.297087" lon="119.188713"><ele>1057</ele><time>2025-12-14T02:40:44Z</time></trkpt>
      <trkpt lat="30.296807" lon="119.188839"><ele>1084</ele><time>2025-12-14T02:42:45Z</time></trkpt>
      <trkpt lat="30.296299" lon="119.188421"><ele>1109</ele><time>2025-12-14T02:46:33Z</time></trkpt>
      <trkpt lat="30.295776" lon="119.188286"><ele>1129</ele><time>2025-12-14T02:50:15Z</time></trkpt>
      <trkpt lat="30.295674" lon="119.188097"><ele>1141</ele><time>2025-12-14T02:52:46Z</time></trkpt>
      <trkpt lat="30.295753" lon="119.187761"><ele>1156</ele><time>2025-12-14T02:53:36Z</time></trkpt>
      <trkpt lat="30.295718" lon="119.187726"><ele>1159</ele><time>2025-12-14T02:53:49Z</time></trkpt>
      <trkpt lat="30.295053" lon="119.187903"><ele>1176</ele><time>2025-12-14T02:57:01Z</time></trkpt>
      <trkpt lat="30.294717" lon="119.187662"><ele>1190</ele><time>2025-12-14T02:58:24Z</time></trkpt>
      <trkpt lat="30.294636" lon="119.187476"><ele>1195</ele><time>2025-12-14T02:58:50Z</time></trkpt>
      <trkpt lat="30.294531" lon="119.187566"><ele>1199</ele><time>2025-12-14T03:08:19Z</time></trkpt>
      <trkpt lat="30.294435" lon="119.18752"><ele>1198</ele><time>2025-12-14T03:08:54Z</time></trkpt>
      <trkpt lat="30.294458" lon="119.187676"><ele>1192</ele><time>2025-12-14T03:09:53Z</time></trkpt>
      <trkpt lat="30.294367" lon="119.187964"><ele>1182</ele><time>2025-12-14T03:10:42Z</time></trkpt>
      <trkpt lat="30.294255" lon="119.188028"><ele>1177</ele><time>2025-12-14T03:11:00Z</time></trkpt>
      <trkpt lat="30.294182" lon="119.18852"><ele>1170</ele><time>2025-12-14T03:12:16Z</time></trkpt>
      <trkpt lat="30.294033" lon="119.188783"><ele>1164</ele><time>2025-12-14T03:12:53Z</time></trkpt>
      <trkpt lat="30.293902" lon="119.188836"><ele>1163</ele><time>2025-12-14T03:13:58Z</time></trkpt>
      <trkpt lat="30.293911" lon="119.189159"><ele>1155</ele><time>2025-12-14T03:14:49Z</time></trkpt>
      <trkpt lat="30.293605" lon="119.189834"><ele>1134</ele><time>2025-12-14T03:16:17Z</time></trkpt>
      <trkpt lat="30.293736" lon="119.189997"><ele>1128</ele><time>2025-12-14T03:16:52Z</time></trkpt>
      <trkpt lat="30.293788" lon="119.190262"><ele>1123</ele><time>2025-12-14T03:17:17Z</time></trkpt>
      <trkpt lat="30.293682" lon="119.190926"><ele>1111</ele><time>2025-12-14T03:18:20Z</time></trkpt>
      <trkpt lat="30.29373" lon="119.190934"><ele>1111</ele><time>2025-12-14T03:18:30Z</time></trkpt>
      <trkpt lat="30.293448" lon="119.191118"><ele>1107</ele><time>2025-12-14T03:27:30Z</time></trkpt>
      <trkpt lat="30.293481" lon="119.191159"><ele>1105</ele><time>2025-12-14T03:27:34Z</time></trkpt>
      <trkpt lat="30.293381" lon="119.191485"><ele>1093</ele><time>2025-12-14T03:28:16Z</time></trkpt>
      <trkpt lat="30.293575" lon="119.19158"><ele>1085</ele><time>2025-12-14T03:28:41Z</time></trkpt>
      <trkpt lat="30.293684" lon="119.191739"><ele>1079</ele><time>2025-12-14T03:29:13Z</time></trkpt>
      <trkpt lat="30.293682" lon="119.19185"><ele>1079</ele><time>2025-12-14T03:29:53Z</time></trkpt>
      <trkpt lat="30.293605" lon="119.191905"><ele>1076</ele><time>2025-12-14T03:30:14Z</time></trkpt>
      <trkpt lat="30.293616" lon="119.192096"><ele>1071</ele><time>2025-12-14T03:30:41Z</time></trkpt>
      <trkpt lat="30.293688" lon="119.192214"><ele>1066</ele><time>2025-12-14T03:31:02Z</time></trkpt>
      <trkpt lat="30.293763" lon="119.193183"><ele>1048</ele><time>2025-12-14T03:32:23Z</time></trkpt>
      <trkpt lat="30.293941" lon="119.193719"><ele>1053</ele><time>2025-12-14T03:33:12Z</time></trkpt>
      <trkpt lat="30.293838" lon="119.19421"><ele>1060</ele><time>2025-12-14T03:33:58Z</time></trkpt>
      <trkpt lat="30.293713" lon="119.194382"><ele>1063</ele><time>2025-12-14T03:34:14Z</time></trkpt>
      <trkpt lat="30.293802" lon="119.194924"><ele>1070</ele><time>2025-12-14T03:35:15Z</time></trkpt>
      <trkpt lat="30.293937" lon="119.195158"><ele>1076</ele><time>2025-12-14T03:35:52Z</time></trkpt>
      <trkpt lat="30.293858" lon="119.1959"><ele>1101</ele><time>2025-12-14T03:38:00Z</time></trkpt>
      <trkpt lat="30.293626" lon="119.196246"><ele>1111</ele><time>2025-12-14T03:39:11Z</time></trkpt>
      <trkpt lat="30.293559" lon="119.196452"><ele>1118</ele><time>2025-12-14T03:39:46Z</time></trkpt>
      <trkpt lat="30.293598" lon="119.196536"><ele>1123</ele><time>2025-12-14T03:40:51Z</time></trkpt>
      <trkpt lat="30.293694" lon="119.196529"><ele>1124</ele><time>2025-12-14T03:41:04Z</time></trkpt>
      <trkpt lat="30.293776" lon="119.196674"><ele>1130</ele><time>2025-12-14T03:41:25Z</time></trkpt>
      <trkpt lat="30.29367" lon="119.196942"><ele>1137</ele><time>2025-12-14T03:42:50Z</time></trkpt>
      <trkpt lat="30.293384" lon="119.1972"><ele>1140</ele><time>2025-12-14T03:43:25Z</time></trkpt>
      <trkpt lat="30.293172" lon="119.197788"><ele>1149</ele><time>2025-12-14T03:44:45Z</time></trkpt>
      <trkpt lat="30.292831" lon="119.198184"><ele>1160</ele><time>2025-12-14T03:45:49Z</time></trkpt>
      <trkpt lat="30.292797" lon="119.198354"><ele>1164</ele><time>2025-12-14T03:46:08Z</time></trkpt>
      <trkpt lat="30.292879" lon="119.198616"><ele>1163</ele><time>2025-12-14T03:46:55Z</time></trkpt>
      <trkpt lat="30.293169" lon="119.198632"><ele>1159</ele><time>2025-12-14T03:47:29Z</time></trkpt>
      <trkpt lat="30.293788" lon="119.198953"><ele>1159</ele><time>2025-12-14T03:48:21Z</time></trkpt>
      <trkpt lat="30.294242" lon="119.198941"><ele>1159</ele><time>2025-12-14T03:48:59Z</time></trkpt>
      <trkpt lat="30.294428" lon="119.199011"><ele>1157</ele><time>2025-12-14T03:49:16Z</time></trkpt>
      <trkpt lat="30.29468" lon="119.198973"><ele>1155</ele><time>2025-12-14T03:50:22Z</time></trkpt>
      <trkpt lat="30.2951" lon="119.199074"><ele>1144</ele><time>2025-12-14T03:51:52Z</time></trkpt>
      <trkpt lat="30.295539" lon="119.19904"><ele>1138</ele><time>2025-12-14T03:52:44Z</time></trkpt>
      <trkpt lat="30.295778" lon="119.199113"><ele>1133</ele><time>2025-12-14T03:53:08Z</time></trkpt>
      <trkpt lat="30.296024" lon="119.199456"><ele>1126</ele><time>2025-12-14T03:53:55Z</time></trkpt>
      <trkpt lat="30.296437" lon="119.199756"><ele>1110</ele><time>2025-12-14T03:54:59Z</time></trkpt>
      <trkpt lat="30.296923" lon="119.200005"><ele>1101</ele><time>2025-12-14T03:56:26Z</time></trkpt>
      <trkpt lat="30.297154" lon="119.200012"><ele>1087</ele><time>2025-12-14T03:57:30Z</time></trkpt>
      <trkpt lat="30.297473" lon="119.199743"><ele>1077</ele><time>2025-12-14T03:58:20Z</time></trkpt>
      <trkpt lat="30.298111" lon="119.199649"><ele>1084</ele><time>2025-12-14T03:59:36Z</time></trkpt>
      <trkpt lat="30.298271" lon="119.19953"><ele>1079</ele><time>2025-12-14T04:00:24Z</time></trkpt>
      <trkpt lat="30.298575" lon="119.199562"><ele>1076</ele><time>2025-12-14T04:01:02Z</time></trkpt>
      <trkpt lat="30.298735" lon="119.19969"><ele>1075</ele><time>2025-12-14T04:01:24Z</time></trkpt>
      <trkpt lat="30.298921" lon="119.199714"><ele>1068</ele><time>2025-12-14T04:02:02Z</time></trkpt>
      <trkpt lat="30.299344" lon="119.199951"><ele>1055</ele><time>2025-12-14T04:03:44Z</time></trkpt>
      <trkpt lat="30.299697" lon="119.199808"><ele>1031</ele><time>2025-12-14T04:05:39Z</time></trkpt>
      <trkpt lat="30.299861" lon="119.199611"><ele>1023</ele><time>2025-12-14T04:06:16Z</time></trkpt>
      <trkpt lat="30.300006" lon="119.19988"><ele>1017</ele><time>2025-12-14T04:07:49Z</time></trkpt>
      <trkpt lat="30.300184" lon="119.199984"><ele>1012</ele><time>2025-12-14T04:08:11Z</time></trkpt>
      <trkpt lat="30.300269" lon="119.200114"><ele>1010</ele><time>2025-12-14T04:08:31Z</time></trkpt>
      <trkpt lat="30.300278" lon="119.200282"><ele>1005</ele><time>2025-12-14T04:09:00Z</time></trkpt>
      <trkpt lat="30.300353" lon="119.200355"><ele>1002</ele><time>2025-12-14T04:09:15Z</time></trkpt>
      <trkpt lat="30.300696" lon="119.200452"><ele>1004</ele><time>2025-12-14T04:09:49Z</time></trkpt>
      <trkpt lat="30.300975" lon="119.200695"><ele>1008</ele><time>2025-12-14T04:10:17Z</time></trkpt>
      <trkpt lat="30.301403" lon="119.20086"><ele>1014</ele><time>2025-12-14T04:11:12Z</time></trkpt>
      <trkpt lat="30.301774" lon="119.200723"><ele>1017</ele><time>2025-12-14T04:11:54Z</time></trkpt>
      <trkpt lat="30.301896" lon="119.20048"><ele>1015</ele><time>2025-12-14T04:12:23Z</time></trkpt>
      <trkpt lat="30.302133" lon="119.200429"><ele>1011</ele><time>2025-12-14T04:12:59Z</time></trkpt>
      <trkpt lat="30.301762" lon="119.20004"><ele>991</ele><time>2025-12-14T04:14:36Z</time></trkpt>
      <trkpt lat="30.301685" lon="119.199904"><ele>988</ele><time>2025-12-14T04:14:54Z</time></trkpt>
      <trkpt lat="30.301722" lon="119.19987"><ele>985</ele><time>2025-12-14T04:15:13Z</time></trkpt>
      <trkpt lat="30.302043" lon="119.19997"><ele>978</ele><time>2025-12-14T04:15:56Z</time></trkpt>
      <trkpt lat="30.302588" lon="119.19995"><ele>961</ele><time>2025-12-14T04:17:17Z</time></trkpt>
      <trkpt lat="30.302836" lon="119.200225"><ele>957</ele><time>2025-12-14T04:17:54Z</time></trkpt>
      <trkpt lat="30.302979" lon="119.200228"><ele>955</ele><time>2025-12-14T04:18:11Z</time></trkpt>
      <trkpt lat="30.303256" lon="119.2001"><ele>948</ele><time>2025-12-14T04:18:50Z</time></trkpt>
      <trkpt lat="30.303364" lon="119.19998"><ele>944</ele><time>2025-12-14T04:19:09Z</time></trkpt>
      <trkpt lat="30.3037" lon="119.199898"><ele>937</ele><time>2025-12-14T04:19:46Z</time></trkpt>
      <trkpt lat="30.303864" lon="119.199609"><ele>937</ele><time>2025-12-14T04:20:16Z</time></trkpt>
      <trkpt lat="30.304178" lon="119.199487"><ele>931</ele><time>2025-12-14T04:20:55Z</time></trkpt>
      <trkpt lat="30.304493" lon="119.199114"><ele>920</ele><time>2025-12-14T04:21:43Z</time></trkpt>
      <trkpt lat="30.304912" lon="119.199388"><ele>910</ele><time>2025-12-14T04:22:36Z</time></trkpt>
      <trkpt lat="30.305254" lon="119.199355"><ele>904</ele><time>2025-12-14T04:23:11Z</time></trkpt>
      <trkpt lat="30.305447" lon="119.199419"><ele>900</ele><time>2025-12-14T04:23:29Z</time></trkpt>
      <trkpt lat="30.305521" lon="119.199492"><ele>899</ele><time>2025-12-14T04:23:38Z</time></trkpt>
      <trkpt lat="30.305559" lon="119.199756"><ele>891</ele><time>2025-12-14T04:24:03Z</time></trkpt>
      <trkpt lat="30.30575" lon="119.199809"><ele>892</ele><time>2025-12-14T04:24:31Z</time></trkpt>
      <trkpt lat="30.30585" lon="119.199955"><ele>893</ele><time>2025-12-14T04:24:52Z</time></trkpt>
      <trkpt lat="30.30594" lon="119.199958"><ele>891</ele><time>2025-12-14T04:25:03Z</time></trkpt>
      <trkpt lat="30.306469" lon="119.199601"><ele>881</ele><time>2025-12-14T04:26:04Z</time></trkpt>
      <trkpt lat="30.30661" lon="119.199418"><ele>882</ele><time>2025-12-14T04:26:21Z</time></trkpt>
      <trkpt lat="30.306889" lon="119.199357"><ele>882</ele><time>2025-12-14T04:26:48Z</time></trkpt>
      <trkpt lat="30.306987" lon="119.199005"><ele>880</ele><time>2025-12-14T04:27:15Z</time></trkpt>
      <trkpt lat="30.307415" lon="119.198693"><ele>870</ele><time>2025-12-14T04:28:07Z</time></trkpt>
      <trkpt lat="30.307499" lon="119.198505"><ele>868</ele><time>2025-12-14T04:28:29Z</time></trkpt>
      <trkpt lat="30.307324" lon="119.198585"><ele>868</ele><time>2025-12-14T04:29:00Z</time></trkpt>
      <trkpt lat="30.306781" lon="119.198596"><ele>861</ele><time>2025-12-14T04:30:02Z</time></trkpt>
      <trkpt lat="30.306572" lon="119.198746"><ele>853</ele><time>2025-12-14T04:30:37Z</time></trkpt>
      <trkpt lat="30.306215" lon="119.19881"><ele>843</ele><time>2025-12-14T04:31:17Z</time></trkpt>
      <trkpt lat="30.306017" lon="119.198555"><ele>831</ele><time>2025-12-14T04:31:52Z</time></trkpt>
      <trkpt lat="30.306039" lon="119.198498"><ele>831</ele><time>2025-12-14T04:31:57Z</time></trkpt>
      <trkpt lat="30.306284" lon="119.198429"><ele>825</ele><time>2025-12-14T04:32:30Z</time></trkpt>
      <trkpt lat="30.306425" lon="119.198277"><ele>819</ele><time>2025-12-14T04:32:51Z</time></trkpt>
      <trkpt lat="30.306417" lon="119.198217"><ele>820</ele><time>2025-12-14T04:32:55Z</time></trkpt>
      <trkpt lat="30.306076" lon="119.198143"><ele>818</ele><time>2025-12-14T04:33:30Z</time></trkpt>
      <trkpt lat="30.305939" lon="119.197983"><ele>812</ele><time>2025-12-14T04:33:51Z</time></trkpt>
      <trkpt lat="30.30586" lon="119.197107"><ele>800</ele><time>2025-12-14T04:35:20Z</time></trkpt>
      <trkpt lat="30.305607" lon="119.197124"><ele>797</ele><time>2025-12-14T04:35:46Z</time></trkpt>
      <trkpt lat="30.305301" lon="119.196752"><ele>790</ele><time>2025-12-14T04:36:31Z</time></trkpt>
      <trkpt lat="30.304909" lon="119.196686"><ele>786</ele><time>2025-12-14T04:37:10Z</time></trkpt>
      <trkpt lat="30.304765" lon="119.196716"><ele>782</ele><time>2025-12-14T04:37:25Z</time></trkpt>
      <trkpt lat="30.304552" lon="119.196956"><ele>777</ele><time>2025-12-14T04:37:57Z</time></trkpt>
      <trkpt lat="30.303924" lon="119.196989"><ele>764</ele><time>2025-12-14T04:38:53Z</time></trkpt>
      <trkpt lat="30.303713" lon="119.196599"><ele>763</ele><time>2025-12-14T04:39:59Z</time></trkpt>
      <trkpt lat="30.303423" lon="119.196512"><ele>762</ele><time>2025-12-14T04:40:29Z</time></trkpt>
      <trkpt lat="30.303417" lon="119.196402"><ele>762</ele><time>2025-12-14T04:40:43Z</time></trkpt>
      <trkpt lat="30.303546" lon="119.196243"><ele>758</ele><time>2025-12-14T04:41:19Z</time></trkpt>
      <trkpt lat="30.303598" lon="119.195914"><ele>755</ele><time>2025-12-14T04:41:53Z</time></trkpt>
      <trkpt lat="30.303534" lon="119.195638"><ele>755</ele><time>2025-12-14T04:42:16Z</time></trkpt>
      <trkpt lat="30.303706" lon="119.195368"><ele>750</ele><time>2025-12-14T04:42:47Z</time></trkpt>
      <trkpt lat="30.303829" lon="119.194742"><ele>738</ele><time>2025-12-14T04:43:43Z</time></trkpt>
      <trkpt lat="30.303718" lon="119.194631"><ele>737</ele><time>2025-12-14T04:43:58Z</time></trkpt>
      <trkpt lat="30.303423" lon="119.194548"><ele>737</ele><time>2025-12-14T04:44:25Z</time></trkpt>
      <trkpt lat="30.303358" lon="119.194281"><ele>730</ele><time>2025-12-14T04:44:47Z</time></trkpt>
      <trkpt lat="30.303264" lon="119.194146"><ele>728</ele><time>2025-12-14T04:45:00Z</time></trkpt>
      <trkpt lat="30.302778" lon="119.194201"><ele>721</ele><time>2025-12-14T04:45:49Z</time></trkpt>
      <trkpt lat="30.302467" lon="119.194026"><ele>718</ele><time>2025-12-14T04:46:18Z</time></trkpt>
      <trkpt lat="30.302371" lon="119.194052"><ele>719</ele><time>2025-12-14T04:46:30Z</time></trkpt>
      <trkpt lat="30.302176" lon="119.193971"><ele>713</ele><time>2025-12-14T04:46:50Z</time></trkpt>
      <trkpt lat="30.302088" lon="119.193837"><ele>709</ele><time>2025-12-14T04:47:04Z</time></trkpt>
      <trkpt lat="30.301886" lon="119.193872"><ele>708</ele><time>2025-12-14T04:47:24Z</time></trkpt>
      <trkpt lat="30.301646" lon="119.193767"><ele>702</ele><time>2025-12-14T04:47:49Z</time></trkpt>
      <trkpt lat="30.301395" lon="119.193924"><ele>694</ele><time>2025-12-14T04:48:20Z</time></trkpt>
      <trkpt lat="30.301107" lon="119.193794"><ele>690</ele><time>2025-12-14T04:48:49Z</time></trkpt>
      <trkpt lat="30.301054" lon="119.193703"><ele>685</ele><time>2025-12-14T04:48:59Z</time></trkpt>
      <trkpt lat="30.301359" lon="119.193439"><ele>673</ele><time>2025-12-14T04:50:11Z</time></trkpt>
      <trkpt lat="30.301586" lon="119.193373"><ele>665</ele><time>2025-12-14T04:50:53Z</time></trkpt>
      <trkpt lat="30.30182" lon="119.193175"><ele>656</ele><time>2025-12-14T04:51:53Z</time></trkpt>
      <trkpt lat="30.302115" lon="119.193123"><ele>649</ele><time>2025-12-14T04:52:25Z</time></trkpt>
      <trkpt lat="30.302643" lon="119.192863"><ele>635</ele><time>2025-12-14T04:53:47Z</time></trkpt>
      <trkpt lat="30.303408" lon="119.192789"><ele>622</ele><time>2025-12-14T04:55:18Z</time></trkpt>
      <trkpt lat="30.303662" lon="119.192662"><ele>613</ele><time>2025-12-14T04:55:56Z</time></trkpt>
      <trkpt lat="30.304273" lon="119.192531"><ele>597</ele><time>2025-12-14T04:57:07Z</time></trkpt>
      <trkpt lat="30.304532" lon="119.192378"><ele>597</ele><time>2025-12-14T04:57:34Z</time></trkpt>
      <trkpt lat="30.305329" lon="119.192324"><ele>575</ele><time>2025-12-14T04:58:50Z</time></trkpt>
      <trkpt lat="30.305483" lon="119.192177"><ele>576</ele><time>2025-12-14T05:02:01Z</time></trkpt>
      <trkpt lat="30.30605" lon="119.191881"><ele>562</ele><time>2025-12-14T05:03:10Z</time></trkpt>
      <trkpt lat="30.306567" lon="119.191694"><ele>549</ele><time>2025-12-14T05:03:59Z</time></trkpt>
      <trkpt lat="30.307092" lon="119.19172"><ele>543</ele><time>2025-12-14T05:04:43Z</time></trkpt>
      <trkpt lat="30.307455" lon="119.191656"><ele>535</ele><time>2025-12-14T05:05:14Z</time></trkpt>
      <trkpt lat="30.30781" lon="119.191672"><ele>533</ele><time>2025-12-14T05:05:44Z</time></trkpt>
      <trkpt lat="30.307992" lon="119.191785"><ele>531</ele><time>2025-12-14T05:06:02Z</time></trkpt>
      <trkpt lat="30.308271" lon="119.191757"><ele>520</ele><time>2025-12-14T05:06:27Z</time></trkpt>
      <trkpt lat="30.308835" lon="119.191684"><ele>514</ele><time>2025-12-14T05:07:11Z</time></trkpt>
      <trkpt lat="30.309382" lon="119.191387"><ele>496</ele><time>2025-12-14T05:08:09Z</time></trkpt>
      <trkpt lat="30.309877" lon="119.191314"><ele>492</ele><time>2025-12-14T05:08:57Z</time></trkpt>
      <trkpt lat="30.310031" lon="119.191337"><ele>491</ele><time>2025-12-14T05:09:10Z</time></trkpt>
      <trkpt lat="30.310099" lon="119.191606"><ele>492</ele><time>2025-12-14T05:09:30Z</time></trkpt>
      <trkpt lat="30.310172" lon="119.19167"><ele>493</ele><time>2025-12-14T05:09:39Z</time></trkpt>
      <trkpt lat="30.310617" lon="119.191376"><ele>453</ele><time>2025-12-14T05:10:24Z</time></trkpt>
      <trkpt lat="30.310759" lon="119.191349"><ele>450</ele><time>2025-12-14T05:10:36Z</time></trkpt>
      <trkpt lat="30.311125" lon="119.190998"><ele>440</ele><time>2025-12-14T05:11:16Z</time></trkpt>
      <trkpt lat="30.311223" lon="119.190967"><ele>440</ele><time>2025-12-14T05:11:24Z</time></trkpt>
      <trkpt lat="30.311303" lon="119.19103"><ele>440</ele><time>2025-12-14T05:11:34Z</time></trkpt>
      <trkpt lat="30.311361" lon="119.190939"><ele>438</ele><time>2025-12-14T05:12:26Z</time></trkpt>
    </trkseg>
  </trk>
</gpx>
