<?xml version="1.0" encoding="UTF-8"?>
<gpx version="1.1" creator="MyWorld" xmlns="http://www.topografix.com/GPX/1/1">
  <metadata><name>杭州午潮山</name></metadata>
  <trk>
    <name>杭州午潮山</name>
    <trkseg>
      <trkpt lat="30.178994" lon="120.029975"><ele>72</ele><time>2025-03-02T02:44:09Z</time></trkpt>
      <trkpt lat="30.178436" lon="120.029504"><ele>74</ele><time>2025-03-02T02:45:04Z</time></trkpt>
      <trkpt lat="30.179201" lon="120.02926"><ele>74</ele><time>2025-03-02T02:47:06Z</time></trkpt>
      <trkpt lat="30.179447" lon="120.029065"><ele>74</ele><time>2025-03-02T02:47:33Z</time></trkpt>
      <trkpt lat="30.179491" lon="120.028971"><ele>75</ele><time>2025-03-02T02:47:43Z</time></trkpt>
      <trkpt lat="30.179447" lon="120.028302"><ele>75</ele><time>2025-03-02T02:48:27Z</time></trkpt>
      <trkpt lat="30.179565" lon="120.028014"><ele>75</ele><time>2025-03-02T02:48:50Z</time></trkpt>
      <trkpt lat="30.179304" lon="120.027678"><ele>81</ele><time>2025-03-02T02:49:21Z</time></trkpt>
      <trkpt lat="30.179619" lon="120.027016"><ele>86</ele><time>2025-03-02T02:50:13Z</time></trkpt>
      <trkpt lat="30.180124" lon="120.026526"><ele>92</ele><time>2025-03-02T02:51:30Z</time></trkpt>
      <trkpt lat="30.180353" lon="120.026741"><ele>93</ele><time>2025-03-02T02:51:59Z</time></trkpt>
      <trkpt lat="30.181043" lon="120.02683"><ele>96</ele><time>2025-03-02T02:52:59Z</time></trkpt>
      <trkpt lat="30.181536" lon="120.026789"><ele>94</ele><time>2025-03-02T02:53:36Z</time></trkpt>
      <trkpt lat="30.182007" lon="120.026935"><ele>91</ele><time>2025-03-02T02:54:14Z</time></trkpt>
      <trkpt lat="30.18267" lon="120.026815"><ele>88</ele><time>2025-03-02T02:55:04Z</time></trkpt>
      <trkpt lat="30.182951" lon="120.026847"><ele>87</ele><time>2025-03-02T02:55:27Z</time></trkpt>
      <trkpt lat="30.183184" lon="120.027005"><ele>86</ele><time>2025-03-02T02:55:47Z</time></trkpt>
      <trkpt lat="30.183675" lon="120.026672"><ele>87</ele><time>2025-03-02T02:56:34Z</time></trkpt>
      <trkpt lat="30.18372" lon="120.026577"><ele>87</ele><time>2025-03-02T02:56:42Z</time></trkpt>
      <trkpt lat="30.183653" lon="120.026504"><ele>87</ele><time>2025-03-02T02:56:48Z</time></trkpt>
      <trkpt lat="30.183672" lon="120.026396"><ele>87</ele><time>2025-03-02T02:56:59Z</time></trkpt>
      <trkpt lat="30.183987" lon="120.025976"><ele>91</ele><time>2025-03-02T02:57:49Z</time></trkpt>
      <trkpt lat="30.183897" lon="120.026165"><ele>87</ele><time>2025-03-02T02:58:22Z</time></trkpt>
      <trkpt lat="30.183911" lon="120.026269"><ele>85</ele><time>2025-03-02T02:58:39Z</time></trkpt>
      <trkpt lat="30.184104" lon="120.026485"><ele>85</ele><time>2025-03-02T02:59:16Z</time></trkpt>
      <trkpt lat="30.184189" lon="120.026905"><ele>83</ele><time>2025-03-02T02:59:53Z</time></trkpt>
      <trkpt lat="30.184433" lon="120.027088"><ele>83</ele><time>2025-03-02T03:00:15Z</time></trkpt>
      <trkpt lat="30.185162" lon="120.026433"><ele>93</ele><time>2025-03-02T03:01:29Z</time></trkpt>
      <trkpt lat="30.185095" lon="120.025882"><ele>94</ele><time>2025-03-02T03:02:05Z</time></trkpt>
      <trkpt lat="30.185197" lon="120.025459"><ele>97</ele><time>2025-03-02T03:02:33Z</time></trkpt>
      <trkpt lat="30.185129" lon="120.024813"><ele>98</ele><time>2025-03-02T03:03:14Z</time></trkpt>
      <trkpt lat="30.185001" lon="120.024524"><ele>101</ele><time>2025-03-02T03:03:38Z</time></trkpt>
      <trkpt lat="30.185057" lon="120.02388"><ele>107</ele><time>2025-03-02T03:04:21Z</time></trkpt>
      <trkpt lat="30.185144" lon="120.023551"><ele>114</ele><time>2025-03-02T03:04:51Z</time></trkpt>
      <trkpt lat="30.184945" lon="120.023169"><ele>121</ele><time>2025-03-02T03:05:54Z</time></trkpt>
      <trkpt lat="30.184916" lon="120.022958"><ele>124</ele><time>2025-03-02T03:06:14Z</time></trkpt>
      <trkpt lat="30.185112" lon="120.022596"><ele>139</ele><time>2025-03-02T03:07:36Z</time></trkpt>
      <trkpt lat="30.185185" lon="120.022285"><ele>148</ele><time>2025-03-02T03:08:26Z</time></trkpt>
      <trkpt lat="30.185567" lon="120.021835"><ele>174</ele><time>2025-03-02T03:10:29Z</time></trkpt>
      <trkpt lat="30.185624" lon="120.021628"><ele>185</ele><time>2025-03-02T03:11:08Z</time></trkpt>
      <trkpt lat="30.185709" lon="120.021665"><ele>189</ele><time>2025-03-02T03:11:32Z</time></trkpt>
      <trkpt lat="30.185763" lon="120.021576"><ele>194</ele><time>2025-03-02T03:11:56Z</time></trkpt>
      <trkpt lat="30.185758" lon="120.02136"><ele>202</ele><time>2025-03-02T03:12:28Z</time></trkpt>
      <trkpt lat="30.185947" lon="120.021339"><ele>211</ele><time>2025-03-02T03:13:16Z</time></trkpt>
      <trkpt lat="30.185972" lon="120.020806"><ele>234</ele><time>2025-03-02T03:15:21Z</time></trkpt>
      <trkpt lat="30.185865" lon="120.019963"><ele>259</ele><time>2025-03-02T03:17:55Z</time></trkpt>
      <trkpt lat="30.185953" lon="120.019779"><ele>268</ele><time>2025-03-02T03:18:48Z</time></trkpt>
      <trkpt lat="30.185844" lon="120.01961"><ele>276</ele><time>2025-03-02T03:19:43Z</time></trkpt>
      <trkpt lat="30.185896" lon="120.019523"><ele>281</ele><time>2025-03-02T03:20:23Z</time></trkpt>
      <trkpt lat="30.18581" lon="120.019235"><ele>294</ele><time>2025-03-02T03:21:17Z</time></trkpt>
      <trkpt lat="30.185861" lon="120.019143"><ele>300</ele><time>2025-03-02T03:21:57Z</time></trkpt>
      <trkpt lat="30.185695" lon="120.018752"><ele>317</ele><time>2025-03-02T03:23:31Z</time></trkpt>
      <trkpt lat="30.185342" lon="120.018384"><ele>331</ele><time>2025-03-02T03:24:39Z</time></trkpt>
      <trkpt lat="30.185301" lon="120.018173"><ele>335</ele><time>2025-03-02T03:25:00Z</time></trkpt>
      <trkpt lat="30.185361" lon="120.017623"><ele>344</ele><time>2025-03-02T03:26:10Z</time></trkpt>
      <trkpt lat="30.185222" lon="120.01721"><ele>350</ele><time>2025-03-02T03:26:54Z</time></trkpt>
      <trkpt lat="30.185275" lon="120.01678"><ele>360</ele><time>2025-03-02T03:27:41Z</time></trkpt>
      <trkpt lat="30.185333" lon="120.016695"><ele>363</ele><time>2025-03-02T03:28:01Z</time></trkpt>
      <trkpt lat="30.184696" lon="120.015372"><ele>396</ele><time>2025-03-02T03:34:40Z</time></trkpt>
      <trkpt lat="30.184664" lon="120.014957"><ele>415</ele><time>2025-03-02T03:36:36Z</time></trkpt>
      <trkpt lat="30.184477" lon="120.014258"><ele>450</ele><time>2025-03-02T03:39:25Z</time></trkpt>
      <trkpt lat="30.184231" lon="120.013933"><ele>443</ele><time>2025-03-02T03:40:23Z</time></trkpt>
      <trkpt lat="30.184184" lon="120.013486"><ele>447</ele><time>2025-03-02T03:41:04Z</time></trkpt>
      <trkpt lat="30.184063" lon="120.013097"><ele>465</ele><time>2025-03-02T03:42:43Z</time></trkpt>
      <trkpt lat="30.183694" lon="120.012607"><ele>454</ele><time>2025-03-02T03:43:59Z</time></trkpt>
      <trkpt lat="30.183558" lon="120.012183"><ele>455</ele><time>2025-03-02T03:44:34Z</time></trkpt>
      <trkpt lat="30.183276" lon="120.011902"><ele>446</ele><time>2025-03-02T03:45:20Z</time></trkpt>
      <trkpt lat="30.182923" lon="120.011714"><ele>448</ele><time>2025-03-02T03:45:55Z</time></trkpt>
      <trkpt lat="30.182763" lon="120.011009"><ele>468</ele><time>2025-03-02T03:48:08Z</time></trkpt>
      <trkpt lat="30.182816" lon="120.010801"><ele>470</ele><time>2025-03-02T03:48:55Z</time></trkpt>
      <trkpt lat="30.183005" lon="120.010565"><ele>468</ele><time>2025-03-02T03:49:34Z</time></trkpt>
      <trkpt lat="30.183151" lon="120.010072"><ele>460</ele><time>2025-03-02T03:51:18Z</time></trkpt>
      <trkpt lat="30.183412" lon="120.009753"><ele>439</ele><time>2025-03-02T03:52:47Z</time></trkpt>
      <trkpt lat="30.183686" lon="120.008804"><ele>403</ele><time>2025-03-02T03:55:08Z</time></trkpt>
      <trkpt lat="30.183666" lon="120.008601"><ele>397</ele><time>2025-03-02T03:56:00Z</time></trkpt>
      <trkpt lat="30.183813" lon="120.008307"><ele>393</ele><time>2025-03-02T03:56:32Z</time></trkpt>
      <trkpt lat="30.18417" lon="120.007951"><ele>392</ele><time>2025-03-02T03:57:19Z</time></trkpt>
      <trkpt lat="30.184295" lon="120.007664"><ele>396</ele><time>2025-03-02T03:58:05Z</time></trkpt>
      <trkpt lat="30.184598" lon="120.007393"><ele>397</ele><time>2025-03-02T03:58:41Z</time></trkpt>
      <trkpt lat="30.18471" lon="120.007209"><ele>399</ele><time>2025-03-02T03:58:57Z</time></trkpt>
      <trkpt lat="30.184766" lon="120.006995"><ele>401</ele><time>2025-03-02T03:59:16Z</time></trkpt>
      <trkpt lat="30.184724" lon="120.006445"><ele>405</ele><time>2025-03-02T04:00:00Z</time></trkpt>
      <trkpt lat="30.184809" lon="120.00625"><ele>410</ele><time>2025-03-02T04:00:18Z</time></trkpt>
      <trkpt lat="30.184956" lon="120.006119"><ele>417</ele><time>2025-03-02T04:00:42Z</time></trkpt>
      <trkpt lat="30.185013" lon="120.005909"><ele>420</ele><time>2025-03-02T04:01:06Z</time></trkpt>
      <trkpt lat="30.185003" lon="120.004825"><ele>410</ele><time>2025-03-02T04:02:40Z</time></trkpt>
      <trkpt lat="30.184471" lon="120.003932"><ele>383</ele><time>2025-03-02T04:05:20Z</time></trkpt>
      <trkpt lat="30.184299" lon="120.003875"><ele>371</ele><time>2025-03-02T04:06:07Z</time></trkpt>
      <trkpt lat="30.184121" lon="120.003923"><ele>356</ele><time>2025-03-02T04:06:45Z</time></trkpt>
      <trkpt lat="30.183987" lon="120.003781"><ele>352</ele><time>2025-03-02T04:07:24Z</time></trkpt>
      <trkpt lat="30.183724" lon="120.003726"><ele>335</ele><time>2025-03-02T04:08:21Z</time></trkpt>
      <trkpt lat="30.1837" lon="120.003833"><ele>331</ele><time>2025-03-02T04:08:42Z</time></trkpt>
      <trkpt lat="30.183636" lon="120.00365"><ele>327</ele><time>2025-03-02T04:09:09Z</time></trkpt>
      <trkpt lat="30.183518" lon="120.003831"><ele>319</ele><time>2025-03-02T04:09:50Z</time></trkpt>
      <trkpt lat="30.183429" lon="120.003649"><ele>311</ele><time>2025-03-02T04:10:38Z</time></trkpt>
      <trkpt lat="30.183342" lon="120.003676"><ele>304</ele><time>2025-03-02T04:11:19Z</time></trkpt>
      <trkpt lat="30.183271" lon="120.003607"><ele>296</ele><time>2025-03-02T04:11:48Z</time></trkpt>
      <trkpt lat="30.183186" lon="120.003791"><ele>285</ele><time>2025-03-02T04:12:29Z</time></trkpt>
      <trkpt lat="30.183094" lon="120.003758"><ele>282</ele><time>2025-03-02T04:12:43Z</time></trkpt>
      <trkpt lat="30.183069" lon="120.003859"><ele>276</ele><time>2025-03-02T04:13:22Z</time></trkpt>
      <trkpt lat="30.182971" lon="120.003842"><ele>273</ele><time>2025-03-02T04:13:39Z</time></trkpt>
      <trkpt lat="30.182827" lon="120.003564"><ele>263</ele><time>2025-03-02T04:14:22Z</time></trkpt>
      <trkpt lat="30.182829" lon="120.003341"><ele>260</ele><time>2025-03-02T04:14:45Z</time></trkpt>
      <trkpt lat="30.182754" lon="120.003281"><ele>253</ele><time>2025-03-02T04:15:38Z</time></trkpt>
      <trkpt lat="30.182567" lon="120.003522"><ele>244</ele><time>2025-03-02T04:16:18Z</time></trkpt>
      <trkpt lat="30.182597" lon="120.003293"><ele>241</ele><time>2025-03-02T04:17:05Z</time></trkpt>
      <trkpt lat="30.18254" lon="120.003208"><ele>238</ele><time>2025-03-02T04:17:22Z</time></trkpt>
      <trkpt lat="30.18227" lon="120.003284"><ele>227</ele><time>2025-03-02T04:18:07Z</time></trkpt>
      <trkpt lat="30.182192" lon="120.003215"><ele>222</ele><time>2025-03-02T04:18:21Z</time></trkpt>
      <trkpt lat="30.181902" lon="120.0032"><ele>211</ele><time>2025-03-02T04:18:58Z</time></trkpt>
      <trkpt lat="30.181594" lon="120.002954"><ele>200</ele><time>2025-03-02T04:19:53Z</time></trkpt>
      <trkpt lat="30.18122" lon="120.002913"><ele>189</ele><time>2025-03-02T04:20:36Z</time></trkpt>
      <trkpt lat="30.181126" lon="120.002724"><ele>188</ele><time>2025-03-02T04:21:09Z</time></trkpt>
      <trkpt lat="30.180855" lon="120.002661"><ele>183</ele><time>2025-03-02T04:21:53Z</time></trkpt>
      <trkpt lat="30.180397" lon="120.002783"><ele>169</ele><time>2025-03-02T04:22:51Z</time></trkpt>
      <trkpt lat="30.1802" lon="120.003031"><ele>167</ele><time>2025-03-02T04:23:32Z</time></trkpt>
      <trkpt lat="30.1801" lon="120.003065"><ele>167</ele><time>2025-03-02T04:23:41Z</time></trkpt>
      <trkpt lat="30.179917" lon="120.003078"><ele>168</ele><time>2025-03-02T04:23:56Z</time></trkpt>
      <trkpt lat="30.179464" lon="120.002863"><ele>170</ele><time>2025-03-02T04:24:39Z</time></trkpt>
      <trkpt lat="30.1787" lon="120.002978"><ele>188</ele><time>2025-03-02T04:26:03Z</time></trkpt>
      <trkpt lat="30.177935" lon="120.003791"><ele>184</ele><time>2025-03-02T04:27:51Z</time></trkpt>
      <trkpt lat="30.177847" lon="120.003842"><ele>182</ele><time>2025-03-02T04:27:59Z</time></trkpt>
      <trkpt lat="30.177781" lon="120.003764"><ele>180</ele><time>2025-03-02T04:28:22Z</time></trkpt>
      <trkpt lat="30.177773" lon="120.003874"><ele>181</ele><time>2025-03-02T04:28:52Z</time></trkpt>
      <trkpt lat="30.177527" lon="120.003997"><ele>185</ele><time>2025-03-02T04:29:14Z</time></trkpt>
      <trkpt lat="30.177253" lon="120.004456"><ele>185</ele><time>2025-03-02T04:29:55Z</time></trkpt>
      <trkpt lat="30.176648" lon="120.004775"><ele>197</ele><time>2025-03-02T04:30:47Z</time></trkpt>
      <trkpt lat="30.176271" lon="120.004816"><ele>202</ele><time>2025-03-02T04:31:18Z</time></trkpt>
      <trkpt lat="30.176092" lon="120.004912"><ele>204</ele><time>2025-03-02T04:31:35Z</time></trkpt>
      <trkpt lat="30.175901" lon="120.0053"><ele>209</ele><time>2025-03-02T04:32:10Z</time></trkpt>
      <trkpt lat="30.175917" lon="120.006055"><ele>225</ele><time>2025-03-02T04:34:28Z</time></trkpt>
      <trkpt lat="30.175828" lon="120.006088"><ele>227</ele><time>2025-03-02T04:34:49Z</time></trkpt>
      <trkpt lat="30.175806" lon="120.006295"><ele>236</ele><time>2025-03-02T04:35:42Z</time></trkpt>
      <trkpt lat="30.175722" lon="120.00634"><ele>239</ele><time>2025-03-02T04:35:51Z</time></trkpt>
      <trkpt lat="30.175658" lon="120.006537"><ele>253</ele><time>2025-03-02T04:37:00Z</time></trkpt>
      <trkpt lat="30.175424" lon="120.006875"><ele>266</ele><time>2025-03-02T04:38:04Z</time></trkpt>
      <trkpt lat="30.175602" lon="120.006875"><ele>274</ele><time>2025-03-02T04:38:39Z</time></trkpt>
      <trkpt lat="30.175571" lon="120.007079"><ele>284</ele><time>2025-03-02T04:39:21Z</time></trkpt>
      <trkpt lat="30.175653" lon="120.007123"><ele>287</ele><time>2025-03-02T04:39:52Z</time></trkpt>
      <trkpt lat="30.175812" lon="120.007627"><ele>316</ele><time>2025-03-02T04:42:40Z</time></trkpt>
      <trkpt lat="30.175755" lon="120.007839"><ele>323</ele><time>2025-03-02T04:43:06Z</time></trkpt>
      <trkpt lat="30.175786" lon="120.007943"><ele>327</ele><time>2025-03-02T04:43:36Z</time></trkpt>
      <trkpt lat="30.175543" lon="120.008399"><ele>342</ele><time>2025-03-02T04:45:21Z</time></trkpt>
      <trkpt lat="30.175423" lon="120.008908"><ele>367</ele><time>2025-03-02T04:46:55Z</time></trkpt>
      <trkpt lat="30.17536" lon="120.008989"><ele>367</ele><time>2025-03-02T04:47:12Z</time></trkpt>
      <trkpt lat="30.175091" lon="120.009051"><ele>370</ele><time>2025-03-02T04:47:58Z</time></trkpt>
      <trkpt lat="30.174964" lon="120.00921"><ele>376</ele><time>2025-03-02T04:48:24Z</time></trkpt>
      <trkpt lat="30.174955" lon="120.009316"><ele>376</ele><time>2025-03-02T04:49:08Z</time></trkpt>
      <trkpt lat="30.175369" lon="120.009892"><ele>352</ele><time>2025-03-02T04:51:21Z</time></trkpt>
      <trkpt lat="30.175935" lon="120.009989"><ele>350</ele><time>2025-03-02T04:52:22Z</time></trkpt>
      <trkpt lat="30.176116" lon="120.010219"><ele>349</ele><time>2025-03-02T04:52:49Z</time></trkpt>
      <trkpt lat="30.176209" lon="120.010248"><ele>346</ele><time>2025-03-02T04:53:00Z</time></trkpt>
      <trkpt lat="30.176289" lon="120.010446"><ele>344</ele><time>2025-03-02T04:53:25Z</time></trkpt>
      <trkpt lat="30.176261" lon="120.010986"><ele>321</ele><time>2025-03-02T04:54:36Z</time></trkpt>
      <trkpt lat="30.176204" lon="120.011073"><ele>318</ele><time>2025-03-02T04:54:53Z</time></trkpt>
      <trkpt lat="30.17611" lon="120.011081"><ele>312</ele><time>2025-03-02T04:55:08Z</time></trkpt>
      <trkpt lat="30.176068" lon="120.011181"><ele>302</ele><time>2025-03-02T04:55:43Z</time></trkpt>
      <trkpt lat="30.175892" lon="120.011256"><ele>293</ele><time>2025-03-02T04:56:23Z</time></trkpt>
      <trkpt lat="30.175803" lon="120.011215"><ele>290</ele><time>2025-03-02T04:56:35Z</time></trkpt>
      <trkpt lat="30.17562" lon="120.011439"><ele>273</ele><time>2025-03-02T04:58:49Z</time></trkpt>
      <trkpt lat="30.17553" lon="120.011427"><ele>270</ele><time>2025-03-02T04:59:04Z</time></trkpt>
      <trkpt lat="30.175392" lon="120.011572"><ele>259</ele><time>2025-03-02T05:00:13Z</time></trkpt>
      <trkpt lat="30.175305" lon="120.011543"><ele>255</ele><time>2025-03-02T05:00:31Z</time></trkpt>
      <trkpt lat="30.175221" lon="120.01217"><ele>242</ele><time>2025-03-02T05:02:38Z</time></trkpt>
      <trkpt lat="30.174582" lon="120.01282"><ele>219</ele><time>2025-03-02T05:04:23Z</time></trkpt>
      <trkpt lat="30.173913" lon="120.013887"><ele>184</ele><time>2025-03-02T05:06:44Z</time></trkpt>
      <trkpt lat="30.173807" lon="120.014309"><ele>178</ele><time>2025-03-02T05:07:24Z</time></trkpt>
      <trkpt lat="30.173447" lon="120.014812"><ele>171</ele><time>2025-03-02T05:08:30Z</time></trkpt>
      <trkpt lat="30.173012" lon="120.016281"><ele>152</ele><time>2025-03-02T05:10:48Z</time></trkpt>
      <trkpt lat="30.17306" lon="120.017069"><ele>146</ele><time>2025-03-02T05:11:51Z</time></trkpt>
      <trkpt lat="30.172979" lon="120.017623"><ele>142</ele><time>2025-03-02T05:12:36Z</time></trkpt>
      <trkpt lat="30.173059" lon="120.018403"><ele>134</ele><time>2025-03-02T05:13:35Z</time></trkpt>
      <trkpt lat="30.173184" lon="120.019034"><ele>132</ele><time>2025-03-02T05:14:25Z</time></trkpt>
      <trkpt lat="30.173311" lon="120.019341"><ele>128</ele><time>2025-03-02T05:14:50Z</time></trkpt>
      <trkpt lat="30.173546" lon="120.020535"><ele>125</ele><time>2025-03-02T05:16:23Z</time></trkpt>
      <trkpt lat="30.173875" lon="120.021208"><ele>121</ele><time>2025-03-02T05:17:21Z</time></trkpt>
      <trkpt lat="30.173888" lon="120.021434"><ele>121</ele><time>2025-03-02T05:17:40Z</time></trkpt>
      <trkpt lat="30.174025" lon="120.021843"><ele>117</ele><time>2025-03-02T05:18:12Z</time></trkpt>
      <trkpt lat="30.174427" lon="120.022481"><ele>111</ele><time>2025-03-02T05:19:08Z</time></trkpt>
      <trkpt lat="30.174521" lon="120.023135"><ele>111</ele><time>2025-03-02T05:19:59Z</time></trkpt>
      <trkpt lat="30.174701" lon="120.02367"><ele>110</ele><time>2025-03-02T05:20:40Z</time></trkpt>
      <trkpt lat="30.174747" lon="120.02421"><ele>109</ele><time>2025-03-02T05:21:22Z</time></trkpt>
      <trkpt lat="30.175096" lon="120.025243"><ele>104</ele><time>2025-03-02T05:22:41Z</time></trkpt>
      <trkpt lat="30.17522" lon="120.02579"><ele>100</ele><time>2025-03-02T05:23:24Z</time></trkpt>
      <trkpt lat="30.175498" lon="120.026247"><ele>98</ele><time>2025-03-02T05:24:04Z</time></trkpt>
      <trkpt lat="30.175755" lon="120.026845"><ele>96</ele><time>2025-03-02T05:24:52Z</time></trkpt>
      <trkpt lat="30.175856" lon="120.027271"><ele>94</ele><time>2025-03-02T05:25:23Z</time></trkpt>
      <trkpt lat="30.176379" lon="120.028443"><ele>92</ele><time>2025-03-02T05:26:58Z</time></trkpt>
      <trkpt lat="30.176493" lon="120.029089"><ele>89</ele><time>2025-03-02T05:27:48Z</time></trkpt>
      <trkpt lat="30.17692" lon="120.030086"><ele>85</ele><time>2025-03-02T05:29:11Z</time></trkpt>
      <trkpt lat="30.177098" lon="120.030347"><ele>83</ele><time>2025-03-02T05:29:37Z</time></trkpt>
      <trkpt lat="30.177487" lon="120.030379"><ele>83</ele><time>2025-03-02T05:30:12Z</time></trkpt>
      <trkpt lat="30.177749" lon="120.030243"><ele>83</ele><time>2025-03-02T05:30:35Z</time></trkpt>
      <trkpt lat="30.177829" lon="120.030302"><ele>81</ele><time>2025-03-02T05:30:43Z</time></trkpt>
      <trkpt lat="30.17793" lon="120.030276"><ele>82</ele><time>2025-03-02T05:30:51Z</time></trkpt>
      <trkpt lat="30.178809" lon="120.029845"><ele>75</ele><time>2025-03-02T05:32:10Z</time></trkpt>
      <trkpt lat="30.178906" lon="120.029853"><ele>76</ele><time>2025-03-02T05:32:17Z</time></trkpt>
      <trkpt lat="30.179069" lon="120.029955"><ele>76</ele><time>2025-03-02T05:32:35Z</time></trkpt>
      <trkpt lat="30.179462" lon="120.030455"><ele>74</ele><time>2025-03-02T05:33:20Z</time></trkpt>
      <trkpt lat="30.180184" lon="120.030708"><ele>71</ele><time>2025-03-02T05:34:21Z</time></trkpt>
      <trkpt lat="30.180431" lon="120.031011"><ele>69</ele><time>2025-03-02T05:34:27Z</time></trkpt>
      <trkpt lat="30.180561" lon="120.031372"><ele>68</ele><time>2025-03-02T05:34:34Z</time></trkpt>
      <trkpt lat="30.180693" lon="120.032664"><ele>66</ele><time>2025-03-02T05:34:48Z</time></trkpt>
      <trkpt lat="30.180922" lon="120.033453"><ele>64</ele><time>2025-03-02T05:34:55Z</time></trkpt>
      <trkpt lat="30.180951" lon="120.033984"><ele>62</ele><time>2025-03-02T05:35:01Z</time></trkpt>
      <trkpt lat="30.181024" lon="120.034223"><ele>62</ele><time>2025-03-02T05:35:06Z</time></trkpt>
      <trkpt lat="30.181024" lon="120.034354"><ele>62</ele><time>2025-03-02T05:35:07Z</time></trkpt>
      <trkpt lat="30.180929" lon="120.034466"><ele>62</ele><time>2025-03-02T05:35:09Z</time></trkpt>
      <trkpt lat="30.180371" lon="120.034727"><ele>64</ele><time>2025-03-02T05:35:30Z</time></trkpt>
      <trkpt lat="30.180305" lon="120.034811"><ele>64</ele><time>2025-03-02T05:35:35Z</time></trkpt>
      <trkpt lat="30.180565" lon="120.036672"><ele>57</ele><time>2025-03-02T05:35:57Z</time></trkpt>
      <trkpt lat="30.181371" lon="120.038062"><ele>52</ele><time>2025-03-02T05:36:14Z</time></trkpt>
      <trkpt lat="30.182023" lon="120.039603"><ele>51</ele><time>2025-03-02T05:36:31Z</time></trkpt>
      <trkpt lat="30.182149" lon="120.039692"><ele>52</ele><time>2025-03-02T05:36:33Z</time></trkpt>
    </trkseg>
  </trk>
</gpx>
