<?xml version="1.0" encoding="UTF-8"?>
<gpx version="1.1" creator="MyWorld" xmlns="http://www.topografix.com/GPX/1/1">
  <metadata><name>杭州玉皇山</name></metadata>
  <trk>
    <name>杭州玉皇山</name>
    <trkseg>
      <trkpt lat="30.207615" lon="120.149385"><ele>10</ele><time>2025-08-17T06:11:50Z</time></trkpt>
      <trkpt lat="30.208649" lon="120.151274"><ele>10</ele><time>2025-08-17T06:14:27Z</time></trkpt>
      <trkpt lat="30.208395" lon="120.150807"><ele>11</ele><time>2025-08-17T06:15:18Z</time></trkpt>
      <trkpt lat="30.20861" lon="120.151175"><ele>10</ele><time>2025-08-17T06:15:54Z</time></trkpt>
      <trkpt lat="30.210371" lon="120.149808"><ele>11</ele><time>2025-08-17T06:18:29Z</time></trkpt>
      <trkpt lat="30.210632" lon="120.149704"><ele>11</ele><time>2025-08-17T06:19:16Z</time></trkpt>
      <trkpt lat="30.211003" lon="120.149714"><ele>13</ele><time>2025-08-17T06:19:45Z</time></trkpt>
      <trkpt lat="30.21166" lon="120.149575"><ele>13</ele><time>2025-08-17T06:20:41Z</time></trkpt>
      <trkpt lat="30.210989" lon="120.149718"><ele>11</ele><time>2025-08-17T06:21:44Z</time></trkpt>
      <trkpt lat="30.210795" lon="120.149667"><ele>11</ele><time>2025-08-17T06:22:00Z</time></trkpt>
      <trkpt lat="30.21065" lon="120.148913"><ele>12</ele><time>2025-08-17T06:22:52Z</time></trkpt>
      <trkpt lat="30.210714" lon="120.148711"><ele>13</ele><time>2025-08-17T06:23:08Z</time></trkpt>
      <trkpt lat="30.210447" lon="120.147313"><ele>14</ele><time>2025-08-17T06:24:46Z</time></trkpt>
      <trkpt lat="30.210468" lon="120.1472"><ele>13</ele><time>2025-08-17T06:25:00Z</time></trkpt>
      <trkpt lat="30.211503" lon="120.146913"><ele>11</ele><time>2025-08-17T06:26:27Z</time></trkpt>
      <trkpt lat="30.212386" lon="120.146967"><ele>8</ele><time>2025-08-17T06:27:39Z</time></trkpt>
      <trkpt lat="30.212393" lon="120.147413"><ele>8</ele><time>2025-08-17T06:28:24Z</time></trkpt>
      <trkpt lat="30.212494" lon="120.147432"><ele>10</ele><time>2025-08-17T06:28:34Z</time></trkpt>
      <trkpt lat="30.212848" lon="120.147251"><ele>9</ele><time>2025-08-17T06:29:06Z</time></trkpt>
      <trkpt lat="30.212943" lon="120.147259"><ele>9</ele><time>2025-08-17T06:29:16Z</time></trkpt>
      <trkpt lat="30.213167" lon="120.147464"><ele>9</ele><time>2025-08-17T06:29:39Z</time></trkpt>
      <trkpt lat="30.21346" lon="120.147473"><ele>9</ele><time>2025-08-17T06:30:02Z</time></trkpt>
      <trkpt lat="30.213671" lon="120.147116"><ele>10</ele><time>2025-08-17T06:30:54Z</time></trkpt>
      <trkpt lat="30.213691" lon="120.146792"><ele>10</ele><time>2025-08-17T06:31:18Z</time></trkpt>
      <trkpt lat="30.214647" lon="120.146265"><ele>11</ele><time>2025-08-17T06:32:55Z</time></trkpt>
      <trkpt lat="30.213965" lon="120.14587"><ele>11</ele><time>2025-08-17T06:33:59Z</time></trkpt>
      <trkpt lat="30.213333" lon="120.145221"><ele>14</ele><time>2025-08-17T06:35:13Z</time></trkpt>
      <trkpt lat="30.213065" lon="120.145113"><ele>15</ele><time>2025-08-17T06:35:35Z</time></trkpt>
      <trkpt lat="30.213314" lon="120.145247"><ele>14</ele><time>2025-08-17T06:36:16Z</time></trkpt>
      <trkpt lat="30.213759" lon="120.145705"><ele>12</ele><time>2025-08-17T06:37:02Z</time></trkpt>
      <trkpt lat="30.213933" lon="120.145635"><ele>12</ele><time>2025-08-17T06:37:16Z</time></trkpt>
      <trkpt lat="30.214597" lon="120.144729"><ele>45</ele><time>2025-08-17T06:43:20Z</time></trkpt>
      <trkpt lat="30.214573" lon="120.144624"><ele>48</ele><time>2025-08-17T06:43:52Z</time></trkpt>
      <trkpt lat="30.214662" lon="120.144666"><ele>48</ele><time>2025-08-17T06:44:08Z</time></trkpt>
      <trkpt lat="30.214826" lon="120.144187"><ele>64</ele><time>2025-08-17T06:45:54Z</time></trkpt>
      <trkpt lat="30.21509" lon="120.144117"><ele>72</ele><time>2025-08-17T06:49:14Z</time></trkpt>
      <trkpt lat="30.215276" lon="120.144176"><ele>75</ele><time>2025-08-17T06:49:39Z</time></trkpt>
      <trkpt lat="30.215366" lon="120.144143"><ele>76</ele><time>2025-08-17T06:49:47Z</time></trkpt>
      <trkpt lat="30.215322" lon="120.144049"><ele>81</ele><time>2025-08-17T06:50:00Z</time></trkpt>
      <trkpt lat="30.21541" lon="120.144091"><ele>81</ele><time>2025-08-17T06:50:19Z</time></trkpt>
      <trkpt lat="30.215484" lon="120.144004"><ele>86</ele><time>2025-08-17T06:50:34Z</time></trkpt>
      <trkpt lat="30.215569" lon="120.143821"><ele>93</ele><time>2025-08-17T06:52:01Z</time></trkpt>
      <trkpt lat="30.215451" lon="120.143649"><ele>99</ele><time>2025-08-17T06:52:30Z</time></trkpt>
      <trkpt lat="30.215622" lon="120.14374"><ele>100</ele><time>2025-08-17T06:53:21Z</time></trkpt>
      <trkpt lat="30.215593" lon="120.143525"><ele>108</ele><time>2025-08-17T06:53:57Z</time></trkpt>
      <trkpt lat="30.215685" lon="120.143526"><ele>111</ele><time>2025-08-17T06:54:22Z</time></trkpt>
      <trkpt lat="30.215701" lon="120.143318"><ele>119</ele><time>2025-08-17T06:54:51Z</time></trkpt>
      <trkpt lat="30.215792" lon="120.143285"><ele>122</ele><time>2025-08-17T06:55:54Z</time></trkpt>
      <trkpt lat="30.21573" lon="120.143207"><ele>126</ele><time>2025-08-17T06:56:12Z</time></trkpt>
      <trkpt lat="30.215916" lon="120.143175"><ele>131</ele><time>2025-08-17T06:57:17Z</time></trkpt>
      <trkpt lat="30.21589" lon="120.143074"><ele>136</ele><time>2025-08-17T06:57:43Z</time></trkpt>
      <trkpt lat="30.215975" lon="120.142875"><ele>143</ele><time>2025-08-17T06:59:02Z</time></trkpt>
      <trkpt lat="30.21615" lon="120.142923"><ele>146</ele><time>2025-08-17T06:59:21Z</time></trkpt>
      <trkpt lat="30.216526" lon="120.143265"><ele>145</ele><time>2025-08-17T07:00:08Z</time></trkpt>
      <trkpt lat="30.21707" lon="120.143429"><ele>144</ele><time>2025-08-17T07:01:05Z</time></trkpt>
      <trkpt lat="30.217162" lon="120.143242"><ele>147</ele><time>2025-08-17T07:01:46Z</time></trkpt>
      <trkpt lat="30.217125" lon="120.143144"><ele>151</ele><time>2025-08-17T07:02:09Z</time></trkpt>
      <trkpt lat="30.217163" lon="120.143044"><ele>154</ele><time>2025-08-17T07:02:23Z</time></trkpt>
      <trkpt lat="30.217015" lon="120.142933"><ele>159</ele><time>2025-08-17T07:03:40Z</time></trkpt>
      <trkpt lat="30.216829" lon="120.142941"><ele>161</ele><time>2025-08-17T07:04:12Z</time></trkpt>
      <trkpt lat="30.21653" lon="120.142682"><ele>168</ele><time>2025-08-17T07:05:08Z</time></trkpt>
      <trkpt lat="30.216475" lon="120.142745"><ele>167</ele><time>2025-08-17T07:12:47Z</time></trkpt>
      <trkpt lat="30.216283" lon="120.142752"><ele>162</ele><time>2025-08-17T07:13:41Z</time></trkpt>
      <trkpt lat="30.216364" lon="120.1427"><ele>161</ele><time>2025-08-17T07:14:55Z</time></trkpt>
      <trkpt lat="30.216706" lon="120.142871"><ele>167</ele><time>2025-08-17T07:15:45Z</time></trkpt>
      <trkpt lat="30.2168" lon="120.142833"><ele>170</ele><time>2025-08-17T07:16:00Z</time></trkpt>
      <trkpt lat="30.216779" lon="120.142625"><ele>174</ele><time>2025-08-17T07:16:46Z</time></trkpt>
      <trkpt lat="30.216688" lon="120.14261"><ele>174</ele><time>2025-08-17T07:17:15Z</time></trkpt>
      <trkpt lat="30.216648" lon="120.142517"><ele>175</ele><time>2025-08-17T07:17:35Z</time></trkpt>
      <trkpt lat="30.216463" lon="120.141689"><ele>203</ele><time>2025-08-17T07:21:44Z</time></trkpt>
      <trkpt lat="30.216325" lon="120.141546"><ele>206</ele><time>2025-08-17T07:22:20Z</time></trkpt>
      <trkpt lat="30.216383" lon="120.141455"><ele>208</ele><time>2025-08-17T07:22:42Z</time></trkpt>
      <trkpt lat="30.216481" lon="120.14144"><ele>212</ele><time>2025-08-17T07:23:01Z</time></trkpt>
      <trkpt lat="30.216454" lon="120.14134"><ele>216</ele><time>2025-08-17T07:23:48Z</time></trkpt>
      <trkpt lat="30.216583" lon="120.141054"><ele>227</ele><time>2025-08-17T07:25:17Z</time></trkpt>
      <trkpt lat="30.216679" lon="120.141055"><ele>229</ele><time>2025-08-17T07:25:42Z</time></trkpt>
      <trkpt lat="30.216831" lon="120.140926"><ele>231</ele><time>2025-08-17T07:27:37Z</time></trkpt>
      <trkpt lat="30.216951" lon="120.140658"><ele>236</ele><time>2025-08-17T07:29:19Z</time></trkpt>
      <trkpt lat="30.216879" lon="120.140592"><ele>237</ele><time>2025-08-17T07:29:38Z</time></trkpt>
      <trkpt lat="30.21694" lon="120.140676"><ele>236</ele><time>2025-08-17T07:30:06Z</time></trkpt>
      <trkpt lat="30.216768" lon="120.140773"><ele>237</ele><time>2025-08-17T07:31:05Z</time></trkpt>
      <trkpt lat="30.216675" lon="120.14075"><ele>237</ele><time>2025-08-17T07:31:18Z</time></trkpt>
      <trkpt lat="30.216565" lon="120.140459"><ele>239</ele><time>2025-08-17T07:32:26Z</time></trkpt>
      <trkpt lat="30.216473" lon="120.140457"><ele>237</ele><time>2025-08-17T07:33:23Z</time></trkpt>
      <trkpt lat="30.216692" lon="120.140246"><ele>241</ele><time>2025-08-17T07:33:48Z</time></trkpt>
      <trkpt lat="30.216622" lon="120.140176"><ele>241</ele><time>2025-08-17T07:34:43Z</time></trkpt>
      <trkpt lat="30.216648" lon="120.140382"><ele>241</ele><time>2025-08-17T07:37:02Z</time></trkpt>
      <trkpt lat="30.216564" lon="120.140433"><ele>240</ele><time>2025-08-17T07:37:28Z</time></trkpt>
      <trkpt lat="30.216659" lon="120.14064"><ele>238</ele><time>2025-08-17T07:41:59Z</time></trkpt>
      <trkpt lat="30.216631" lon="120.140739"><ele>236</ele><time>2025-08-17T07:42:15Z</time></trkpt>
      <trkpt lat="30.216706" lon="120.140801"><ele>236</ele><time>2025-08-17T07:42:30Z</time></trkpt>
      <trkpt lat="30.217155" lon="120.140675"><ele>230</ele><time>2025-08-17T07:43:40Z</time></trkpt>
      <trkpt lat="30.217246" lon="120.140716"><ele>227</ele><time>2025-08-17T07:44:03Z</time></trkpt>
      <trkpt lat="30.217331" lon="120.140908"><ele>221</ele><time>2025-08-17T07:44:45Z</time></trkpt>
      <trkpt lat="30.21725" lon="120.141098"><ele>216</ele><time>2025-08-17T07:45:07Z</time></trkpt>
      <trkpt lat="30.216768" lon="120.141476"><ele>215</ele><time>2025-08-17T07:45:58Z</time></trkpt>
      <trkpt lat="30.216496" lon="120.141533"><ele>211</ele><time>2025-08-17T07:46:25Z</time></trkpt>
      <trkpt lat="30.216323" lon="120.141425"><ele>209</ele><time>2025-08-17T07:46:44Z</time></trkpt>
      <trkpt lat="30.216544" lon="120.142007"><ele>192</ele><time>2025-08-17T07:48:09Z</time></trkpt>
      <trkpt lat="30.216519" lon="120.142107"><ele>189</ele><time>2025-08-17T07:48:28Z</time></trkpt>
      <trkpt lat="30.216651" lon="120.142625"><ele>174</ele><time>2025-08-17T07:49:43Z</time></trkpt>
      <trkpt lat="30.216791" lon="120.142771"><ele>169</ele><time>2025-08-17T07:50:07Z</time></trkpt>
      <trkpt lat="30.216725" lon="120.142843"><ele>166</ele><time>2025-08-17T07:50:22Z</time></trkpt>
      <trkpt lat="30.216753" lon="120.142943"><ele>166</ele><time>2025-08-17T07:50:32Z</time></trkpt>
      <trkpt lat="30.217029" lon="120.142978"><ele>159</ele><time>2025-08-17T07:51:06Z</time></trkpt>
      <trkpt lat="30.217099" lon="120.143059"><ele>157</ele><time>2025-08-17T07:51:19Z</time></trkpt>
      <trkpt lat="30.21714" lon="120.14327"><ele>149</ele><time>2025-08-17T07:51:50Z</time></trkpt>
      <trkpt lat="30.217065" lon="120.143335"><ele>146</ele><time>2025-08-17T07:52:05Z</time></trkpt>
      <trkpt lat="30.217125" lon="120.143422"><ele>145</ele><time>2025-08-17T07:52:15Z</time></trkpt>
      <trkpt lat="30.217297" lon="120.143445"><ele>145</ele><time>2025-08-17T07:52:34Z</time></trkpt>
      <trkpt lat="30.217221" lon="120.143507"><ele>144</ele><time>2025-08-17T07:52:54Z</time></trkpt>
      <trkpt lat="30.217317" lon="120.143553"><ele>141</ele><time>2025-08-17T07:53:08Z</time></trkpt>
      <trkpt lat="30.217484" lon="120.143932"><ele>134</ele><time>2025-08-17T07:53:57Z</time></trkpt>
      <trkpt lat="30.21792" lon="120.144343"><ele>127</ele><time>2025-08-17T07:54:56Z</time></trkpt>
      <trkpt lat="30.218086" lon="120.144851"><ele>121</ele><time>2025-08-17T07:55:41Z</time></trkpt>
      <trkpt lat="30.217954" lon="120.145005"><ele>116</ele><time>2025-08-17T07:56:08Z</time></trkpt>
      <trkpt lat="30.217963" lon="120.145116"><ele>114</ele><time>2025-08-17T07:56:19Z</time></trkpt>
      <trkpt lat="30.21812" lon="120.145517"><ele>107</ele><time>2025-08-17T07:56:58Z</time></trkpt>
      <trkpt lat="30.218492" lon="120.145864"><ele>106</ele><time>2025-08-17T07:57:48Z</time></trkpt>
      <trkpt lat="30.218783" lon="120.146299"><ele>101</ele><time>2025-08-17T07:58:43Z</time></trkpt>
      <trkpt lat="30.219159" lon="120.147939"><ele>92</ele><time>2025-08-17T08:01:27Z</time></trkpt>
      <trkpt lat="30.21916" lon="120.148054"><ele>91</ele><time>2025-08-17T08:01:34Z</time></trkpt>
      <trkpt lat="30.219072" lon="120.148082"><ele>89</ele><time>2025-08-17T08:01:51Z</time></trkpt>
      <trkpt lat="30.219139" lon="120.148157"><ele>94</ele><time>2025-08-17T08:03:11Z</time></trkpt>
      <trkpt lat="30.219055" lon="120.14822"><ele>96</ele><time>2025-08-17T08:03:38Z</time></trkpt>
      <trkpt lat="30.219009" lon="120.14813"><ele>96</ele><time>2025-08-17T08:04:06Z</time></trkpt>
      <trkpt lat="30.219185" lon="120.148129"><ele>88</ele><time>2025-08-17T08:08:41Z</time></trkpt>
      <trkpt lat="30.219183" lon="120.148044"><ele>90</ele><time>2025-08-17T08:09:10Z</time></trkpt>
      <trkpt lat="30.219108" lon="120.147985"><ele>91</ele><time>2025-08-17T08:09:26Z</time></trkpt>
      <trkpt lat="30.219118" lon="120.147874"><ele>90</ele><time>2025-08-17T08:09:39Z</time></trkpt>
      <trkpt lat="30.219493" lon="120.147955"><ele>90</ele><time>2025-08-17T08:11:16Z</time></trkpt>
      <trkpt lat="30.219735" lon="120.148281"><ele>93</ele><time>2025-08-17T08:12:11Z</time></trkpt>
      <trkpt lat="30.219832" lon="120.148484"><ele>97</ele><time>2025-08-17T08:12:40Z</time></trkpt>
      <trkpt lat="30.219824" lon="120.148589"><ele>100</ele><time>2025-08-17T08:12:54Z</time></trkpt>
      <trkpt lat="30.220009" lon="120.148835"><ele>107</ele><time>2025-08-17T08:13:38Z</time></trkpt>
      <trkpt lat="30.219937" lon="120.148903"><ele>112</ele><time>2025-08-17T08:14:21Z</time></trkpt>
      <trkpt lat="30.219968" lon="120.14923"><ele>121</ele><time>2025-08-17T08:15:23Z</time></trkpt>
      <trkpt lat="30.219329" lon="120.149299"><ele>141</ele><time>2025-08-17T08:17:47Z</time></trkpt>
      <trkpt lat="30.219498" lon="120.149243"><ele>136</ele><time>2025-08-17T08:18:29Z</time></trkpt>
      <trkpt lat="30.219677" lon="120.149319"><ele>133</ele><time>2025-08-17T08:18:52Z</time></trkpt>
      <trkpt lat="30.219873" lon="120.14969"><ele>140</ele><time>2025-08-17T08:19:38Z</time></trkpt>
      <trkpt lat="30.220188" lon="120.150082"><ele>149</ele><time>2025-08-17T08:20:28Z</time></trkpt>
      <trkpt lat="30.220373" lon="120.150135"><ele>150</ele><time>2025-08-17T08:20:51Z</time></trkpt>
      <trkpt lat="30.220498" lon="120.150316"><ele>152</ele><time>2025-08-17T08:21:11Z</time></trkpt>
      <trkpt lat="30.221172" lon="120.150685"><ele>150</ele><time>2025-08-17T08:23:36Z</time></trkpt>
      <trkpt lat="30.221195" lon="120.151013"><ele>152</ele><time>2025-08-17T08:24:02Z</time></trkpt>
      <trkpt lat="30.22131" lon="120.151439"><ele>146</ele><time>2025-08-17T08:24:42Z</time></trkpt>
      <trkpt lat="30.221916" lon="120.151961"><ele>145</ele><time>2025-08-17T08:25:59Z</time></trkpt>
      <trkpt lat="30.221952" lon="120.152167"><ele>145</ele><time>2025-08-17T08:26:18Z</time></trkpt>
      <trkpt lat="30.221893" lon="120.152482"><ele>153</ele><time>2025-08-17T08:26:56Z</time></trkpt>
      <trkpt lat="30.221992" lon="120.152793"><ele>148</ele><time>2025-08-17T08:27:34Z</time></trkpt>
      <trkpt lat="30.223068" lon="120.153461"><ele>149</ele><time>2025-08-17T08:29:55Z</time></trkpt>
      <trkpt lat="30.223124" lon="120.153547"><ele>153</ele><time>2025-08-17T08:30:12Z</time></trkpt>
      <trkpt lat="30.22339" lon="120.153649"><ele>164</ele><time>2025-08-17T08:30:55Z</time></trkpt>
      <trkpt lat="30.223708" lon="120.15442"><ele>175</ele><time>2025-08-17T08:33:03Z</time></trkpt>
      <trkpt lat="30.223973" lon="120.15451"><ele>171</ele><time>2025-08-17T08:33:54Z</time></trkpt>
      <trkpt lat="30.224116" lon="120.154365"><ele>164</ele><time>2025-08-17T08:34:19Z</time></trkpt>
      <trkpt lat="30.224298" lon="120.154293"><ele>156</ele><time>2025-08-17T08:34:41Z</time></trkpt>
      <trkpt lat="30.225151" lon="120.154802"><ele>142</ele><time>2025-08-17T08:36:23Z</time></trkpt>
      <trkpt lat="30.226327" lon="120.155234"><ele>131</ele><time>2025-08-17T08:38:44Z</time></trkpt>
      <trkpt lat="30.227186" lon="120.155151"><ele>128</ele><time>2025-08-17T08:40:11Z</time></trkpt>
      <trkpt lat="30.227279" lon="120.155107"><ele>126</ele><time>2025-08-17T08:40:20Z</time></trkpt>
      <trkpt lat="30.22734" lon="120.154904"><ele>120</ele><time>2025-08-17T08:40:53Z</time></trkpt>
      <trkpt lat="30.227523" lon="120.154654"><ele>110</ele><time>2025-08-17T08:41:37Z</time></trkpt>
      <trkpt lat="30.227952" lon="120.154458"><ele>95</ele><time>2025-08-17T08:42:41Z</time></trkpt>
      <trkpt lat="30.228328" lon="120.154417"><ele>79</ele><time>2025-08-17T08:43:55Z</time></trkpt>
      <trkpt lat="30.228694" lon="120.154496"><ele>72</ele><time>2025-08-17T08:44:40Z</time></trkpt>
      <trkpt lat="30.228854" lon="120.154615"><ele>70</ele><time>2025-08-17T08:45:01Z</time></trkpt>
      <trkpt lat="30.229038" lon="120.154611"><ele>67</ele><time>2025-08-17T08:45:25Z</time></trkpt>
      <trkpt lat="30.229167" lon="120.15476"><ele>69</ele><time>2025-08-17T08:45:57Z</time></trkpt>
      <trkpt lat="30.229539" lon="120.154679"><ele>60</ele><time>2025-08-17T08:46:58Z</time></trkpt>
      <trkpt lat="30.229904" lon="120.15479"><ele>61</ele><time>2025-08-17T08:47:39Z</time></trkpt>
      <trkpt lat="30.230715" lon="120.154577"><ele>59</ele><time>2025-08-17T08:49:26Z</time></trkpt>
      <trkpt lat="30.230972" lon="120.154669"><ele>47</ele><time>2025-08-17T08:50:16Z</time></trkpt>
      <trkpt lat="30.231168" lon="120.154897"><ele>42</ele><time>2025-08-17T08:51:08Z</time></trkpt>
      <trkpt lat="30.231423" lon="120.155026"><ele>40</ele><time>2025-08-17T08:51:43Z</time></trkpt>
      <trkpt lat="30.231671" lon="120.154867"><ele>40</ele><time>2025-08-17T08:52:09Z</time></trkpt>
      <trkpt lat="30.232234" lon="120.154787"><ele>33</ele><time>2025-08-17T08:53:02Z</time></trkpt>
      <trkpt lat="30.232516" lon="120.154789"><ele>32</ele><time>2025-08-17T08:53:26Z</time></trkpt>
      <trkpt lat="30.232345" lon="120.154853"><ele>31</ele><time>2025-08-17T08:53:58Z</time></trkpt>
      <trkpt lat="30.232346" lon="120.15496"><ele>31</ele><time>2025-08-17T08:54:59Z</time></trkpt>
      <trkpt lat="30.232646" lon="120.154915"><ele>31</ele><time>2025-08-17T08:55:30Z</time></trkpt>
    </trkseg>
  </trk>
</gpx>
