<?xml version="1.0" encoding="UTF-8"?>
<gpx version="1.1" creator="MyWorld" xmlns="http://www.topografix.com/GPX/1/1">
  <metadata><name>抚州大觉山</name></metadata>
  <trk>
    <name>抚州大觉山</name>
    <trkseg>
      <trkpt lat="27.699026" lon="117.142995"><ele>303</ele><time>2025-05-18T02:45:54Z</time></trkpt>
      <trkpt lat="27.699082" lon="117.143419"><ele>306</ele><time>2025-05-18T02:46:32Z</time></trkpt>
      <trkpt lat="27.69851" lon="117.144916"><ele>312</ele><time>2025-05-18T02:48:37Z</time></trkpt>
      <trkpt lat="27.698315" lon="117.145288"><ele>312</ele><time>2025-05-18T02:49:09Z</time></trkpt>
      <trkpt lat="27.698065" lon="117.145433"><ele>317</ele><time>2025-05-18T02:49:35Z</time></trkpt>
      <trkpt lat="27.697957" lon="117.145597"><ele>318</ele><time>2025-05-18T02:49:58Z</time></trkpt>
      <trkpt lat="27.697936" lon="117.145696"><ele>320</ele><time>2025-05-18T02:50:07Z</time></trkpt>
      <trkpt lat="27.698013" lon="117.145642"><ele>325</ele><time>2025-05-18T02:50:23Z</time></trkpt>
      <trkpt lat="27.697971" lon="117.145551"><ele>323</ele><time>2025-05-18T02:50:35Z</time></trkpt>
      <trkpt lat="27.698018" lon="117.14564"><ele>325</ele><time>2025-05-18T02:51:01Z</time></trkpt>
      <trkpt lat="27.697847" lon="117.146036"><ele>326</ele><time>2025-05-18T02:51:41Z</time></trkpt>
      <trkpt lat="27.697806" lon="117.146351"><ele>327</ele><time>2025-05-18T02:52:04Z</time></trkpt>
      <trkpt lat="27.698002" lon="117.147083"><ele>326</ele><time>2025-05-18T02:53:05Z</time></trkpt>
      <trkpt lat="27.697844" lon="117.147498"><ele>329</ele><time>2025-05-18T02:53:45Z</time></trkpt>
      <trkpt lat="27.697768" lon="117.147556"><ele>331</ele><time>2025-05-18T02:53:54Z</time></trkpt>
      <trkpt lat="27.697754" lon="117.147779"><ele>328</ele><time>2025-05-18T02:54:09Z</time></trkpt>
      <trkpt lat="27.697602" lon="117.148047"><ele>331</ele><time>2025-05-18T02:54:42Z</time></trkpt>
      <trkpt lat="27.697626" lon="117.14837"><ele>335</ele><time>2025-05-18T02:55:13Z</time></trkpt>
      <trkpt lat="27.697482" lon="117.148515"><ele>334</ele><time>2025-05-18T02:55:34Z</time></trkpt>
      <trkpt lat="27.697487" lon="117.148717"><ele>334</ele><time>2025-05-18T02:55:52Z</time></trkpt>
      <trkpt lat="27.697409" lon="117.148784"><ele>336</ele><time>2025-05-18T02:56:01Z</time></trkpt>
      <trkpt lat="27.697227" lon="117.148727"><ele>338</ele><time>2025-05-18T02:56:18Z</time></trkpt>
      <trkpt lat="27.696912" lon="117.148951"><ele>355</ele><time>2025-05-18T02:57:10Z</time></trkpt>
      <trkpt lat="27.696853" lon="117.14926"><ele>353</ele><time>2025-05-18T02:57:43Z</time></trkpt>
      <trkpt lat="27.696752" lon="117.149452"><ele>357</ele><time>2025-05-18T02:58:14Z</time></trkpt>
      <trkpt lat="27.696511" lon="117.14957"><ele>367</ele><time>2025-05-18T02:59:02Z</time></trkpt>
      <trkpt lat="27.696563" lon="117.149664"><ele>368</ele><time>2025-05-18T02:59:09Z</time></trkpt>
      <trkpt lat="27.69643" lon="117.149792"><ele>371</ele><time>2025-05-18T02:59:30Z</time></trkpt>
      <trkpt lat="27.696351" lon="117.149721"><ele>370</ele><time>2025-05-18T02:59:49Z</time></trkpt>
      <trkpt lat="27.696257" lon="117.149771"><ele>370</ele><time>2025-05-18T02:59:55Z</time></trkpt>
      <trkpt lat="27.696034" lon="117.150126"><ele>370</ele><time>2025-05-18T03:00:31Z</time></trkpt>
      <trkpt lat="27.695767" lon="117.150911"><ele>378</ele><time>2025-05-18T03:01:42Z</time></trkpt>
      <trkpt lat="27.695793" lon="117.151441"><ele>377</ele><time>2025-05-18T03:02:35Z</time></trkpt>
      <trkpt lat="27.695636" lon="117.151939"><ele>380</ele><time>2025-05-18T03:03:20Z</time></trkpt>
      <trkpt lat="27.695825" lon="117.152442"><ele>385</ele><time>2025-05-18T03:04:11Z</time></trkpt>
      <trkpt lat="27.696046" lon="117.152626"><ele>386</ele><time>2025-05-18T03:04:37Z</time></trkpt>
      <trkpt lat="27.696104" lon="117.152521"><ele>389</ele><time>2025-05-18T03:04:46Z</time></trkpt>
      <trkpt lat="27.696042" lon="117.152446"><ele>390</ele><time>2025-05-18T03:04:55Z</time></trkpt>
      <trkpt lat="27.696038" lon="117.152564"><ele>392</ele><time>2025-05-18T03:05:10Z</time></trkpt>
      <trkpt lat="27.696115" lon="117.152647"><ele>391</ele><time>2025-05-18T03:05:14Z</time></trkpt>
      <trkpt lat="27.696457" lon="117.152887"><ele>386</ele><time>2025-05-18T03:05:41Z</time></trkpt>
      <trkpt lat="27.696997" lon="117.153042"><ele>389</ele><time>2025-05-18T03:06:41Z</time></trkpt>
      <trkpt lat="27.697748" lon="117.152826"><ele>390</ele><time>2025-05-18T03:07:45Z</time></trkpt>
      <trkpt lat="27.698245" lon="117.153128"><ele>396</ele><time>2025-05-18T03:08:34Z</time></trkpt>
      <trkpt lat="27.698736" lon="117.153159"><ele>401</ele><time>2025-05-18T03:09:16Z</time></trkpt>
      <trkpt lat="27.699169" lon="117.153399"><ele>400</ele><time>2025-05-18T03:09:57Z</time></trkpt>
      <trkpt lat="27.699343" lon="117.153644"><ele>398</ele><time>2025-05-18T03:10:21Z</time></trkpt>
      <trkpt lat="27.699375" lon="117.154058"><ele>401</ele><time>2025-05-18T03:10:57Z</time></trkpt>
      <trkpt lat="27.699463" lon="117.154242"><ele>401</ele><time>2025-05-18T03:11:17Z</time></trkpt>
      <trkpt lat="27.700096" lon="117.15471"><ele>410</ele><time>2025-05-18T03:12:24Z</time></trkpt>
      <trkpt lat="27.700063" lon="117.155338"><ele>414</ele><time>2025-05-18T03:13:22Z</time></trkpt>
      <trkpt lat="27.699756" lon="117.155724"><ele>410</ele><time>2025-05-18T03:14:05Z</time></trkpt>
      <trkpt lat="27.699667" lon="117.155761"><ele>411</ele><time>2025-05-18T03:14:13Z</time></trkpt>
      <trkpt lat="27.699372" lon="117.155803"><ele>418</ele><time>2025-05-18T03:14:45Z</time></trkpt>
      <trkpt lat="27.698988" lon="117.155705"><ele>424</ele><time>2025-05-18T03:15:25Z</time></trkpt>
      <trkpt lat="27.697562" lon="117.156287"><ele>418</ele><time>2025-05-18T03:17:36Z</time></trkpt>
      <trkpt lat="27.697184" lon="117.156263"><ele>422</ele><time>2025-05-18T03:18:10Z</time></trkpt>
      <trkpt lat="27.696541" lon="117.156107"><ele>427</ele><time>2025-05-18T03:19:09Z</time></trkpt>
      <trkpt lat="27.696162" lon="117.156197"><ele>427</ele><time>2025-05-18T03:19:43Z</time></trkpt>
      <trkpt lat="27.695973" lon="117.156158"><ele>427</ele><time>2025-05-18T03:20:02Z</time></trkpt>
      <trkpt lat="27.695732" lon="117.155985"><ele>432</ele><time>2025-05-18T03:20:31Z</time></trkpt>
      <trkpt lat="27.695467" lon="117.155678"><ele>435</ele><time>2025-05-18T03:21:06Z</time></trkpt>
      <trkpt lat="27.695288" lon="117.155628"><ele>438</ele><time>2025-05-18T03:21:22Z</time></trkpt>
      <trkpt lat="27.695198" lon="117.155694"><ele>434</ele><time>2025-05-18T03:21:28Z</time></trkpt>
      <trkpt lat="27.694796" lon="117.156394"><ele>436</ele><time>2025-05-18T03:22:38Z</time></trkpt>
      <trkpt lat="27.694255" lon="117.156837"><ele>440</ele><time>2025-05-18T03:23:41Z</time></trkpt>
      <trkpt lat="27.694089" lon="117.157096"><ele>438</ele><time>2025-05-18T03:24:07Z</time></trkpt>
      <trkpt lat="27.693739" lon="117.157271"><ele>440</ele><time>2025-05-18T03:24:43Z</time></trkpt>
      <trkpt lat="27.693481" lon="117.157569"><ele>434</ele><time>2025-05-18T03:25:13Z</time></trkpt>
      <trkpt lat="27.693435" lon="117.158095"><ele>436</ele><time>2025-05-18T03:25:56Z</time></trkpt>
      <trkpt lat="27.693106" lon="117.15911"><ele>437</ele><time>2025-05-18T03:27:27Z</time></trkpt>
      <trkpt lat="27.692848" lon="117.159681"><ele>441</ele><time>2025-05-18T03:28:26Z</time></trkpt>
      <trkpt lat="27.692825" lon="117.160658"><ele>447</ele><time>2025-05-18T03:29:48Z</time></trkpt>
      <trkpt lat="27.692653" lon="117.160769"><ele>445</ele><time>2025-05-18T03:30:12Z</time></trkpt>
      <trkpt lat="27.692629" lon="117.160868"><ele>447</ele><time>2025-05-18T03:30:32Z</time></trkpt>
      <trkpt lat="27.692712" lon="117.16082"><ele>448</ele><time>2025-05-18T03:30:45Z</time></trkpt>
      <trkpt lat="27.692619" lon="117.160841"><ele>448</ele><time>2025-05-18T03:31:00Z</time></trkpt>
      <trkpt lat="27.692759" lon="117.160975"><ele>446</ele><time>2025-05-18T03:31:09Z</time></trkpt>
      <trkpt lat="27.692803" lon="117.160884"><ele>446</ele><time>2025-05-18T03:31:31Z</time></trkpt>
      <trkpt lat="27.692893" lon="117.160861"><ele>449</ele><time>2025-05-18T03:31:43Z</time></trkpt>
      <trkpt lat="27.692665" lon="117.160697"><ele>450</ele><time>2025-05-18T03:32:07Z</time></trkpt>
      <trkpt lat="27.692817" lon="117.160861"><ele>446</ele><time>2025-05-18T03:32:27Z</time></trkpt>
      <trkpt lat="27.692724" lon="117.160836"><ele>446</ele><time>2025-05-18T03:32:41Z</time></trkpt>
      <trkpt lat="27.692922" lon="117.160767"><ele>445</ele><time>2025-05-18T03:33:59Z</time></trkpt>
      <trkpt lat="27.693014" lon="117.160948"><ele>447</ele><time>2025-05-18T03:34:18Z</time></trkpt>
      <trkpt lat="27.69338" lon="117.161098"><ele>459</ele><time>2025-05-18T03:34:54Z</time></trkpt>
      <trkpt lat="27.69353" lon="117.161226"><ele>459</ele><time>2025-05-18T03:35:17Z</time></trkpt>
      <trkpt lat="27.693903" lon="117.161297"><ele>464</ele><time>2025-05-18T03:36:04Z</time></trkpt>
      <trkpt lat="27.694248" lon="117.161489"><ele>468</ele><time>2025-05-18T03:36:46Z</time></trkpt>
      <trkpt lat="27.694121" lon="117.161344"><ele>474</ele><time>2025-05-18T03:41:13Z</time></trkpt>
      <trkpt lat="27.694204" lon="117.161303"><ele>475</ele><time>2025-05-18T03:41:24Z</time></trkpt>
      <trkpt lat="27.694556" lon="117.161405"><ele>480</ele><time>2025-05-18T03:42:18Z</time></trkpt>
      <trkpt lat="27.694745" lon="117.161373"><ele>481</ele><time>2025-05-18T03:42:52Z</time></trkpt>
      <trkpt lat="27.694826" lon="117.161436"><ele>484</ele><time>2025-05-18T03:43:02Z</time></trkpt>
      <trkpt lat="27.69494" lon="117.161731"><ele>485</ele><time>2025-05-18T03:43:31Z</time></trkpt>
      <trkpt lat="27.695182" lon="117.161907"><ele>486</ele><time>2025-05-18T03:44:02Z</time></trkpt>
      <trkpt lat="27.695344" lon="117.162283"><ele>485</ele><time>2025-05-18T03:44:42Z</time></trkpt>
      <trkpt lat="27.695344" lon="117.162494"><ele>485</ele><time>2025-05-18T03:45:05Z</time></trkpt>
      <trkpt lat="27.695562" lon="117.162722"><ele>481</ele><time>2025-05-18T03:45:33Z</time></trkpt>
      <trkpt lat="27.696104" lon="117.162832"><ele>492</ele><time>2025-05-18T03:46:31Z</time></trkpt>
      <trkpt lat="27.696249" lon="117.162948"><ele>491</ele><time>2025-05-18T03:46:49Z</time></trkpt>
      <trkpt lat="27.696437" lon="117.162905"><ele>486</ele><time>2025-05-18T03:47:08Z</time></trkpt>
      <trkpt lat="27.696602" lon="117.162652"><ele>485</ele><time>2025-05-18T03:47:35Z</time></trkpt>
      <trkpt lat="27.696804" lon="117.162628"><ele>488</ele><time>2025-05-18T03:48:00Z</time></trkpt>
      <trkpt lat="27.696987" lon="117.162684"><ele>487</ele><time>2025-05-18T03:48:16Z</time></trkpt>
      <trkpt lat="27.697067" lon="117.162741"><ele>486</ele><time>2025-05-18T03:48:25Z</time></trkpt>
      <trkpt lat="27.697066" lon="117.162851"><ele>488</ele><time>2025-05-18T03:48:35Z</time></trkpt>
      <trkpt lat="27.696925" lon="117.162994"><ele>485</ele><time>2025-05-18T03:48:54Z</time></trkpt>
      <trkpt lat="27.697254" lon="117.16336"><ele>489</ele><time>2025-05-18T03:49:42Z</time></trkpt>
      <trkpt lat="27.697498" lon="117.163822"><ele>492</ele><time>2025-05-18T03:50:30Z</time></trkpt>
      <trkpt lat="27.697729" lon="117.163998"><ele>495</ele><time>2025-05-18T03:51:00Z</time></trkpt>
      <trkpt lat="27.698" lon="117.164028"><ele>500</ele><time>2025-05-18T03:51:46Z</time></trkpt>
      <trkpt lat="27.698052" lon="117.164112"><ele>502</ele><time>2025-05-18T03:51:56Z</time></trkpt>
      <trkpt lat="27.698031" lon="117.164532"><ele>510</ele><time>2025-05-18T03:52:58Z</time></trkpt>
      <trkpt lat="27.698093" lon="117.164959"><ele>517</ele><time>2025-05-18T03:53:50Z</time></trkpt>
      <trkpt lat="27.698188" lon="117.164949"><ele>529</ele><time>2025-05-18T03:54:29Z</time></trkpt>
      <trkpt lat="27.698242" lon="117.165046"><ele>532</ele><time>2025-05-18T03:54:53Z</time></trkpt>
      <trkpt lat="27.698239" lon="117.165574"><ele>548</ele><time>2025-05-18T03:56:25Z</time></trkpt>
      <trkpt lat="27.698333" lon="117.165967"><ele>580</ele><time>2025-05-18T04:01:40Z</time></trkpt>
      <trkpt lat="27.698387" lon="117.166053"><ele>586</ele><time>2025-05-18T04:01:59Z</time></trkpt>
      <trkpt lat="27.698477" lon="117.166046"><ele>590</ele><time>2025-05-18T04:02:30Z</time></trkpt>
      <trkpt lat="27.698893" lon="117.166312"><ele>578</ele><time>2025-05-18T04:03:33Z</time></trkpt>
      <trkpt lat="27.698908" lon="117.16642"><ele>572</ele><time>2025-05-18T04:03:45Z</time></trkpt>
      <trkpt lat="27.698591" lon="117.167296"><ele>555</ele><time>2025-05-18T04:05:45Z</time></trkpt>
      <trkpt lat="27.69859" lon="117.167612"><ele>554</ele><time>2025-05-18T04:06:11Z</time></trkpt>
      <trkpt lat="27.698137" lon="117.16803"><ele>551</ele><time>2025-05-18T04:07:30Z</time></trkpt>
      <trkpt lat="27.698075" lon="117.168563"><ele>548</ele><time>2025-05-18T04:08:18Z</time></trkpt>
      <trkpt lat="27.697723" lon="117.168772"><ele>541</ele><time>2025-05-18T04:08:59Z</time></trkpt>
      <trkpt lat="27.69735" lon="117.16939"><ele>540</ele><time>2025-05-18T04:10:11Z</time></trkpt>
      <trkpt lat="27.697111" lon="117.169572"><ele>539</ele><time>2025-05-18T04:10:35Z</time></trkpt>
      <trkpt lat="27.697074" lon="117.169909"><ele>545</ele><time>2025-05-18T04:11:05Z</time></trkpt>
      <trkpt lat="27.696809" lon="117.170206"><ele>543</ele><time>2025-05-18T04:11:39Z</time></trkpt>
      <trkpt lat="27.696844" lon="117.170526"><ele>549</ele><time>2025-05-18T04:12:18Z</time></trkpt>
      <trkpt lat="27.696782" lon="117.170958"><ele>542</ele><time>2025-05-18T04:12:56Z</time></trkpt>
      <trkpt lat="27.696965" lon="117.171201"><ele>543</ele><time>2025-05-18T04:13:31Z</time></trkpt>
      <trkpt lat="27.696914" lon="117.171408"><ele>551</ele><time>2025-05-18T04:14:02Z</time></trkpt>
      <trkpt lat="27.697032" lon="117.171579"><ele>552</ele><time>2025-05-18T04:14:33Z</time></trkpt>
      <trkpt lat="27.696764" lon="117.171607"><ele>565</ele><time>2025-05-18T04:15:12Z</time></trkpt>
      <trkpt lat="27.696916" lon="117.171724"><ele>570</ele><time>2025-05-18T04:15:48Z</time></trkpt>
      <trkpt lat="27.697141" lon="117.172055"><ele>585</ele><time>2025-05-18T04:16:59Z</time></trkpt>
      <trkpt lat="27.697282" lon="117.172673"><ele>605</ele><time>2025-05-18T04:19:20Z</time></trkpt>
      <trkpt lat="27.697223" lon="117.172968"><ele>620</ele><time>2025-05-18T04:20:20Z</time></trkpt>
      <trkpt lat="27.6975" lon="117.173725"><ele>647</ele><time>2025-05-18T04:23:44Z</time></trkpt>
      <trkpt lat="27.69728" lon="117.173949"><ele>658</ele><time>2025-05-18T04:24:40Z</time></trkpt>
      <trkpt lat="27.697007" lon="117.174013"><ele>687</ele><time>2025-05-18T04:27:01Z</time></trkpt>
      <trkpt lat="27.69693" lon="117.17395"><ele>701</ele><time>2025-05-18T04:27:34Z</time></trkpt>
      <trkpt lat="27.696779" lon="117.174063"><ele>715</ele><time>2025-05-18T04:28:43Z</time></trkpt>
      <trkpt lat="27.696688" lon="117.174033"><ele>719</ele><time>2025-05-18T04:28:55Z</time></trkpt>
      <trkpt lat="27.696694" lon="117.174143"><ele>719</ele><time>2025-05-18T04:29:22Z</time></trkpt>
      <trkpt lat="27.696631" lon="117.174217"><ele>731</ele><time>2025-05-18T04:30:02Z</time></trkpt>
      <trkpt lat="27.696541" lon="117.174216"><ele>738</ele><time>2025-05-18T04:30:26Z</time></trkpt>
      <trkpt lat="27.696505" lon="117.174313"><ele>738</ele><time>2025-05-18T04:30:41Z</time></trkpt>
      <trkpt lat="27.696413" lon="117.174334"><ele>744</ele><time>2025-05-18T04:31:14Z</time></trkpt>
      <trkpt lat="27.69654" lon="117.17448"><ele>757</ele><time>2025-05-18T04:34:24Z</time></trkpt>
      <trkpt lat="27.696346" lon="117.174258"><ele>758</ele><time>2025-05-18T04:37:17Z</time></trkpt>
      <trkpt lat="27.696262" lon="117.174306"><ele>760</ele><time>2025-05-18T04:38:46Z</time></trkpt>
      <trkpt lat="27.69593" lon="117.174821"><ele>767</ele><time>2025-05-18T04:40:33Z</time></trkpt>
      <trkpt lat="27.696113" lon="117.174833"><ele>768</ele><time>2025-05-18T04:41:09Z</time></trkpt>
      <trkpt lat="27.696288" lon="117.174746"><ele>767</ele><time>2025-05-18T04:41:33Z</time></trkpt>
      <trkpt lat="27.696275" lon="117.174955"><ele>774</ele><time>2025-05-18T04:42:33Z</time></trkpt>
      <trkpt lat="27.696067" lon="117.175155"><ele>790</ele><time>2025-05-18T04:43:43Z</time></trkpt>
      <trkpt lat="27.695883" lon="117.175195"><ele>794</ele><time>2025-05-18T04:44:23Z</time></trkpt>
      <trkpt lat="27.695765" lon="117.175466"><ele>800</ele><time>2025-05-18T04:45:23Z</time></trkpt>
      <trkpt lat="27.695489" lon="117.175469"><ele>795</ele><time>2025-05-18T04:45:53Z</time></trkpt>
      <trkpt lat="27.695477" lon="117.175368"><ele>794</ele><time>2025-05-18T04:46:14Z</time></trkpt>
      <trkpt lat="27.695747" lon="117.175675"><ele>802</ele><time>2025-05-18T04:47:05Z</time></trkpt>
      <trkpt lat="27.695805" lon="117.175567"><ele>810</ele><time>2025-05-18T04:47:43Z</time></trkpt>
      <trkpt lat="27.695811" lon="117.175688"><ele>811</ele><time>2025-05-18T04:47:47Z</time></trkpt>
      <trkpt lat="27.695757" lon="117.175605"><ele>820</ele><time>2025-05-18T04:48:13Z</time></trkpt>
      <trkpt lat="27.695511" lon="117.176063"><ele>803</ele><time>2025-05-18T04:49:25Z</time></trkpt>
      <trkpt lat="27.695326" lon="117.176304"><ele>807</ele><time>2025-05-18T04:49:59Z</time></trkpt>
      <trkpt lat="27.695168" lon="117.176408"><ele>811</ele><time>2025-05-18T04:50:21Z</time></trkpt>
      <trkpt lat="27.695091" lon="117.176603"><ele>816</ele><time>2025-05-18T04:50:56Z</time></trkpt>
      <trkpt lat="27.694946" lon="117.176745"><ele>821</ele><time>2025-05-18T04:51:23Z</time></trkpt>
      <trkpt lat="27.695026" lon="117.176797"><ele>818</ele><time>2025-05-18T04:52:06Z</time></trkpt>
      <trkpt lat="27.695375" lon="117.176683"><ele>855</ele><time>2025-05-18T04:54:43Z</time></trkpt>
      <trkpt lat="27.695452" lon="117.176744"><ele>861</ele><time>2025-05-18T04:55:26Z</time></trkpt>
      <trkpt lat="27.69538" lon="117.17681"><ele>864</ele><time>2025-05-18T04:55:59Z</time></trkpt>
      <trkpt lat="27.695416" lon="117.176712"><ele>864</ele><time>2025-05-18T04:56:45Z</time></trkpt>
      <trkpt lat="27.695834" lon="117.176508"><ele>878</ele><time>2025-05-18T05:01:01Z</time></trkpt>
      <trkpt lat="27.696119" lon="117.176233"><ele>879</ele><time>2025-05-18T05:01:42Z</time></trkpt>
      <trkpt lat="27.696589" lon="117.176122"><ele>888</ele><time>2025-05-18T05:02:46Z</time></trkpt>
      <trkpt lat="27.697168" lon="117.176649"><ele>868</ele><time>2025-05-18T05:05:51Z</time></trkpt>
      <trkpt lat="27.697893" lon="117.17684"><ele>857</ele><time>2025-05-18T05:07:37Z</time></trkpt>
      <trkpt lat="27.698249" lon="117.176797"><ele>856</ele><time>2025-05-18T05:08:21Z</time></trkpt>
      <trkpt lat="27.698491" lon="117.176965"><ele>857</ele><time>2025-05-18T05:08:53Z</time></trkpt>
      <trkpt lat="27.698882" lon="117.177069"><ele>846</ele><time>2025-05-18T05:09:43Z</time></trkpt>
      <trkpt lat="27.698706" lon="117.177179"><ele>848</ele><time>2025-05-18T05:09:58Z</time></trkpt>
      <trkpt lat="27.698733" lon="117.177066"><ele>848</ele><time>2025-05-18T05:10:15Z</time></trkpt>
      <trkpt lat="27.698851" lon="117.177079"><ele>844</ele><time>2025-05-18T05:11:13Z</time></trkpt>
      <trkpt lat="27.699062" lon="117.176827"><ele>848</ele><time>2025-05-18T05:11:28Z</time></trkpt>
      <trkpt lat="27.699047" lon="117.176937"><ele>847</ele><time>2025-05-18T05:11:31Z</time></trkpt>
      <trkpt lat="27.698973" lon="117.176875"><ele>849</ele><time>2025-05-18T05:11:52Z</time></trkpt>
    </trkseg>
  </trk>
</gpx>
