<?xml version="1.0" encoding="UTF-8"?>
<gpx version="1.1" creator="MyWorld" xmlns="http://www.topografix.com/GPX/1/1">
  <metadata><name>恩施朝东岩 · 第二段</name></metadata>
  <trk>
    <name>恩施朝东岩 · 第二段</name>
    <trkseg>
      <trkpt lat="30.36905" lon="109.271633"><ele>1391</ele><time>2025-05-02T03:42:41Z</time></trkpt>
      <trkpt lat="30.368987" lon="109.271558"><ele>1386</ele><time>2025-05-02T03:43:00Z</time></trkpt>
      <trkpt lat="30.368892" lon="109.271582"><ele>1388</ele><time>2025-05-02T03:44:33Z</time></trkpt>
      <trkpt lat="30.368983" lon="109.271574"><ele>1390</ele><time>2025-05-02T03:45:22Z</time></trkpt>
      <trkpt lat="30.369204" lon="109.271087"><ele>1385</ele><time>2025-05-02T03:46:37Z</time></trkpt>
      <trkpt lat="30.369364" lon="109.270978"><ele>1384</ele><time>2025-05-02T03:47:06Z</time></trkpt>
      <trkpt lat="30.369551" lon="109.271005"><ele>1387</ele><time>2025-05-02T03:47:35Z</time></trkpt>
      <trkpt lat="30.369674" lon="109.27086"><ele>1384</ele><time>2025-05-02T03:48:00Z</time></trkpt>
      <trkpt lat="30.36942" lon="109.270182"><ele>1381</ele><time>2025-05-02T03:50:17Z</time></trkpt>
      <trkpt lat="30.369473" lon="109.270097"><ele>1380</ele><time>2025-05-02T03:50:30Z</time></trkpt>
      <trkpt lat="30.369466" lon="109.26988"><ele>1377</ele><time>2025-05-02T03:51:01Z</time></trkpt>
      <trkpt lat="30.369344" lon="109.269721"><ele>1381</ele><time>2025-05-02T03:51:53Z</time></trkpt>
      <trkpt lat="30.369261" lon="109.269775"><ele>1392</ele><time>2025-05-02T03:53:24Z</time></trkpt>
      <trkpt lat="30.369261" lon="109.269879"><ele>1396</ele><time>2025-05-02T03:54:20Z</time></trkpt>
      <trkpt lat="30.369376" lon="109.270037"><ele>1406</ele><time>2025-05-02T03:55:29Z</time></trkpt>
      <trkpt lat="30.369193" lon="109.270033"><ele>1417</ele><time>2025-05-02T04:02:46Z</time></trkpt>
      <trkpt lat="30.369135" lon="109.270114"><ele>1433</ele><time>2025-05-02T04:04:27Z</time></trkpt>
      <trkpt lat="30.369235" lon="109.270289"><ele>1442</ele><time>2025-05-02T04:05:51Z</time></trkpt>
      <trkpt lat="30.369179" lon="109.270383"><ele>1449</ele><time>2025-05-02T04:06:27Z</time></trkpt>
      <trkpt lat="30.369109" lon="109.270186"><ele>1471</ele><time>2025-05-02T04:10:28Z</time></trkpt>
      <trkpt lat="30.368923" lon="109.270131"><ele>1480</ele><time>2025-05-02T04:19:51Z</time></trkpt>
      <trkpt lat="30.36866" lon="109.270422"><ele>1504</ele><time>2025-05-02T04:22:02Z</time></trkpt>
      <trkpt lat="30.368728" lon="109.27084"><ele>1523</ele><time>2025-05-02T04:53:40Z</time></trkpt>
      <trkpt lat="30.368392" lon="109.271185"><ele>1557</ele><time>2025-05-02T04:59:11Z</time></trkpt>
      <trkpt lat="30.36829" lon="109.271488"><ele>1568</ele><time>2025-05-02T05:01:16Z</time></trkpt>
      <trkpt lat="30.367923" lon="109.271459"><ele>1561</ele><time>2025-05-02T05:19:26Z</time></trkpt>
      <trkpt lat="30.367513" lon="109.27123"><ele>1534</ele><time>2025-05-02T05:23:25Z</time></trkpt>
      <trkpt lat="30.367489" lon="109.271128"><ele>1530</ele><time>2025-05-02T05:24:55Z</time></trkpt>
      <trkpt lat="30.366856" lon="109.271132"><ele>1501</ele><time>2025-05-02T05:29:28Z</time></trkpt>
      <trkpt lat="30.366773" lon="109.271074"><ele>1494</ele><time>2025-05-02T05:30:40Z</time></trkpt>
      <trkpt lat="30.366581" lon="109.2711"><ele>1488</ele><time>2025-05-02T05:31:04Z</time></trkpt>
      <trkpt lat="30.366211" lon="109.271013"><ele>1485</ele><time>2025-05-02T05:32:58Z</time></trkpt>
      <trkpt lat="30.36506" lon="109.271341"><ele>1482</ele><time>2025-05-02T05:36:25Z</time></trkpt>
      <trkpt lat="30.364911" lon="109.271464"><ele>1489</ele><time>2025-05-02T05:36:51Z</time></trkpt>
      <trkpt lat="30.364858" lon="109.271665"><ele>1495</ele><time>2025-05-02T05:38:02Z</time></trkpt>
      <trkpt lat="30.364693" lon="109.271763"><ele>1487</ele><time>2025-05-02T05:44:10Z</time></trkpt>
      <trkpt lat="30.364527" lon="109.272022"><ele>1501</ele><time>2025-05-02T05:52:45Z</time></trkpt>
      <trkpt lat="30.364436" lon="109.27204"><ele>1499</ele><time>2025-05-02T05:53:24Z</time></trkpt>
      <trkpt lat="30.363601" lon="109.271251"><ele>1453</ele><time>2025-05-02T06:03:45Z</time></trkpt>
      <trkpt lat="30.363467" lon="109.271097"><ele>1441</ele><time>2025-05-02T06:05:08Z</time></trkpt>
      <trkpt lat="30.363352" lon="109.270812"><ele>1409</ele><time>2025-05-02T06:19:32Z</time></trkpt>
      <trkpt lat="30.363352" lon="109.270919"><ele>1421</ele><time>2025-05-02T06:24:07Z</time></trkpt>
      <trkpt lat="30.363256" lon="109.270922"><ele>1432</ele><time>2025-05-02T06:24:28Z</time></trkpt>
      <trkpt lat="30.363198" lon="109.270841"><ele>1396</ele><time>2025-05-02T06:26:21Z</time></trkpt>
      <trkpt lat="30.362931" lon="109.27075"><ele>1376</ele><time>2025-05-02T06:27:38Z</time></trkpt>
      <trkpt lat="30.362659" lon="109.270764"><ele>1359</ele><time>2025-05-02T06:30:27Z</time></trkpt>
      <trkpt lat="30.36255" lon="109.270593"><ele>1353</ele><time>2025-05-02T06:31:21Z</time></trkpt>
      <trkpt lat="30.362202" lon="109.270415"><ele>1351</ele><time>2025-05-02T06:33:08Z</time></trkpt>
      <trkpt lat="30.361838" lon="109.270507"><ele>1363</ele><time>2025-05-02T06:34:48Z</time></trkpt>
      <trkpt lat="30.361565" lon="109.270463"><ele>1368</ele><time>2025-05-02T06:35:45Z</time></trkpt>
      <trkpt lat="30.36141" lon="109.270341"><ele>1373</ele><time>2025-05-02T06:36:07Z</time></trkpt>
      <trkpt lat="30.361121" lon="109.270393"><ele>1364</ele><time>2025-05-02T06:38:15Z</time></trkpt>
      <trkpt lat="30.361039" lon="109.270341"><ele>1357</ele><time>2025-05-02T06:38:23Z</time></trkpt>
      <trkpt lat="30.3609" lon="109.270501"><ele>1358</ele><time>2025-05-02T06:38:43Z</time></trkpt>
      <trkpt lat="30.36066" lon="109.270283"><ele>1354</ele><time>2025-05-02T06:39:20Z</time></trkpt>
      <trkpt lat="30.360357" lon="109.270707"><ele>1361</ele><time>2025-05-02T06:40:40Z</time></trkpt>
      <trkpt lat="30.36004" lon="109.27094"><ele>1356</ele><time>2025-05-02T06:41:33Z</time></trkpt>
      <trkpt lat="30.359483" lon="109.271157"><ele>1367</ele><time>2025-05-02T06:42:38Z</time></trkpt>
      <trkpt lat="30.359013" lon="109.271163"><ele>1362</ele><time>2025-05-02T06:43:29Z</time></trkpt>
      <trkpt lat="30.358829" lon="109.271233"><ele>1364</ele><time>2025-05-02T06:43:48Z</time></trkpt>
      <trkpt lat="30.358626" lon="109.271464"><ele>1362</ele><time>2025-05-02T06:44:17Z</time></trkpt>
      <trkpt lat="30.358439" lon="109.271536"><ele>1363</ele><time>2025-05-02T06:44:41Z</time></trkpt>
      <trkpt lat="30.358169" lon="109.271807"><ele>1358</ele><time>2025-05-02T06:45:56Z</time></trkpt>
      <trkpt lat="30.357975" lon="109.271796"><ele>1357</ele><time>2025-05-02T06:46:15Z</time></trkpt>
      <trkpt lat="30.357734" lon="109.272258"><ele>1371</ele><time>2025-05-02T06:47:29Z</time></trkpt>
      <trkpt lat="30.357502" lon="109.272431"><ele>1370</ele><time>2025-05-02T06:48:01Z</time></trkpt>
      <trkpt lat="30.356916" lon="109.272498"><ele>1387</ele><time>2025-05-02T06:49:05Z</time></trkpt>
      <trkpt lat="30.356737" lon="109.272742"><ele>1378</ele><time>2025-05-02T06:50:18Z</time></trkpt>
      <trkpt lat="30.356678" lon="109.272662"><ele>1374</ele><time>2025-05-02T06:50:47Z</time></trkpt>
      <trkpt lat="30.356597" lon="109.272711"><ele>1377</ele><time>2025-05-02T06:50:58Z</time></trkpt>
      <trkpt lat="30.35642" lon="109.272643"><ele>1379</ele><time>2025-05-02T06:51:20Z</time></trkpt>
      <trkpt lat="30.355867" lon="109.272632"><ele>1399</ele><time>2025-05-02T06:53:18Z</time></trkpt>
      <trkpt lat="30.355805" lon="109.272719"><ele>1404</ele><time>2025-05-02T06:53:35Z</time></trkpt>
      <trkpt lat="30.355324" lon="109.272661"><ele>1410</ele><time>2025-05-02T06:55:01Z</time></trkpt>
      <trkpt lat="30.354095" lon="109.272839"><ele>1413</ele><time>2025-05-02T06:56:53Z</time></trkpt>
      <trkpt lat="30.353741" lon="109.272976"><ele>1415</ele><time>2025-05-02T06:57:27Z</time></trkpt>
      <trkpt lat="30.353176" lon="109.272909"><ele>1417</ele><time>2025-05-02T06:58:21Z</time></trkpt>
      <trkpt lat="30.352414" lon="109.273031"><ele>1422</ele><time>2025-05-02T06:59:30Z</time></trkpt>
      <trkpt lat="30.351786" lon="109.273299"><ele>1429</ele><time>2025-05-02T07:00:39Z</time></trkpt>
      <trkpt lat="30.351455" lon="109.273514"><ele>1429</ele><time>2025-05-02T07:01:14Z</time></trkpt>
      <trkpt lat="30.350142" lon="109.27377"><ele>1419</ele><time>2025-05-02T07:04:21Z</time></trkpt>
      <trkpt lat="30.349802" lon="109.273976"><ele>1415</ele><time>2025-05-02T07:04:57Z</time></trkpt>
      <trkpt lat="30.349621" lon="109.274233"><ele>1408</ele><time>2025-05-02T07:05:25Z</time></trkpt>
      <trkpt lat="30.349256" lon="109.274386"><ele>1403</ele><time>2025-05-02T07:06:08Z</time></trkpt>
      <trkpt lat="30.348868" lon="109.274355"><ele>1400</ele><time>2025-05-02T07:06:45Z</time></trkpt>
      <trkpt lat="30.348417" lon="109.274478"><ele>1397</ele><time>2025-05-02T07:07:36Z</time></trkpt>
      <trkpt lat="30.348063" lon="109.274324"><ele>1388</ele><time>2025-05-02T07:08:33Z</time></trkpt>
      <trkpt lat="30.348065" lon="109.274102"><ele>1386</ele><time>2025-05-02T07:09:37Z</time></trkpt>
      <trkpt lat="30.347788" lon="109.274057"><ele>1380</ele><time>2025-05-02T07:10:09Z</time></trkpt>
      <trkpt lat="30.347415" lon="109.27408"><ele>1379</ele><time>2025-05-02T07:10:42Z</time></trkpt>
      <trkpt lat="30.347035" lon="109.274175"><ele>1377</ele><time>2025-05-02T07:11:21Z</time></trkpt>
      <trkpt lat="30.346681" lon="109.274356"><ele>1376</ele><time>2025-05-02T07:11:51Z</time></trkpt>
      <trkpt lat="30.346206" lon="109.274402"><ele>1377</ele><time>2025-05-02T07:12:30Z</time></trkpt>
      <trkpt lat="30.345227" lon="109.274414"><ele>1376</ele><time>2025-05-02T07:13:53Z</time></trkpt>
      <trkpt lat="30.344875" lon="109.274247"><ele>1369</ele><time>2025-05-02T07:14:25Z</time></trkpt>
      <trkpt lat="30.344412" lon="109.274307"><ele>1371</ele><time>2025-05-02T07:15:05Z</time></trkpt>
      <trkpt lat="30.344175" lon="109.274484"><ele>1367</ele><time>2025-05-02T07:15:29Z</time></trkpt>
      <trkpt lat="30.343982" lon="109.274863"><ele>1369</ele><time>2025-05-02T07:16:06Z</time></trkpt>
      <trkpt lat="30.343707" lon="109.275165"><ele>1375</ele><time>2025-05-02T07:16:40Z</time></trkpt>
      <trkpt lat="30.343281" lon="109.276005"><ele>1375</ele><time>2025-05-02T07:17:52Z</time></trkpt>
      <trkpt lat="30.342725" lon="109.275975"><ele>1373</ele><time>2025-05-02T07:18:40Z</time></trkpt>
    </trkseg>
  </trk>
</gpx>
