<?xml version="1.0" encoding="UTF-8"?>
<gpx version="1.1" creator="MyWorld" xmlns="http://www.topografix.com/GPX/1/1">
  <metadata><name>杭州标毅线</name></metadata>
  <trk>
    <name>杭州标毅线</name>
    <trkseg>
      <trkpt lat="30.273302" lon="120.114869"><ele>22</ele><time>2025-11-29T00:06:25Z</time></trkpt>
      <trkpt lat="30.273157" lon="120.115008"><ele>32</ele><time>2025-11-29T00:06:48Z</time></trkpt>
      <trkpt lat="30.272896" lon="120.114853"><ele>42</ele><time>2025-11-29T00:07:36Z</time></trkpt>
      <trkpt lat="30.272259" lon="120.114047"><ele>47</ele><time>2025-11-29T00:09:11Z</time></trkpt>
      <trkpt lat="30.272085" lon="120.114112"><ele>58</ele><time>2025-11-29T00:09:45Z</time></trkpt>
      <trkpt lat="30.271885" lon="120.114493"><ele>74</ele><time>2025-11-29T00:10:55Z</time></trkpt>
      <trkpt lat="30.271714" lon="120.114418"><ele>82</ele><time>2025-11-29T00:11:37Z</time></trkpt>
      <trkpt lat="30.271669" lon="120.114777"><ele>96</ele><time>2025-11-29T00:13:02Z</time></trkpt>
      <trkpt lat="30.271576" lon="120.114774"><ele>99</ele><time>2025-11-29T00:13:19Z</time></trkpt>
      <trkpt lat="30.271555" lon="120.114878"><ele>105</ele><time>2025-11-29T00:13:42Z</time></trkpt>
      <trkpt lat="30.27161" lon="120.115295"><ele>112</ele><time>2025-11-29T00:14:49Z</time></trkpt>
      <trkpt lat="30.271518" lon="120.115303"><ele>114</ele><time>2025-11-29T00:15:06Z</time></trkpt>
      <trkpt lat="30.271163" lon="120.114952"><ele>127</ele><time>2025-11-29T00:15:49Z</time></trkpt>
      <trkpt lat="30.270897" lon="120.114841"><ele>132</ele><time>2025-11-29T00:16:23Z</time></trkpt>
      <trkpt lat="30.270721" lon="120.114781"><ele>137</ele><time>2025-11-29T00:16:45Z</time></trkpt>
      <trkpt lat="30.270586" lon="120.114908"><ele>141</ele><time>2025-11-29T00:20:28Z</time></trkpt>
      <trkpt lat="30.270494" lon="120.114872"><ele>142</ele><time>2025-11-29T00:20:41Z</time></trkpt>
      <trkpt lat="30.270084" lon="120.114423"><ele>153</ele><time>2025-11-29T00:21:43Z</time></trkpt>
      <trkpt lat="30.269938" lon="120.113908"><ele>158</ele><time>2025-11-29T00:22:22Z</time></trkpt>
      <trkpt lat="30.269812" lon="120.113752"><ele>154</ele><time>2025-11-29T00:22:39Z</time></trkpt>
      <trkpt lat="30.269164" lon="120.113236"><ele>144</ele><time>2025-11-29T00:23:44Z</time></trkpt>
      <trkpt lat="30.268958" lon="120.112872"><ele>150</ele><time>2025-11-29T00:24:31Z</time></trkpt>
      <trkpt lat="30.26778" lon="120.111559"><ele>149</ele><time>2025-11-29T00:26:44Z</time></trkpt>
      <trkpt lat="30.267226" lon="120.110638"><ele>149</ele><time>2025-11-29T00:28:24Z</time></trkpt>
      <trkpt lat="30.267094" lon="120.110099"><ele>154</ele><time>2025-11-29T00:29:10Z</time></trkpt>
      <trkpt lat="30.266807" lon="120.109408"><ele>169</ele><time>2025-11-29T00:30:03Z</time></trkpt>
      <trkpt lat="30.266542" lon="120.109292"><ele>168</ele><time>2025-11-29T00:30:32Z</time></trkpt>
      <trkpt lat="30.266333" lon="120.109042"><ele>164</ele><time>2025-11-29T00:30:56Z</time></trkpt>
      <trkpt lat="30.26575" lon="120.108889"><ele>153</ele><time>2025-11-29T00:31:42Z</time></trkpt>
      <trkpt lat="30.265395" lon="120.108696"><ele>155</ele><time>2025-11-29T00:32:09Z</time></trkpt>
      <trkpt lat="30.264815" lon="120.107955"><ele>159</ele><time>2025-11-29T00:33:19Z</time></trkpt>
      <trkpt lat="30.264118" lon="120.107497"><ele>149</ele><time>2025-11-29T00:34:22Z</time></trkpt>
      <trkpt lat="30.263734" lon="120.107013"><ele>156</ele><time>2025-11-29T00:35:08Z</time></trkpt>
      <trkpt lat="30.263048" lon="120.106533"><ele>160</ele><time>2025-11-29T00:36:03Z</time></trkpt>
      <trkpt lat="30.262468" lon="120.10651"><ele>153</ele><time>2025-11-29T00:36:48Z</time></trkpt>
      <trkpt lat="30.261922" lon="120.106285"><ele>160</ele><time>2025-11-29T00:37:29Z</time></trkpt>
      <trkpt lat="30.261749" lon="120.105652"><ele>160</ele><time>2025-11-29T00:38:10Z</time></trkpt>
      <trkpt lat="30.261347" lon="120.105341"><ele>150</ele><time>2025-11-29T00:38:50Z</time></trkpt>
      <trkpt lat="30.260958" lon="120.105202"><ele>144</ele><time>2025-11-29T00:39:08Z</time></trkpt>
      <trkpt lat="30.260372" lon="120.104866"><ele>142</ele><time>2025-11-29T00:39:53Z</time></trkpt>
      <trkpt lat="30.259989" lon="120.104868"><ele>150</ele><time>2025-11-29T00:40:28Z</time></trkpt>
      <trkpt lat="30.25955" lon="120.104683"><ele>146</ele><time>2025-11-29T00:41:08Z</time></trkpt>
      <trkpt lat="30.258902" lon="120.104668"><ele>128</ele><time>2025-11-29T00:42:12Z</time></trkpt>
      <trkpt lat="30.258214" lon="120.104085"><ele>117</ele><time>2025-11-29T00:43:26Z</time></trkpt>
      <trkpt lat="30.258024" lon="120.104019"><ele>114</ele><time>2025-11-29T00:43:40Z</time></trkpt>
      <trkpt lat="30.25738" lon="120.104271"><ele>119</ele><time>2025-11-29T00:44:34Z</time></trkpt>
      <trkpt lat="30.256902" lon="120.104358"><ele>123</ele><time>2025-11-29T00:45:15Z</time></trkpt>
      <trkpt lat="30.256614" lon="120.104622"><ele>121</ele><time>2025-11-29T00:45:47Z</time></trkpt>
      <trkpt lat="30.256269" lon="120.104779"><ele>125</ele><time>2025-11-29T00:46:22Z</time></trkpt>
      <trkpt lat="30.255901" lon="120.104854"><ele>124</ele><time>2025-11-29T00:46:57Z</time></trkpt>
      <trkpt lat="30.255511" lon="120.104808"><ele>127</ele><time>2025-11-29T00:47:29Z</time></trkpt>
      <trkpt lat="30.255119" lon="120.104483"><ele>131</ele><time>2025-11-29T00:48:08Z</time></trkpt>
      <trkpt lat="30.255077" lon="120.104157"><ele>133</ele><time>2025-11-29T00:48:33Z</time></trkpt>
      <trkpt lat="30.25462" lon="120.103478"><ele>145</ele><time>2025-11-29T00:49:45Z</time></trkpt>
      <trkpt lat="30.254264" lon="120.103323"><ele>153</ele><time>2025-11-29T00:50:23Z</time></trkpt>
      <trkpt lat="30.254219" lon="120.103224"><ele>155</ele><time>2025-11-29T00:50:40Z</time></trkpt>
      <trkpt lat="30.253696" lon="120.102988"><ele>171</ele><time>2025-11-29T00:51:47Z</time></trkpt>
      <trkpt lat="30.253106" lon="120.102612"><ele>171</ele><time>2025-11-29T00:52:39Z</time></trkpt>
      <trkpt lat="30.252911" lon="120.102199"><ele>172</ele><time>2025-11-29T00:53:10Z</time></trkpt>
      <trkpt lat="30.252241" lon="120.101582"><ele>190</ele><time>2025-11-29T00:54:26Z</time></trkpt>
      <trkpt lat="30.252235" lon="120.101362"><ele>197</ele><time>2025-11-29T00:54:42Z</time></trkpt>
      <trkpt lat="30.252344" lon="120.101069"><ele>203</ele><time>2025-11-29T00:55:19Z</time></trkpt>
      <trkpt lat="30.252344" lon="120.100644"><ele>208</ele><time>2025-11-29T00:56:17Z</time></trkpt>
      <trkpt lat="30.252123" lon="120.100441"><ele>210</ele><time>2025-11-29T00:56:52Z</time></trkpt>
      <trkpt lat="30.252036" lon="120.100012"><ele>220</ele><time>2025-11-29T00:57:31Z</time></trkpt>
      <trkpt lat="30.251851" lon="120.099641"><ele>222</ele><time>2025-11-29T00:57:58Z</time></trkpt>
      <trkpt lat="30.251413" lon="120.099242"><ele>225</ele><time>2025-11-29T00:58:44Z</time></trkpt>
      <trkpt lat="30.251431" lon="120.098924"><ele>228</ele><time>2025-11-29T00:59:01Z</time></trkpt>
      <trkpt lat="30.251326" lon="120.098149"><ele>229</ele><time>2025-11-29T00:59:53Z</time></trkpt>
      <trkpt lat="30.251065" lon="120.097431"><ele>230</ele><time>2025-11-29T01:00:43Z</time></trkpt>
      <trkpt lat="30.250732" lon="120.097032"><ele>230</ele><time>2025-11-29T01:01:21Z</time></trkpt>
      <trkpt lat="30.250413" lon="120.096106"><ele>232</ele><time>2025-11-29T01:02:38Z</time></trkpt>
      <trkpt lat="30.250235" lon="120.09585"><ele>239</ele><time>2025-11-29T01:03:04Z</time></trkpt>
      <trkpt lat="30.250207" lon="120.095541"><ele>242</ele><time>2025-11-29T01:03:23Z</time></trkpt>
      <trkpt lat="30.250456" lon="120.094573"><ele>243</ele><time>2025-11-29T01:04:32Z</time></trkpt>
      <trkpt lat="30.250533" lon="120.09392"><ele>251</ele><time>2025-11-29T01:05:19Z</time></trkpt>
      <trkpt lat="30.250556" lon="120.093486"><ele>260</ele><time>2025-11-29T01:05:55Z</time></trkpt>
      <trkpt lat="30.250445" lon="120.093173"><ele>263</ele><time>2025-11-29T01:06:18Z</time></trkpt>
      <trkpt lat="30.250241" lon="120.092942"><ele>265</ele><time>2025-11-29T01:06:41Z</time></trkpt>
      <trkpt lat="30.249805" lon="120.092671"><ele>268</ele><time>2025-11-29T01:07:22Z</time></trkpt>
      <trkpt lat="30.249256" lon="120.09256"><ele>280</ele><time>2025-11-29T01:08:29Z</time></trkpt>
      <trkpt lat="30.248922" lon="120.092162"><ele>280</ele><time>2025-11-29T01:09:09Z</time></trkpt>
      <trkpt lat="30.247895" lon="120.091765"><ele>295</ele><time>2025-11-29T01:11:00Z</time></trkpt>
      <trkpt lat="30.247568" lon="120.091207"><ele>297</ele><time>2025-11-29T01:11:44Z</time></trkpt>
      <trkpt lat="30.247143" lon="120.090772"><ele>297</ele><time>2025-11-29T01:12:18Z</time></trkpt>
      <trkpt lat="30.247133" lon="120.089996"><ele>297</ele><time>2025-11-29T01:13:11Z</time></trkpt>
      <trkpt lat="30.247228" lon="120.089794"><ele>299</ele><time>2025-11-29T01:13:26Z</time></trkpt>
      <trkpt lat="30.24689" lon="120.089586"><ele>290</ele><time>2025-11-29T01:14:35Z</time></trkpt>
      <trkpt lat="30.246518" lon="120.089613"><ele>279</ele><time>2025-11-29T01:15:04Z</time></trkpt>
      <trkpt lat="30.245791" lon="120.089334"><ele>271</ele><time>2025-11-29T01:16:05Z</time></trkpt>
      <trkpt lat="30.245632" lon="120.089206"><ele>278</ele><time>2025-11-29T01:16:29Z</time></trkpt>
      <trkpt lat="30.245258" lon="120.089197"><ele>291</ele><time>2025-11-29T01:17:22Z</time></trkpt>
      <trkpt lat="30.245114" lon="120.089058"><ele>296</ele><time>2025-11-29T01:17:47Z</time></trkpt>
      <trkpt lat="30.244915" lon="120.088696"><ele>314</ele><time>2025-11-29T01:19:20Z</time></trkpt>
      <trkpt lat="30.24476" lon="120.08857"><ele>319</ele><time>2025-11-29T01:19:58Z</time></trkpt>
      <trkpt lat="30.24447" lon="120.087759"><ele>352</ele><time>2025-11-29T01:22:01Z</time></trkpt>
      <trkpt lat="30.244136" lon="120.087563"><ele>342</ele><time>2025-11-29T01:23:05Z</time></trkpt>
      <trkpt lat="30.243758" lon="120.087229"><ele>332</ele><time>2025-11-29T01:23:53Z</time></trkpt>
      <trkpt lat="30.242921" lon="120.087057"><ele>319</ele><time>2025-11-29T01:25:16Z</time></trkpt>
      <trkpt lat="30.242583" lon="120.086516"><ele>319</ele><time>2025-11-29T01:26:09Z</time></trkpt>
      <trkpt lat="30.242155" lon="120.086074"><ele>314</ele><time>2025-11-29T01:26:56Z</time></trkpt>
      <trkpt lat="30.241731" lon="120.085816"><ele>302</ele><time>2025-11-29T01:27:50Z</time></trkpt>
      <trkpt lat="30.241372" lon="120.085693"><ele>305</ele><time>2025-11-29T01:28:26Z</time></trkpt>
      <trkpt lat="30.240815" lon="120.084953"><ele>293</ele><time>2025-11-29T01:29:51Z</time></trkpt>
      <trkpt lat="30.240432" lon="120.084628"><ele>291</ele><time>2025-11-29T01:30:45Z</time></trkpt>
      <trkpt lat="30.240339" lon="120.084184"><ele>293</ele><time>2025-11-29T01:31:26Z</time></trkpt>
      <trkpt lat="30.240054" lon="120.083783"><ele>301</ele><time>2025-11-29T01:32:35Z</time></trkpt>
      <trkpt lat="30.240072" lon="120.083681"><ele>304</ele><time>2025-11-29T01:32:56Z</time></trkpt>
      <trkpt lat="30.239882" lon="120.083311"><ele>313</ele><time>2025-11-29T01:33:44Z</time></trkpt>
      <trkpt lat="30.239393" lon="120.082958"><ele>300</ele><time>2025-11-29T01:34:58Z</time></trkpt>
      <trkpt lat="30.239135" lon="120.082864"><ele>306</ele><time>2025-11-29T01:35:28Z</time></trkpt>
      <trkpt lat="30.239119" lon="120.082639"><ele>308</ele><time>2025-11-29T01:35:51Z</time></trkpt>
      <trkpt lat="30.238971" lon="120.082501"><ele>309</ele><time>2025-11-29T01:36:11Z</time></trkpt>
      <trkpt lat="30.238942" lon="120.082283"><ele>313</ele><time>2025-11-29T01:36:35Z</time></trkpt>
      <trkpt lat="30.238599" lon="120.081769"><ele>325</ele><time>2025-11-29T01:38:17Z</time></trkpt>
      <trkpt lat="30.238519" lon="120.081718"><ele>325</ele><time>2025-11-29T01:38:27Z</time></trkpt>
      <trkpt lat="30.237981" lon="120.081821"><ele>329</ele><time>2025-11-29T01:39:47Z</time></trkpt>
      <trkpt lat="30.237611" lon="120.081783"><ele>336</ele><time>2025-11-29T01:40:51Z</time></trkpt>
      <trkpt lat="30.237432" lon="120.081851"><ele>337</ele><time>2025-11-29T01:41:16Z</time></trkpt>
      <trkpt lat="30.237342" lon="120.081664"><ele>337</ele><time>2025-11-29T01:41:51Z</time></trkpt>
      <trkpt lat="30.237111" lon="120.081481"><ele>338</ele><time>2025-11-29T01:42:14Z</time></trkpt>
      <trkpt lat="30.236928" lon="120.081474"><ele>336</ele><time>2025-11-29T01:42:34Z</time></trkpt>
      <trkpt lat="30.236774" lon="120.081351"><ele>331</ele><time>2025-11-29T01:42:54Z</time></trkpt>
      <trkpt lat="30.236509" lon="120.081437"><ele>324</ele><time>2025-11-29T01:43:37Z</time></trkpt>
      <trkpt lat="30.236446" lon="120.081358"><ele>313</ele><time>2025-11-29T01:44:02Z</time></trkpt>
      <trkpt lat="30.23608" lon="120.081349"><ele>294</ele><time>2025-11-29T01:45:42Z</time></trkpt>
      <trkpt lat="30.236008" lon="120.081276"><ele>288</ele><time>2025-11-29T01:45:57Z</time></trkpt>
      <trkpt lat="30.235539" lon="120.081284"><ele>262</ele><time>2025-11-29T01:47:11Z</time></trkpt>
      <trkpt lat="30.234875" lon="120.0808"><ele>243</ele><time>2025-11-29T01:48:10Z</time></trkpt>
      <trkpt lat="30.234333" lon="120.080598"><ele>240</ele><time>2025-11-29T01:49:00Z</time></trkpt>
      <trkpt lat="30.233765" lon="120.08066"><ele>231</ele><time>2025-11-29T01:49:52Z</time></trkpt>
      <trkpt lat="30.233601" lon="120.080754"><ele>226</ele><time>2025-11-29T01:50:12Z</time></trkpt>
      <trkpt lat="30.233525" lon="120.080948"><ele>222</ele><time>2025-11-29T01:50:31Z</time></trkpt>
      <trkpt lat="30.233276" lon="120.081269"><ele>225</ele><time>2025-11-29T01:51:12Z</time></trkpt>
      <trkpt lat="30.232924" lon="120.081454"><ele>240</ele><time>2025-11-29T01:52:11Z</time></trkpt>
      <trkpt lat="30.232654" lon="120.081494"><ele>244</ele><time>2025-11-29T01:52:41Z</time></trkpt>
      <trkpt lat="30.232441" lon="120.081679"><ele>250</ele><time>2025-11-29T01:53:08Z</time></trkpt>
      <trkpt lat="30.231775" lon="120.081666"><ele>265</ele><time>2025-11-29T01:54:27Z</time></trkpt>
      <trkpt lat="30.231533" lon="120.081507"><ele>270</ele><time>2025-11-29T01:55:02Z</time></trkpt>
      <trkpt lat="30.231069" lon="120.08148"><ele>288</ele><time>2025-11-29T01:56:29Z</time></trkpt>
      <trkpt lat="30.230705" lon="120.081358"><ele>273</ele><time>2025-11-29T01:57:28Z</time></trkpt>
      <trkpt lat="30.230159" lon="120.080647"><ele>249</ele><time>2025-11-29T01:59:17Z</time></trkpt>
      <trkpt lat="30.229477" lon="120.080256"><ele>241</ele><time>2025-11-29T02:00:34Z</time></trkpt>
      <trkpt lat="30.229041" lon="120.079661"><ele>254</ele><time>2025-11-29T02:01:49Z</time></trkpt>
      <trkpt lat="30.228687" lon="120.079484"><ele>260</ele><time>2025-11-29T02:02:35Z</time></trkpt>
      <trkpt lat="30.228405" lon="120.079199"><ele>267</ele><time>2025-11-29T02:03:20Z</time></trkpt>
      <trkpt lat="30.228069" lon="120.079016"><ele>276</ele><time>2025-11-29T02:04:03Z</time></trkpt>
      <trkpt lat="30.227942" lon="120.078847"><ele>277</ele><time>2025-11-29T02:04:19Z</time></trkpt>
      <trkpt lat="30.227838" lon="120.079143"><ele>280</ele><time>2025-11-29T02:05:07Z</time></trkpt>
      <trkpt lat="30.227616" lon="120.079499"><ele>279</ele><time>2025-11-29T02:05:56Z</time></trkpt>
      <trkpt lat="30.227573" lon="120.079705"><ele>277</ele><time>2025-11-29T02:06:13Z</time></trkpt>
      <trkpt lat="30.227662" lon="120.080129"><ele>277</ele><time>2025-11-29T02:06:49Z</time></trkpt>
      <trkpt lat="30.227604" lon="120.08077"><ele>269</ele><time>2025-11-29T02:08:03Z</time></trkpt>
      <trkpt lat="30.227434" lon="120.081024"><ele>265</ele><time>2025-11-29T02:08:26Z</time></trkpt>
      <trkpt lat="30.227307" lon="120.081635"><ele>264</ele><time>2025-11-29T02:09:47Z</time></trkpt>
      <trkpt lat="30.227367" lon="120.082638"><ele>263</ele><time>2025-11-29T02:11:05Z</time></trkpt>
      <trkpt lat="30.227092" lon="120.082939"><ele>264</ele><time>2025-11-29T02:11:46Z</time></trkpt>
      <trkpt lat="30.22684" lon="120.083067"><ele>275</ele><time>2025-11-29T02:12:52Z</time></trkpt>
      <trkpt lat="30.226717" lon="120.083329"><ele>284</ele><time>2025-11-29T02:13:49Z</time></trkpt>
      <trkpt lat="30.226448" lon="120.083437"><ele>292</ele><time>2025-11-29T02:14:48Z</time></trkpt>
      <trkpt lat="30.22621" lon="120.08377"><ele>298</ele><time>2025-11-29T02:15:26Z</time></trkpt>
      <trkpt lat="30.226087" lon="120.084196"><ele>304</ele><time>2025-11-29T02:16:03Z</time></trkpt>
      <trkpt lat="30.226075" lon="120.085044"><ele>304</ele><time>2025-11-29T02:17:30Z</time></trkpt>
      <trkpt lat="30.225423" lon="120.085074"><ele>324</ele><time>2025-11-29T02:19:27Z</time></trkpt>
      <trkpt lat="30.225266" lon="120.085177"><ele>332</ele><time>2025-11-29T02:20:19Z</time></trkpt>
      <trkpt lat="30.225176" lon="120.085163"><ele>336</ele><time>2025-11-29T02:20:36Z</time></trkpt>
      <trkpt lat="30.224967" lon="120.085345"><ele>345</ele><time>2025-11-29T02:21:41Z</time></trkpt>
      <trkpt lat="30.224605" lon="120.08522"><ele>359</ele><time>2025-11-29T02:23:13Z</time></trkpt>
      <trkpt lat="30.224148" lon="120.086148"><ele>336</ele><time>2025-11-29T02:25:39Z</time></trkpt>
      <trkpt lat="30.224139" lon="120.086577"><ele>327</ele><time>2025-11-29T02:26:16Z</time></trkpt>
      <trkpt lat="30.224076" lon="120.086789"><ele>325</ele><time>2025-11-29T02:26:31Z</time></trkpt>
      <trkpt lat="30.223975" lon="120.086972"><ele>326</ele><time>2025-11-29T02:26:46Z</time></trkpt>
      <trkpt lat="30.22375" lon="120.087153"><ele>336</ele><time>2025-11-29T02:27:19Z</time></trkpt>
      <trkpt lat="30.223469" lon="120.087718"><ele>338</ele><time>2025-11-29T02:28:19Z</time></trkpt>
      <trkpt lat="30.223174" lon="120.087999"><ele>339</ele><time>2025-11-29T02:28:55Z</time></trkpt>
      <trkpt lat="30.223083" lon="120.08803"><ele>340</ele><time>2025-11-29T02:29:10Z</time></trkpt>
      <trkpt lat="30.222866" lon="120.087839"><ele>349</ele><time>2025-11-29T02:29:42Z</time></trkpt>
      <trkpt lat="30.222508" lon="120.087672"><ele>359</ele><time>2025-11-29T02:30:31Z</time></trkpt>
      <trkpt lat="30.222058" lon="120.087771"><ele>382</ele><time>2025-11-29T02:31:55Z</time></trkpt>
      <trkpt lat="30.221617" lon="120.087652"><ele>402</ele><time>2025-11-29T02:33:44Z</time></trkpt>
      <trkpt lat="30.221333" lon="120.087657"><ele>407</ele><time>2025-11-29T02:38:37Z</time></trkpt>
      <trkpt lat="30.221346" lon="120.087877"><ele>404</ele><time>2025-11-29T02:39:10Z</time></trkpt>
      <trkpt lat="30.221063" lon="120.088434"><ele>403</ele><time>2025-11-29T02:40:05Z</time></trkpt>
      <trkpt lat="30.220935" lon="120.089057"><ele>397</ele><time>2025-11-29T02:40:53Z</time></trkpt>
      <trkpt lat="30.220815" lon="120.089358"><ele>391</ele><time>2025-11-29T02:41:33Z</time></trkpt>
      <trkpt lat="30.220411" lon="120.089791"><ele>374</ele><time>2025-11-29T02:42:34Z</time></trkpt>
      <trkpt lat="30.220233" lon="120.090521"><ele>359</ele><time>2025-11-29T02:43:45Z</time></trkpt>
      <trkpt lat="30.219675" lon="120.091172"><ele>313</ele><time>2025-11-29T02:46:47Z</time></trkpt>
      <trkpt lat="30.219713" lon="120.091381"><ele>305</ele><time>2025-11-29T02:47:18Z</time></trkpt>
      <trkpt lat="30.219674" lon="120.091705"><ele>295</ele><time>2025-11-29T02:47:57Z</time></trkpt>
      <trkpt lat="30.219356" lon="120.091967"><ele>286</ele><time>2025-11-29T02:48:37Z</time></trkpt>
      <trkpt lat="30.218472" lon="120.09234"><ele>291</ele><time>2025-11-29T02:50:06Z</time></trkpt>
      <trkpt lat="30.218087" lon="120.092685"><ele>291</ele><time>2025-11-29T02:51:11Z</time></trkpt>
      <trkpt lat="30.217799" lon="120.092742"><ele>298</ele><time>2025-11-29T02:51:37Z</time></trkpt>
      <trkpt lat="30.217541" lon="120.092881"><ele>296</ele><time>2025-11-29T02:52:03Z</time></trkpt>
      <trkpt lat="30.216866" lon="120.092937"><ele>315</ele><time>2025-11-29T02:53:21Z</time></trkpt>
      <trkpt lat="30.216746" lon="120.093113"><ele>319</ele><time>2025-11-29T02:53:54Z</time></trkpt>
      <trkpt lat="30.216268" lon="120.093417"><ele>330</ele><time>2025-11-29T02:55:21Z</time></trkpt>
      <trkpt lat="30.216275" lon="120.093734"><ele>326</ele><time>2025-11-29T02:55:47Z</time></trkpt>
      <trkpt lat="30.216216" lon="120.093821"><ele>326</ele><time>2025-11-29T02:56:05Z</time></trkpt>
      <trkpt lat="30.215951" lon="120.093947"><ele>329</ele><time>2025-11-29T02:56:34Z</time></trkpt>
      <trkpt lat="30.215776" lon="120.093859"><ele>328</ele><time>2025-11-29T02:56:59Z</time></trkpt>
      <trkpt lat="30.215521" lon="120.093526"><ele>316</ele><time>2025-11-29T02:57:32Z</time></trkpt>
      <trkpt lat="30.215349" lon="120.093402"><ele>312</ele><time>2025-11-29T02:57:48Z</time></trkpt>
      <trkpt lat="30.215078" lon="120.092963"><ele>308</ele><time>2025-11-29T02:58:25Z</time></trkpt>
      <trkpt lat="30.214744" lon="120.092787"><ele>298</ele><time>2025-11-29T02:58:57Z</time></trkpt>
      <trkpt lat="30.214558" lon="120.092788"><ele>297</ele><time>2025-11-29T02:59:11Z</time></trkpt>
      <trkpt lat="30.214405" lon="120.092667"><ele>292</ele><time>2025-11-29T02:59:56Z</time></trkpt>
      <trkpt lat="30.213636" lon="120.092701"><ele>274</ele><time>2025-11-29T03:01:10Z</time></trkpt>
      <trkpt lat="30.212974" lon="120.092647"><ele>253</ele><time>2025-11-29T03:02:18Z</time></trkpt>
      <trkpt lat="30.212342" lon="120.092969"><ele>248</ele><time>2025-11-29T03:03:13Z</time></trkpt>
      <trkpt lat="30.211967" lon="120.092988"><ele>247</ele><time>2025-11-29T03:03:46Z</time></trkpt>
      <trkpt lat="30.211704" lon="120.093075"><ele>250</ele><time>2025-11-29T03:04:08Z</time></trkpt>
      <trkpt lat="30.211478" lon="120.093272"><ele>255</ele><time>2025-11-29T03:04:41Z</time></trkpt>
      <trkpt lat="30.211345" lon="120.093678"><ele>261</ele><time>2025-11-29T03:05:12Z</time></trkpt>
      <trkpt lat="30.210891" lon="120.094242"><ele>261</ele><time>2025-11-29T03:06:08Z</time></trkpt>
      <trkpt lat="30.210642" lon="120.0944"><ele>259</ele><time>2025-11-29T03:06:30Z</time></trkpt>
      <trkpt lat="30.210443" lon="120.094656"><ele>264</ele><time>2025-11-29T03:06:54Z</time></trkpt>
      <trkpt lat="30.210166" lon="120.094731"><ele>264</ele><time>2025-11-29T03:07:16Z</time></trkpt>
      <trkpt lat="30.209634" lon="120.095213"><ele>268</ele><time>2025-11-29T03:08:12Z</time></trkpt>
      <trkpt lat="30.209537" lon="120.095394"><ele>271</ele><time>2025-11-29T03:08:30Z</time></trkpt>
      <trkpt lat="30.20927" lon="120.095483"><ele>273</ele><time>2025-11-29T03:08:57Z</time></trkpt>
      <trkpt lat="30.208993" lon="120.095397"><ele>273</ele><time>2025-11-29T03:09:23Z</time></trkpt>
      <trkpt lat="30.208702" lon="120.095102"><ele>274</ele><time>2025-11-29T03:09:55Z</time></trkpt>
      <trkpt lat="30.208322" lon="120.095036"><ele>284</ele><time>2025-11-29T03:10:28Z</time></trkpt>
      <trkpt lat="30.208175" lon="120.094907"><ele>288</ele><time>2025-11-29T03:10:50Z</time></trkpt>
      <trkpt lat="30.208081" lon="120.094734"><ele>284</ele><time>2025-11-29T03:11:11Z</time></trkpt>
      <trkpt lat="30.208115" lon="120.094517"><ele>282</ele><time>2025-11-29T03:11:28Z</time></trkpt>
      <trkpt lat="30.208038" lon="120.094446"><ele>279</ele><time>2025-11-29T03:11:37Z</time></trkpt>
      <trkpt lat="30.208014" lon="120.094118"><ele>285</ele><time>2025-11-29T03:12:07Z</time></trkpt>
      <trkpt lat="30.20787" lon="120.093989"><ele>286</ele><time>2025-11-29T03:12:23Z</time></trkpt>
      <trkpt lat="30.207777" lon="120.09397"><ele>288</ele><time>2025-11-29T03:12:32Z</time></trkpt>
      <trkpt lat="30.207343" lon="120.094184"><ele>300</ele><time>2025-11-29T03:13:13Z</time></trkpt>
      <trkpt lat="30.206982" lon="120.094099"><ele>308</ele><time>2025-11-29T03:13:52Z</time></trkpt>
      <trkpt lat="30.206522" lon="120.093718"><ele>313</ele><time>2025-11-29T03:14:45Z</time></trkpt>
      <trkpt lat="30.206385" lon="120.093423"><ele>310</ele><time>2025-11-29T03:15:12Z</time></trkpt>
      <trkpt lat="30.206078" lon="120.09316"><ele>308</ele><time>2025-11-29T03:15:47Z</time></trkpt>
      <trkpt lat="30.205693" lon="120.093458"><ele>320</ele><time>2025-11-29T03:16:32Z</time></trkpt>
      <trkpt lat="30.205211" lon="120.093437"><ele>324</ele><time>2025-11-29T03:17:13Z</time></trkpt>
      <trkpt lat="30.20503" lon="120.093371"><ele>328</ele><time>2025-11-29T03:17:31Z</time></trkpt>
      <trkpt lat="30.204749" lon="120.093076"><ele>333</ele><time>2025-11-29T03:18:07Z</time></trkpt>
      <trkpt lat="30.204774" lon="120.09297"><ele>331</ele><time>2025-11-29T03:18:16Z</time></trkpt>
      <trkpt lat="30.204707" lon="120.092768"><ele>323</ele><time>2025-11-29T03:18:35Z</time></trkpt>
      <trkpt lat="30.204289" lon="120.092489"><ele>327</ele><time>2025-11-29T03:19:12Z</time></trkpt>
      <trkpt lat="30.204273" lon="120.092371"><ele>327</ele><time>2025-11-29T03:19:22Z</time></trkpt>
      <trkpt lat="30.204089" lon="120.092381"><ele>326</ele><time>2025-11-29T03:19:38Z</time></trkpt>
      <trkpt lat="30.203552" lon="120.09221"><ele>326</ele><time>2025-11-29T03:20:29Z</time></trkpt>
      <trkpt lat="30.203106" lon="120.092609"><ele>319</ele><time>2025-11-29T03:21:15Z</time></trkpt>
      <trkpt lat="30.202914" lon="120.09257"><ele>317</ele><time>2025-11-29T03:21:29Z</time></trkpt>
      <trkpt lat="30.202736" lon="120.092627"><ele>317</ele><time>2025-11-29T03:21:45Z</time></trkpt>
      <trkpt lat="30.202478" lon="120.092514"><ele>318</ele><time>2025-11-29T03:22:14Z</time></trkpt>
      <trkpt lat="30.202316" lon="120.092607"><ele>315</ele><time>2025-11-29T03:22:34Z</time></trkpt>
      <trkpt lat="30.201702" lon="120.093332"><ele>321</ele><time>2025-11-29T03:23:46Z</time></trkpt>
      <trkpt lat="30.201536" lon="120.093447"><ele>325</ele><time>2025-11-29T03:24:03Z</time></trkpt>
      <trkpt lat="30.201384" lon="120.093734"><ele>325</ele><time>2025-11-29T03:24:26Z</time></trkpt>
      <trkpt lat="30.201026" lon="120.093589"><ele>324</ele><time>2025-11-29T03:25:02Z</time></trkpt>
      <trkpt lat="30.200388" lon="120.093799"><ele>313</ele><time>2025-11-29T03:26:01Z</time></trkpt>
      <trkpt lat="30.199444" lon="120.094336"><ele>329</ele><time>2025-11-29T03:27:57Z</time></trkpt>
      <trkpt lat="30.199262" lon="120.094375"><ele>333</ele><time>2025-11-29T03:28:14Z</time></trkpt>
      <trkpt lat="30.199104" lon="120.09465"><ele>337</ele><time>2025-11-29T03:28:41Z</time></trkpt>
      <trkpt lat="30.198782" lon="120.094887"><ele>341</ele><time>2025-11-29T03:29:16Z</time></trkpt>
      <trkpt lat="30.198308" lon="120.094873"><ele>342</ele><time>2025-11-29T03:29:58Z</time></trkpt>
      <trkpt lat="30.19839" lon="120.095067"><ele>348</ele><time>2025-11-29T03:35:39Z</time></trkpt>
      <trkpt lat="30.198354" lon="120.094969"><ele>346</ele><time>2025-11-29T03:40:50Z</time></trkpt>
      <trkpt lat="30.19829" lon="120.095109"><ele>347</ele><time>2025-11-29T03:41:25Z</time></trkpt>
      <trkpt lat="30.198317" lon="120.094799"><ele>347</ele><time>2025-11-29T03:48:51Z</time></trkpt>
      <trkpt lat="30.198424" lon="120.095074"><ele>347</ele><time>2025-11-29T03:54:10Z</time></trkpt>
      <trkpt lat="30.198281" lon="120.094948"><ele>344</ele><time>2025-11-29T04:05:34Z</time></trkpt>
      <trkpt lat="30.197799" lon="120.094928"><ele>341</ele><time>2025-11-29T04:06:20Z</time></trkpt>
      <trkpt lat="30.197551" lon="120.095227"><ele>342</ele><time>2025-11-29T04:06:58Z</time></trkpt>
      <trkpt lat="30.197424" lon="120.09586"><ele>328</ele><time>2025-11-29T04:08:34Z</time></trkpt>
      <trkpt lat="30.19741" lon="120.096956"><ele>300</ele><time>2025-11-29T04:10:05Z</time></trkpt>
      <trkpt lat="30.197223" lon="120.09788"><ele>277</ele><time>2025-11-29T04:11:46Z</time></trkpt>
      <trkpt lat="30.196928" lon="120.098573"><ele>259</ele><time>2025-11-29T04:12:49Z</time></trkpt>
      <trkpt lat="30.196645" lon="120.098867"><ele>257</ele><time>2025-11-29T04:13:23Z</time></trkpt>
      <trkpt lat="30.196607" lon="120.099223"><ele>250</ele><time>2025-11-29T04:13:51Z</time></trkpt>
      <trkpt lat="30.19644" lon="120.099751"><ele>244</ele><time>2025-11-29T04:14:40Z</time></trkpt>
      <trkpt lat="30.196189" lon="120.100037"><ele>227</ele><time>2025-11-29T04:15:57Z</time></trkpt>
      <trkpt lat="30.196245" lon="120.100125"><ele>222</ele><time>2025-11-29T04:16:10Z</time></trkpt>
      <trkpt lat="30.196059" lon="120.100137"><ele>216</ele><time>2025-11-29T04:16:37Z</time></trkpt>
      <trkpt lat="30.196064" lon="120.100244"><ele>212</ele><time>2025-11-29T04:16:56Z</time></trkpt>
      <trkpt lat="30.195882" lon="120.100279"><ele>205</ele><time>2025-11-29T04:17:22Z</time></trkpt>
      <trkpt lat="30.195679" lon="120.100656"><ele>188</ele><time>2025-11-29T04:18:24Z</time></trkpt>
      <trkpt lat="30.195759" lon="120.100706"><ele>185</ele><time>2025-11-29T04:18:53Z</time></trkpt>
      <trkpt lat="30.195942" lon="120.100673"><ele>190</ele><time>2025-11-29T04:19:22Z</time></trkpt>
      <trkpt lat="30.196008" lon="120.100748"><ele>191</ele><time>2025-11-29T04:19:51Z</time></trkpt>
      <trkpt lat="30.196187" lon="120.100725"><ele>196</ele><time>2025-11-29T04:20:19Z</time></trkpt>
      <trkpt lat="30.196453" lon="120.100832"><ele>201</ele><time>2025-11-29T04:21:38Z</time></trkpt>
      <trkpt lat="30.196664" lon="120.101071"><ele>206</ele><time>2025-11-29T04:22:35Z</time></trkpt>
      <trkpt lat="30.196661" lon="120.1015"><ele>201</ele><time>2025-11-29T04:23:13Z</time></trkpt>
      <trkpt lat="30.196395" lon="120.10223"><ele>188</ele><time>2025-11-29T04:24:19Z</time></trkpt>
      <trkpt lat="30.196305" lon="120.102665"><ele>178</ele><time>2025-11-29T04:24:56Z</time></trkpt>
      <trkpt lat="30.196242" lon="120.102752"><ele>174</ele><time>2025-11-29T04:25:11Z</time></trkpt>
      <trkpt lat="30.196142" lon="120.10275"><ele>170</ele><time>2025-11-29T04:25:34Z</time></trkpt>
      <trkpt lat="30.195798" lon="120.10323"><ele>137</ele><time>2025-11-29T04:27:47Z</time></trkpt>
      <trkpt lat="30.195316" lon="120.103737"><ele>117</ele><time>2025-11-29T04:29:20Z</time></trkpt>
      <trkpt lat="30.195186" lon="120.104159"><ele>113</ele><time>2025-11-29T04:29:48Z</time></trkpt>
      <trkpt lat="30.195181" lon="120.104384"><ele>105</ele><time>2025-11-29T04:30:10Z</time></trkpt>
      <trkpt lat="30.195361" lon="120.104888"><ele>92</ele><time>2025-11-29T04:30:57Z</time></trkpt>
      <trkpt lat="30.195428" lon="120.104961"><ele>89</ele><time>2025-11-29T04:31:05Z</time></trkpt>
      <trkpt lat="30.19561" lon="120.104858"><ele>90</ele><time>2025-11-29T04:31:23Z</time></trkpt>
      <trkpt lat="30.195848" lon="120.104411"><ele>89</ele><time>2025-11-29T04:32:37Z</time></trkpt>
      <trkpt lat="30.195904" lon="120.104621"><ele>82</ele><time>2025-11-29T04:33:05Z</time></trkpt>
      <trkpt lat="30.196185" lon="120.104944"><ele>71</ele><time>2025-11-29T04:33:49Z</time></trkpt>
      <trkpt lat="30.196635" lon="120.10516"><ele>55</ele><time>2025-11-29T04:34:44Z</time></trkpt>
      <trkpt lat="30.196925" lon="120.105456"><ele>36</ele><time>2025-11-29T04:35:26Z</time></trkpt>
      <trkpt lat="30.196959" lon="120.105985"><ele>30</ele><time>2025-11-29T04:36:16Z</time></trkpt>
      <trkpt lat="30.197113" lon="120.1061"><ele>30</ele><time>2025-11-29T04:36:34Z</time></trkpt>
      <trkpt lat="30.19715" lon="120.106643"><ele>26</ele><time>2025-11-29T04:37:17Z</time></trkpt>
      <trkpt lat="30.197267" lon="120.107082"><ele>27</ele><time>2025-11-29T04:37:49Z</time></trkpt>
      <trkpt lat="30.197503" lon="120.107254"><ele>24</ele><time>2025-11-29T04:38:12Z</time></trkpt>
      <trkpt lat="30.197553" lon="120.107458"><ele>22</ele><time>2025-11-29T04:38:28Z</time></trkpt>
      <trkpt lat="30.197676" lon="120.107619"><ele>21</ele><time>2025-11-29T04:38:44Z</time></trkpt>
      <trkpt lat="30.198095" lon="120.107947"><ele>21</ele><time>2025-11-29T04:39:26Z</time></trkpt>
      <trkpt lat="30.198174" lon="120.10858"><ele>21</ele><time>2025-11-29T04:40:08Z</time></trkpt>
      <trkpt lat="30.198122" lon="120.108908"><ele>20</ele><time>2025-11-29T04:40:35Z</time></trkpt>
      <trkpt lat="30.198185" lon="120.108984"><ele>20</ele><time>2025-11-29T04:40:48Z</time></trkpt>
      <trkpt lat="30.198558" lon="120.109018"><ele>20</ele><time>2025-11-29T04:46:04Z</time></trkpt>
      <trkpt lat="30.198753" lon="120.10897"><ele>21</ele><time>2025-11-29T04:46:22Z</time></trkpt>
      <trkpt lat="30.199026" lon="120.10929"><ele>24</ele><time>2025-11-29T04:46:56Z</time></trkpt>
      <trkpt lat="30.199117" lon="120.109485"><ele>26</ele><time>2025-11-29T04:47:13Z</time></trkpt>
      <trkpt lat="30.199511" lon="120.109768"><ele>33</ele><time>2025-11-29T04:47:49Z</time></trkpt>
      <trkpt lat="30.19969" lon="120.110013"><ele>38</ele><time>2025-11-29T04:48:09Z</time></trkpt>
      <trkpt lat="30.199885" lon="120.109997"><ele>31</ele><time>2025-11-29T04:48:25Z</time></trkpt>
      <trkpt lat="30.200195" lon="120.11026"><ele>57</ele><time>2025-11-29T04:48:52Z</time></trkpt>
      <trkpt lat="30.200669" lon="120.110268"><ele>66</ele><time>2025-11-29T04:49:32Z</time></trkpt>
      <trkpt lat="30.20121" lon="120.110379"><ele>77</ele><time>2025-11-29T04:50:23Z</time></trkpt>
      <trkpt lat="30.202062" lon="120.110868"><ele>85</ele><time>2025-11-29T04:52:11Z</time></trkpt>
      <trkpt lat="30.202424" lon="120.110934"><ele>97</ele><time>2025-11-29T04:52:46Z</time></trkpt>
      <trkpt lat="30.202764" lon="120.111291"><ele>108</ele><time>2025-11-29T04:53:31Z</time></trkpt>
      <trkpt lat="30.203047" lon="120.111738"><ele>112</ele><time>2025-11-29T04:54:23Z</time></trkpt>
      <trkpt lat="30.203351" lon="120.111966"><ele>115</ele><time>2025-11-29T04:55:03Z</time></trkpt>
      <trkpt lat="30.203817" lon="120.113043"><ele>111</ele><time>2025-11-29T04:57:27Z</time></trkpt>
      <trkpt lat="30.203677" lon="120.113323"><ele>122</ele><time>2025-11-29T04:58:05Z</time></trkpt>
      <trkpt lat="30.203933" lon="120.11345"><ele>121</ele><time>2025-11-29T04:58:36Z</time></trkpt>
      <trkpt lat="30.204133" lon="120.113823"><ele>121</ele><time>2025-11-29T04:59:12Z</time></trkpt>
      <trkpt lat="30.203824" lon="120.114209"><ele>140</ele><time>2025-11-29T05:00:03Z</time></trkpt>
      <trkpt lat="30.204099" lon="120.114277"><ele>139</ele><time>2025-11-29T05:00:29Z</time></trkpt>
      <trkpt lat="30.204151" lon="120.114376"><ele>136</ele><time>2025-11-29T05:00:40Z</time></trkpt>
      <trkpt lat="30.204218" lon="120.114694"><ele>141</ele><time>2025-11-29T05:01:08Z</time></trkpt>
      <trkpt lat="30.204152" lon="120.114998"><ele>154</ele><time>2025-11-29T05:01:42Z</time></trkpt>
      <trkpt lat="30.204243" lon="120.115035"><ele>155</ele><time>2025-11-29T05:01:54Z</time></trkpt>
      <trkpt lat="30.204331" lon="120.115331"><ele>162</ele><time>2025-11-29T05:02:31Z</time></trkpt>
      <trkpt lat="30.204485" lon="120.115455"><ele>168</ele><time>2025-11-29T05:02:54Z</time></trkpt>
      <trkpt lat="30.204571" lon="120.115642"><ele>169</ele><time>2025-11-29T05:03:15Z</time></trkpt>
      <trkpt lat="30.204841" lon="120.115566"><ele>178</ele><time>2025-11-29T05:03:54Z</time></trkpt>
      <trkpt lat="30.204964" lon="120.11573"><ele>186</ele><time>2025-11-29T05:04:15Z</time></trkpt>
      <trkpt lat="30.205113" lon="120.115602"><ele>188</ele><time>2025-11-29T05:04:33Z</time></trkpt>
      <trkpt lat="30.205397" lon="120.115618"><ele>196</ele><time>2025-11-29T05:05:16Z</time></trkpt>
      <trkpt lat="30.205415" lon="120.115508"><ele>196</ele><time>2025-11-29T05:05:27Z</time></trkpt>
      <trkpt lat="30.205432" lon="120.115615"><ele>194</ele><time>2025-11-29T05:05:41Z</time></trkpt>
      <trkpt lat="30.205233" lon="120.11585"><ele>198</ele><time>2025-11-29T05:06:24Z</time></trkpt>
      <trkpt lat="30.205246" lon="120.115956"><ele>199</ele><time>2025-11-29T05:06:46Z</time></trkpt>
      <trkpt lat="30.205437" lon="120.115939"><ele>203</ele><time>2025-11-29T05:09:26Z</time></trkpt>
      <trkpt lat="30.205711" lon="120.116017"><ele>211</ele><time>2025-11-29T05:10:13Z</time></trkpt>
      <trkpt lat="30.205898" lon="120.115982"><ele>216</ele><time>2025-11-29T05:10:43Z</time></trkpt>
      <trkpt lat="30.206262" lon="120.116118"><ele>219</ele><time>2025-11-29T05:11:27Z</time></trkpt>
      <trkpt lat="30.206799" lon="120.115933"><ele>200</ele><time>2025-11-29T05:12:34Z</time></trkpt>
      <trkpt lat="30.207267" lon="120.115874"><ele>189</ele><time>2025-11-29T05:13:29Z</time></trkpt>
      <trkpt lat="30.207452" lon="120.115917"><ele>189</ele><time>2025-11-29T05:13:46Z</time></trkpt>
      <trkpt lat="30.207828" lon="120.115829"><ele>185</ele><time>2025-11-29T05:14:22Z</time></trkpt>
      <trkpt lat="30.208043" lon="120.115623"><ele>178</ele><time>2025-11-29T05:14:53Z</time></trkpt>
      <trkpt lat="30.2088" lon="120.115701"><ele>174</ele><time>2025-11-29T05:16:01Z</time></trkpt>
      <trkpt lat="30.209048" lon="120.115853"><ele>171</ele><time>2025-11-29T05:16:30Z</time></trkpt>
      <trkpt lat="30.20932" lon="120.116306"><ele>167</ele><time>2025-11-29T05:17:08Z</time></trkpt>
      <trkpt lat="30.210124" lon="120.116624"><ele>154</ele><time>2025-11-29T05:18:25Z</time></trkpt>
      <trkpt lat="30.210631" lon="120.117107"><ele>142</ele><time>2025-11-29T05:19:54Z</time></trkpt>
      <trkpt lat="30.210829" lon="120.117479"><ele>149</ele><time>2025-11-29T05:20:37Z</time></trkpt>
      <trkpt lat="30.211225" lon="120.117783"><ele>157</ele><time>2025-11-29T05:21:35Z</time></trkpt>
      <trkpt lat="30.21147" lon="120.118123"><ele>165</ele><time>2025-11-29T05:22:20Z</time></trkpt>
      <trkpt lat="30.211581" lon="120.118752"><ele>173</ele><time>2025-11-29T05:23:28Z</time></trkpt>
      <trkpt lat="30.212215" lon="120.119206"><ele>180</ele><time>2025-11-29T05:24:37Z</time></trkpt>
      <trkpt lat="30.212641" lon="120.119634"><ele>193</ele><time>2025-11-29T05:25:42Z</time></trkpt>
      <trkpt lat="30.212823" lon="120.120348"><ele>214</ele><time>2025-11-29T05:27:36Z</time></trkpt>
      <trkpt lat="30.213121" lon="120.120609"><ele>227</ele><time>2025-11-29T05:28:32Z</time></trkpt>
      <trkpt lat="30.213371" lon="120.121036"><ele>237</ele><time>2025-11-29T05:29:51Z</time></trkpt>
      <trkpt lat="30.213447" lon="120.120972"><ele>236</ele><time>2025-11-29T05:30:57Z</time></trkpt>
      <trkpt lat="30.213847" lon="120.121244"><ele>232</ele><time>2025-11-29T05:36:45Z</time></trkpt>
      <trkpt lat="30.213997" lon="120.121519"><ele>224</ele><time>2025-11-29T05:37:19Z</time></trkpt>
      <trkpt lat="30.214281" lon="120.12181"><ele>208</ele><time>2025-11-29T05:38:04Z</time></trkpt>
      <trkpt lat="30.214747" lon="120.122759"><ele>175</ele><time>2025-11-29T05:40:00Z</time></trkpt>
      <trkpt lat="30.215024" lon="120.122875"><ele>167</ele><time>2025-11-29T05:40:29Z</time></trkpt>
      <trkpt lat="30.215211" lon="120.123132"><ele>162</ele><time>2025-11-29T05:40:51Z</time></trkpt>
      <trkpt lat="30.215269" lon="120.123674"><ele>161</ele><time>2025-11-29T05:41:32Z</time></trkpt>
      <trkpt lat="30.215472" lon="120.124049"><ele>162</ele><time>2025-11-29T05:42:11Z</time></trkpt>
      <trkpt lat="30.21541" lon="120.124581"><ele>149</ele><time>2025-11-29T05:43:08Z</time></trkpt>
      <trkpt lat="30.215447" lon="120.124896"><ele>136</ele><time>2025-11-29T05:43:56Z</time></trkpt>
      <trkpt lat="30.215497" lon="120.125105"><ele>129</ele><time>2025-11-29T05:44:31Z</time></trkpt>
      <trkpt lat="30.215968" lon="120.125938"><ele>95</ele><time>2025-11-29T05:46:39Z</time></trkpt>
      <trkpt lat="30.215975" lon="120.126368"><ele>80</ele><time>2025-11-29T05:47:38Z</time></trkpt>
      <trkpt lat="30.216071" lon="120.126338"><ele>77</ele><time>2025-11-29T05:47:52Z</time></trkpt>
      <trkpt lat="30.216492" lon="120.126587"><ele>58</ele><time>2025-11-29T05:49:13Z</time></trkpt>
      <trkpt lat="30.216678" lon="120.126583"><ele>58</ele><time>2025-11-29T05:49:45Z</time></trkpt>
      <trkpt lat="30.216839" lon="120.126967"><ele>56</ele><time>2025-11-29T05:50:33Z</time></trkpt>
      <trkpt lat="30.216928" lon="120.126985"><ele>58</ele><time>2025-11-29T05:50:43Z</time></trkpt>
      <trkpt lat="30.217121" lon="120.127225"><ele>56</ele><time>2025-11-29T05:51:16Z</time></trkpt>
      <trkpt lat="30.217548" lon="120.127411"><ele>54</ele><time>2025-11-29T05:52:04Z</time></trkpt>
      <trkpt lat="30.21765" lon="120.127822"><ele>52</ele><time>2025-11-29T05:52:36Z</time></trkpt>
      <trkpt lat="30.217576" lon="120.12802"><ele>51</ele><time>2025-11-29T05:52:53Z</time></trkpt>
      <trkpt lat="30.218109" lon="120.128907"><ele>40</ele><time>2025-11-29T05:54:16Z</time></trkpt>
      <trkpt lat="30.218154" lon="120.129351"><ele>33</ele><time>2025-11-29T05:55:00Z</time></trkpt>
      <trkpt lat="30.21828" lon="120.129777"><ele>30</ele><time>2025-11-29T05:55:43Z</time></trkpt>
      <trkpt lat="30.218284" lon="120.129986"><ele>29</ele><time>2025-11-29T05:56:04Z</time></trkpt>
      <trkpt lat="30.218226" lon="120.130076"><ele>28</ele><time>2025-11-29T05:56:16Z</time></trkpt>
      <trkpt lat="30.21833" lon="120.130246"><ele>29</ele><time>2025-11-29T05:56:35Z</time></trkpt>
      <trkpt lat="30.218675" lon="120.130412"><ele>32</ele><time>2025-11-29T05:57:19Z</time></trkpt>
      <trkpt lat="30.218656" lon="120.130966"><ele>32</ele><time>2025-11-29T06:01:18Z</time></trkpt>
      <trkpt lat="30.218475" lon="120.131019"><ele>29</ele><time>2025-11-29T06:01:42Z</time></trkpt>
      <trkpt lat="30.218312" lon="120.131534"><ele>32</ele><time>2025-11-29T06:02:18Z</time></trkpt>
      <trkpt lat="30.218188" lon="120.131709"><ele>33</ele><time>2025-11-29T06:02:33Z</time></trkpt>
      <trkpt lat="30.218284" lon="120.132581"><ele>37</ele><time>2025-11-29T06:03:37Z</time></trkpt>
      <trkpt lat="30.218412" lon="120.132878"><ele>41</ele><time>2025-11-29T06:04:01Z</time></trkpt>
      <trkpt lat="30.219083" lon="120.133471"><ele>67</ele><time>2025-11-29T06:05:55Z</time></trkpt>
      <trkpt lat="30.219103" lon="120.133575"><ele>68</ele><time>2025-11-29T06:06:00Z</time></trkpt>
      <trkpt lat="30.218991" lon="120.133881"><ele>69</ele><time>2025-11-29T06:06:25Z</time></trkpt>
      <trkpt lat="30.219117" lon="120.134166"><ele>69</ele><time>2025-11-29T06:06:48Z</time></trkpt>
      <trkpt lat="30.219292" lon="120.134263"><ele>72</ele><time>2025-11-29T06:07:05Z</time></trkpt>
      <trkpt lat="30.219381" lon="120.134455"><ele>76</ele><time>2025-11-29T06:07:24Z</time></trkpt>
      <trkpt lat="30.21934" lon="120.134882"><ele>79</ele><time>2025-11-29T06:08:04Z</time></trkpt>
      <trkpt lat="30.219605" lon="120.135179"><ele>90</ele><time>2025-11-29T06:08:49Z</time></trkpt>
      <trkpt lat="30.219599" lon="120.135407"><ele>89</ele><time>2025-11-29T06:09:11Z</time></trkpt>
      <trkpt lat="30.219691" lon="120.135728"><ele>96</ele><time>2025-11-29T06:09:45Z</time></trkpt>
      <trkpt lat="30.219627" lon="120.135928"><ele>97</ele><time>2025-11-29T06:10:08Z</time></trkpt>
      <trkpt lat="30.219648" lon="120.136259"><ele>104</ele><time>2025-11-29T06:10:53Z</time></trkpt>
      <trkpt lat="30.21924" lon="120.136503"><ele>105</ele><time>2025-11-29T06:11:45Z</time></trkpt>
      <trkpt lat="30.219019" lon="120.136845"><ele>106</ele><time>2025-11-29T06:12:18Z</time></trkpt>
      <trkpt lat="30.218342" lon="120.136836"><ele>107</ele><time>2025-11-29T06:13:18Z</time></trkpt>
      <trkpt lat="30.218089" lon="120.136988"><ele>101</ele><time>2025-11-29T06:13:44Z</time></trkpt>
      <trkpt lat="30.217906" lon="120.137368"><ele>101</ele><time>2025-11-29T06:14:15Z</time></trkpt>
      <trkpt lat="30.217765" lon="120.137516"><ele>106</ele><time>2025-11-29T06:14:34Z</time></trkpt>
      <trkpt lat="30.217822" lon="120.137943"><ele>121</ele><time>2025-11-29T06:15:34Z</time></trkpt>
      <trkpt lat="30.217926" lon="120.138117"><ele>126</ele><time>2025-11-29T06:16:02Z</time></trkpt>
      <trkpt lat="30.218245" lon="120.138333"><ele>124</ele><time>2025-11-29T06:19:01Z</time></trkpt>
      <trkpt lat="30.219232" lon="120.139387"><ele>115</ele><time>2025-11-29T06:20:39Z</time></trkpt>
      <trkpt lat="30.220132" lon="120.1406"><ele>107</ele><time>2025-11-29T06:21:49Z</time></trkpt>
      <trkpt lat="30.22067" lon="120.141669"><ele>97</ele><time>2025-11-29T06:23:06Z</time></trkpt>
      <trkpt lat="30.221024" lon="120.142952"><ele>89</ele><time>2025-11-29T06:24:25Z</time></trkpt>
      <trkpt lat="30.22099" lon="120.143164"><ele>84</ele><time>2025-11-29T06:24:41Z</time></trkpt>
      <trkpt lat="30.220322" lon="120.143671"><ele>82</ele><time>2025-11-29T06:25:37Z</time></trkpt>
      <trkpt lat="30.220054" lon="120.143812"><ele>82</ele><time>2025-11-29T06:25:59Z</time></trkpt>
      <trkpt lat="30.219102" lon="120.14406"><ele>84</ele><time>2025-11-29T06:27:09Z</time></trkpt>
      <trkpt lat="30.219047" lon="120.144144"><ele>86</ele><time>2025-11-29T06:27:17Z</time></trkpt>
      <trkpt lat="30.219064" lon="120.144247"><ele>86</ele><time>2025-11-29T06:27:25Z</time></trkpt>
      <trkpt lat="30.219433" lon="120.144773"><ele>82</ele><time>2025-11-29T06:28:11Z</time></trkpt>
      <trkpt lat="30.219854" lon="120.145219"><ele>78</ele><time>2025-11-29T06:28:54Z</time></trkpt>
      <trkpt lat="30.219849" lon="120.145435"><ele>77</ele><time>2025-11-29T06:29:06Z</time></trkpt>
      <trkpt lat="30.219627" lon="120.145817"><ele>77</ele><time>2025-11-29T06:29:34Z</time></trkpt>
      <trkpt lat="30.21959" lon="120.14604"><ele>80</ele><time>2025-11-29T06:29:48Z</time></trkpt>
      <trkpt lat="30.219848" lon="120.146503"><ele>75</ele><time>2025-11-29T06:30:27Z</time></trkpt>
      <trkpt lat="30.220207" lon="120.146886"><ele>71</ele><time>2025-11-29T06:31:02Z</time></trkpt>
      <trkpt lat="30.220338" lon="120.147195"><ele>67</ele><time>2025-11-29T06:31:23Z</time></trkpt>
      <trkpt lat="30.220322" lon="120.147534"><ele>66</ele><time>2025-11-29T06:31:45Z</time></trkpt>
      <trkpt lat="30.22022" lon="120.147714"><ele>70</ele><time>2025-11-29T06:32:08Z</time></trkpt>
      <trkpt lat="30.219904" lon="120.147951"><ele>81</ele><time>2025-11-29T06:32:54Z</time></trkpt>
      <trkpt lat="30.219815" lon="120.14799"><ele>82</ele><time>2025-11-29T06:33:09Z</time></trkpt>
      <trkpt lat="30.219545" lon="120.147916"><ele>89</ele><time>2025-11-29T06:33:52Z</time></trkpt>
      <trkpt lat="30.219528" lon="120.14802"><ele>91</ele><time>2025-11-29T06:34:08Z</time></trkpt>
      <trkpt lat="30.219706" lon="120.148254"><ele>92</ele><time>2025-11-29T06:34:42Z</time></trkpt>
      <trkpt lat="30.220007" lon="120.148911"><ele>110</ele><time>2025-11-29T06:36:16Z</time></trkpt>
      <trkpt lat="30.219698" lon="120.149297"><ele>132</ele><time>2025-11-29T06:38:13Z</time></trkpt>
      <trkpt lat="30.219947" lon="120.149801"><ele>142</ele><time>2025-11-29T06:39:35Z</time></trkpt>
      <trkpt lat="30.220139" lon="120.150048"><ele>149</ele><time>2025-11-29T06:40:04Z</time></trkpt>
      <trkpt lat="30.220793" lon="120.150519"><ele>154</ele><time>2025-11-29T06:41:42Z</time></trkpt>
      <trkpt lat="30.221158" lon="120.150671"><ele>150</ele><time>2025-11-29T06:42:23Z</time></trkpt>
      <trkpt lat="30.221244" lon="120.151434"><ele>147</ele><time>2025-11-29T06:43:18Z</time></trkpt>
      <trkpt lat="30.2215" lon="120.151566"><ele>148</ele><time>2025-11-29T06:43:42Z</time></trkpt>
      <trkpt lat="30.221697" lon="120.151812"><ele>146</ele><time>2025-11-29T06:44:06Z</time></trkpt>
      <trkpt lat="30.221865" lon="120.151895"><ele>146</ele><time>2025-11-29T06:44:21Z</time></trkpt>
      <trkpt lat="30.221922" lon="120.152741"><ele>150</ele><time>2025-11-29T06:45:39Z</time></trkpt>
      <trkpt lat="30.222621" lon="120.15315"><ele>140</ele><time>2025-11-29T06:47:13Z</time></trkpt>
      <trkpt lat="30.222987" lon="120.153282"><ele>146</ele><time>2025-11-29T06:47:50Z</time></trkpt>
      <trkpt lat="30.223618" lon="120.153042"><ele>151</ele><time>2025-11-29T06:48:53Z</time></trkpt>
      <trkpt lat="30.224474" lon="120.153707"><ele>142</ele><time>2025-11-29T06:50:29Z</time></trkpt>
      <trkpt lat="30.224512" lon="120.15403"><ele>144</ele><time>2025-11-29T06:50:53Z</time></trkpt>
      <trkpt lat="30.22473" lon="120.154385"><ele>148</ele><time>2025-11-29T06:51:31Z</time></trkpt>
      <trkpt lat="30.225179" lon="120.15478"><ele>143</ele><time>2025-11-29T06:52:19Z</time></trkpt>
      <trkpt lat="30.225448" lon="120.154918"><ele>139</ele><time>2025-11-29T06:52:50Z</time></trkpt>
      <trkpt lat="30.226266" lon="120.155214"><ele>132</ele><time>2025-11-29T06:54:14Z</time></trkpt>
      <trkpt lat="30.227012" lon="120.155134"><ele>129</ele><time>2025-11-29T06:55:13Z</time></trkpt>
      <trkpt lat="30.227285" lon="120.155041"><ele>126</ele><time>2025-11-29T06:55:41Z</time></trkpt>
      <trkpt lat="30.227258" lon="120.154935"><ele>121</ele><time>2025-11-29T06:55:56Z</time></trkpt>
      <trkpt lat="30.227312" lon="120.154849"><ele>120</ele><time>2025-11-29T06:56:04Z</time></trkpt>
      <trkpt lat="30.227537" lon="120.154644"><ele>108</ele><time>2025-11-29T06:56:45Z</time></trkpt>
      <trkpt lat="30.227987" lon="120.154479"><ele>94</ele><time>2025-11-29T06:57:48Z</time></trkpt>
      <trkpt lat="30.228175" lon="120.154507"><ele>92</ele><time>2025-11-29T06:58:05Z</time></trkpt>
      <trkpt lat="30.228438" lon="120.154408"><ele>79</ele><time>2025-11-29T06:58:53Z</time></trkpt>
      <trkpt lat="30.228794" lon="120.15458"><ele>72</ele><time>2025-11-29T06:59:31Z</time></trkpt>
      <trkpt lat="30.228984" lon="120.154597"><ele>69</ele><time>2025-11-29T06:59:50Z</time></trkpt>
      <trkpt lat="30.229176" lon="120.154775"><ele>70</ele><time>2025-11-29T07:00:25Z</time></trkpt>
      <trkpt lat="30.229556" lon="120.154714"><ele>59</ele><time>2025-11-29T07:01:08Z</time></trkpt>
      <trkpt lat="30.229837" lon="120.154792"><ele>62</ele><time>2025-11-29T07:01:35Z</time></trkpt>
      <trkpt lat="30.230127" lon="120.154776"><ele>66</ele><time>2025-11-29T07:02:02Z</time></trkpt>
      <trkpt lat="30.230481" lon="120.154616"><ele>62</ele><time>2025-11-29T07:02:38Z</time></trkpt>
      <trkpt lat="30.230775" lon="120.1546"><ele>56</ele><time>2025-11-29T07:03:09Z</time></trkpt>
      <trkpt lat="30.231026" lon="120.154927"><ele>43</ele><time>2025-11-29T07:03:54Z</time></trkpt>
      <trkpt lat="30.231117" lon="120.154962"><ele>42</ele><time>2025-11-29T07:04:04Z</time></trkpt>
      <trkpt lat="30.231492" lon="120.155021"><ele>41</ele><time>2025-11-29T07:04:38Z</time></trkpt>
      <trkpt lat="30.231941" lon="120.154843"><ele>40</ele><time>2025-11-29T07:05:18Z</time></trkpt>
      <trkpt lat="30.232124" lon="120.154931"><ele>35</ele><time>2025-11-29T07:05:36Z</time></trkpt>
      <trkpt lat="30.232185" lon="120.155011"><ele>34</ele><time>2025-11-29T07:05:44Z</time></trkpt>
      <trkpt lat="30.232267" lon="120.155434"><ele>41</ele><time>2025-11-29T07:11:14Z</time></trkpt>
      <trkpt lat="30.23228" lon="120.155851"><ele>56</ele><time>2025-11-29T07:12:07Z</time></trkpt>
      <trkpt lat="30.232471" lon="120.156102"><ele>62</ele><time>2025-11-29T07:12:34Z</time></trkpt>
      <trkpt lat="30.232484" lon="120.156862"><ele>70</ele><time>2025-11-29T07:13:52Z</time></trkpt>
      <trkpt lat="30.232596" lon="120.157153"><ele>71</ele><time>2025-11-29T07:14:21Z</time></trkpt>
      <trkpt lat="30.232826" lon="120.157303"><ele>70</ele><time>2025-11-29T07:14:52Z</time></trkpt>
      <trkpt lat="30.233007" lon="120.157917"><ele>80</ele><time>2025-11-29T07:16:10Z</time></trkpt>
      <trkpt lat="30.233557" lon="120.157936"><ele>83</ele><time>2025-11-29T07:17:35Z</time></trkpt>
      <trkpt lat="30.233872" lon="120.158143"><ele>86</ele><time>2025-11-29T07:18:21Z</time></trkpt>
      <trkpt lat="30.233933" lon="120.158234"><ele>87</ele><time>2025-11-29T07:18:31Z</time></trkpt>
      <trkpt lat="30.233837" lon="120.158791"><ele>90</ele><time>2025-11-29T07:19:13Z</time></trkpt>
      <trkpt lat="30.23428" lon="120.158991"><ele>81</ele><time>2025-11-29T07:20:02Z</time></trkpt>
      <trkpt lat="30.234572" lon="120.15926"><ele>71</ele><time>2025-11-29T07:20:47Z</time></trkpt>
      <trkpt lat="30.234752" lon="120.159336"><ele>68</ele><time>2025-11-29T07:21:16Z</time></trkpt>
      <trkpt lat="30.235396" lon="120.159995"><ele>65</ele><time>2025-11-29T07:22:34Z</time></trkpt>
      <trkpt lat="30.235614" lon="120.160342"><ele>73</ele><time>2025-11-29T07:23:14Z</time></trkpt>
      <trkpt lat="30.235929" lon="120.160586"><ele>79</ele><time>2025-11-29T07:23:49Z</time></trkpt>
      <trkpt lat="30.236556" lon="120.160756"><ele>77</ele><time>2025-11-29T07:26:08Z</time></trkpt>
      <trkpt lat="30.236731" lon="120.160696"><ele>76</ele><time>2025-11-29T07:26:35Z</time></trkpt>
      <trkpt lat="30.237282" lon="120.160257"><ele>66</ele><time>2025-11-29T07:27:42Z</time></trkpt>
      <trkpt lat="30.237478" lon="120.160315"><ele>61</ele><time>2025-11-29T07:28:02Z</time></trkpt>
      <trkpt lat="30.237811" lon="120.160562"><ele>60</ele><time>2025-11-29T07:28:42Z</time></trkpt>
      <trkpt lat="30.238193" lon="120.160516"><ele>62</ele><time>2025-11-29T07:29:15Z</time></trkpt>
      <trkpt lat="30.238995" lon="120.1609"><ele>59</ele><time>2025-11-29T07:30:38Z</time></trkpt>
      <trkpt lat="30.239089" lon="120.160891"><ele>60</ele><time>2025-11-29T07:30:48Z</time></trkpt>
      <trkpt lat="30.239317" lon="120.160415"><ele>60</ele><time>2025-11-29T07:32:37Z</time></trkpt>
      <trkpt lat="30.239621" lon="120.159985"><ele>55</ele><time>2025-11-29T07:33:28Z</time></trkpt>
      <trkpt lat="30.239882" lon="120.16"><ele>49</ele><time>2025-11-29T07:33:53Z</time></trkpt>
      <trkpt lat="30.240065" lon="120.16038"><ele>46</ele><time>2025-11-29T07:34:23Z</time></trkpt>
      <trkpt lat="30.23997" lon="120.160813"><ele>48</ele><time>2025-11-29T07:34:53Z</time></trkpt>
      <trkpt lat="30.240013" lon="120.160917"><ele>47</ele><time>2025-11-29T07:35:00Z</time></trkpt>
      <trkpt lat="30.240258" lon="120.161079"><ele>42</ele><time>2025-11-29T07:35:37Z</time></trkpt>
      <trkpt lat="30.240434" lon="120.161156"><ele>40</ele><time>2025-11-29T07:35:58Z</time></trkpt>
      <trkpt lat="30.241586" lon="120.160963"><ele>30</ele><time>2025-11-29T07:37:38Z</time></trkpt>
    </trkseg>
  </trk>
</gpx>
