<?xml version="1.0" encoding="UTF-8"?>
<gpx version="1.1" creator="MyWorld" xmlns="http://www.topografix.com/GPX/1/1">
  <metadata><name>鹰潭龙虎山</name></metadata>
  <trk>
    <name>鹰潭龙虎山</name>
    <trkseg>
      <trkpt lat="28.120202" lon="116.976478"><ele>66</ele><time>2025-05-17T00:32:16Z</time></trkpt>
      <trkpt lat="28.119826" lon="116.976538"><ele>64</ele><time>2025-05-17T00:32:47Z</time></trkpt>
      <trkpt lat="28.11917" lon="116.976436"><ele>63</ele><time>2025-05-17T00:33:42Z</time></trkpt>
      <trkpt lat="28.118814" lon="116.976286"><ele>64</ele><time>2025-05-17T00:34:10Z</time></trkpt>
      <trkpt lat="28.118789" lon="116.976078"><ele>63</ele><time>2025-05-17T00:34:53Z</time></trkpt>
      <trkpt lat="28.118542" lon="116.975897"><ele>63</ele><time>2025-05-17T00:35:12Z</time></trkpt>
      <trkpt lat="28.118171" lon="116.975959"><ele>61</ele><time>2025-05-17T00:37:33Z</time></trkpt>
      <trkpt lat="28.117824" lon="116.976195"><ele>62</ele><time>2025-05-17T00:37:53Z</time></trkpt>
      <trkpt lat="28.112753" lon="116.975099"><ele>67</ele><time>2025-05-17T00:38:55Z</time></trkpt>
      <trkpt lat="28.096063" lon="116.96926"><ele>100</ele><time>2025-05-17T00:46:47Z</time></trkpt>
      <trkpt lat="28.095998" lon="116.969548"><ele>110</ele><time>2025-05-17T00:47:46Z</time></trkpt>
      <trkpt lat="28.096083" lon="116.969592"><ele>118</ele><time>2025-05-17T00:48:14Z</time></trkpt>
      <trkpt lat="28.096534" lon="116.969478"><ele>129</ele><time>2025-05-17T00:49:36Z</time></trkpt>
      <trkpt lat="28.096579" lon="116.969389"><ele>127</ele><time>2025-05-17T00:49:55Z</time></trkpt>
      <trkpt lat="28.096637" lon="116.969471"><ele>127</ele><time>2025-05-17T00:50:02Z</time></trkpt>
      <trkpt lat="28.096911" lon="116.969546"><ele>126</ele><time>2025-05-17T00:52:06Z</time></trkpt>
      <trkpt lat="28.09686" lon="116.969742"><ele>126</ele><time>2025-05-17T00:52:27Z</time></trkpt>
      <trkpt lat="28.096713" lon="116.969875"><ele>130</ele><time>2025-05-17T00:52:50Z</time></trkpt>
      <trkpt lat="28.096869" lon="116.969804"><ele>127</ele><time>2025-05-17T00:53:15Z</time></trkpt>
      <trkpt lat="28.096929" lon="116.969599"><ele>126</ele><time>2025-05-17T00:53:47Z</time></trkpt>
      <trkpt lat="28.096888" lon="116.969499"><ele>126</ele><time>2025-05-17T00:53:55Z</time></trkpt>
      <trkpt lat="28.096795" lon="116.969469"><ele>126</ele><time>2025-05-17T00:54:04Z</time></trkpt>
      <trkpt lat="28.096318" lon="116.969519"><ele>125</ele><time>2025-05-17T00:55:26Z</time></trkpt>
      <trkpt lat="28.096059" lon="116.969632"><ele>115</ele><time>2025-05-17T00:56:15Z</time></trkpt>
      <trkpt lat="28.095934" lon="116.969483"><ele>108</ele><time>2025-05-17T00:56:37Z</time></trkpt>
      <trkpt lat="28.096021" lon="116.969538"><ele>105</ele><time>2025-05-17T00:56:55Z</time></trkpt>
      <trkpt lat="28.096103" lon="116.969477"><ele>100</ele><time>2025-05-17T00:57:05Z</time></trkpt>
      <trkpt lat="28.09616" lon="116.969084"><ele>90</ele><time>2025-05-17T00:58:00Z</time></trkpt>
      <trkpt lat="28.096523" lon="116.968756"><ele>83</ele><time>2025-05-17T00:58:49Z</time></trkpt>
      <trkpt lat="28.09668" lon="116.968493"><ele>80</ele><time>2025-05-17T00:59:18Z</time></trkpt>
      <trkpt lat="28.096035" lon="116.968302"><ele>80</ele><time>2025-05-17T01:00:32Z</time></trkpt>
      <trkpt lat="28.095479" lon="116.968448"><ele>82</ele><time>2025-05-17T01:01:25Z</time></trkpt>
      <trkpt lat="28.095302" lon="116.968418"><ele>84</ele><time>2025-05-17T01:01:41Z</time></trkpt>
      <trkpt lat="28.095245" lon="116.96832"><ele>88</ele><time>2025-05-17T01:01:59Z</time></trkpt>
      <trkpt lat="28.095292" lon="116.968232"><ele>95</ele><time>2025-05-17T01:02:38Z</time></trkpt>
      <trkpt lat="28.095381" lon="116.968258"><ele>93</ele><time>2025-05-17T01:02:48Z</time></trkpt>
      <trkpt lat="28.095373" lon="116.968154"><ele>99</ele><time>2025-05-17T01:03:32Z</time></trkpt>
      <trkpt lat="28.095637" lon="116.96802"><ele>110</ele><time>2025-05-17T01:04:27Z</time></trkpt>
      <trkpt lat="28.095254" lon="116.967932"><ele>119</ele><time>2025-05-17T01:06:14Z</time></trkpt>
      <trkpt lat="28.095275" lon="116.967824"><ele>122</ele><time>2025-05-17T01:06:43Z</time></trkpt>
      <trkpt lat="28.094812" lon="116.967948"><ele>117</ele><time>2025-05-17T01:07:39Z</time></trkpt>
      <trkpt lat="28.094828" lon="116.968051"><ele>118</ele><time>2025-05-17T01:07:55Z</time></trkpt>
      <trkpt lat="28.094774" lon="116.967967"><ele>116</ele><time>2025-05-17T01:08:30Z</time></trkpt>
      <trkpt lat="28.094406" lon="116.967924"><ele>115</ele><time>2025-05-17T01:09:07Z</time></trkpt>
      <trkpt lat="28.094082" lon="116.968126"><ele>106</ele><time>2025-05-17T01:10:12Z</time></trkpt>
      <trkpt lat="28.09396" lon="116.968291"><ele>98</ele><time>2025-05-17T01:10:47Z</time></trkpt>
      <trkpt lat="28.094153" lon="116.968235"><ele>91</ele><time>2025-05-17T01:11:25Z</time></trkpt>
      <trkpt lat="28.094518" lon="116.968365"><ele>97</ele><time>2025-05-17T01:12:05Z</time></trkpt>
      <trkpt lat="28.095103" lon="116.968349"><ele>92</ele><time>2025-05-17T01:12:56Z</time></trkpt>
      <trkpt lat="28.095384" lon="116.968429"><ele>88</ele><time>2025-05-17T01:13:20Z</time></trkpt>
      <trkpt lat="28.095666" lon="116.968391"><ele>86</ele><time>2025-05-17T01:13:43Z</time></trkpt>
      <trkpt lat="28.095832" lon="116.968284"><ele>84</ele><time>2025-05-17T01:14:00Z</time></trkpt>
      <trkpt lat="28.096022" lon="116.968291"><ele>82</ele><time>2025-05-17T01:14:16Z</time></trkpt>
      <trkpt lat="28.0966" lon="116.968433"><ele>82</ele><time>2025-05-17T01:15:05Z</time></trkpt>
      <trkpt lat="28.096756" lon="116.968537"><ele>84</ele><time>2025-05-17T01:15:22Z</time></trkpt>
      <trkpt lat="28.096847" lon="116.968524"><ele>81</ele><time>2025-05-17T01:15:34Z</time></trkpt>
      <trkpt lat="28.096833" lon="116.96832"><ele>82</ele><time>2025-05-17T01:15:52Z</time></trkpt>
      <trkpt lat="28.097214" lon="116.967807"><ele>83</ele><time>2025-05-17T01:16:46Z</time></trkpt>
      <trkpt lat="28.097321" lon="116.967831"><ele>81</ele><time>2025-05-17T01:17:05Z</time></trkpt>
      <trkpt lat="28.097223" lon="116.967823"><ele>104</ele><time>2025-05-17T01:19:57Z</time></trkpt>
      <trkpt lat="28.097268" lon="116.968041"><ele>90</ele><time>2025-05-17T01:22:38Z</time></trkpt>
      <trkpt lat="28.09731" lon="116.96795"><ele>90</ele><time>2025-05-17T01:22:43Z</time></trkpt>
      <trkpt lat="28.097271" lon="116.967848"><ele>92</ele><time>2025-05-17T01:22:52Z</time></trkpt>
      <trkpt lat="28.097085" lon="116.967903"><ele>84</ele><time>2025-05-17T01:23:24Z</time></trkpt>
      <trkpt lat="28.096645" lon="116.967185"><ele>77</ele><time>2025-05-17T01:24:31Z</time></trkpt>
      <trkpt lat="28.096171" lon="116.967243"><ele>80</ele><time>2025-05-17T01:25:12Z</time></trkpt>
      <trkpt lat="28.095532" lon="116.966976"><ele>86</ele><time>2025-05-17T01:26:11Z</time></trkpt>
      <trkpt lat="28.095212" lon="116.966323"><ele>94</ele><time>2025-05-17T01:27:09Z</time></trkpt>
      <trkpt lat="28.094275" lon="116.9649"><ele>95</ele><time>2025-05-17T01:29:20Z</time></trkpt>
      <trkpt lat="28.093018" lon="116.964132"><ele>88</ele><time>2025-05-17T01:31:46Z</time></trkpt>
      <trkpt lat="28.092829" lon="116.964129"><ele>90</ele><time>2025-05-17T01:32:02Z</time></trkpt>
      <trkpt lat="28.092456" lon="116.964256"><ele>94</ele><time>2025-05-17T01:32:36Z</time></trkpt>
      <trkpt lat="28.092095" lon="116.964209"><ele>88</ele><time>2025-05-17T01:33:23Z</time></trkpt>
      <trkpt lat="28.091842" lon="116.96435"><ele>87</ele><time>2025-05-17T01:33:48Z</time></trkpt>
      <trkpt lat="28.090393" lon="116.964566"><ele>97</ele><time>2025-05-17T01:35:51Z</time></trkpt>
      <trkpt lat="28.089531" lon="116.964467"><ele>92</ele><time>2025-05-17T01:37:05Z</time></trkpt>
      <trkpt lat="28.088571" lon="116.964575"><ele>87</ele><time>2025-05-17T01:38:26Z</time></trkpt>
      <trkpt lat="28.087624" lon="116.965084"><ele>75</ele><time>2025-05-17T01:39:57Z</time></trkpt>
      <trkpt lat="28.087351" lon="116.965181"><ele>76</ele><time>2025-05-17T01:40:20Z</time></trkpt>
      <trkpt lat="28.086854" lon="116.965213"><ele>78</ele><time>2025-05-17T01:41:02Z</time></trkpt>
      <trkpt lat="28.086601" lon="116.96536"><ele>72</ele><time>2025-05-17T01:41:27Z</time></trkpt>
      <trkpt lat="28.08658" lon="116.965677"><ele>71</ele><time>2025-05-17T01:41:56Z</time></trkpt>
      <trkpt lat="28.086305" lon="116.965967"><ele>72</ele><time>2025-05-17T01:42:37Z</time></trkpt>
      <trkpt lat="28.086205" lon="116.965764"><ele>74</ele><time>2025-05-17T01:43:39Z</time></trkpt>
      <trkpt lat="28.085822" lon="116.965672"><ele>80</ele><time>2025-05-17T01:44:12Z</time></trkpt>
      <trkpt lat="28.084603" lon="116.965043"><ele>83</ele><time>2025-05-17T01:46:01Z</time></trkpt>
      <trkpt lat="28.084429" lon="116.964981"><ele>85</ele><time>2025-05-17T01:46:15Z</time></trkpt>
      <trkpt lat="28.084037" lon="116.964985"><ele>84</ele><time>2025-05-17T01:46:45Z</time></trkpt>
      <trkpt lat="28.083872" lon="116.964617"><ele>82</ele><time>2025-05-17T01:47:19Z</time></trkpt>
      <trkpt lat="28.083571" lon="116.96436"><ele>79</ele><time>2025-05-17T01:47:52Z</time></trkpt>
      <trkpt lat="28.083328" lon="116.964018"><ele>76</ele><time>2025-05-17T01:48:25Z</time></trkpt>
      <trkpt lat="28.083223" lon="116.963833"><ele>75</ele><time>2025-05-17T01:48:42Z</time></trkpt>
      <trkpt lat="28.083207" lon="116.963617"><ele>77</ele><time>2025-05-17T01:48:57Z</time></trkpt>
      <trkpt lat="28.083476" lon="116.963303"><ele>69</ele><time>2025-05-17T01:49:34Z</time></trkpt>
      <trkpt lat="28.083715" lon="116.963133"><ele>67</ele><time>2025-05-17T01:50:05Z</time></trkpt>
      <trkpt lat="28.083881" lon="116.962869"><ele>67</ele><time>2025-05-17T01:50:38Z</time></trkpt>
      <trkpt lat="28.084119" lon="116.962725"><ele>66</ele><time>2025-05-17T01:51:14Z</time></trkpt>
      <trkpt lat="28.083893" lon="116.962387"><ele>68</ele><time>2025-05-17T01:57:03Z</time></trkpt>
      <trkpt lat="28.083898" lon="116.962561"><ele>66</ele><time>2025-05-17T01:58:37Z</time></trkpt>
      <trkpt lat="28.083832" lon="116.962638"><ele>67</ele><time>2025-05-17T01:58:46Z</time></trkpt>
      <trkpt lat="28.083986" lon="116.962571"><ele>67</ele><time>2025-05-17T01:59:17Z</time></trkpt>
      <trkpt lat="28.08403" lon="116.962676"><ele>66</ele><time>2025-05-17T01:59:25Z</time></trkpt>
      <trkpt lat="28.084" lon="116.962783"><ele>67</ele><time>2025-05-17T01:59:36Z</time></trkpt>
      <trkpt lat="28.083849" lon="116.962908"><ele>68</ele><time>2025-05-17T01:59:53Z</time></trkpt>
      <trkpt lat="28.083695" lon="116.963179"><ele>67</ele><time>2025-05-17T02:00:16Z</time></trkpt>
      <trkpt lat="28.083308" lon="116.963524"><ele>72</ele><time>2025-05-17T02:00:56Z</time></trkpt>
      <trkpt lat="28.083211" lon="116.963808"><ele>78</ele><time>2025-05-17T02:01:19Z</time></trkpt>
      <trkpt lat="28.082569" lon="116.964442"><ele>73</ele><time>2025-05-17T02:02:55Z</time></trkpt>
      <trkpt lat="28.081426" lon="116.964683"><ele>71</ele><time>2025-05-17T02:03:36Z</time></trkpt>
      <trkpt lat="28.081291" lon="116.964665"><ele>70</ele><time>2025-05-17T02:03:38Z</time></trkpt>
      <trkpt lat="28.080659" lon="116.964099"><ele>66</ele><time>2025-05-17T02:03:50Z</time></trkpt>
      <trkpt lat="28.080386" lon="116.964006"><ele>65</ele><time>2025-05-17T02:03:55Z</time></trkpt>
      <trkpt lat="28.0656" lon="116.979429"><ele>71</ele><time>2025-05-17T02:09:49Z</time></trkpt>
      <trkpt lat="28.065884" lon="116.978885"><ele>72</ele><time>2025-05-17T02:10:59Z</time></trkpt>
      <trkpt lat="28.066036" lon="116.978766"><ele>73</ele><time>2025-05-17T02:11:20Z</time></trkpt>
      <trkpt lat="28.066137" lon="116.978763"><ele>71</ele><time>2025-05-17T02:11:38Z</time></trkpt>
      <trkpt lat="28.066561" lon="116.9792"><ele>70</ele><time>2025-05-17T02:12:52Z</time></trkpt>
      <trkpt lat="28.066645" lon="116.979263"><ele>72</ele><time>2025-05-17T02:13:06Z</time></trkpt>
      <trkpt lat="28.066612" lon="116.979167"><ele>74</ele><time>2025-05-17T02:13:29Z</time></trkpt>
      <trkpt lat="28.066968" lon="116.979678"><ele>76</ele><time>2025-05-17T02:14:40Z</time></trkpt>
      <trkpt lat="28.067128" lon="116.979752"><ele>78</ele><time>2025-05-17T02:15:18Z</time></trkpt>
      <trkpt lat="28.067065" lon="116.979653"><ele>77</ele><time>2025-05-17T02:15:32Z</time></trkpt>
      <trkpt lat="28.066881" lon="116.979731"><ele>75</ele><time>2025-05-17T02:16:01Z</time></trkpt>
      <trkpt lat="28.066906" lon="116.979943"><ele>76</ele><time>2025-05-17T02:16:40Z</time></trkpt>
      <trkpt lat="28.067226" lon="116.980159"><ele>78</ele><time>2025-05-17T02:17:32Z</time></trkpt>
      <trkpt lat="28.067388" lon="116.980083"><ele>78</ele><time>2025-05-17T02:17:57Z</time></trkpt>
      <trkpt lat="28.067471" lon="116.979786"><ele>74</ele><time>2025-05-17T02:18:25Z</time></trkpt>
      <trkpt lat="28.067124" lon="116.979292"><ele>74</ele><time>2025-05-17T02:19:23Z</time></trkpt>
      <trkpt lat="28.066883" lon="116.979131"><ele>72</ele><time>2025-05-17T02:19:52Z</time></trkpt>
      <trkpt lat="28.066732" lon="116.979242"><ele>71</ele><time>2025-05-17T02:20:11Z</time></trkpt>
      <trkpt lat="28.066756" lon="116.979445"><ele>72</ele><time>2025-05-17T02:20:35Z</time></trkpt>
      <trkpt lat="28.066651" lon="116.979625"><ele>71</ele><time>2025-05-17T02:21:04Z</time></trkpt>
      <trkpt lat="28.06672" lon="116.979526"><ele>72</ele><time>2025-05-17T02:21:57Z</time></trkpt>
      <trkpt lat="28.066814" lon="116.979525"><ele>69</ele><time>2025-05-17T02:23:16Z</time></trkpt>
      <trkpt lat="28.066669" lon="116.979655"><ele>69</ele><time>2025-05-17T02:24:18Z</time></trkpt>
      <trkpt lat="28.06677" lon="116.979465"><ele>74</ele><time>2025-05-17T02:26:01Z</time></trkpt>
      <trkpt lat="28.066675" lon="116.979269"><ele>72</ele><time>2025-05-17T02:26:41Z</time></trkpt>
      <trkpt lat="28.066243" lon="116.97885"><ele>68</ele><time>2025-05-17T02:27:43Z</time></trkpt>
      <trkpt lat="28.066071" lon="116.978761"><ele>70</ele><time>2025-05-17T02:28:01Z</time></trkpt>
      <trkpt lat="28.065906" lon="116.978878"><ele>70</ele><time>2025-05-17T02:28:21Z</time></trkpt>
      <trkpt lat="28.065721" lon="116.979265"><ele>70</ele><time>2025-05-17T02:28:54Z</time></trkpt>
      <trkpt lat="28.065709" lon="116.97916"><ele>69</ele><time>2025-05-17T02:29:43Z</time></trkpt>
      <trkpt lat="28.065853" lon="116.978837"><ele>69</ele><time>2025-05-17T02:29:53Z</time></trkpt>
      <trkpt lat="28.06601" lon="116.978683"><ele>70</ele><time>2025-05-17T02:29:58Z</time></trkpt>
      <trkpt lat="28.096781" lon="116.968417"><ele>75</ele><time>2025-05-17T02:40:32Z</time></trkpt>
      <trkpt lat="28.096541" lon="116.968737"><ele>80</ele><time>2025-05-17T02:41:21Z</time></trkpt>
      <trkpt lat="28.096165" lon="116.969041"><ele>84</ele><time>2025-05-17T02:42:34Z</time></trkpt>
      <trkpt lat="28.096104" lon="116.969232"><ele>97</ele><time>2025-05-17T02:43:18Z</time></trkpt>
      <trkpt lat="28.096132" lon="116.96933"><ele>105</ele><time>2025-05-17T02:43:37Z</time></trkpt>
      <trkpt lat="28.09606" lon="116.969405"><ele>106</ele><time>2025-05-17T02:43:55Z</time></trkpt>
      <trkpt lat="28.095777" lon="116.969459"><ele>110</ele><time>2025-05-17T02:44:13Z</time></trkpt>
      <trkpt lat="28.096089" lon="116.969614"><ele>118</ele><time>2025-05-17T02:44:56Z</time></trkpt>
      <trkpt lat="28.096458" lon="116.969511"><ele>126</ele><time>2025-05-17T02:46:04Z</time></trkpt>
      <trkpt lat="28.096834" lon="116.969492"><ele>125</ele><time>2025-05-17T02:46:54Z</time></trkpt>
      <trkpt lat="28.096915" lon="116.969661"><ele>129</ele><time>2025-05-17T02:47:14Z</time></trkpt>
      <trkpt lat="28.096722" lon="116.969892"><ele>131</ele><time>2025-05-17T02:47:44Z</time></trkpt>
      <trkpt lat="28.098044" lon="116.97008"><ele>128</ele><time>2025-05-17T02:49:43Z</time></trkpt>
      <trkpt lat="28.098191" lon="116.970213"><ele>128</ele><time>2025-05-17T02:50:12Z</time></trkpt>
      <trkpt lat="28.098267" lon="116.970416"><ele>127</ele><time>2025-05-17T02:50:43Z</time></trkpt>
      <trkpt lat="28.098242" lon="116.970521"><ele>123</ele><time>2025-05-17T02:50:55Z</time></trkpt>
      <trkpt lat="28.098009" lon="116.97069"><ele>128</ele><time>2025-05-17T02:51:34Z</time></trkpt>
      <trkpt lat="28.09775" lon="116.970997"><ele>129</ele><time>2025-05-17T02:52:10Z</time></trkpt>
      <trkpt lat="28.097664" lon="116.971029"><ele>128</ele><time>2025-05-17T02:52:18Z</time></trkpt>
      <trkpt lat="28.097585" lon="116.970967"><ele>126</ele><time>2025-05-17T02:52:27Z</time></trkpt>
      <trkpt lat="28.097542" lon="116.971175"><ele>125</ele><time>2025-05-17T02:53:10Z</time></trkpt>
      <trkpt lat="28.097355" lon="116.971409"><ele>127</ele><time>2025-05-17T02:53:33Z</time></trkpt>
      <trkpt lat="28.097108" lon="116.971554"><ele>127</ele><time>2025-05-17T02:53:58Z</time></trkpt>
      <trkpt lat="28.09707" lon="116.971649"><ele>128</ele><time>2025-05-17T02:54:12Z</time></trkpt>
      <trkpt lat="28.097162" lon="116.971639"><ele>133</ele><time>2025-05-17T02:54:27Z</time></trkpt>
      <trkpt lat="28.097493" lon="116.971842"><ele>128</ele><time>2025-05-17T02:55:26Z</time></trkpt>
      <trkpt lat="28.097477" lon="116.971725"><ele>129</ele><time>2025-05-17T02:55:43Z</time></trkpt>
      <trkpt lat="28.097677" lon="116.971693"><ele>126</ele><time>2025-05-17T02:55:55Z</time></trkpt>
      <trkpt lat="28.097889" lon="116.971476"><ele>126</ele><time>2025-05-17T02:56:36Z</time></trkpt>
      <trkpt lat="28.098638" lon="116.970963"><ele>116</ele><time>2025-05-17T02:57:59Z</time></trkpt>
      <trkpt lat="28.098907" lon="116.970525"><ele>118</ele><time>2025-05-17T02:58:45Z</time></trkpt>
      <trkpt lat="28.099001" lon="116.97048"><ele>119</ele><time>2025-05-17T02:58:53Z</time></trkpt>
      <trkpt lat="28.099418" lon="116.970747"><ele>117</ele><time>2025-05-17T02:59:37Z</time></trkpt>
      <trkpt lat="28.099515" lon="116.970931"><ele>119</ele><time>2025-05-17T02:59:55Z</time></trkpt>
      <trkpt lat="28.099489" lon="116.971254"><ele>120</ele><time>2025-05-17T03:00:20Z</time></trkpt>
      <trkpt lat="28.099283" lon="116.971971"><ele>120</ele><time>2025-05-17T03:01:19Z</time></trkpt>
      <trkpt lat="28.099458" lon="116.971865"><ele>119</ele><time>2025-05-17T03:01:34Z</time></trkpt>
      <trkpt lat="28.099657" lon="116.971501"><ele>117</ele><time>2025-05-17T03:02:08Z</time></trkpt>
      <trkpt lat="28.099847" lon="116.971463"><ele>114</ele><time>2025-05-17T03:02:23Z</time></trkpt>
      <trkpt lat="28.100032" lon="116.971518"><ele>114</ele><time>2025-05-17T03:02:39Z</time></trkpt>
      <trkpt lat="28.10026" lon="116.971699"><ele>113</ele><time>2025-05-17T03:03:04Z</time></trkpt>
      <trkpt lat="28.100448" lon="116.971954"><ele>109</ele><time>2025-05-17T03:03:38Z</time></trkpt>
      <trkpt lat="28.100833" lon="116.971926"><ele>102</ele><time>2025-05-17T03:04:18Z</time></trkpt>
      <trkpt lat="28.100923" lon="116.971971"><ele>102</ele><time>2025-05-17T03:04:31Z</time></trkpt>
      <trkpt lat="28.101316" lon="116.972432"><ele>98</ele><time>2025-05-17T03:05:18Z</time></trkpt>
      <trkpt lat="28.101411" lon="116.972437"><ele>95</ele><time>2025-05-17T03:05:25Z</time></trkpt>
      <trkpt lat="28.101896" lon="116.972079"><ele>102</ele><time>2025-05-17T03:06:15Z</time></trkpt>
      <trkpt lat="28.102284" lon="116.972171"><ele>120</ele><time>2025-05-17T03:07:28Z</time></trkpt>
      <trkpt lat="28.10244" lon="116.972451"><ele>130</ele><time>2025-05-17T03:08:04Z</time></trkpt>
      <trkpt lat="28.102743" lon="116.972674"><ele>138</ele><time>2025-05-17T03:09:25Z</time></trkpt>
      <trkpt lat="28.102808" lon="116.972887"><ele>131</ele><time>2025-05-17T03:09:50Z</time></trkpt>
      <trkpt lat="28.103437" lon="116.973134"><ele>124</ele><time>2025-05-17T03:10:49Z</time></trkpt>
      <trkpt lat="28.103897" lon="116.973164"><ele>119</ele><time>2025-05-17T03:11:49Z</time></trkpt>
      <trkpt lat="28.104186" lon="116.973255"><ele>119</ele><time>2025-05-17T03:12:16Z</time></trkpt>
      <trkpt lat="28.104334" lon="116.973379"><ele>118</ele><time>2025-05-17T03:12:34Z</time></trkpt>
      <trkpt lat="28.104354" lon="116.973484"><ele>118</ele><time>2025-05-17T03:12:46Z</time></trkpt>
      <trkpt lat="28.104441" lon="116.97352"><ele>117</ele><time>2025-05-17T03:12:51Z</time></trkpt>
      <trkpt lat="28.104541" lon="116.973703"><ele>121</ele><time>2025-05-17T03:13:09Z</time></trkpt>
      <trkpt lat="28.104732" lon="116.97367"><ele>120</ele><time>2025-05-17T03:13:37Z</time></trkpt>
      <trkpt lat="28.105229" lon="116.973972"><ele>121</ele><time>2025-05-17T03:14:32Z</time></trkpt>
      <trkpt lat="28.105227" lon="116.974083"><ele>122</ele><time>2025-05-17T03:14:41Z</time></trkpt>
      <trkpt lat="28.105158" lon="116.974156"><ele>124</ele><time>2025-05-17T03:14:51Z</time></trkpt>
      <trkpt lat="28.10519" lon="116.974258"><ele>121</ele><time>2025-05-17T03:15:00Z</time></trkpt>
      <trkpt lat="28.105081" lon="116.974433"><ele>122</ele><time>2025-05-17T03:15:16Z</time></trkpt>
      <trkpt lat="28.105064" lon="116.974636"><ele>125</ele><time>2025-05-17T03:15:31Z</time></trkpt>
      <trkpt lat="28.104903" lon="116.97491"><ele>125</ele><time>2025-05-17T03:16:03Z</time></trkpt>
      <trkpt lat="28.104848" lon="116.975223"><ele>129</ele><time>2025-05-17T03:16:29Z</time></trkpt>
      <trkpt lat="28.104627" lon="116.975553"><ele>123</ele><time>2025-05-17T03:16:58Z</time></trkpt>
      <trkpt lat="28.104498" lon="116.975578"><ele>121</ele><time>2025-05-17T03:17:02Z</time></trkpt>
      <trkpt lat="28.104423" lon="116.975731"><ele>117</ele><time>2025-05-17T03:17:18Z</time></trkpt>
      <trkpt lat="28.104512" lon="116.975706"><ele>117</ele><time>2025-05-17T03:17:23Z</time></trkpt>
      <trkpt lat="28.10453" lon="116.975588"><ele>118</ele><time>2025-05-17T03:17:29Z</time></trkpt>
      <trkpt lat="28.104716" lon="116.975304"><ele>118</ele><time>2025-05-17T03:17:54Z</time></trkpt>
      <trkpt lat="28.104817" lon="116.975315"><ele>121</ele><time>2025-05-17T03:17:59Z</time></trkpt>
      <trkpt lat="28.10515" lon="116.974934"><ele>117</ele><time>2025-05-17T03:18:45Z</time></trkpt>
      <trkpt lat="28.105514" lon="116.974761"><ele>116</ele><time>2025-05-17T03:19:17Z</time></trkpt>
      <trkpt lat="28.105617" lon="116.974784"><ele>116</ele><time>2025-05-17T03:19:26Z</time></trkpt>
      <trkpt lat="28.105662" lon="116.974883"><ele>112</ele><time>2025-05-17T03:19:34Z</time></trkpt>
      <trkpt lat="28.105915" lon="116.974746"><ele>110</ele><time>2025-05-17T03:20:02Z</time></trkpt>
      <trkpt lat="28.10621" lon="116.974477"><ele>112</ele><time>2025-05-17T03:20:41Z</time></trkpt>
      <trkpt lat="28.106266" lon="116.974687"><ele>110</ele><time>2025-05-17T03:20:58Z</time></trkpt>
      <trkpt lat="28.106182" lon="116.975105"><ele>106</ele><time>2025-05-17T03:21:37Z</time></trkpt>
      <trkpt lat="28.106251" lon="116.975302"><ele>107</ele><time>2025-05-17T03:21:57Z</time></trkpt>
      <trkpt lat="28.10617" lon="116.975728"><ele>105</ele><time>2025-05-17T03:22:28Z</time></trkpt>
      <trkpt lat="28.106291" lon="116.975571"><ele>107</ele><time>2025-05-17T03:23:05Z</time></trkpt>
      <trkpt lat="28.106624" lon="116.975823"><ele>106</ele><time>2025-05-17T03:23:35Z</time></trkpt>
      <trkpt lat="28.106997" lon="116.975792"><ele>108</ele><time>2025-05-17T03:24:07Z</time></trkpt>
      <trkpt lat="28.107183" lon="116.975847"><ele>112</ele><time>2025-05-17T03:24:48Z</time></trkpt>
      <trkpt lat="28.107293" lon="116.975558"><ele>103</ele><time>2025-05-17T03:25:31Z</time></trkpt>
      <trkpt lat="28.107279" lon="116.975341"><ele>97</ele><time>2025-05-17T03:25:56Z</time></trkpt>
      <trkpt lat="28.107836" lon="116.97496"><ele>78</ele><time>2025-05-17T03:27:18Z</time></trkpt>
      <trkpt lat="28.107818" lon="116.974639"><ele>77</ele><time>2025-05-17T03:27:44Z</time></trkpt>
      <trkpt lat="28.107696" lon="116.974249"><ele>75</ele><time>2025-05-17T03:28:19Z</time></trkpt>
      <trkpt lat="28.107796" lon="116.974061"><ele>76</ele><time>2025-05-17T03:28:31Z</time></trkpt>
      <trkpt lat="28.107968" lon="116.973911"><ele>81</ele><time>2025-05-17T03:28:41Z</time></trkpt>
      <trkpt lat="28.108498" lon="116.973941"><ele>78</ele><time>2025-05-17T03:29:05Z</time></trkpt>
      <trkpt lat="28.109248" lon="116.97382"><ele>74</ele><time>2025-05-17T03:29:15Z</time></trkpt>
      <trkpt lat="28.109697" lon="116.973893"><ele>74</ele><time>2025-05-17T03:29:20Z</time></trkpt>
      <trkpt lat="28.110328" lon="116.974153"><ele>74</ele><time>2025-05-17T03:29:27Z</time></trkpt>
      <trkpt lat="28.110978" lon="116.974718"><ele>73</ele><time>2025-05-17T03:29:36Z</time></trkpt>
      <trkpt lat="28.112418" lon="116.975082"><ele>68</ele><time>2025-05-17T03:29:56Z</time></trkpt>
    </trkseg>
  </trk>
</gpx>
