<?xml version="1.0" encoding="UTF-8"?>
<gpx version="1.1" creator="MyWorld" xmlns="http://www.topografix.com/GPX/1/1">
  <metadata><name>杭州马岭古道</name></metadata>
  <trk>
    <name>杭州马岭古道</name>
    <trkseg>
      <trkpt lat="29.645788" lon="119.720341"><ele>125</ele><time>2025-08-03T01:27:40Z</time></trkpt>
      <trkpt lat="29.645961" lon="119.720229"><ele>128</ele><time>2025-08-03T01:28:01Z</time></trkpt>
      <trkpt lat="29.646315" lon="119.719705"><ele>131</ele><time>2025-08-03T01:28:56Z</time></trkpt>
      <trkpt lat="29.646384" lon="119.719509"><ele>130</ele><time>2025-08-03T01:29:12Z</time></trkpt>
      <trkpt lat="29.646309" lon="119.719201"><ele>126</ele><time>2025-08-03T01:29:42Z</time></trkpt>
      <trkpt lat="29.646483" lon="119.718931"><ele>126</ele><time>2025-08-03T01:30:07Z</time></trkpt>
      <trkpt lat="29.646697" lon="119.717977"><ele>129</ele><time>2025-08-03T01:31:18Z</time></trkpt>
      <trkpt lat="29.646719" lon="119.71731"><ele>125</ele><time>2025-08-03T01:32:06Z</time></trkpt>
      <trkpt lat="29.646935" lon="119.717098"><ele>126</ele><time>2025-08-03T01:32:32Z</time></trkpt>
      <trkpt lat="29.647403" lon="119.717029"><ele>131</ele><time>2025-08-03T01:33:12Z</time></trkpt>
      <trkpt lat="29.647336" lon="119.716831"><ele>130</ele><time>2025-08-03T01:33:30Z</time></trkpt>
      <trkpt lat="29.647058" lon="119.716818"><ele>129</ele><time>2025-08-03T01:33:55Z</time></trkpt>
      <trkpt lat="29.646699" lon="119.716669"><ele>129</ele><time>2025-08-03T01:34:28Z</time></trkpt>
      <trkpt lat="29.646545" lon="119.716532"><ele>126</ele><time>2025-08-03T01:34:45Z</time></trkpt>
      <trkpt lat="29.646888" lon="119.715745"><ele>126</ele><time>2025-08-03T01:35:48Z</time></trkpt>
      <trkpt lat="29.647747" lon="119.715647"><ele>128</ele><time>2025-08-03T01:37:10Z</time></trkpt>
      <trkpt lat="29.648228" lon="119.715772"><ele>129</ele><time>2025-08-03T01:38:02Z</time></trkpt>
      <trkpt lat="29.648508" lon="119.715479"><ele>125</ele><time>2025-08-03T01:38:37Z</time></trkpt>
      <trkpt lat="29.649068" lon="119.715382"><ele>126</ele><time>2025-08-03T01:39:29Z</time></trkpt>
      <trkpt lat="29.649337" lon="119.715442"><ele>126</ele><time>2025-08-03T01:39:54Z</time></trkpt>
      <trkpt lat="29.64965" lon="119.715683"><ele>129</ele><time>2025-08-03T01:40:25Z</time></trkpt>
      <trkpt lat="29.650021" lon="119.715784"><ele>130</ele><time>2025-08-03T01:40:59Z</time></trkpt>
      <trkpt lat="29.650489" lon="119.716169"><ele>129</ele><time>2025-08-03T01:41:47Z</time></trkpt>
      <trkpt lat="29.650778" lon="119.716185"><ele>124</ele><time>2025-08-03T01:42:10Z</time></trkpt>
      <trkpt lat="29.651343" lon="119.71605"><ele>122</ele><time>2025-08-03T01:42:55Z</time></trkpt>
      <trkpt lat="29.651621" lon="119.716115"><ele>122</ele><time>2025-08-03T01:43:19Z</time></trkpt>
      <trkpt lat="29.651834" lon="119.715755"><ele>122</ele><time>2025-08-03T01:44:23Z</time></trkpt>
      <trkpt lat="29.652266" lon="119.715517"><ele>120</ele><time>2025-08-03T01:45:11Z</time></trkpt>
      <trkpt lat="29.652304" lon="119.715087"><ele>122</ele><time>2025-08-03T01:45:51Z</time></trkpt>
      <trkpt lat="29.652484" lon="119.714821"><ele>120</ele><time>2025-08-03T01:46:21Z</time></trkpt>
      <trkpt lat="29.652831" lon="119.714961"><ele>124</ele><time>2025-08-03T01:46:56Z</time></trkpt>
      <trkpt lat="29.652921" lon="119.714906"><ele>127</ele><time>2025-08-03T01:47:06Z</time></trkpt>
      <trkpt lat="29.652789" lon="119.714743"><ele>123</ele><time>2025-08-03T01:47:31Z</time></trkpt>
      <trkpt lat="29.652679" lon="119.714439"><ele>122</ele><time>2025-08-03T01:47:57Z</time></trkpt>
      <trkpt lat="29.652717" lon="119.714128"><ele>121</ele><time>2025-08-03T01:48:20Z</time></trkpt>
      <trkpt lat="29.652933" lon="119.713625"><ele>122</ele><time>2025-08-03T01:49:03Z</time></trkpt>
      <trkpt lat="29.65309" lon="119.713515"><ele>121</ele><time>2025-08-03T01:49:21Z</time></trkpt>
      <trkpt lat="29.653276" lon="119.713484"><ele>122</ele><time>2025-08-03T01:49:37Z</time></trkpt>
      <trkpt lat="29.653349" lon="119.713169"><ele>123</ele><time>2025-08-03T01:50:04Z</time></trkpt>
      <trkpt lat="29.653525" lon="119.713103"><ele>125</ele><time>2025-08-03T01:50:20Z</time></trkpt>
      <trkpt lat="29.653558" lon="119.713006"><ele>127</ele><time>2025-08-03T01:50:33Z</time></trkpt>
      <trkpt lat="29.653172" lon="119.712704"><ele>122</ele><time>2025-08-03T01:51:11Z</time></trkpt>
      <trkpt lat="29.653138" lon="119.712607"><ele>121</ele><time>2025-08-03T01:51:19Z</time></trkpt>
      <trkpt lat="29.653038" lon="119.711847"><ele>123</ele><time>2025-08-03T01:52:17Z</time></trkpt>
      <trkpt lat="29.65309" lon="119.710986"><ele>118</ele><time>2025-08-03T01:53:58Z</time></trkpt>
      <trkpt lat="29.652918" lon="119.710901"><ele>112</ele><time>2025-08-03T01:54:28Z</time></trkpt>
      <trkpt lat="29.652872" lon="119.710807"><ele>103</ele><time>2025-08-03T01:54:49Z</time></trkpt>
      <trkpt lat="29.652769" lon="119.710807"><ele>102</ele><time>2025-08-03T01:54:57Z</time></trkpt>
      <trkpt lat="29.652718" lon="119.710498"><ele>100</ele><time>2025-08-03T01:55:23Z</time></trkpt>
      <trkpt lat="29.652768" lon="119.709945"><ele>100</ele><time>2025-08-03T01:56:04Z</time></trkpt>
      <trkpt lat="29.652899" lon="119.709519"><ele>101</ele><time>2025-08-03T01:56:38Z</time></trkpt>
      <trkpt lat="29.65299" lon="119.708758"><ele>100</ele><time>2025-08-03T01:57:35Z</time></trkpt>
      <trkpt lat="29.653278" lon="119.707953"><ele>102</ele><time>2025-08-03T01:58:39Z</time></trkpt>
      <trkpt lat="29.653493" lon="119.707729"><ele>100</ele><time>2025-08-03T01:59:03Z</time></trkpt>
      <trkpt lat="29.653932" lon="119.707569"><ele>98</ele><time>2025-08-03T02:00:40Z</time></trkpt>
      <trkpt lat="29.654075" lon="119.707419"><ele>99</ele><time>2025-08-03T02:00:55Z</time></trkpt>
      <trkpt lat="29.654259" lon="119.707022"><ele>101</ele><time>2025-08-03T02:01:29Z</time></trkpt>
      <trkpt lat="29.65425" lon="119.706916"><ele>101</ele><time>2025-08-03T02:01:37Z</time></trkpt>
      <trkpt lat="29.653849" lon="119.706607"><ele>100</ele><time>2025-08-03T02:02:16Z</time></trkpt>
      <trkpt lat="29.653252" lon="119.706282"><ele>99</ele><time>2025-08-03T02:03:11Z</time></trkpt>
      <trkpt lat="29.65298" lon="119.706228"><ele>99</ele><time>2025-08-03T02:03:44Z</time></trkpt>
      <trkpt lat="29.65317" lon="119.706241"><ele>97</ele><time>2025-08-03T02:04:12Z</time></trkpt>
      <trkpt lat="29.653773" lon="119.706572"><ele>98</ele><time>2025-08-03T02:05:38Z</time></trkpt>
      <trkpt lat="29.654009" lon="119.706758"><ele>99</ele><time>2025-08-03T02:06:02Z</time></trkpt>
      <trkpt lat="29.653974" lon="119.706853"><ele>98</ele><time>2025-08-03T02:06:26Z</time></trkpt>
      <trkpt lat="29.654019" lon="119.706954"><ele>100</ele><time>2025-08-03T02:06:35Z</time></trkpt>
      <trkpt lat="29.654226" lon="119.707018"><ele>100</ele><time>2025-08-03T02:06:55Z</time></trkpt>
      <trkpt lat="29.653993" lon="119.707008"><ele>102</ele><time>2025-08-03T02:08:39Z</time></trkpt>
      <trkpt lat="29.654078" lon="119.707069"><ele>101</ele><time>2025-08-03T02:08:54Z</time></trkpt>
      <trkpt lat="29.653975" lon="119.706995"><ele>93</ele><time>2025-08-03T02:09:53Z</time></trkpt>
      <trkpt lat="29.654106" lon="119.707074"><ele>96</ele><time>2025-08-03T02:09:55Z</time></trkpt>
      <trkpt lat="29.65391" lon="119.70714"><ele>101</ele><time>2025-08-03T02:10:20Z</time></trkpt>
      <trkpt lat="29.653864" lon="119.707049"><ele>101</ele><time>2025-08-03T02:10:58Z</time></trkpt>
      <trkpt lat="29.654052" lon="119.706809"><ele>101</ele><time>2025-08-03T02:11:22Z</time></trkpt>
      <trkpt lat="29.654223" lon="119.706746"><ele>99</ele><time>2025-08-03T02:11:39Z</time></trkpt>
      <trkpt lat="29.654505" lon="119.706783"><ele>97</ele><time>2025-08-03T02:14:56Z</time></trkpt>
      <trkpt lat="29.654818" lon="119.706523"><ele>98</ele><time>2025-08-03T02:15:33Z</time></trkpt>
      <trkpt lat="29.655349" lon="119.705737"><ele>99</ele><time>2025-08-03T02:16:45Z</time></trkpt>
      <trkpt lat="29.655631" lon="119.705429"><ele>100</ele><time>2025-08-03T02:17:17Z</time></trkpt>
      <trkpt lat="29.655732" lon="119.705226"><ele>98</ele><time>2025-08-03T02:17:33Z</time></trkpt>
      <trkpt lat="29.655546" lon="119.704977"><ele>100</ele><time>2025-08-03T02:18:21Z</time></trkpt>
      <trkpt lat="29.655563" lon="119.70487"><ele>97</ele><time>2025-08-03T02:18:31Z</time></trkpt>
      <trkpt lat="29.656102" lon="119.704423"><ele>92</ele><time>2025-08-03T02:19:58Z</time></trkpt>
      <trkpt lat="29.656437" lon="119.704235"><ele>88</ele><time>2025-08-03T02:20:33Z</time></trkpt>
      <trkpt lat="29.656446" lon="119.704125"><ele>86</ele><time>2025-08-03T02:20:46Z</time></trkpt>
      <trkpt lat="29.656585" lon="119.703985"><ele>83</ele><time>2025-08-03T02:21:06Z</time></trkpt>
      <trkpt lat="29.656777" lon="119.703895"><ele>82</ele><time>2025-08-03T02:21:32Z</time></trkpt>
      <trkpt lat="29.656928" lon="119.703625"><ele>84</ele><time>2025-08-03T02:23:44Z</time></trkpt>
      <trkpt lat="29.657572" lon="119.702941"><ele>83</ele><time>2025-08-03T02:25:12Z</time></trkpt>
      <trkpt lat="29.658373" lon="119.70184"><ele>81</ele><time>2025-08-03T02:26:56Z</time></trkpt>
      <trkpt lat="29.659221" lon="119.701151"><ele>82</ele><time>2025-08-03T02:28:33Z</time></trkpt>
      <trkpt lat="29.65949" lon="119.700818"><ele>84</ele><time>2025-08-03T02:29:08Z</time></trkpt>
      <trkpt lat="29.659469" lon="119.700712"><ele>86</ele><time>2025-08-03T02:29:18Z</time></trkpt>
      <trkpt lat="29.659626" lon="119.700178"><ele>86</ele><time>2025-08-03T02:30:03Z</time></trkpt>
      <trkpt lat="29.659924" lon="119.699605"><ele>84</ele><time>2025-08-03T02:31:05Z</time></trkpt>
      <trkpt lat="29.660018" lon="119.699062"><ele>86</ele><time>2025-08-03T02:31:44Z</time></trkpt>
      <trkpt lat="29.660226" lon="119.698574"><ele>85</ele><time>2025-08-03T02:32:24Z</time></trkpt>
      <trkpt lat="29.660671" lon="119.697834"><ele>83</ele><time>2025-08-03T02:33:32Z</time></trkpt>
      <trkpt lat="29.660764" lon="119.697534"><ele>82</ele><time>2025-08-03T02:33:55Z</time></trkpt>
      <trkpt lat="29.660762" lon="119.697316"><ele>81</ele><time>2025-08-03T02:34:10Z</time></trkpt>
      <trkpt lat="29.660921" lon="119.697044"><ele>79</ele><time>2025-08-03T02:34:36Z</time></trkpt>
      <trkpt lat="29.661016" lon="119.696725"><ele>76</ele><time>2025-08-03T02:34:59Z</time></trkpt>
      <trkpt lat="29.660937" lon="119.69618"><ele>77</ele><time>2025-08-03T02:35:38Z</time></trkpt>
      <trkpt lat="29.660965" lon="119.69552"><ele>74</ele><time>2025-08-03T02:36:29Z</time></trkpt>
      <trkpt lat="29.660893" lon="119.69509"><ele>78</ele><time>2025-08-03T02:37:01Z</time></trkpt>
      <trkpt lat="29.661302" lon="119.693618"><ele>86</ele><time>2025-08-03T02:39:07Z</time></trkpt>
      <trkpt lat="29.661488" lon="119.693219"><ele>83</ele><time>2025-08-03T02:39:40Z</time></trkpt>
      <trkpt lat="29.661494" lon="119.692458"><ele>76</ele><time>2025-08-03T02:40:43Z</time></trkpt>
      <trkpt lat="29.662349" lon="119.691763"><ele>82</ele><time>2025-08-03T02:42:58Z</time></trkpt>
      <trkpt lat="29.662472" lon="119.691586"><ele>82</ele><time>2025-08-03T02:43:15Z</time></trkpt>
      <trkpt lat="29.66283" lon="119.690691"><ele>80</ele><time>2025-08-03T02:44:28Z</time></trkpt>
      <trkpt lat="29.663084" lon="119.69035"><ele>76</ele><time>2025-08-03T02:45:03Z</time></trkpt>
      <trkpt lat="29.663126" lon="119.689689"><ele>78</ele><time>2025-08-03T02:45:52Z</time></trkpt>
      <trkpt lat="29.663298" lon="119.688941"><ele>77</ele><time>2025-08-03T02:46:48Z</time></trkpt>
      <trkpt lat="29.663302" lon="119.688609"><ele>76</ele><time>2025-08-03T02:47:15Z</time></trkpt>
      <trkpt lat="29.663207" lon="119.688415"><ele>75</ele><time>2025-08-03T02:47:34Z</time></trkpt>
      <trkpt lat="29.66322" lon="119.688306"><ele>75</ele><time>2025-08-03T02:47:42Z</time></trkpt>
      <trkpt lat="29.663823" lon="119.686686"><ele>71</ele><time>2025-08-03T02:49:55Z</time></trkpt>
      <trkpt lat="29.663576" lon="119.686518"><ele>67</ele><time>2025-08-03T02:50:28Z</time></trkpt>
      <trkpt lat="29.663746" lon="119.686642"><ele>68</ele><time>2025-08-03T02:51:02Z</time></trkpt>
      <trkpt lat="29.663838" lon="119.6866"><ele>69</ele><time>2025-08-03T02:51:13Z</time></trkpt>
      <trkpt lat="29.66401" lon="119.686215"><ele>72</ele><time>2025-08-03T02:51:44Z</time></trkpt>
      <trkpt lat="29.664005" lon="119.685902"><ele>71</ele><time>2025-08-03T02:52:11Z</time></trkpt>
      <trkpt lat="29.664093" lon="119.685931"><ele>68</ele><time>2025-08-03T03:05:27Z</time></trkpt>
      <trkpt lat="29.664238" lon="119.685786"><ele>73</ele><time>2025-08-03T03:05:44Z</time></trkpt>
      <trkpt lat="29.664603" lon="119.685634"><ele>76</ele><time>2025-08-03T03:06:18Z</time></trkpt>
      <trkpt lat="29.664878" lon="119.685679"><ele>79</ele><time>2025-08-03T03:06:47Z</time></trkpt>
      <trkpt lat="29.665548" lon="119.686263"><ele>85</ele><time>2025-08-03T03:08:17Z</time></trkpt>
      <trkpt lat="29.666056" lon="119.687086"><ele>86</ele><time>2025-08-03T03:09:31Z</time></trkpt>
      <trkpt lat="29.666397" lon="119.687223"><ele>75</ele><time>2025-08-03T03:10:26Z</time></trkpt>
      <trkpt lat="29.665932" lon="119.686266"><ele>67</ele><time>2025-08-03T03:12:16Z</time></trkpt>
      <trkpt lat="29.66564" lon="119.685867"><ele>66</ele><time>2025-08-03T03:12:53Z</time></trkpt>
      <trkpt lat="29.665596" lon="119.685538"><ele>61</ele><time>2025-08-03T03:13:44Z</time></trkpt>
      <trkpt lat="29.665903" lon="119.686099"><ele>65</ele><time>2025-08-03T03:16:43Z</time></trkpt>
      <trkpt lat="29.666081" lon="119.686138"><ele>62</ele><time>2025-08-03T03:20:19Z</time></trkpt>
      <trkpt lat="29.666264" lon="119.686517"><ele>63</ele><time>2025-08-03T03:21:13Z</time></trkpt>
      <trkpt lat="29.666461" lon="119.686769"><ele>62</ele><time>2025-08-03T03:21:49Z</time></trkpt>
      <trkpt lat="29.666729" lon="119.68688"><ele>63</ele><time>2025-08-03T03:22:17Z</time></trkpt>
      <trkpt lat="29.667212" lon="119.686542"><ele>61</ele><time>2025-08-03T03:23:34Z</time></trkpt>
      <trkpt lat="29.6674" lon="119.68629"><ele>61</ele><time>2025-08-03T03:24:07Z</time></trkpt>
      <trkpt lat="29.667644" lon="119.686138"><ele>61</ele><time>2025-08-03T03:24:42Z</time></trkpt>
      <trkpt lat="29.667867" lon="119.6858"><ele>61</ele><time>2025-08-03T03:25:35Z</time></trkpt>
      <trkpt lat="29.668055" lon="119.685798"><ele>61</ele><time>2025-08-03T03:26:31Z</time></trkpt>
      <trkpt lat="29.668393" lon="119.685621"><ele>61</ele><time>2025-08-03T03:27:13Z</time></trkpt>
      <trkpt lat="29.66847" lon="119.686147"><ele>71</ele><time>2025-08-03T03:29:28Z</time></trkpt>
      <trkpt lat="29.668448" lon="119.68637"><ele>74</ele><time>2025-08-03T03:29:45Z</time></trkpt>
      <trkpt lat="29.668565" lon="119.686895"><ele>73</ele><time>2025-08-03T03:30:26Z</time></trkpt>
      <trkpt lat="29.668751" lon="119.687144"><ele>75</ele><time>2025-08-03T03:30:51Z</time></trkpt>
      <trkpt lat="29.669025" lon="119.687121"><ele>77</ele><time>2025-08-03T03:31:15Z</time></trkpt>
      <trkpt lat="29.669396" lon="119.687209"><ele>77</ele><time>2025-08-03T03:31:48Z</time></trkpt>
      <trkpt lat="29.669561" lon="119.687116"><ele>75</ele><time>2025-08-03T03:32:02Z</time></trkpt>
      <trkpt lat="29.669516" lon="119.687017"><ele>69</ele><time>2025-08-03T03:32:16Z</time></trkpt>
      <trkpt lat="29.669552" lon="119.686692"><ele>69</ele><time>2025-08-03T03:32:49Z</time></trkpt>
      <trkpt lat="29.669357" lon="119.686459"><ele>62</ele><time>2025-08-03T03:33:20Z</time></trkpt>
      <trkpt lat="29.669386" lon="119.686359"><ele>60</ele><time>2025-08-03T03:34:22Z</time></trkpt>
      <trkpt lat="29.669542" lon="119.686237"><ele>63</ele><time>2025-08-03T03:34:48Z</time></trkpt>
      <trkpt lat="29.669892" lon="119.686419"><ele>64</ele><time>2025-08-03T03:35:22Z</time></trkpt>
      <trkpt lat="29.67017" lon="119.686409"><ele>62</ele><time>2025-08-03T03:35:47Z</time></trkpt>
      <trkpt lat="29.670256" lon="119.686212"><ele>64</ele><time>2025-08-03T03:36:06Z</time></trkpt>
      <trkpt lat="29.670346" lon="119.685564"><ele>63</ele><time>2025-08-03T03:36:55Z</time></trkpt>
      <trkpt lat="29.670447" lon="119.685374"><ele>63</ele><time>2025-08-03T03:37:12Z</time></trkpt>
      <trkpt lat="29.670736" lon="119.685095"><ele>66</ele><time>2025-08-03T03:37:46Z</time></trkpt>
      <trkpt lat="29.670988" lon="119.6845"><ele>65</ele><time>2025-08-03T03:38:40Z</time></trkpt>
      <trkpt lat="29.671485" lon="119.683994"><ele>74</ele><time>2025-08-03T03:39:44Z</time></trkpt>
      <trkpt lat="29.671776" lon="119.684023"><ele>72</ele><time>2025-08-03T03:40:12Z</time></trkpt>
      <trkpt lat="29.673491" lon="119.683852"><ele>62</ele><time>2025-08-03T03:42:49Z</time></trkpt>
      <trkpt lat="29.67375" lon="119.683731"><ele>60</ele><time>2025-08-03T03:43:15Z</time></trkpt>
      <trkpt lat="29.673887" lon="119.683591"><ele>59</ele><time>2025-08-03T03:43:32Z</time></trkpt>
      <trkpt lat="29.673872" lon="119.683163"><ele>61</ele><time>2025-08-03T03:44:04Z</time></trkpt>
      <trkpt lat="29.673535" lon="119.681937"><ele>60</ele><time>2025-08-03T03:45:43Z</time></trkpt>
      <trkpt lat="29.673189" lon="119.681795"><ele>60</ele><time>2025-08-03T03:46:16Z</time></trkpt>
      <trkpt lat="29.672879" lon="119.68151"><ele>60</ele><time>2025-08-03T03:46:50Z</time></trkpt>
      <trkpt lat="29.672831" lon="119.681603"><ele>63</ele><time>2025-08-03T03:47:03Z</time></trkpt>
      <trkpt lat="29.672557" lon="119.681305"><ele>65</ele><time>2025-08-03T03:48:05Z</time></trkpt>
      <trkpt lat="29.672526" lon="119.681197"><ele>65</ele><time>2025-08-03T03:48:15Z</time></trkpt>
      <trkpt lat="29.672577" lon="119.680876"><ele>61</ele><time>2025-08-03T03:48:40Z</time></trkpt>
      <trkpt lat="29.672486" lon="119.680331"><ele>60</ele><time>2025-08-03T03:49:27Z</time></trkpt>
      <trkpt lat="29.672658" lon="119.679952"><ele>59</ele><time>2025-08-03T03:50:00Z</time></trkpt>
      <trkpt lat="29.672907" lon="119.678909"><ele>59</ele><time>2025-08-03T03:51:23Z</time></trkpt>
      <trkpt lat="29.673168" lon="119.678592"><ele>60</ele><time>2025-08-03T03:52:00Z</time></trkpt>
      <trkpt lat="29.673617" lon="119.67821"><ele>64</ele><time>2025-08-03T03:52:50Z</time></trkpt>
      <trkpt lat="29.673906" lon="119.678154"><ele>65</ele><time>2025-08-03T03:53:16Z</time></trkpt>
      <trkpt lat="29.674444" lon="119.677923"><ele>64</ele><time>2025-08-03T03:54:04Z</time></trkpt>
      <trkpt lat="29.674928" lon="119.677933"><ele>62</ele><time>2025-08-03T03:54:44Z</time></trkpt>
      <trkpt lat="29.675082" lon="119.678051"><ele>61</ele><time>2025-08-03T03:55:00Z</time></trkpt>
      <trkpt lat="29.675475" lon="119.678121"><ele>60</ele><time>2025-08-03T03:55:37Z</time></trkpt>
      <trkpt lat="29.675846" lon="119.678006"><ele>62</ele><time>2025-08-03T03:56:08Z</time></trkpt>
      <trkpt lat="29.67665" lon="119.677586"><ele>62</ele><time>2025-08-03T03:57:24Z</time></trkpt>
      <trkpt lat="29.677488" lon="119.677307"><ele>62</ele><time>2025-08-03T03:58:34Z</time></trkpt>
      <trkpt lat="29.677885" lon="119.676978"><ele>61</ele><time>2025-08-03T03:59:15Z</time></trkpt>
      <trkpt lat="29.678258" lon="119.676479"><ele>61</ele><time>2025-08-03T04:00:03Z</time></trkpt>
      <trkpt lat="29.678423" lon="119.6761"><ele>60</ele><time>2025-08-03T04:00:35Z</time></trkpt>
      <trkpt lat="29.678442" lon="119.675551"><ele>57</ele><time>2025-08-03T04:01:15Z</time></trkpt>
      <trkpt lat="29.678301" lon="119.674912"><ele>59</ele><time>2025-08-03T04:02:01Z</time></trkpt>
      <trkpt lat="29.678136" lon="119.674514"><ele>57</ele><time>2025-08-03T04:02:33Z</time></trkpt>
      <trkpt lat="29.678256" lon="119.674223"><ele>61</ele><time>2025-08-03T04:02:55Z</time></trkpt>
      <trkpt lat="29.678338" lon="119.673775"><ele>59</ele><time>2025-08-03T04:03:28Z</time></trkpt>
      <trkpt lat="29.678799" lon="119.67337"><ele>61</ele><time>2025-08-03T04:04:30Z</time></trkpt>
      <trkpt lat="29.678905" lon="119.673201"><ele>61</ele><time>2025-08-03T04:04:45Z</time></trkpt>
      <trkpt lat="29.678935" lon="119.673104"><ele>62</ele><time>2025-08-03T04:04:53Z</time></trkpt>
      <trkpt lat="29.678797" lon="119.67281"><ele>60</ele><time>2025-08-03T04:05:18Z</time></trkpt>
      <trkpt lat="29.6788" lon="119.672705"><ele>59</ele><time>2025-08-03T04:05:36Z</time></trkpt>
      <trkpt lat="29.678885" lon="119.672651"><ele>58</ele><time>2025-08-03T04:05:45Z</time></trkpt>
      <trkpt lat="29.679121" lon="119.672806"><ele>61</ele><time>2025-08-03T04:06:10Z</time></trkpt>
      <trkpt lat="29.679233" lon="119.673007"><ele>60</ele><time>2025-08-03T04:06:28Z</time></trkpt>
      <trkpt lat="29.67932" lon="119.673048"><ele>60</ele><time>2025-08-03T04:06:35Z</time></trkpt>
      <trkpt lat="29.679883" lon="119.673051"><ele>59</ele><time>2025-08-03T04:07:18Z</time></trkpt>
      <trkpt lat="29.680542" lon="119.673261"><ele>59</ele><time>2025-08-03T04:08:14Z</time></trkpt>
      <trkpt lat="29.680831" lon="119.673268"><ele>61</ele><time>2025-08-03T04:08:36Z</time></trkpt>
      <trkpt lat="29.681019" lon="119.673646"><ele>61</ele><time>2025-08-03T04:09:13Z</time></trkpt>
      <trkpt lat="29.681284" lon="119.674583"><ele>64</ele><time>2025-08-03T04:10:37Z</time></trkpt>
      <trkpt lat="29.681532" lon="119.675035"><ele>63</ele><time>2025-08-03T04:11:16Z</time></trkpt>
      <trkpt lat="29.682087" lon="119.674972"><ele>62</ele><time>2025-08-03T04:12:01Z</time></trkpt>
      <trkpt lat="29.682244" lon="119.67486"><ele>62</ele><time>2025-08-03T04:12:18Z</time></trkpt>
      <trkpt lat="29.682866" lon="119.67553"><ele>61</ele><time>2025-08-03T04:14:42Z</time></trkpt>
      <trkpt lat="29.68311" lon="119.675684"><ele>62</ele><time>2025-08-03T04:15:04Z</time></trkpt>
      <trkpt lat="29.683392" lon="119.67564"><ele>61</ele><time>2025-08-03T04:15:25Z</time></trkpt>
      <trkpt lat="29.683564" lon="119.675542"><ele>62</ele><time>2025-08-03T04:15:42Z</time></trkpt>
      <trkpt lat="29.683609" lon="119.675448"><ele>62</ele><time>2025-08-03T04:15:51Z</time></trkpt>
      <trkpt lat="29.683582" lon="119.675343"><ele>60</ele><time>2025-08-03T04:15:59Z</time></trkpt>
      <trkpt lat="29.683469" lon="119.675177"><ele>60</ele><time>2025-08-03T04:16:14Z</time></trkpt>
      <trkpt lat="29.683517" lon="119.67498"><ele>59</ele><time>2025-08-03T04:16:28Z</time></trkpt>
      <trkpt lat="29.683598" lon="119.674934"><ele>59</ele><time>2025-08-03T04:16:37Z</time></trkpt>
      <trkpt lat="29.683849" lon="119.675268"><ele>64</ele><time>2025-08-03T04:17:11Z</time></trkpt>
      <trkpt lat="29.683866" lon="119.675603"><ele>66</ele><time>2025-08-03T04:17:35Z</time></trkpt>
      <trkpt lat="29.684131" lon="119.675721"><ele>64</ele><time>2025-08-03T04:17:56Z</time></trkpt>
      <trkpt lat="29.684312" lon="119.675715"><ele>62</ele><time>2025-08-03T04:18:11Z</time></trkpt>
      <trkpt lat="29.684399" lon="119.675677"><ele>61</ele><time>2025-08-03T04:18:18Z</time></trkpt>
      <trkpt lat="29.684509" lon="119.675482"><ele>62</ele><time>2025-08-03T04:18:37Z</time></trkpt>
      <trkpt lat="29.684593" lon="119.675041"><ele>61</ele><time>2025-08-03T04:19:09Z</time></trkpt>
      <trkpt lat="29.684841" lon="119.674422"><ele>63</ele><time>2025-08-03T04:19:59Z</time></trkpt>
      <trkpt lat="29.685255" lon="119.673974"><ele>64</ele><time>2025-08-03T04:20:48Z</time></trkpt>
      <trkpt lat="29.685406" lon="119.673536"><ele>59</ele><time>2025-08-03T04:21:17Z</time></trkpt>
      <trkpt lat="29.685667" lon="119.673349"><ele>63</ele><time>2025-08-03T04:21:42Z</time></trkpt>
      <trkpt lat="29.685775" lon="119.673165"><ele>61</ele><time>2025-08-03T04:21:56Z</time></trkpt>
      <trkpt lat="29.685829" lon="119.67252"><ele>59</ele><time>2025-08-03T04:22:45Z</time></trkpt>
      <trkpt lat="29.685951" lon="119.672224"><ele>60</ele><time>2025-08-03T04:23:04Z</time></trkpt>
      <trkpt lat="29.686117" lon="119.671482"><ele>60</ele><time>2025-08-03T04:23:58Z</time></trkpt>
      <trkpt lat="29.686078" lon="119.67126"><ele>59</ele><time>2025-08-03T04:24:14Z</time></trkpt>
      <trkpt lat="29.686112" lon="119.67093"><ele>60</ele><time>2025-08-03T04:24:40Z</time></trkpt>
      <trkpt lat="29.686283" lon="119.670686"><ele>53</ele><time>2025-08-03T04:25:04Z</time></trkpt>
      <trkpt lat="29.686356" lon="119.670768"><ele>49</ele><time>2025-08-03T04:25:25Z</time></trkpt>
      <trkpt lat="29.686454" lon="119.670744"><ele>49</ele><time>2025-08-03T04:25:41Z</time></trkpt>
      <trkpt lat="29.686504" lon="119.670657"><ele>47</ele><time>2025-08-03T04:25:50Z</time></trkpt>
      <trkpt lat="29.686495" lon="119.670985"><ele>41</ele><time>2025-08-03T04:26:15Z</time></trkpt>
      <trkpt lat="29.686721" lon="119.670789"><ele>37</ele><time>2025-08-03T04:26:42Z</time></trkpt>
      <trkpt lat="29.68681" lon="119.670995"><ele>34</ele><time>2025-08-03T04:27:01Z</time></trkpt>
      <trkpt lat="29.687207" lon="119.671273"><ele>29</ele><time>2025-08-03T04:28:04Z</time></trkpt>
      <trkpt lat="29.687072" lon="119.671691"><ele>35</ele><time>2025-08-03T04:28:44Z</time></trkpt>
      <trkpt lat="29.6871" lon="119.671905"><ele>37</ele><time>2025-08-03T04:29:04Z</time></trkpt>
      <trkpt lat="29.686713" lon="119.672658"><ele>40</ele><time>2025-08-03T04:30:07Z</time></trkpt>
      <trkpt lat="29.686572" lon="119.673188"><ele>39</ele><time>2025-08-03T04:30:42Z</time></trkpt>
      <trkpt lat="29.687118" lon="119.673587"><ele>42</ele><time>2025-08-03T04:31:34Z</time></trkpt>
      <trkpt lat="29.687103" lon="119.6739"><ele>47</ele><time>2025-08-03T04:32:05Z</time></trkpt>
      <trkpt lat="29.687187" lon="119.673939"><ele>48</ele><time>2025-08-03T04:32:18Z</time></trkpt>
      <trkpt lat="29.687179" lon="119.674141"><ele>48</ele><time>2025-08-03T04:32:35Z</time></trkpt>
      <trkpt lat="29.687111" lon="119.674223"><ele>49</ele><time>2025-08-03T04:32:43Z</time></trkpt>
      <trkpt lat="29.686938" lon="119.674132"><ele>44</ele><time>2025-08-03T04:33:05Z</time></trkpt>
      <trkpt lat="29.686902" lon="119.674221"><ele>44</ele><time>2025-08-03T04:33:09Z</time></trkpt>
      <trkpt lat="29.6871" lon="119.674214"><ele>44</ele><time>2025-08-03T04:35:06Z</time></trkpt>
      <trkpt lat="29.686856" lon="119.673973"><ele>40</ele><time>2025-08-03T04:38:39Z</time></trkpt>
      <trkpt lat="29.687029" lon="119.674023"><ele>41</ele><time>2025-08-03T04:39:01Z</time></trkpt>
      <trkpt lat="29.686825" lon="119.673945"><ele>40</ele><time>2025-08-03T04:40:29Z</time></trkpt>
      <trkpt lat="29.686938" lon="119.673954"><ele>40</ele><time>2025-08-03T04:40:45Z</time></trkpt>
      <trkpt lat="29.686888" lon="119.674054"><ele>41</ele><time>2025-08-03T04:40:51Z</time></trkpt>
      <trkpt lat="29.686987" lon="119.674135"><ele>43</ele><time>2025-08-03T04:41:15Z</time></trkpt>
      <trkpt lat="29.687103" lon="119.674173"><ele>42</ele><time>2025-08-03T04:41:58Z</time></trkpt>
      <trkpt lat="29.68692" lon="119.674024"><ele>46</ele><time>2025-08-03T04:42:34Z</time></trkpt>
      <trkpt lat="29.687025" lon="119.674023"><ele>46</ele><time>2025-08-03T04:43:14Z</time></trkpt>
      <trkpt lat="29.686891" lon="119.674016"><ele>45</ele><time>2025-08-03T04:44:00Z</time></trkpt>
      <trkpt lat="29.686998" lon="119.674012"><ele>45</ele><time>2025-08-03T04:44:15Z</time></trkpt>
      <trkpt lat="29.686979" lon="119.674129"><ele>48</ele><time>2025-08-03T04:46:02Z</time></trkpt>
      <trkpt lat="29.687076" lon="119.674163"><ele>46</ele><time>2025-08-03T04:47:54Z</time></trkpt>
      <trkpt lat="29.686963" lon="119.674085"><ele>44</ele><time>2025-08-03T04:49:12Z</time></trkpt>
      <trkpt lat="29.68701" lon="119.674179"><ele>43</ele><time>2025-08-03T04:49:50Z</time></trkpt>
      <trkpt lat="29.687101" lon="119.674182"><ele>45</ele><time>2025-08-03T04:49:59Z</time></trkpt>
      <trkpt lat="29.68701" lon="119.674163"><ele>48</ele><time>2025-08-03T04:50:17Z</time></trkpt>
      <trkpt lat="29.687021" lon="119.674054"><ele>49</ele><time>2025-08-03T04:51:38Z</time></trkpt>
      <trkpt lat="29.687118" lon="119.674086"><ele>47</ele><time>2025-08-03T04:52:06Z</time></trkpt>
      <trkpt lat="29.687023" lon="119.674098"><ele>46</ele><time>2025-08-03T04:52:17Z</time></trkpt>
    </trkseg>
  </trk>
</gpx>
