<?xml version="1.0" encoding="UTF-8"?>
<gpx version="1.1" creator="MyWorld" xmlns="http://www.topografix.com/GPX/1/1">
  <metadata><name>萍乡武功山反穿</name></metadata>
  <trk>
    <name>萍乡武功山反穿</name>
    <trkseg>
      <trkpt lat="27.537666" lon="114.171369"><ele>547</ele><time>2025-11-14T23:10:27Z</time></trkpt>
      <trkpt lat="27.537789" lon="114.171542"><ele>549</ele><time>2025-11-14T23:10:46Z</time></trkpt>
      <trkpt lat="27.537821" lon="114.171763"><ele>554</ele><time>2025-11-14T23:11:05Z</time></trkpt>
      <trkpt lat="27.5376" lon="114.172234"><ele>560</ele><time>2025-11-14T23:11:44Z</time></trkpt>
      <trkpt lat="27.537493" lon="114.172642"><ele>564</ele><time>2025-11-14T23:12:14Z</time></trkpt>
      <trkpt lat="27.537112" lon="114.173385"><ele>581</ele><time>2025-11-14T23:14:58Z</time></trkpt>
      <trkpt lat="27.536968" lon="114.174229"><ele>589</ele><time>2025-11-14T23:16:02Z</time></trkpt>
      <trkpt lat="27.537061" lon="114.175174"><ele>595</ele><time>2025-11-14T23:17:22Z</time></trkpt>
      <trkpt lat="27.537183" lon="114.17545"><ele>598</ele><time>2025-11-14T23:17:48Z</time></trkpt>
      <trkpt lat="27.53733" lon="114.175572"><ele>604</ele><time>2025-11-14T23:18:10Z</time></trkpt>
      <trkpt lat="27.537513" lon="114.17593"><ele>613</ele><time>2025-11-14T23:19:08Z</time></trkpt>
      <trkpt lat="27.537597" lon="114.175988"><ele>617</ele><time>2025-11-14T23:19:20Z</time></trkpt>
      <trkpt lat="27.537538" lon="114.177034"><ele>628</ele><time>2025-11-14T23:21:57Z</time></trkpt>
      <trkpt lat="27.537304" lon="114.177532"><ele>634</ele><time>2025-11-14T23:22:38Z</time></trkpt>
      <trkpt lat="27.537298" lon="114.17774"><ele>642</ele><time>2025-11-14T23:22:53Z</time></trkpt>
      <trkpt lat="27.537182" lon="114.177904"><ele>645</ele><time>2025-11-14T23:23:13Z</time></trkpt>
      <trkpt lat="27.53715" lon="114.178223"><ele>657</ele><time>2025-11-14T23:23:49Z</time></trkpt>
      <trkpt lat="27.537213" lon="114.178419"><ele>657</ele><time>2025-11-14T23:24:07Z</time></trkpt>
      <trkpt lat="27.537427" lon="114.178607"><ele>664</ele><time>2025-11-14T23:24:35Z</time></trkpt>
      <trkpt lat="27.537545" lon="114.179022"><ele>671</ele><time>2025-11-14T23:25:15Z</time></trkpt>
      <trkpt lat="27.537765" lon="114.179484"><ele>674</ele><time>2025-11-14T23:26:09Z</time></trkpt>
      <trkpt lat="27.537715" lon="114.179683"><ele>678</ele><time>2025-11-14T23:26:45Z</time></trkpt>
      <trkpt lat="27.537797" lon="114.179994"><ele>684</ele><time>2025-11-14T23:27:27Z</time></trkpt>
      <trkpt lat="27.537804" lon="114.180836"><ele>703</ele><time>2025-11-14T23:29:30Z</time></trkpt>
      <trkpt lat="27.537874" lon="114.181031"><ele>709</ele><time>2025-11-14T23:29:56Z</time></trkpt>
      <trkpt lat="27.53786" lon="114.181132"><ele>715</ele><time>2025-11-14T23:30:14Z</time></trkpt>
      <trkpt lat="27.537446" lon="114.180903"><ele>731</ele><time>2025-11-14T23:31:24Z</time></trkpt>
      <trkpt lat="27.537391" lon="114.180993"><ele>739</ele><time>2025-11-14T23:31:44Z</time></trkpt>
      <trkpt lat="27.537356" lon="114.181194"><ele>747</ele><time>2025-11-14T23:32:18Z</time></trkpt>
      <trkpt lat="27.537406" lon="114.181279"><ele>752</ele><time>2025-11-14T23:32:34Z</time></trkpt>
      <trkpt lat="27.537303" lon="114.181455"><ele>760</ele><time>2025-11-14T23:33:19Z</time></trkpt>
      <trkpt lat="27.53739" lon="114.181493"><ele>764</ele><time>2025-11-14T23:33:38Z</time></trkpt>
      <trkpt lat="27.53744" lon="114.182"><ele>785</ele><time>2025-11-14T23:35:23Z</time></trkpt>
      <trkpt lat="27.537215" lon="114.182163"><ele>797</ele><time>2025-11-14T23:38:00Z</time></trkpt>
      <trkpt lat="27.537539" lon="114.182378"><ele>811</ele><time>2025-11-14T23:38:52Z</time></trkpt>
      <trkpt lat="27.537657" lon="114.182546"><ele>818</ele><time>2025-11-14T23:39:24Z</time></trkpt>
      <trkpt lat="27.537622" lon="114.183066"><ele>839</ele><time>2025-11-14T23:41:09Z</time></trkpt>
      <trkpt lat="27.537699" lon="114.18326"><ele>849</ele><time>2025-11-14T23:41:58Z</time></trkpt>
      <trkpt lat="27.537592" lon="114.183556"><ele>857</ele><time>2025-11-14T23:42:38Z</time></trkpt>
      <trkpt lat="27.537712" lon="114.184171"><ele>875</ele><time>2025-11-14T23:44:03Z</time></trkpt>
      <trkpt lat="27.537676" lon="114.184268"><ele>880</ele><time>2025-11-14T23:44:29Z</time></trkpt>
      <trkpt lat="27.537585" lon="114.184277"><ele>884</ele><time>2025-11-14T23:44:56Z</time></trkpt>
      <trkpt lat="27.537529" lon="114.184358"><ele>889</ele><time>2025-11-14T23:45:15Z</time></trkpt>
      <trkpt lat="27.537506" lon="114.184566"><ele>891</ele><time>2025-11-14T23:45:42Z</time></trkpt>
      <trkpt lat="27.53759" lon="114.18475"><ele>899</ele><time>2025-11-14T23:46:21Z</time></trkpt>
      <trkpt lat="27.537584" lon="114.185052"><ele>910</ele><time>2025-11-14T23:47:44Z</time></trkpt>
      <trkpt lat="27.537717" lon="114.185324"><ele>926</ele><time>2025-11-14T23:48:53Z</time></trkpt>
      <trkpt lat="27.537874" lon="114.18544"><ele>934</ele><time>2025-11-14T23:49:27Z</time></trkpt>
      <trkpt lat="27.537945" lon="114.185642"><ele>943</ele><time>2025-11-14T23:50:14Z</time></trkpt>
      <trkpt lat="27.537929" lon="114.18595"><ele>952</ele><time>2025-11-14T23:51:18Z</time></trkpt>
      <trkpt lat="27.537816" lon="114.186118"><ele>961</ele><time>2025-11-14T23:51:50Z</time></trkpt>
      <trkpt lat="27.537572" lon="114.186269"><ele>965</ele><time>2025-11-14T23:52:34Z</time></trkpt>
      <trkpt lat="27.537538" lon="114.186363"><ele>969</ele><time>2025-11-14T23:52:47Z</time></trkpt>
      <trkpt lat="27.537932" lon="114.186594"><ele>988</ele><time>2025-11-14T23:54:13Z</time></trkpt>
      <trkpt lat="27.53792" lon="114.186694"><ele>992</ele><time>2025-11-14T23:54:47Z</time></trkpt>
      <trkpt lat="27.537995" lon="114.186759"><ele>993</ele><time>2025-11-14T23:55:04Z</time></trkpt>
      <trkpt lat="27.537953" lon="114.186861"><ele>996</ele><time>2025-11-14T23:55:35Z</time></trkpt>
      <trkpt lat="27.538097" lon="114.187129"><ele>1011</ele><time>2025-11-14T23:56:35Z</time></trkpt>
      <trkpt lat="27.538087" lon="114.187231"><ele>1012</ele><time>2025-11-14T23:57:06Z</time></trkpt>
      <trkpt lat="27.538259" lon="114.187307"><ele>1020</ele><time>2025-11-14T23:57:47Z</time></trkpt>
      <trkpt lat="27.538273" lon="114.187407"><ele>1025</ele><time>2025-11-14T23:58:06Z</time></trkpt>
      <trkpt lat="27.538349" lon="114.187464"><ele>1025</ele><time>2025-11-14T23:58:25Z</time></trkpt>
      <trkpt lat="27.538369" lon="114.187668"><ele>1032</ele><time>2025-11-14T23:59:09Z</time></trkpt>
      <trkpt lat="27.538495" lon="114.187812"><ele>1038</ele><time>2025-11-14T23:59:36Z</time></trkpt>
      <trkpt lat="27.538562" lon="114.188135"><ele>1048</ele><time>2025-11-15T00:00:35Z</time></trkpt>
      <trkpt lat="27.538832" lon="114.188196"><ele>1061</ele><time>2025-11-15T00:01:28Z</time></trkpt>
      <trkpt lat="27.538838" lon="114.1884"><ele>1067</ele><time>2025-11-15T00:02:15Z</time></trkpt>
      <trkpt lat="27.538728" lon="114.188568"><ele>1074</ele><time>2025-11-15T00:02:48Z</time></trkpt>
      <trkpt lat="27.538818" lon="114.188597"><ele>1077</ele><time>2025-11-15T00:03:04Z</time></trkpt>
      <trkpt lat="27.539004" lon="114.188839"><ele>1080</ele><time>2025-11-15T00:03:50Z</time></trkpt>
      <trkpt lat="27.539175" lon="114.188908"><ele>1087</ele><time>2025-11-15T00:04:18Z</time></trkpt>
      <trkpt lat="27.539261" lon="114.188872"><ele>1091</ele><time>2025-11-15T00:04:33Z</time></trkpt>
      <trkpt lat="27.539487" lon="114.189061"><ele>1098</ele><time>2025-11-15T00:05:31Z</time></trkpt>
      <trkpt lat="27.539531" lon="114.189265"><ele>1109</ele><time>2025-11-15T00:06:17Z</time></trkpt>
      <trkpt lat="27.539791" lon="114.189555"><ele>1121</ele><time>2025-11-15T00:07:38Z</time></trkpt>
      <trkpt lat="27.539925" lon="114.189819"><ele>1138</ele><time>2025-11-15T00:09:05Z</time></trkpt>
      <trkpt lat="27.539932" lon="114.19003"><ele>1152</ele><time>2025-11-15T00:10:10Z</time></trkpt>
      <trkpt lat="27.54003" lon="114.190056"><ele>1150</ele><time>2025-11-15T00:10:41Z</time></trkpt>
      <trkpt lat="27.540057" lon="114.190153"><ele>1153</ele><time>2025-11-15T00:10:59Z</time></trkpt>
      <trkpt lat="27.540148" lon="114.190132"><ele>1162</ele><time>2025-11-15T00:11:41Z</time></trkpt>
      <trkpt lat="27.540181" lon="114.190228"><ele>1168</ele><time>2025-11-15T00:12:12Z</time></trkpt>
      <trkpt lat="27.540275" lon="114.190225"><ele>1172</ele><time>2025-11-15T00:12:52Z</time></trkpt>
      <trkpt lat="27.540348" lon="114.190305"><ele>1178</ele><time>2025-11-15T00:13:43Z</time></trkpt>
      <trkpt lat="27.54044" lon="114.190284"><ele>1186</ele><time>2025-11-15T00:14:21Z</time></trkpt>
      <trkpt lat="27.540473" lon="114.190186"><ele>1192</ele><time>2025-11-15T00:14:45Z</time></trkpt>
      <trkpt lat="27.540548" lon="114.190374"><ele>1207</ele><time>2025-11-15T00:15:53Z</time></trkpt>
      <trkpt lat="27.540503" lon="114.190463"><ele>1208</ele><time>2025-11-15T00:16:07Z</time></trkpt>
      <trkpt lat="27.540595" lon="114.19047"><ele>1214</ele><time>2025-11-15T00:16:37Z</time></trkpt>
      <trkpt lat="27.540632" lon="114.190566"><ele>1223</ele><time>2025-11-15T00:17:14Z</time></trkpt>
      <trkpt lat="27.540896" lon="114.19063"><ele>1236</ele><time>2025-11-15T00:18:21Z</time></trkpt>
      <trkpt lat="27.540936" lon="114.190933"><ele>1254</ele><time>2025-11-15T00:20:17Z</time></trkpt>
      <trkpt lat="27.541096" lon="114.190835"><ele>1260</ele><time>2025-11-15T00:20:51Z</time></trkpt>
      <trkpt lat="27.541382" lon="114.191102"><ele>1272</ele><time>2025-11-15T00:21:53Z</time></trkpt>
      <trkpt lat="27.541494" lon="114.191498"><ele>1288</ele><time>2025-11-15T00:23:02Z</time></trkpt>
      <trkpt lat="27.54133" lon="114.191411"><ele>1294</ele><time>2025-11-15T00:23:59Z</time></trkpt>
      <trkpt lat="27.541078" lon="114.1917"><ele>1300</ele><time>2025-11-15T00:24:53Z</time></trkpt>
      <trkpt lat="27.541179" lon="114.192108"><ele>1314</ele><time>2025-11-15T00:25:58Z</time></trkpt>
      <trkpt lat="27.541015" lon="114.192212"><ele>1317</ele><time>2025-11-15T00:26:29Z</time></trkpt>
      <trkpt lat="27.541084" lon="114.192837"><ele>1329</ele><time>2025-11-15T00:27:56Z</time></trkpt>
      <trkpt lat="27.541016" lon="114.193034"><ele>1336</ele><time>2025-11-15T00:28:24Z</time></trkpt>
      <trkpt lat="27.541009" lon="114.193448"><ele>1342</ele><time>2025-11-15T00:29:16Z</time></trkpt>
      <trkpt lat="27.540795" lon="114.193648"><ele>1345</ele><time>2025-11-15T00:29:46Z</time></trkpt>
      <trkpt lat="27.540797" lon="114.193861"><ele>1348</ele><time>2025-11-15T00:30:11Z</time></trkpt>
      <trkpt lat="27.540675" lon="114.194275"><ele>1354</ele><time>2025-11-15T00:30:51Z</time></trkpt>
      <trkpt lat="27.540002" lon="114.195287"><ele>1366</ele><time>2025-11-15T00:32:54Z</time></trkpt>
      <trkpt lat="27.539886" lon="114.195684"><ele>1372</ele><time>2025-11-15T00:33:37Z</time></trkpt>
      <trkpt lat="27.539472" lon="114.196127"><ele>1391</ele><time>2025-11-15T00:34:50Z</time></trkpt>
      <trkpt lat="27.539221" lon="114.196012"><ele>1398</ele><time>2025-11-15T00:35:38Z</time></trkpt>
      <trkpt lat="27.538793" lon="114.196418"><ele>1417</ele><time>2025-11-15T00:37:21Z</time></trkpt>
      <trkpt lat="27.538733" lon="114.196614"><ele>1422</ele><time>2025-11-15T00:37:41Z</time></trkpt>
      <trkpt lat="27.538607" lon="114.196753"><ele>1419</ele><time>2025-11-15T00:38:00Z</time></trkpt>
      <trkpt lat="27.538499" lon="114.197149"><ele>1419</ele><time>2025-11-15T00:38:35Z</time></trkpt>
      <trkpt lat="27.538031" lon="114.197799"><ele>1426</ele><time>2025-11-15T00:39:57Z</time></trkpt>
      <trkpt lat="27.537792" lon="114.198254"><ele>1433</ele><time>2025-11-15T00:41:00Z</time></trkpt>
      <trkpt lat="27.537423" lon="114.198357"><ele>1435</ele><time>2025-11-15T00:41:43Z</time></trkpt>
      <trkpt lat="27.537265" lon="114.198263"><ele>1438</ele><time>2025-11-15T00:42:05Z</time></trkpt>
      <trkpt lat="27.537" lon="114.198359"><ele>1443</ele><time>2025-11-15T00:42:39Z</time></trkpt>
      <trkpt lat="27.536758" lon="114.198196"><ele>1446</ele><time>2025-11-15T00:43:12Z</time></trkpt>
      <trkpt lat="27.536406" lon="114.198532"><ele>1452</ele><time>2025-11-15T00:44:09Z</time></trkpt>
      <trkpt lat="27.536312" lon="114.198543"><ele>1451</ele><time>2025-11-15T00:44:20Z</time></trkpt>
      <trkpt lat="27.536287" lon="114.198336"><ele>1454</ele><time>2025-11-15T00:44:35Z</time></trkpt>
      <trkpt lat="27.535951" lon="114.198186"><ele>1452</ele><time>2025-11-15T00:45:11Z</time></trkpt>
      <trkpt lat="27.535825" lon="114.198598"><ele>1456</ele><time>2025-11-15T00:45:40Z</time></trkpt>
      <trkpt lat="27.53567" lon="114.198502"><ele>1455</ele><time>2025-11-15T00:45:59Z</time></trkpt>
      <trkpt lat="27.53562" lon="114.198593"><ele>1456</ele><time>2025-11-15T00:46:11Z</time></trkpt>
      <trkpt lat="27.535678" lon="114.199006"><ele>1464</ele><time>2025-11-15T00:46:47Z</time></trkpt>
      <trkpt lat="27.535489" lon="114.199257"><ele>1463</ele><time>2025-11-15T00:47:03Z</time></trkpt>
      <trkpt lat="27.535278" lon="114.199281"><ele>1461</ele><time>2025-11-15T00:47:17Z</time></trkpt>
      <trkpt lat="27.534938" lon="114.199083"><ele>1462</ele><time>2025-11-15T00:47:46Z</time></trkpt>
      <trkpt lat="27.534547" lon="114.199204"><ele>1453</ele><time>2025-11-15T00:48:05Z</time></trkpt>
      <trkpt lat="27.534479" lon="114.199284"><ele>1451</ele><time>2025-11-15T00:48:10Z</time></trkpt>
      <trkpt lat="27.534086" lon="114.199358"><ele>1441</ele><time>2025-11-15T00:48:31Z</time></trkpt>
      <trkpt lat="27.53322" lon="114.199258"><ele>1446</ele><time>2025-11-15T00:49:54Z</time></trkpt>
      <trkpt lat="27.532922" lon="114.198988"><ele>1454</ele><time>2025-11-15T00:50:37Z</time></trkpt>
      <trkpt lat="27.532342" lon="114.198645"><ele>1474</ele><time>2025-11-15T00:52:09Z</time></trkpt>
      <trkpt lat="27.532289" lon="114.198443"><ele>1477</ele><time>2025-11-15T00:52:29Z</time></trkpt>
      <trkpt lat="27.532052" lon="114.198282"><ele>1482</ele><time>2025-11-15T00:52:59Z</time></trkpt>
      <trkpt lat="27.531668" lon="114.197689"><ele>1495</ele><time>2025-11-15T00:54:12Z</time></trkpt>
      <trkpt lat="27.53136" lon="114.197447"><ele>1500</ele><time>2025-11-15T00:55:10Z</time></trkpt>
      <trkpt lat="27.530993" lon="114.197339"><ele>1513</ele><time>2025-11-15T00:56:09Z</time></trkpt>
      <trkpt lat="27.530799" lon="114.197361"><ele>1518</ele><time>2025-11-15T00:56:44Z</time></trkpt>
      <trkpt lat="27.530742" lon="114.197281"><ele>1521</ele><time>2025-11-15T00:56:58Z</time></trkpt>
      <trkpt lat="27.530559" lon="114.197251"><ele>1529</ele><time>2025-11-15T00:57:28Z</time></trkpt>
      <trkpt lat="27.530418" lon="114.19737"><ele>1533</ele><time>2025-11-15T00:57:57Z</time></trkpt>
      <trkpt lat="27.530229" lon="114.197355"><ele>1538</ele><time>2025-11-15T00:58:26Z</time></trkpt>
      <trkpt lat="27.52994" lon="114.197625"><ele>1550</ele><time>2025-11-15T00:59:30Z</time></trkpt>
      <trkpt lat="27.529673" lon="114.197637"><ele>1562</ele><time>2025-11-15T01:00:48Z</time></trkpt>
      <trkpt lat="27.529606" lon="114.197718"><ele>1564</ele><time>2025-11-15T01:01:05Z</time></trkpt>
      <trkpt lat="27.529595" lon="114.198029"><ele>1573</ele><time>2025-11-15T01:02:06Z</time></trkpt>
      <trkpt lat="27.529176" lon="114.198279"><ele>1583</ele><time>2025-11-15T01:03:12Z</time></trkpt>
      <trkpt lat="27.529126" lon="114.198367"><ele>1582</ele><time>2025-11-15T01:03:20Z</time></trkpt>
      <trkpt lat="27.529028" lon="114.198377"><ele>1583</ele><time>2025-11-15T01:03:36Z</time></trkpt>
      <trkpt lat="27.528777" lon="114.198213"><ele>1581</ele><time>2025-11-15T01:04:16Z</time></trkpt>
      <trkpt lat="27.52859" lon="114.197979"><ele>1580</ele><time>2025-11-15T01:04:42Z</time></trkpt>
      <trkpt lat="27.527979" lon="114.198776"><ele>1558</ele><time>2025-11-15T01:06:30Z</time></trkpt>
      <trkpt lat="27.527893" lon="114.198814"><ele>1561</ele><time>2025-11-15T01:06:40Z</time></trkpt>
      <trkpt lat="27.527782" lon="114.199118"><ele>1563</ele><time>2025-11-15T01:07:09Z</time></trkpt>
      <trkpt lat="27.527576" lon="114.199347"><ele>1558</ele><time>2025-11-15T01:07:34Z</time></trkpt>
      <trkpt lat="27.527412" lon="114.199444"><ele>1559</ele><time>2025-11-15T01:07:52Z</time></trkpt>
      <trkpt lat="27.527125" lon="114.199389"><ele>1550</ele><time>2025-11-15T01:08:22Z</time></trkpt>
      <trkpt lat="27.526947" lon="114.199467"><ele>1554</ele><time>2025-11-15T01:08:40Z</time></trkpt>
      <trkpt lat="27.526327" lon="114.198972"><ele>1550</ele><time>2025-11-15T01:09:47Z</time></trkpt>
      <trkpt lat="27.526138" lon="114.198937"><ele>1549</ele><time>2025-11-15T01:10:03Z</time></trkpt>
      <trkpt lat="27.526048" lon="114.198982"><ele>1553</ele><time>2025-11-15T01:10:11Z</time></trkpt>
      <trkpt lat="27.526124" lon="114.198925"><ele>1549</ele><time>2025-11-15T01:12:25Z</time></trkpt>
      <trkpt lat="27.52578" lon="114.199063"><ele>1543</ele><time>2025-11-15T01:19:00Z</time></trkpt>
      <trkpt lat="27.52561" lon="114.198677"><ele>1533</ele><time>2025-11-15T01:19:53Z</time></trkpt>
      <trkpt lat="27.525641" lon="114.198056"><ele>1520</ele><time>2025-11-15T01:21:35Z</time></trkpt>
      <trkpt lat="27.525443" lon="114.198016"><ele>1522</ele><time>2025-11-15T01:21:54Z</time></trkpt>
      <trkpt lat="27.525154" lon="114.19773"><ele>1521</ele><time>2025-11-15T01:22:31Z</time></trkpt>
      <trkpt lat="27.525046" lon="114.19743"><ele>1520</ele><time>2025-11-15T01:22:55Z</time></trkpt>
      <trkpt lat="27.524789" lon="114.19713"><ele>1531</ele><time>2025-11-15T01:23:42Z</time></trkpt>
      <trkpt lat="27.524714" lon="114.19693"><ele>1529</ele><time>2025-11-15T01:24:02Z</time></trkpt>
      <trkpt lat="27.524522" lon="114.196888"><ele>1530</ele><time>2025-11-15T01:24:21Z</time></trkpt>
      <trkpt lat="27.52425" lon="114.196599"><ele>1529</ele><time>2025-11-15T01:24:56Z</time></trkpt>
      <trkpt lat="27.524065" lon="114.196594"><ele>1530</ele><time>2025-11-15T01:25:26Z</time></trkpt>
      <trkpt lat="27.523904" lon="114.196844"><ele>1537</ele><time>2025-11-15T01:26:06Z</time></trkpt>
      <trkpt lat="27.523563" lon="114.197039"><ele>1543</ele><time>2025-11-15T01:26:50Z</time></trkpt>
      <trkpt lat="27.523196" lon="114.196893"><ele>1547</ele><time>2025-11-15T01:27:25Z</time></trkpt>
      <trkpt lat="27.522728" lon="114.196926"><ele>1542</ele><time>2025-11-15T01:28:07Z</time></trkpt>
      <trkpt lat="27.522194" lon="114.196697"><ele>1536</ele><time>2025-11-15T01:28:56Z</time></trkpt>
      <trkpt lat="27.521556" lon="114.195934"><ele>1553</ele><time>2025-11-15T01:31:04Z</time></trkpt>
      <trkpt lat="27.521378" lon="114.195858"><ele>1556</ele><time>2025-11-15T01:31:26Z</time></trkpt>
      <trkpt lat="27.521292" lon="114.195677"><ele>1556</ele><time>2025-11-15T01:31:46Z</time></trkpt>
      <trkpt lat="27.521204" lon="114.195632"><ele>1553</ele><time>2025-11-15T01:31:58Z</time></trkpt>
      <trkpt lat="27.520754" lon="114.195507"><ele>1542</ele><time>2025-11-15T01:32:52Z</time></trkpt>
      <trkpt lat="27.520664" lon="114.195545"><ele>1540</ele><time>2025-11-15T01:33:00Z</time></trkpt>
      <trkpt lat="27.520308" lon="114.195373"><ele>1539</ele><time>2025-11-15T01:33:34Z</time></trkpt>
      <trkpt lat="27.519826" lon="114.195332"><ele>1539</ele><time>2025-11-15T01:34:15Z</time></trkpt>
      <trkpt lat="27.519436" lon="114.195412"><ele>1537</ele><time>2025-11-15T01:34:48Z</time></trkpt>
      <trkpt lat="27.519122" lon="114.195155"><ele>1532</ele><time>2025-11-15T01:35:27Z</time></trkpt>
      <trkpt lat="27.518296" lon="114.195259"><ele>1505</ele><time>2025-11-15T01:38:04Z</time></trkpt>
      <trkpt lat="27.51779" lon="114.195002"><ele>1480</ele><time>2025-11-15T01:40:01Z</time></trkpt>
      <trkpt lat="27.517602" lon="114.195036"><ele>1474</ele><time>2025-11-15T01:40:24Z</time></trkpt>
      <trkpt lat="27.51706" lon="114.194892"><ele>1484</ele><time>2025-11-15T01:41:39Z</time></trkpt>
      <trkpt lat="27.516173" lon="114.195148"><ele>1524</ele><time>2025-11-15T01:45:12Z</time></trkpt>
      <trkpt lat="27.51536" lon="114.194952"><ele>1559</ele><time>2025-11-15T01:48:21Z</time></trkpt>
      <trkpt lat="27.515199" lon="114.195065"><ele>1567</ele><time>2025-11-15T01:49:02Z</time></trkpt>
      <trkpt lat="27.514929" lon="114.195126"><ele>1572</ele><time>2025-11-15T01:49:35Z</time></trkpt>
      <trkpt lat="27.51407" lon="114.195761"><ele>1569</ele><time>2025-11-15T01:51:27Z</time></trkpt>
      <trkpt lat="27.51362" lon="114.195813"><ele>1588</ele><time>2025-11-15T01:52:51Z</time></trkpt>
      <trkpt lat="27.513194" lon="114.195619"><ele>1602</ele><time>2025-11-15T01:54:43Z</time></trkpt>
      <trkpt lat="27.51265" lon="114.195233"><ele>1626</ele><time>2025-11-15T01:57:03Z</time></trkpt>
      <trkpt lat="27.51248" lon="114.194987"><ele>1638</ele><time>2025-11-15T01:58:14Z</time></trkpt>
      <trkpt lat="27.512419" lon="114.194688"><ele>1652</ele><time>2025-11-15T01:59:25Z</time></trkpt>
      <trkpt lat="27.512277" lon="114.194419"><ele>1659</ele><time>2025-11-15T02:00:34Z</time></trkpt>
      <trkpt lat="27.512261" lon="114.194103"><ele>1663</ele><time>2025-11-15T02:01:08Z</time></trkpt>
      <trkpt lat="27.512121" lon="114.193947"><ele>1664</ele><time>2025-11-15T02:01:29Z</time></trkpt>
      <trkpt lat="27.511772" lon="114.193755"><ele>1666</ele><time>2025-11-15T02:02:10Z</time></trkpt>
      <trkpt lat="27.511487" lon="114.193721"><ele>1669</ele><time>2025-11-15T02:02:41Z</time></trkpt>
      <trkpt lat="27.511282" lon="114.193495"><ele>1672</ele><time>2025-11-15T02:03:09Z</time></trkpt>
      <trkpt lat="27.510656" lon="114.193172"><ele>1680</ele><time>2025-11-15T02:04:23Z</time></trkpt>
      <trkpt lat="27.509993" lon="114.193243"><ele>1681</ele><time>2025-11-15T02:05:32Z</time></trkpt>
      <trkpt lat="27.509728" lon="114.193121"><ele>1684</ele><time>2025-11-15T02:06:02Z</time></trkpt>
      <trkpt lat="27.50935" lon="114.193116"><ele>1690</ele><time>2025-11-15T02:06:48Z</time></trkpt>
      <trkpt lat="27.509118" lon="114.19295"><ele>1694</ele><time>2025-11-15T02:07:24Z</time></trkpt>
      <trkpt lat="27.508484" lon="114.192726"><ele>1703</ele><time>2025-11-15T02:08:28Z</time></trkpt>
      <trkpt lat="27.507839" lon="114.192839"><ele>1678</ele><time>2025-11-15T02:10:41Z</time></trkpt>
      <trkpt lat="27.507483" lon="114.19331"><ele>1653</ele><time>2025-11-15T02:12:42Z</time></trkpt>
      <trkpt lat="27.50731" lon="114.193371"><ele>1645</ele><time>2025-11-15T02:13:22Z</time></trkpt>
      <trkpt lat="27.506765" lon="114.193918"><ele>1622</ele><time>2025-11-15T02:15:17Z</time></trkpt>
      <trkpt lat="27.506504" lon="114.194007"><ele>1614</ele><time>2025-11-15T02:16:04Z</time></trkpt>
      <trkpt lat="27.506266" lon="114.194182"><ele>1600</ele><time>2025-11-15T02:16:52Z</time></trkpt>
      <trkpt lat="27.505798" lon="114.194237"><ele>1580</ele><time>2025-11-15T02:18:16Z</time></trkpt>
      <trkpt lat="27.50557" lon="114.194558"><ele>1566</ele><time>2025-11-15T02:19:16Z</time></trkpt>
      <trkpt lat="27.505202" lon="114.194623"><ele>1559</ele><time>2025-11-15T02:22:27Z</time></trkpt>
      <trkpt lat="27.505169" lon="114.194725"><ele>1556</ele><time>2025-11-15T02:22:38Z</time></trkpt>
      <trkpt lat="27.505003" lon="114.194836"><ele>1555</ele><time>2025-11-15T02:22:57Z</time></trkpt>
      <trkpt lat="27.504789" lon="114.195401"><ele>1536</ele><time>2025-11-15T02:24:36Z</time></trkpt>
      <trkpt lat="27.504259" lon="114.195561"><ele>1517</ele><time>2025-11-15T02:26:12Z</time></trkpt>
      <trkpt lat="27.504072" lon="114.195931"><ele>1515</ele><time>2025-11-15T02:26:45Z</time></trkpt>
      <trkpt lat="27.503869" lon="114.196156"><ele>1517</ele><time>2025-11-15T02:27:13Z</time></trkpt>
      <trkpt lat="27.503823" lon="114.196467"><ele>1521</ele><time>2025-11-15T02:27:47Z</time></trkpt>
      <trkpt lat="27.503691" lon="114.196737"><ele>1522</ele><time>2025-11-15T02:28:15Z</time></trkpt>
      <trkpt lat="27.503548" lon="114.196864"><ele>1526</ele><time>2025-11-15T02:28:45Z</time></trkpt>
      <trkpt lat="27.503462" lon="114.197054"><ele>1532</ele><time>2025-11-15T02:29:23Z</time></trkpt>
      <trkpt lat="27.503208" lon="114.197167"><ele>1547</ele><time>2025-11-15T02:30:52Z</time></trkpt>
      <trkpt lat="27.503161" lon="114.197259"><ele>1552</ele><time>2025-11-15T02:31:24Z</time></trkpt>
      <trkpt lat="27.503311" lon="114.197855"><ele>1576</ele><time>2025-11-15T02:33:35Z</time></trkpt>
      <trkpt lat="27.503251" lon="114.197935"><ele>1579</ele><time>2025-11-15T02:33:55Z</time></trkpt>
      <trkpt lat="27.50329" lon="114.198031"><ele>1584</ele><time>2025-11-15T02:34:14Z</time></trkpt>
      <trkpt lat="27.503199" lon="114.198036"><ele>1588</ele><time>2025-11-15T02:34:28Z</time></trkpt>
      <trkpt lat="27.503002" lon="114.198252"><ele>1593</ele><time>2025-11-15T02:35:03Z</time></trkpt>
      <trkpt lat="27.502754" lon="114.198379"><ele>1600</ele><time>2025-11-15T02:35:39Z</time></trkpt>
      <trkpt lat="27.502359" lon="114.198333"><ele>1600</ele><time>2025-11-15T02:36:19Z</time></trkpt>
      <trkpt lat="27.502126" lon="114.198521"><ele>1606</ele><time>2025-11-15T02:36:58Z</time></trkpt>
      <trkpt lat="27.501677" lon="114.198668"><ele>1622</ele><time>2025-11-15T02:38:37Z</time></trkpt>
      <trkpt lat="27.501248" lon="114.198554"><ele>1644</ele><time>2025-11-15T02:40:42Z</time></trkpt>
      <trkpt lat="27.501141" lon="114.198729"><ele>1651</ele><time>2025-11-15T02:41:45Z</time></trkpt>
      <trkpt lat="27.500914" lon="114.198887"><ele>1664</ele><time>2025-11-15T02:42:52Z</time></trkpt>
      <trkpt lat="27.500439" lon="114.198891"><ele>1673</ele><time>2025-11-15T02:43:54Z</time></trkpt>
      <trkpt lat="27.500264" lon="114.198807"><ele>1672</ele><time>2025-11-15T02:44:23Z</time></trkpt>
      <trkpt lat="27.499807" lon="114.198911"><ele>1669</ele><time>2025-11-15T02:45:13Z</time></trkpt>
      <trkpt lat="27.499545" lon="114.198804"><ele>1673</ele><time>2025-11-15T02:45:42Z</time></trkpt>
      <trkpt lat="27.499077" lon="114.198871"><ele>1675</ele><time>2025-11-15T02:46:29Z</time></trkpt>
      <trkpt lat="27.498832" lon="114.198737"><ele>1671</ele><time>2025-11-15T02:46:53Z</time></trkpt>
      <trkpt lat="27.498546" lon="114.198716"><ele>1673</ele><time>2025-11-15T02:47:18Z</time></trkpt>
      <trkpt lat="27.498215" lon="114.198535"><ele>1669</ele><time>2025-11-15T02:47:50Z</time></trkpt>
      <trkpt lat="27.498025" lon="114.198505"><ele>1665</ele><time>2025-11-15T02:48:12Z</time></trkpt>
      <trkpt lat="27.497847" lon="114.198259"><ele>1654</ele><time>2025-11-15T02:48:50Z</time></trkpt>
      <trkpt lat="27.497679" lon="114.198152"><ele>1651</ele><time>2025-11-15T02:49:19Z</time></trkpt>
      <trkpt lat="27.497628" lon="114.198061"><ele>1647</ele><time>2025-11-15T02:49:37Z</time></trkpt>
      <trkpt lat="27.497661" lon="114.197856"><ele>1639</ele><time>2025-11-15T02:50:05Z</time></trkpt>
      <trkpt lat="27.497495" lon="114.197745"><ele>1634</ele><time>2025-11-15T02:50:41Z</time></trkpt>
      <trkpt lat="27.497321" lon="114.19777"><ele>1627</ele><time>2025-11-15T02:51:18Z</time></trkpt>
      <trkpt lat="27.497242" lon="114.197571"><ele>1618</ele><time>2025-11-15T02:52:01Z</time></trkpt>
      <trkpt lat="27.497159" lon="114.197522"><ele>1614</ele><time>2025-11-15T02:52:23Z</time></trkpt>
      <trkpt lat="27.496894" lon="114.197591"><ele>1603</ele><time>2025-11-15T02:53:17Z</time></trkpt>
      <trkpt lat="27.496638" lon="114.197431"><ele>1591</ele><time>2025-11-15T02:53:59Z</time></trkpt>
      <trkpt lat="27.496516" lon="114.197273"><ele>1587</ele><time>2025-11-15T02:54:29Z</time></trkpt>
      <trkpt lat="27.496248" lon="114.197194"><ele>1588</ele><time>2025-11-15T02:54:56Z</time></trkpt>
      <trkpt lat="27.495882" lon="114.197239"><ele>1589</ele><time>2025-11-15T02:55:33Z</time></trkpt>
      <trkpt lat="27.49536" lon="114.197071"><ele>1581</ele><time>2025-11-15T02:56:24Z</time></trkpt>
      <trkpt lat="27.49519" lon="114.197179"><ele>1584</ele><time>2025-11-15T02:56:44Z</time></trkpt>
      <trkpt lat="27.494685" lon="114.196897"><ele>1587</ele><time>2025-11-15T02:57:41Z</time></trkpt>
      <trkpt lat="27.494347" lon="114.197077"><ele>1592</ele><time>2025-11-15T02:58:19Z</time></trkpt>
      <trkpt lat="27.494164" lon="114.197042"><ele>1588</ele><time>2025-11-15T02:58:35Z</time></trkpt>
      <trkpt lat="27.49388" lon="114.197122"><ele>1591</ele><time>2025-11-15T02:59:01Z</time></trkpt>
      <trkpt lat="27.493704" lon="114.197065"><ele>1586</ele><time>2025-11-15T02:59:21Z</time></trkpt>
      <trkpt lat="27.493142" lon="114.197069"><ele>1576</ele><time>2025-11-15T03:00:41Z</time></trkpt>
      <trkpt lat="27.493058" lon="114.197031"><ele>1576</ele><time>2025-11-15T03:00:57Z</time></trkpt>
      <trkpt lat="27.493" lon="114.196836"><ele>1586</ele><time>2025-11-15T03:01:31Z</time></trkpt>
      <trkpt lat="27.492922" lon="114.196771"><ele>1585</ele><time>2025-11-15T03:01:41Z</time></trkpt>
      <trkpt lat="27.492835" lon="114.196809"><ele>1587</ele><time>2025-11-15T03:01:55Z</time></trkpt>
      <trkpt lat="27.492667" lon="114.196743"><ele>1585</ele><time>2025-11-15T03:02:38Z</time></trkpt>
      <trkpt lat="27.492563" lon="114.196915"><ele>1582</ele><time>2025-11-15T03:03:27Z</time></trkpt>
      <trkpt lat="27.492286" lon="114.196935"><ele>1565</ele><time>2025-11-15T03:04:38Z</time></trkpt>
      <trkpt lat="27.491988" lon="114.197189"><ele>1543</ele><time>2025-11-15T03:06:09Z</time></trkpt>
      <trkpt lat="27.491355" lon="114.197171"><ele>1500</ele><time>2025-11-15T03:09:33Z</time></trkpt>
      <trkpt lat="27.491229" lon="114.197019"><ele>1495</ele><time>2025-11-15T03:10:02Z</time></trkpt>
      <trkpt lat="27.490958" lon="114.196925"><ele>1486</ele><time>2025-11-15T03:10:41Z</time></trkpt>
      <trkpt lat="27.490681" lon="114.196667"><ele>1480</ele><time>2025-11-15T03:11:34Z</time></trkpt>
      <trkpt lat="27.49056" lon="114.196369"><ele>1467</ele><time>2025-11-15T03:12:45Z</time></trkpt>
      <trkpt lat="27.490555" lon="114.196166"><ele>1455</ele><time>2025-11-15T03:13:36Z</time></trkpt>
      <trkpt lat="27.490421" lon="114.196021"><ele>1446</ele><time>2025-11-15T03:14:32Z</time></trkpt>
      <trkpt lat="27.490445" lon="114.195918"><ele>1439</ele><time>2025-11-15T03:14:58Z</time></trkpt>
      <trkpt lat="27.490287" lon="114.19555"><ele>1421</ele><time>2025-11-15T03:16:40Z</time></trkpt>
      <trkpt lat="27.490287" lon="114.195345"><ele>1420</ele><time>2025-11-15T03:17:14Z</time></trkpt>
      <trkpt lat="27.49013" lon="114.195076"><ele>1408</ele><time>2025-11-15T03:17:57Z</time></trkpt>
      <trkpt lat="27.489954" lon="114.195009"><ele>1403</ele><time>2025-11-15T03:18:24Z</time></trkpt>
      <trkpt lat="27.489646" lon="114.194748"><ele>1398</ele><time>2025-11-15T03:18:53Z</time></trkpt>
      <trkpt lat="27.48937" lon="114.194648"><ele>1394</ele><time>2025-11-15T03:19:23Z</time></trkpt>
      <trkpt lat="27.488972" lon="114.194199"><ele>1396</ele><time>2025-11-15T03:36:10Z</time></trkpt>
      <trkpt lat="27.488521" lon="114.194094"><ele>1407</ele><time>2025-11-15T03:37:25Z</time></trkpt>
      <trkpt lat="27.48829" lon="114.193935"><ele>1415</ele><time>2025-11-15T03:38:19Z</time></trkpt>
      <trkpt lat="27.488179" lon="114.193763"><ele>1422</ele><time>2025-11-15T03:38:54Z</time></trkpt>
      <trkpt lat="27.488098" lon="114.19347"><ele>1430</ele><time>2025-11-15T03:39:56Z</time></trkpt>
      <trkpt lat="27.487945" lon="114.19335"><ele>1440</ele><time>2025-11-15T03:41:00Z</time></trkpt>
      <trkpt lat="27.487679" lon="114.193311"><ele>1459</ele><time>2025-11-15T03:42:51Z</time></trkpt>
      <trkpt lat="27.48761" lon="114.193379"><ele>1467</ele><time>2025-11-15T03:43:29Z</time></trkpt>
      <trkpt lat="27.487445" lon="114.193146"><ele>1478</ele><time>2025-11-15T03:44:46Z</time></trkpt>
      <trkpt lat="27.487198" lon="114.193017"><ele>1500</ele><time>2025-11-15T03:46:40Z</time></trkpt>
      <trkpt lat="27.486648" lon="114.192926"><ele>1533</ele><time>2025-11-15T03:49:44Z</time></trkpt>
      <trkpt lat="27.486316" lon="114.192745"><ele>1549</ele><time>2025-11-15T03:51:28Z</time></trkpt>
      <trkpt lat="27.486229" lon="114.19278"><ele>1557</ele><time>2025-11-15T03:52:03Z</time></trkpt>
      <trkpt lat="27.485907" lon="114.192586"><ele>1571</ele><time>2025-11-15T03:53:26Z</time></trkpt>
      <trkpt lat="27.485612" lon="114.192334"><ele>1582</ele><time>2025-11-15T03:54:32Z</time></trkpt>
      <trkpt lat="27.485527" lon="114.192152"><ele>1593</ele><time>2025-11-15T03:55:30Z</time></trkpt>
      <trkpt lat="27.485437" lon="114.192121"><ele>1596</ele><time>2025-11-15T03:55:51Z</time></trkpt>
      <trkpt lat="27.485337" lon="114.191835"><ele>1609</ele><time>2025-11-15T03:57:01Z</time></trkpt>
      <trkpt lat="27.484871" lon="114.191517"><ele>1625</ele><time>2025-11-15T03:58:38Z</time></trkpt>
      <trkpt lat="27.484703" lon="114.191265"><ele>1631</ele><time>2025-11-15T03:59:24Z</time></trkpt>
      <trkpt lat="27.484545" lon="114.191152"><ele>1634</ele><time>2025-11-15T03:59:49Z</time></trkpt>
      <trkpt lat="27.484002" lon="114.191001"><ele>1641</ele><time>2025-11-15T04:00:59Z</time></trkpt>
      <trkpt lat="27.483401" lon="114.190698"><ele>1639</ele><time>2025-11-15T04:02:07Z</time></trkpt>
      <trkpt lat="27.482843" lon="114.190551"><ele>1630</ele><time>2025-11-15T04:03:25Z</time></trkpt>
      <trkpt lat="27.482462" lon="114.190576"><ele>1621</ele><time>2025-11-15T04:04:13Z</time></trkpt>
      <trkpt lat="27.482086" lon="114.190476"><ele>1617</ele><time>2025-11-15T04:04:43Z</time></trkpt>
      <trkpt lat="27.481644" lon="114.190681"><ele>1619</ele><time>2025-11-15T04:05:26Z</time></trkpt>
      <trkpt lat="27.481399" lon="114.190495"><ele>1609</ele><time>2025-11-15T04:05:57Z</time></trkpt>
      <trkpt lat="27.481033" lon="114.190378"><ele>1602</ele><time>2025-11-15T04:07:02Z</time></trkpt>
      <trkpt lat="27.48083" lon="114.189918"><ele>1585</ele><time>2025-11-15T04:08:23Z</time></trkpt>
      <trkpt lat="27.48045" lon="114.189935"><ele>1587</ele><time>2025-11-15T04:09:09Z</time></trkpt>
      <trkpt lat="27.480049" lon="114.189669"><ele>1573</ele><time>2025-11-15T04:09:58Z</time></trkpt>
      <trkpt lat="27.479655" lon="114.189653"><ele>1564</ele><time>2025-11-15T04:10:33Z</time></trkpt>
      <trkpt lat="27.479309" lon="114.19"><ele>1566</ele><time>2025-11-15T04:11:17Z</time></trkpt>
      <trkpt lat="27.478771" lon="114.189795"><ele>1556</ele><time>2025-11-15T04:12:24Z</time></trkpt>
      <trkpt lat="27.478063" lon="114.189949"><ele>1546</ele><time>2025-11-15T04:13:36Z</time></trkpt>
      <trkpt lat="27.477855" lon="114.189728"><ele>1536</ele><time>2025-11-15T04:14:05Z</time></trkpt>
      <trkpt lat="27.477665" lon="114.189737"><ele>1529</ele><time>2025-11-15T04:14:27Z</time></trkpt>
      <trkpt lat="27.476598" lon="114.189367"><ele>1501</ele><time>2025-11-15T04:17:56Z</time></trkpt>
      <trkpt lat="27.476424" lon="114.189128"><ele>1498</ele><time>2025-11-15T04:18:19Z</time></trkpt>
      <trkpt lat="27.47611" lon="114.18891"><ele>1506</ele><time>2025-11-15T04:19:03Z</time></trkpt>
      <trkpt lat="27.476007" lon="114.188631"><ele>1516</ele><time>2025-11-15T04:19:59Z</time></trkpt>
      <trkpt lat="27.475917" lon="114.188603"><ele>1522</ele><time>2025-11-15T04:20:19Z</time></trkpt>
      <trkpt lat="27.475891" lon="114.188502"><ele>1525</ele><time>2025-11-15T04:20:43Z</time></trkpt>
      <trkpt lat="27.475893" lon="114.187985"><ele>1531</ele><time>2025-11-15T04:22:17Z</time></trkpt>
      <trkpt lat="27.475579" lon="114.187476"><ele>1539</ele><time>2025-11-15T04:24:34Z</time></trkpt>
      <trkpt lat="27.475628" lon="114.187176"><ele>1558</ele><time>2025-11-15T04:25:45Z</time></trkpt>
      <trkpt lat="27.475526" lon="114.186778"><ele>1561</ele><time>2025-11-15T04:26:41Z</time></trkpt>
      <trkpt lat="27.475529" lon="114.186257"><ele>1568</ele><time>2025-11-15T04:27:57Z</time></trkpt>
      <trkpt lat="27.475841" lon="114.185492"><ele>1570</ele><time>2025-11-15T04:29:21Z</time></trkpt>
      <trkpt lat="27.475908" lon="114.184668"><ele>1571</ele><time>2025-11-15T04:30:44Z</time></trkpt>
      <trkpt lat="27.475708" lon="114.184198"><ele>1571</ele><time>2025-11-15T04:31:49Z</time></trkpt>
      <trkpt lat="27.475713" lon="114.183986"><ele>1573</ele><time>2025-11-15T04:32:10Z</time></trkpt>
      <trkpt lat="27.475392" lon="114.183763"><ele>1576</ele><time>2025-11-15T04:32:54Z</time></trkpt>
      <trkpt lat="27.475295" lon="114.183576"><ele>1576</ele><time>2025-11-15T04:33:13Z</time></trkpt>
      <trkpt lat="27.475359" lon="114.182625"><ele>1576</ele><time>2025-11-15T04:34:58Z</time></trkpt>
      <trkpt lat="27.475495" lon="114.182483"><ele>1573</ele><time>2025-11-15T04:35:16Z</time></trkpt>
      <trkpt lat="27.475513" lon="114.182377"><ele>1573</ele><time>2025-11-15T04:35:24Z</time></trkpt>
      <trkpt lat="27.4753" lon="114.182042"><ele>1567</ele><time>2025-11-15T04:36:07Z</time></trkpt>
      <trkpt lat="27.475407" lon="114.181863"><ele>1568</ele><time>2025-11-15T04:36:26Z</time></trkpt>
      <trkpt lat="27.475633" lon="114.181673"><ele>1572</ele><time>2025-11-15T04:36:53Z</time></trkpt>
      <trkpt lat="27.475816" lon="114.181614"><ele>1572</ele><time>2025-11-15T04:37:14Z</time></trkpt>
      <trkpt lat="27.475889" lon="114.181416"><ele>1569</ele><time>2025-11-15T04:37:31Z</time></trkpt>
      <trkpt lat="27.475862" lon="114.181204"><ele>1569</ele><time>2025-11-15T04:37:46Z</time></trkpt>
      <trkpt lat="27.475728" lon="114.181057"><ele>1569</ele><time>2025-11-15T04:38:36Z</time></trkpt>
      <trkpt lat="27.475839" lon="114.180886"><ele>1565</ele><time>2025-11-15T04:39:11Z</time></trkpt>
      <trkpt lat="27.475797" lon="114.180785"><ele>1565</ele><time>2025-11-15T04:39:22Z</time></trkpt>
      <trkpt lat="27.475653" lon="114.180653"><ele>1569</ele><time>2025-11-15T04:39:53Z</time></trkpt>
      <trkpt lat="27.475387" lon="114.180223"><ele>1566</ele><time>2025-11-15T04:40:45Z</time></trkpt>
      <trkpt lat="27.475039" lon="114.18007"><ele>1569</ele><time>2025-11-15T04:41:18Z</time></trkpt>
      <trkpt lat="27.474698" lon="114.180238"><ele>1581</ele><time>2025-11-15T04:42:39Z</time></trkpt>
      <trkpt lat="27.474645" lon="114.180324"><ele>1587</ele><time>2025-11-15T04:42:59Z</time></trkpt>
      <trkpt lat="27.474465" lon="114.180365"><ele>1591</ele><time>2025-11-15T04:43:59Z</time></trkpt>
      <trkpt lat="27.474162" lon="114.180623"><ele>1598</ele><time>2025-11-15T04:44:39Z</time></trkpt>
      <trkpt lat="27.473886" lon="114.180668"><ele>1603</ele><time>2025-11-15T04:45:28Z</time></trkpt>
      <trkpt lat="27.47358" lon="114.18042"><ele>1605</ele><time>2025-11-15T04:46:18Z</time></trkpt>
      <trkpt lat="27.473218" lon="114.180459"><ele>1617</ele><time>2025-11-15T04:47:16Z</time></trkpt>
      <trkpt lat="27.472763" lon="114.180343"><ele>1630</ele><time>2025-11-15T04:48:47Z</time></trkpt>
      <trkpt lat="27.472603" lon="114.180243"><ele>1632</ele><time>2025-11-15T04:49:26Z</time></trkpt>
      <trkpt lat="27.472273" lon="114.179859"><ele>1637</ele><time>2025-11-15T04:50:31Z</time></trkpt>
      <trkpt lat="27.471342" lon="114.179937"><ele>1663</ele><time>2025-11-15T04:52:39Z</time></trkpt>
      <trkpt lat="27.471257" lon="114.179757"><ele>1668</ele><time>2025-11-15T04:52:59Z</time></trkpt>
      <trkpt lat="27.471075" lon="114.17975"><ele>1673</ele><time>2025-11-15T04:53:20Z</time></trkpt>
      <trkpt lat="27.470921" lon="114.179637"><ele>1673</ele><time>2025-11-15T04:53:46Z</time></trkpt>
      <trkpt lat="27.470922" lon="114.179325"><ele>1672</ele><time>2025-11-15T04:54:21Z</time></trkpt>
      <trkpt lat="27.47074" lon="114.179308"><ele>1675</ele><time>2025-11-15T04:54:38Z</time></trkpt>
      <trkpt lat="27.470576" lon="114.179206"><ele>1670</ele><time>2025-11-15T04:54:58Z</time></trkpt>
      <trkpt lat="27.470432" lon="114.179344"><ele>1663</ele><time>2025-11-15T04:55:17Z</time></trkpt>
      <trkpt lat="27.470139" lon="114.179389"><ele>1659</ele><time>2025-11-15T04:55:46Z</time></trkpt>
      <trkpt lat="27.470041" lon="114.179564"><ele>1660</ele><time>2025-11-15T04:56:10Z</time></trkpt>
      <trkpt lat="27.469859" lon="114.179521"><ele>1667</ele><time>2025-11-15T04:56:41Z</time></trkpt>
      <trkpt lat="27.469557" lon="114.17926"><ele>1679</ele><time>2025-11-15T04:57:34Z</time></trkpt>
      <trkpt lat="27.46937" lon="114.179196"><ele>1684</ele><time>2025-11-15T04:57:55Z</time></trkpt>
      <trkpt lat="27.469179" lon="114.179226"><ele>1681</ele><time>2025-11-15T04:58:24Z</time></trkpt>
      <trkpt lat="27.469016" lon="114.179116"><ele>1672</ele><time>2025-11-15T04:58:58Z</time></trkpt>
      <trkpt lat="27.468734" lon="114.179106"><ele>1668</ele><time>2025-11-15T04:59:30Z</time></trkpt>
      <trkpt lat="27.468564" lon="114.17903"><ele>1666</ele><time>2025-11-15T04:59:46Z</time></trkpt>
      <trkpt lat="27.4679" lon="114.178505"><ele>1649</ele><time>2025-11-15T05:01:30Z</time></trkpt>
      <trkpt lat="27.4679" lon="114.178205"><ele>1631</ele><time>2025-11-15T05:02:24Z</time></trkpt>
      <trkpt lat="27.467757" lon="114.17794"><ele>1631</ele><time>2025-11-15T05:02:52Z</time></trkpt>
      <trkpt lat="27.467503" lon="114.177826"><ele>1621</ele><time>2025-11-15T05:03:45Z</time></trkpt>
      <trkpt lat="27.467405" lon="114.177654"><ele>1611</ele><time>2025-11-15T05:04:21Z</time></trkpt>
      <trkpt lat="27.46714" lon="114.177535"><ele>1596</ele><time>2025-11-15T05:05:18Z</time></trkpt>
      <trkpt lat="27.467041" lon="114.177355"><ele>1593</ele><time>2025-11-15T05:05:39Z</time></trkpt>
      <trkpt lat="27.467032" lon="114.177146"><ele>1590</ele><time>2025-11-15T05:05:59Z</time></trkpt>
      <trkpt lat="27.466817" lon="114.176929"><ele>1590</ele><time>2025-11-15T05:06:23Z</time></trkpt>
      <trkpt lat="27.466721" lon="114.176635"><ele>1587</ele><time>2025-11-15T05:06:48Z</time></trkpt>
      <trkpt lat="27.466456" lon="114.176329"><ele>1580</ele><time>2025-11-15T05:07:30Z</time></trkpt>
      <trkpt lat="27.466277" lon="114.176244"><ele>1583</ele><time>2025-11-15T05:07:50Z</time></trkpt>
      <trkpt lat="27.466324" lon="114.175846"><ele>1580</ele><time>2025-11-15T05:08:34Z</time></trkpt>
      <trkpt lat="27.466034" lon="114.175884"><ele>1580</ele><time>2025-11-15T05:09:56Z</time></trkpt>
      <trkpt lat="27.466266" lon="114.175912"><ele>1576</ele><time>2025-11-15T05:10:07Z</time></trkpt>
      <trkpt lat="27.466344" lon="114.175853"><ele>1583</ele><time>2025-11-15T05:16:06Z</time></trkpt>
      <trkpt lat="27.466335" lon="114.175745"><ele>1585</ele><time>2025-11-15T05:16:26Z</time></trkpt>
      <trkpt lat="27.465808" lon="114.175286"><ele>1610</ele><time>2025-11-15T05:18:44Z</time></trkpt>
      <trkpt lat="27.465194" lon="114.175062"><ele>1643</ele><time>2025-11-15T05:21:35Z</time></trkpt>
      <trkpt lat="27.464727" lon="114.175059"><ele>1661</ele><time>2025-11-15T05:23:07Z</time></trkpt>
      <trkpt lat="27.463569" lon="114.174645"><ele>1692</ele><time>2025-11-15T05:26:05Z</time></trkpt>
      <trkpt lat="27.462995" lon="114.174254"><ele>1693</ele><time>2025-11-15T05:27:25Z</time></trkpt>
      <trkpt lat="27.462386" lon="114.173981"><ele>1696</ele><time>2025-11-15T05:28:44Z</time></trkpt>
      <trkpt lat="27.462013" lon="114.173523"><ele>1695</ele><time>2025-11-15T05:29:48Z</time></trkpt>
      <trkpt lat="27.461276" lon="114.173338"><ele>1673</ele><time>2025-11-15T05:31:32Z</time></trkpt>
      <trkpt lat="27.46081" lon="114.173486"><ele>1678</ele><time>2025-11-15T05:32:16Z</time></trkpt>
      <trkpt lat="27.460401" lon="114.173241"><ele>1703</ele><time>2025-11-15T05:33:54Z</time></trkpt>
      <trkpt lat="27.459729" lon="114.17361"><ele>1738</ele><time>2025-11-15T05:36:42Z</time></trkpt>
      <trkpt lat="27.458607" lon="114.173709"><ele>1795</ele><time>2025-11-15T05:41:59Z</time></trkpt>
      <trkpt lat="27.458529" lon="114.173653"><ele>1795</ele><time>2025-11-15T05:42:16Z</time></trkpt>
      <trkpt lat="27.458466" lon="114.173831"><ele>1797</ele><time>2025-11-15T05:46:21Z</time></trkpt>
      <trkpt lat="27.457818" lon="114.173909"><ele>1817</ele><time>2025-11-15T05:48:24Z</time></trkpt>
      <trkpt lat="27.457178" lon="114.17381"><ele>1837</ele><time>2025-11-15T05:50:25Z</time></trkpt>
      <trkpt lat="27.456837" lon="114.173652"><ele>1850</ele><time>2025-11-15T05:51:38Z</time></trkpt>
      <trkpt lat="27.456465" lon="114.173649"><ele>1868</ele><time>2025-11-15T05:53:11Z</time></trkpt>
      <trkpt lat="27.456436" lon="114.17355"><ele>1873</ele><time>2025-11-15T05:53:37Z</time></trkpt>
      <trkpt lat="27.455802" lon="114.173377"><ele>1902</ele><time>2025-11-15T05:56:30Z</time></trkpt>
      <trkpt lat="27.455722" lon="114.173326"><ele>1908</ele><time>2025-11-15T05:56:59Z</time></trkpt>
      <trkpt lat="27.455679" lon="114.173127"><ele>1911</ele><time>2025-11-15T06:01:11Z</time></trkpt>
      <trkpt lat="27.455563" lon="114.172955"><ele>1910</ele><time>2025-11-15T06:01:45Z</time></trkpt>
      <trkpt lat="27.455174" lon="114.172684"><ele>1897</ele><time>2025-11-15T06:02:57Z</time></trkpt>
      <trkpt lat="27.455045" lon="114.172298"><ele>1888</ele><time>2025-11-15T06:03:55Z</time></trkpt>
      <trkpt lat="27.455042" lon="114.171995"><ele>1883</ele><time>2025-11-15T06:04:26Z</time></trkpt>
      <trkpt lat="27.454963" lon="114.171929"><ele>1879</ele><time>2025-11-15T06:04:43Z</time></trkpt>
      <trkpt lat="27.454653" lon="114.171692"><ele>1871</ele><time>2025-11-15T06:05:38Z</time></trkpt>
      <trkpt lat="27.454489" lon="114.171785"><ele>1865</ele><time>2025-11-15T06:06:01Z</time></trkpt>
      <trkpt lat="27.45429" lon="114.171747"><ele>1862</ele><time>2025-11-15T06:06:20Z</time></trkpt>
      <trkpt lat="27.454099" lon="114.171796"><ele>1867</ele><time>2025-11-15T06:06:40Z</time></trkpt>
      <trkpt lat="27.454014" lon="114.171756"><ele>1862</ele><time>2025-11-15T06:07:02Z</time></trkpt>
      <trkpt lat="27.454128" lon="114.171602"><ele>1850</ele><time>2025-11-15T06:07:37Z</time></trkpt>
      <trkpt lat="27.454057" lon="114.171538"><ele>1844</ele><time>2025-11-15T06:07:55Z</time></trkpt>
      <trkpt lat="27.453867" lon="114.171546"><ele>1841</ele><time>2025-11-15T06:08:17Z</time></trkpt>
      <trkpt lat="27.453702" lon="114.171651"><ele>1838</ele><time>2025-11-15T06:08:38Z</time></trkpt>
      <trkpt lat="27.453619" lon="114.171586"><ele>1835</ele><time>2025-11-15T06:08:49Z</time></trkpt>
      <trkpt lat="27.453477" lon="114.171298"><ele>1829</ele><time>2025-11-15T06:09:22Z</time></trkpt>
      <trkpt lat="27.453617" lon="114.171435"><ele>1822</ele><time>2025-11-15T06:09:59Z</time></trkpt>
      <trkpt lat="27.453793" lon="114.17138"><ele>1820</ele><time>2025-11-15T06:10:25Z</time></trkpt>
      <trkpt lat="27.453825" lon="114.171173"><ele>1819</ele><time>2025-11-15T06:10:45Z</time></trkpt>
      <trkpt lat="27.454194" lon="114.170858"><ele>1802</ele><time>2025-11-15T06:12:02Z</time></trkpt>
      <trkpt lat="27.454147" lon="114.170768"><ele>1795</ele><time>2025-11-15T06:12:32Z</time></trkpt>
      <trkpt lat="27.454203" lon="114.170687"><ele>1790</ele><time>2025-11-15T06:13:01Z</time></trkpt>
      <trkpt lat="27.454558" lon="114.170411"><ele>1769</ele><time>2025-11-15T06:14:32Z</time></trkpt>
      <trkpt lat="27.454467" lon="114.170228"><ele>1764</ele><time>2025-11-15T06:15:03Z</time></trkpt>
      <trkpt lat="27.454378" lon="114.170203"><ele>1765</ele><time>2025-11-15T06:15:14Z</time></trkpt>
      <trkpt lat="27.454316" lon="114.170304"><ele>1768</ele><time>2025-11-15T06:15:28Z</time></trkpt>
      <trkpt lat="27.454374" lon="114.170386"><ele>1762</ele><time>2025-11-15T06:15:41Z</time></trkpt>
      <trkpt lat="27.454285" lon="114.170365"><ele>1767</ele><time>2025-11-15T06:16:26Z</time></trkpt>
    </trkseg>
  </trk>
</gpx>
