<?xml version="1.0" encoding="UTF-8"?>
<gpx version="1.1" creator="MyWorld" xmlns="http://www.topografix.com/GPX/1/1">
  <metadata><name>萍乡武功山反穿（云顶景区下山）</name></metadata>
  <trk>
    <name>萍乡武功山反穿（云顶景区下山）</name>
    <trkseg>
      <trkpt lat="27.537874" lon="114.171738"><ele>563</ele><time>2025-05-23T22:43:30Z</time></trkpt>
      <trkpt lat="27.537862" lon="114.171638"><ele>559</ele><time>2025-05-23T22:56:10Z</time></trkpt>
      <trkpt lat="27.537887" lon="114.171735"><ele>556</ele><time>2025-05-23T22:59:24Z</time></trkpt>
      <trkpt lat="27.537684" lon="114.172104"><ele>560</ele><time>2025-05-23T23:06:12Z</time></trkpt>
      <trkpt lat="27.537507" lon="114.172707"><ele>563</ele><time>2025-05-23T23:06:58Z</time></trkpt>
      <trkpt lat="27.537331" lon="114.172948"><ele>569</ele><time>2025-05-23T23:07:25Z</time></trkpt>
      <trkpt lat="27.537131" lon="114.173422"><ele>578</ele><time>2025-05-23T23:08:36Z</time></trkpt>
      <trkpt lat="27.537011" lon="114.174597"><ele>589</ele><time>2025-05-23T23:10:07Z</time></trkpt>
      <trkpt lat="27.537077" lon="114.175128"><ele>594</ele><time>2025-05-23T23:10:50Z</time></trkpt>
      <trkpt lat="27.537178" lon="114.175429"><ele>600</ele><time>2025-05-23T23:11:17Z</time></trkpt>
      <trkpt lat="27.537335" lon="114.175523"><ele>605</ele><time>2025-05-23T23:11:36Z</time></trkpt>
      <trkpt lat="27.537523" lon="114.175756"><ele>611</ele><time>2025-05-23T23:12:15Z</time></trkpt>
      <trkpt lat="27.537562" lon="114.175957"><ele>613</ele><time>2025-05-23T23:12:32Z</time></trkpt>
      <trkpt lat="27.537639" lon="114.176019"><ele>615</ele><time>2025-05-23T23:12:42Z</time></trkpt>
      <trkpt lat="27.537657" lon="114.176229"><ele>615</ele><time>2025-05-23T23:13:01Z</time></trkpt>
      <trkpt lat="27.537611" lon="114.176981"><ele>623</ele><time>2025-05-23T23:14:18Z</time></trkpt>
      <trkpt lat="27.537347" lon="114.177561"><ele>631</ele><time>2025-05-23T23:15:16Z</time></trkpt>
      <trkpt lat="27.537313" lon="114.177759"><ele>639</ele><time>2025-05-23T23:15:38Z</time></trkpt>
      <trkpt lat="27.537196" lon="114.177933"><ele>647</ele><time>2025-05-23T23:16:03Z</time></trkpt>
      <trkpt lat="27.53719" lon="114.178248"><ele>657</ele><time>2025-05-23T23:16:42Z</time></trkpt>
      <trkpt lat="27.537288" lon="114.17853"><ele>657</ele><time>2025-05-23T23:17:12Z</time></trkpt>
      <trkpt lat="27.537385" lon="114.178538"><ele>659</ele><time>2025-05-23T23:17:25Z</time></trkpt>
      <trkpt lat="27.537443" lon="114.178629"><ele>659</ele><time>2025-05-23T23:17:36Z</time></trkpt>
      <trkpt lat="27.537735" lon="114.179421"><ele>669</ele><time>2025-05-23T23:19:08Z</time></trkpt>
      <trkpt lat="27.537851" lon="114.17959"><ele>672</ele><time>2025-05-23T23:19:54Z</time></trkpt>
      <trkpt lat="27.537766" lon="114.179629"><ele>675</ele><time>2025-05-23T23:20:11Z</time></trkpt>
      <trkpt lat="27.537858" lon="114.180143"><ele>688</ele><time>2025-05-23T23:21:22Z</time></trkpt>
      <trkpt lat="27.537801" lon="114.180357"><ele>691</ele><time>2025-05-23T23:21:46Z</time></trkpt>
      <trkpt lat="27.537893" lon="114.181097"><ele>712</ele><time>2025-05-23T23:24:03Z</time></trkpt>
      <trkpt lat="27.537627" lon="114.181008"><ele>725</ele><time>2025-05-23T23:25:06Z</time></trkpt>
      <trkpt lat="27.537491" lon="114.180869"><ele>732</ele><time>2025-05-23T23:25:42Z</time></trkpt>
      <trkpt lat="27.537432" lon="114.180952"><ele>734</ele><time>2025-05-23T23:27:30Z</time></trkpt>
      <trkpt lat="27.537436" lon="114.181268"><ele>751</ele><time>2025-05-23T23:28:41Z</time></trkpt>
      <trkpt lat="27.537356" lon="114.181452"><ele>756</ele><time>2025-05-23T23:29:15Z</time></trkpt>
      <trkpt lat="27.537479" lon="114.181833"><ele>776</ele><time>2025-05-23T23:31:03Z</time></trkpt>
      <trkpt lat="27.537436" lon="114.182042"><ele>786</ele><time>2025-05-23T23:31:50Z</time></trkpt>
      <trkpt lat="27.537272" lon="114.182121"><ele>792</ele><time>2025-05-23T23:32:41Z</time></trkpt>
      <trkpt lat="27.537584" lon="114.182352"><ele>809</ele><time>2025-05-23T23:34:16Z</time></trkpt>
      <trkpt lat="27.537699" lon="114.18251"><ele>818</ele><time>2025-05-23T23:35:18Z</time></trkpt>
      <trkpt lat="27.537683" lon="114.183029"><ele>844</ele><time>2025-05-23T23:37:47Z</time></trkpt>
      <trkpt lat="27.537735" lon="114.183244"><ele>846</ele><time>2025-05-23T23:38:29Z</time></trkpt>
      <trkpt lat="27.537633" lon="114.183535"><ele>853</ele><time>2025-05-23T23:39:06Z</time></trkpt>
      <trkpt lat="27.537776" lon="114.184137"><ele>872</ele><time>2025-05-23T23:41:46Z</time></trkpt>
      <trkpt lat="27.537637" lon="114.184263"><ele>882</ele><time>2025-05-23T23:42:42Z</time></trkpt>
      <trkpt lat="27.53755" lon="114.184452"><ele>885</ele><time>2025-05-23T23:43:09Z</time></trkpt>
      <trkpt lat="27.537614" lon="114.184744"><ele>898</ele><time>2025-05-23T23:44:09Z</time></trkpt>
      <trkpt lat="27.537695" lon="114.184796"><ele>899</ele><time>2025-05-23T23:44:22Z</time></trkpt>
      <trkpt lat="27.53762" lon="114.184986"><ele>908</ele><time>2025-05-23T23:45:07Z</time></trkpt>
      <trkpt lat="27.537804" lon="114.185333"><ele>924</ele><time>2025-05-23T23:46:40Z</time></trkpt>
      <trkpt lat="27.537889" lon="114.185384"><ele>927</ele><time>2025-05-23T23:46:58Z</time></trkpt>
      <trkpt lat="27.537984" lon="114.18578"><ele>946</ele><time>2025-05-23T23:49:04Z</time></trkpt>
      <trkpt lat="27.537893" lon="114.186071"><ele>959</ele><time>2025-05-23T23:49:58Z</time></trkpt>
      <trkpt lat="27.537719" lon="114.186149"><ele>962</ele><time>2025-05-23T23:50:42Z</time></trkpt>
      <trkpt lat="27.537601" lon="114.18631"><ele>965</ele><time>2025-05-23T23:51:21Z</time></trkpt>
      <trkpt lat="27.537733" lon="114.186454"><ele>975</ele><time>2025-05-23T23:51:58Z</time></trkpt>
      <trkpt lat="27.537997" lon="114.186575"><ele>984</ele><time>2025-05-23T23:52:49Z</time></trkpt>
      <trkpt lat="27.537958" lon="114.186669"><ele>986</ele><time>2025-05-23T23:53:22Z</time></trkpt>
      <trkpt lat="27.538037" lon="114.18672"><ele>989</ele><time>2025-05-23T23:53:37Z</time></trkpt>
      <trkpt lat="27.53802" lon="114.18682"><ele>993</ele><time>2025-05-23T23:53:59Z</time></trkpt>
      <trkpt lat="27.53814" lon="114.187099"><ele>1007</ele><time>2025-05-23T23:55:01Z</time></trkpt>
      <trkpt lat="27.538232" lon="114.187144"><ele>1012</ele><time>2025-05-23T23:55:26Z</time></trkpt>
      <trkpt lat="27.538379" lon="114.187407"><ele>1023</ele><time>2025-05-23T23:56:45Z</time></trkpt>
      <trkpt lat="27.538399" lon="114.187615"><ele>1028</ele><time>2025-05-23T23:57:31Z</time></trkpt>
      <trkpt lat="27.538571" lon="114.187982"><ele>1045</ele><time>2025-05-23T23:59:19Z</time></trkpt>
      <trkpt lat="27.538729" lon="114.188116"><ele>1053</ele><time>2025-05-23T23:59:58Z</time></trkpt>
      <trkpt lat="27.538751" lon="114.188215"><ele>1052</ele><time>2025-05-24T00:00:19Z</time></trkpt>
      <trkpt lat="27.538858" lon="114.188204"><ele>1056</ele><time>2025-05-24T00:00:37Z</time></trkpt>
      <trkpt lat="27.538901" lon="114.188404"><ele>1066</ele><time>2025-05-24T00:01:42Z</time></trkpt>
      <trkpt lat="27.538787" lon="114.188567"><ele>1072</ele><time>2025-05-24T00:02:19Z</time></trkpt>
      <trkpt lat="27.538885" lon="114.18858"><ele>1077</ele><time>2025-05-24T00:02:36Z</time></trkpt>
      <trkpt lat="27.539022" lon="114.188799"><ele>1096</ele><time>2025-05-24T00:03:07Z</time></trkpt>
      <trkpt lat="27.53926" lon="114.188816"><ele>1091</ele><time>2025-05-24T00:03:51Z</time></trkpt>
      <trkpt lat="27.53952" lon="114.188969"><ele>1099</ele><time>2025-05-24T00:05:01Z</time></trkpt>
      <trkpt lat="27.539714" lon="114.189438"><ele>1121</ele><time>2025-05-24T00:07:07Z</time></trkpt>
      <trkpt lat="27.539872" lon="114.189541"><ele>1125</ele><time>2025-05-24T00:07:41Z</time></trkpt>
      <trkpt lat="27.540097" lon="114.190078"><ele>1159</ele><time>2025-05-24T00:12:43Z</time></trkpt>
      <trkpt lat="27.540406" lon="114.190256"><ele>1186</ele><time>2025-05-24T00:14:53Z</time></trkpt>
      <trkpt lat="27.540495" lon="114.190234"><ele>1191</ele><time>2025-05-24T00:15:29Z</time></trkpt>
      <trkpt lat="27.540537" lon="114.190134"><ele>1197</ele><time>2025-05-24T00:15:53Z</time></trkpt>
      <trkpt lat="27.540603" lon="114.190328"><ele>1210</ele><time>2025-05-24T00:17:14Z</time></trkpt>
      <trkpt lat="27.540584" lon="114.190521"><ele>1217</ele><time>2025-05-24T00:17:44Z</time></trkpt>
      <trkpt lat="27.540645" lon="114.190445"><ele>1218</ele><time>2025-05-24T00:18:04Z</time></trkpt>
      <trkpt lat="27.540866" lon="114.190636"><ele>1238</ele><time>2025-05-24T00:20:26Z</time></trkpt>
      <trkpt lat="27.54086" lon="114.190832"><ele>1250</ele><time>2025-05-24T00:21:27Z</time></trkpt>
      <trkpt lat="27.540947" lon="114.190864"><ele>1254</ele><time>2025-05-24T00:21:59Z</time></trkpt>
      <trkpt lat="27.540939" lon="114.190969"><ele>1256</ele><time>2025-05-24T00:22:16Z</time></trkpt>
      <trkpt lat="27.541089" lon="114.190834"><ele>1262</ele><time>2025-05-24T00:22:44Z</time></trkpt>
      <trkpt lat="27.541238" lon="114.190954"><ele>1264</ele><time>2025-05-24T00:23:10Z</time></trkpt>
      <trkpt lat="27.541364" lon="114.191109"><ele>1268</ele><time>2025-05-24T00:23:39Z</time></trkpt>
      <trkpt lat="27.541504" lon="114.1915"><ele>1280</ele><time>2025-05-24T00:24:53Z</time></trkpt>
      <trkpt lat="27.541353" lon="114.191386"><ele>1301</ele><time>2025-05-24T00:26:01Z</time></trkpt>
      <trkpt lat="27.541087" lon="114.191671"><ele>1308</ele><time>2025-05-24T00:26:55Z</time></trkpt>
      <trkpt lat="27.541183" lon="114.192081"><ele>1318</ele><time>2025-05-24T00:27:51Z</time></trkpt>
      <trkpt lat="27.54103" lon="114.192191"><ele>1320</ele><time>2025-05-24T00:28:29Z</time></trkpt>
      <trkpt lat="27.541009" lon="114.1924"><ele>1324</ele><time>2025-05-24T00:28:57Z</time></trkpt>
      <trkpt lat="27.541065" lon="114.192484"><ele>1327</ele><time>2025-05-24T00:29:10Z</time></trkpt>
      <trkpt lat="27.541086" lon="114.192788"><ele>1332</ele><time>2025-05-24T00:29:57Z</time></trkpt>
      <trkpt lat="27.541036" lon="114.192986"><ele>1340</ele><time>2025-05-24T00:30:28Z</time></trkpt>
      <trkpt lat="27.541061" lon="114.193414"><ele>1346</ele><time>2025-05-24T00:31:12Z</time></trkpt>
      <trkpt lat="27.540824" lon="114.193577"><ele>1349</ele><time>2025-05-24T00:31:43Z</time></trkpt>
      <trkpt lat="27.540667" lon="114.194297"><ele>1357</ele><time>2025-05-24T00:32:52Z</time></trkpt>
      <trkpt lat="27.540029" lon="114.195229"><ele>1371</ele><time>2025-05-24T00:35:02Z</time></trkpt>
      <trkpt lat="27.539917" lon="114.195654"><ele>1377</ele><time>2025-05-24T00:35:50Z</time></trkpt>
      <trkpt lat="27.539411" lon="114.19611"><ele>1395</ele><time>2025-05-24T00:37:23Z</time></trkpt>
      <trkpt lat="27.539246" lon="114.195998"><ele>1400</ele><time>2025-05-24T00:37:54Z</time></trkpt>
      <trkpt lat="27.539156" lon="114.196028"><ele>1403</ele><time>2025-05-24T00:38:10Z</time></trkpt>
      <trkpt lat="27.539138" lon="114.196131"><ele>1409</ele><time>2025-05-24T00:38:30Z</time></trkpt>
      <trkpt lat="27.538956" lon="114.196215"><ele>1417</ele><time>2025-05-24T00:39:07Z</time></trkpt>
      <trkpt lat="27.538768" lon="114.196442"><ele>1421</ele><time>2025-05-24T00:39:44Z</time></trkpt>
      <trkpt lat="27.538768" lon="114.196546"><ele>1422</ele><time>2025-05-24T00:39:55Z</time></trkpt>
      <trkpt lat="27.538595" lon="114.196798"><ele>1423</ele><time>2025-05-24T00:40:27Z</time></trkpt>
      <trkpt lat="27.538519" lon="114.197209"><ele>1422</ele><time>2025-05-24T00:41:18Z</time></trkpt>
      <trkpt lat="27.538061" lon="114.197707"><ele>1427</ele><time>2025-05-24T00:42:23Z</time></trkpt>
      <trkpt lat="27.537767" lon="114.198235"><ele>1436</ele><time>2025-05-24T00:43:38Z</time></trkpt>
      <trkpt lat="27.537515" lon="114.198377"><ele>1436</ele><time>2025-05-24T00:44:06Z</time></trkpt>
      <trkpt lat="27.53725" lon="114.198241"><ele>1442</ele><time>2025-05-24T00:44:32Z</time></trkpt>
      <trkpt lat="27.537084" lon="114.198333"><ele>1446</ele><time>2025-05-24T00:44:52Z</time></trkpt>
      <trkpt lat="27.536995" lon="114.198311"><ele>1448</ele><time>2025-05-24T00:45:04Z</time></trkpt>
      <trkpt lat="27.536736" lon="114.198166"><ele>1450</ele><time>2025-05-24T00:45:33Z</time></trkpt>
      <trkpt lat="27.536388" lon="114.198518"><ele>1454</ele><time>2025-05-24T00:46:28Z</time></trkpt>
      <trkpt lat="27.536294" lon="114.198507"><ele>1452</ele><time>2025-05-24T00:46:38Z</time></trkpt>
      <trkpt lat="27.53628" lon="114.198293"><ele>1455</ele><time>2025-05-24T00:46:54Z</time></trkpt>
      <trkpt lat="27.536017" lon="114.198165"><ele>1457</ele><time>2025-05-24T00:47:33Z</time></trkpt>
      <trkpt lat="27.535932" lon="114.198202"><ele>1455</ele><time>2025-05-24T00:47:39Z</time></trkpt>
      <trkpt lat="27.535921" lon="114.198419"><ele>1455</ele><time>2025-05-24T00:47:57Z</time></trkpt>
      <trkpt lat="27.535808" lon="114.198589"><ele>1457</ele><time>2025-05-24T00:48:29Z</time></trkpt>
      <trkpt lat="27.535647" lon="114.19848"><ele>1459</ele><time>2025-05-24T00:48:44Z</time></trkpt>
      <trkpt lat="27.535641" lon="114.19879"><ele>1463</ele><time>2025-05-24T00:49:24Z</time></trkpt>
      <trkpt lat="27.535698" lon="114.198979"><ele>1468</ele><time>2025-05-24T00:49:40Z</time></trkpt>
      <trkpt lat="27.535422" lon="114.199262"><ele>1466</ele><time>2025-05-24T00:50:26Z</time></trkpt>
      <trkpt lat="27.53523" lon="114.19922"><ele>1465</ele><time>2025-05-24T00:50:41Z</time></trkpt>
      <trkpt lat="27.535076" lon="114.1991"><ele>1463</ele><time>2025-05-24T00:50:56Z</time></trkpt>
      <trkpt lat="27.534717" lon="114.199243"><ele>1460</ele><time>2025-05-24T00:51:28Z</time></trkpt>
      <trkpt lat="27.534256" lon="114.199246"><ele>1449</ele><time>2025-05-24T00:52:15Z</time></trkpt>
      <trkpt lat="27.534085" lon="114.199338"><ele>1445</ele><time>2025-05-24T00:52:30Z</time></trkpt>
      <trkpt lat="27.533903" lon="114.199255"><ele>1438</ele><time>2025-05-24T00:52:55Z</time></trkpt>
      <trkpt lat="27.533535" lon="114.199326"><ele>1432</ele><time>2025-05-24T00:53:51Z</time></trkpt>
      <trkpt lat="27.533255" lon="114.199258"><ele>1446</ele><time>2025-05-24T00:54:25Z</time></trkpt>
      <trkpt lat="27.532895" lon="114.198948"><ele>1461</ele><time>2025-05-24T00:55:46Z</time></trkpt>
      <trkpt lat="27.532322" lon="114.198607"><ele>1476</ele><time>2025-05-24T00:57:28Z</time></trkpt>
      <trkpt lat="27.532274" lon="114.198395"><ele>1477</ele><time>2025-05-24T00:57:58Z</time></trkpt>
      <trkpt lat="27.532029" lon="114.198226"><ele>1484</ele><time>2025-05-24T00:58:27Z</time></trkpt>
      <trkpt lat="27.531717" lon="114.197699"><ele>1496</ele><time>2025-05-24T00:59:25Z</time></trkpt>
      <trkpt lat="27.531569" lon="114.197582"><ele>1497</ele><time>2025-05-24T00:59:58Z</time></trkpt>
      <trkpt lat="27.531235" lon="114.19736"><ele>1507</ele><time>2025-05-24T01:00:58Z</time></trkpt>
      <trkpt lat="27.530874" lon="114.197353"><ele>1518</ele><time>2025-05-24T01:01:45Z</time></trkpt>
      <trkpt lat="27.530725" lon="114.197236"><ele>1524</ele><time>2025-05-24T01:02:14Z</time></trkpt>
      <trkpt lat="27.530536" lon="114.197226"><ele>1530</ele><time>2025-05-24T01:02:39Z</time></trkpt>
      <trkpt lat="27.530382" lon="114.197349"><ele>1536</ele><time>2025-05-24T01:03:11Z</time></trkpt>
      <trkpt lat="27.530192" lon="114.197334"><ele>1540</ele><time>2025-05-24T01:03:42Z</time></trkpt>
      <trkpt lat="27.529928" lon="114.197616"><ele>1549</ele><time>2025-05-24T01:04:44Z</time></trkpt>
      <trkpt lat="27.529659" lon="114.197626"><ele>1565</ele><time>2025-05-24T01:05:50Z</time></trkpt>
      <trkpt lat="27.529581" lon="114.197685"><ele>1566</ele><time>2025-05-24T01:06:10Z</time></trkpt>
      <trkpt lat="27.529584" lon="114.198"><ele>1578</ele><time>2025-05-24T01:07:07Z</time></trkpt>
      <trkpt lat="27.529351" lon="114.19816"><ele>1587</ele><time>2025-05-24T01:08:01Z</time></trkpt>
      <trkpt lat="27.529075" lon="114.198236"><ele>1590</ele><time>2025-05-24T01:08:42Z</time></trkpt>
      <trkpt lat="27.528841" lon="114.198078"><ele>1590</ele><time>2025-05-24T01:09:29Z</time></trkpt>
      <trkpt lat="27.528481" lon="114.197578"><ele>1590</ele><time>2025-05-24T01:10:25Z</time></trkpt>
      <trkpt lat="27.528385" lon="114.197767"><ele>1592</ele><time>2025-05-24T01:10:48Z</time></trkpt>
      <trkpt lat="27.528314" lon="114.198176"><ele>1590</ele><time>2025-05-24T01:11:18Z</time></trkpt>
      <trkpt lat="27.527807" lon="114.198475"><ele>1581</ele><time>2025-05-24T01:12:08Z</time></trkpt>
      <trkpt lat="27.527403" lon="114.199184"><ele>1576</ele><time>2025-05-24T01:13:18Z</time></trkpt>
      <trkpt lat="27.526941" lon="114.199094"><ele>1566</ele><time>2025-05-24T01:14:07Z</time></trkpt>
      <trkpt lat="27.526507" lon="114.19892"><ele>1560</ele><time>2025-05-24T01:14:59Z</time></trkpt>
      <trkpt lat="27.526124" lon="114.198921"><ele>1551</ele><time>2025-05-24T01:15:41Z</time></trkpt>
      <trkpt lat="27.525954" lon="114.198998"><ele>1550</ele><time>2025-05-24T01:32:33Z</time></trkpt>
      <trkpt lat="27.525756" lon="114.198777"><ele>1547</ele><time>2025-05-24T01:33:21Z</time></trkpt>
      <trkpt lat="27.525674" lon="114.198826"><ele>1543</ele><time>2025-05-24T01:33:42Z</time></trkpt>
      <trkpt lat="27.525574" lon="114.198637"><ele>1538</ele><time>2025-05-24T01:34:12Z</time></trkpt>
      <trkpt lat="27.525623" lon="114.198117"><ele>1526</ele><time>2025-05-24T01:35:19Z</time></trkpt>
      <trkpt lat="27.525156" lon="114.197774"><ele>1524</ele><time>2025-05-24T01:37:04Z</time></trkpt>
      <trkpt lat="27.525003" lon="114.197383"><ele>1525</ele><time>2025-05-24T01:37:37Z</time></trkpt>
      <trkpt lat="27.524753" lon="114.197075"><ele>1534</ele><time>2025-05-24T01:38:31Z</time></trkpt>
      <trkpt lat="27.524737" lon="114.196974"><ele>1534</ele><time>2025-05-24T01:38:41Z</time></trkpt>
      <trkpt lat="27.524668" lon="114.196899"><ele>1533</ele><time>2025-05-24T01:38:50Z</time></trkpt>
      <trkpt lat="27.524479" lon="114.196868"><ele>1538</ele><time>2025-05-24T01:39:08Z</time></trkpt>
      <trkpt lat="27.52421" lon="114.196575"><ele>1532</ele><time>2025-05-24T01:39:49Z</time></trkpt>
      <trkpt lat="27.524026" lon="114.196584"><ele>1533</ele><time>2025-05-24T01:40:19Z</time></trkpt>
      <trkpt lat="27.523853" lon="114.196821"><ele>1543</ele><time>2025-05-24T01:41:15Z</time></trkpt>
      <trkpt lat="27.523513" lon="114.197024"><ele>1548</ele><time>2025-05-24T01:42:01Z</time></trkpt>
      <trkpt lat="27.523245" lon="114.196929"><ele>1549</ele><time>2025-05-24T01:42:27Z</time></trkpt>
      <trkpt lat="27.522925" lon="114.197167"><ele>1547</ele><time>2025-05-24T01:44:08Z</time></trkpt>
      <trkpt lat="27.522733" lon="114.197188"><ele>1544</ele><time>2025-05-24T01:45:00Z</time></trkpt>
      <trkpt lat="27.522587" lon="114.197059"><ele>1542</ele><time>2025-05-24T01:45:15Z</time></trkpt>
      <trkpt lat="27.522553" lon="114.196832"><ele>1543</ele><time>2025-05-24T01:45:30Z</time></trkpt>
      <trkpt lat="27.522115" lon="114.196658"><ele>1541</ele><time>2025-05-24T01:46:05Z</time></trkpt>
      <trkpt lat="27.521959" lon="114.196395"><ele>1539</ele><time>2025-05-24T01:47:09Z</time></trkpt>
      <trkpt lat="27.521653" lon="114.196141"><ele>1549</ele><time>2025-05-24T01:47:51Z</time></trkpt>
      <trkpt lat="27.521482" lon="114.195896"><ele>1552</ele><time>2025-05-24T01:48:21Z</time></trkpt>
      <trkpt lat="27.521309" lon="114.195832"><ele>1557</ele><time>2025-05-24T01:48:39Z</time></trkpt>
      <trkpt lat="27.521253" lon="114.195748"><ele>1556</ele><time>2025-05-24T01:48:47Z</time></trkpt>
      <trkpt lat="27.520628" lon="114.195511"><ele>1545</ele><time>2025-05-24T01:49:57Z</time></trkpt>
      <trkpt lat="27.520399" lon="114.195323"><ele>1546</ele><time>2025-05-24T01:50:20Z</time></trkpt>
      <trkpt lat="27.520019" lon="114.195346"><ele>1542</ele><time>2025-05-24T01:50:49Z</time></trkpt>
      <trkpt lat="27.519733" lon="114.195284"><ele>1542</ele><time>2025-05-24T01:51:12Z</time></trkpt>
      <trkpt lat="27.519463" lon="114.195395"><ele>1544</ele><time>2025-05-24T01:51:36Z</time></trkpt>
      <trkpt lat="27.51905" lon="114.195132"><ele>1532</ele><time>2025-05-24T01:52:29Z</time></trkpt>
      <trkpt lat="27.518315" lon="114.195241"><ele>1502</ele><time>2025-05-24T01:55:23Z</time></trkpt>
      <trkpt lat="27.518053" lon="114.195147"><ele>1495</ele><time>2025-05-24T01:56:29Z</time></trkpt>
      <trkpt lat="27.517732" lon="114.194926"><ele>1479</ele><time>2025-05-24T01:57:49Z</time></trkpt>
      <trkpt lat="27.517452" lon="114.194979"><ele>1473</ele><time>2025-05-24T01:58:24Z</time></trkpt>
      <trkpt lat="27.516995" lon="114.194892"><ele>1488</ele><time>2025-05-24T01:59:45Z</time></trkpt>
      <trkpt lat="27.516184" lon="114.195124"><ele>1528</ele><time>2025-05-24T02:02:53Z</time></trkpt>
      <trkpt lat="27.515356" lon="114.194958"><ele>1562</ele><time>2025-05-24T02:05:51Z</time></trkpt>
      <trkpt lat="27.514919" lon="114.195112"><ele>1573</ele><time>2025-05-24T02:07:04Z</time></trkpt>
      <trkpt lat="27.514985" lon="114.195184"><ele>1570</ele><time>2025-05-24T02:08:02Z</time></trkpt>
      <trkpt lat="27.514908" lon="114.195125"><ele>1573</ele><time>2025-05-24T02:09:17Z</time></trkpt>
      <trkpt lat="27.514822" lon="114.195175"><ele>1574</ele><time>2025-05-24T02:09:29Z</time></trkpt>
      <trkpt lat="27.514612" lon="114.195397"><ele>1576</ele><time>2025-05-24T02:10:15Z</time></trkpt>
      <trkpt lat="27.514262" lon="114.195557"><ele>1573</ele><time>2025-05-24T02:10:53Z</time></trkpt>
      <trkpt lat="27.514047" lon="114.195763"><ele>1569</ele><time>2025-05-24T02:11:20Z</time></trkpt>
      <trkpt lat="27.513505" lon="114.1958"><ele>1593</ele><time>2025-05-24T02:14:00Z</time></trkpt>
      <trkpt lat="27.512571" lon="114.195173"><ele>1629</ele><time>2025-05-24T02:17:46Z</time></trkpt>
      <trkpt lat="27.512252" lon="114.194441"><ele>1661</ele><time>2025-05-24T02:21:33Z</time></trkpt>
      <trkpt lat="27.512249" lon="114.194119"><ele>1664</ele><time>2025-05-24T02:22:13Z</time></trkpt>
      <trkpt lat="27.512039" lon="114.193907"><ele>1669</ele><time>2025-05-24T02:22:45Z</time></trkpt>
      <trkpt lat="27.511706" lon="114.193734"><ele>1671</ele><time>2025-05-24T02:23:22Z</time></trkpt>
      <trkpt lat="27.511436" lon="114.193707"><ele>1673</ele><time>2025-05-24T02:24:17Z</time></trkpt>
      <trkpt lat="27.51124" lon="114.193475"><ele>1678</ele><time>2025-05-24T02:24:47Z</time></trkpt>
      <trkpt lat="27.510641" lon="114.193167"><ele>1683</ele><time>2025-05-24T02:26:02Z</time></trkpt>
      <trkpt lat="27.510445" lon="114.193161"><ele>1685</ele><time>2025-05-24T02:26:18Z</time></trkpt>
      <trkpt lat="27.510181" lon="114.193269"><ele>1681</ele><time>2025-05-24T02:27:01Z</time></trkpt>
      <trkpt lat="27.509891" lon="114.193251"><ele>1684</ele><time>2025-05-24T02:27:29Z</time></trkpt>
      <trkpt lat="27.509718" lon="114.193139"><ele>1687</ele><time>2025-05-24T02:27:48Z</time></trkpt>
      <trkpt lat="27.509256" lon="114.193127"><ele>1691</ele><time>2025-05-24T02:28:43Z</time></trkpt>
      <trkpt lat="27.508946" lon="114.192882"><ele>1701</ele><time>2025-05-24T02:29:34Z</time></trkpt>
      <trkpt lat="27.50839" lon="114.192753"><ele>1701</ele><time>2025-05-24T02:30:32Z</time></trkpt>
      <trkpt lat="27.508124" lon="114.19287"><ele>1695</ele><time>2025-05-24T02:31:00Z</time></trkpt>
      <trkpt lat="27.507853" lon="114.192824"><ele>1679</ele><time>2025-05-24T02:33:13Z</time></trkpt>
      <trkpt lat="27.50747" lon="114.193275"><ele>1650</ele><time>2025-05-24T02:34:55Z</time></trkpt>
      <trkpt lat="27.507139" lon="114.193446"><ele>1636</ele><time>2025-05-24T02:35:58Z</time></trkpt>
      <trkpt lat="27.506803" lon="114.193812"><ele>1625</ele><time>2025-05-24T02:36:55Z</time></trkpt>
      <trkpt lat="27.506539" lon="114.193921"><ele>1611</ele><time>2025-05-24T02:37:43Z</time></trkpt>
      <trkpt lat="27.506242" lon="114.194176"><ele>1598</ele><time>2025-05-24T02:38:38Z</time></trkpt>
      <trkpt lat="27.505694" lon="114.194279"><ele>1573</ele><time>2025-05-24T02:40:03Z</time></trkpt>
      <trkpt lat="27.505481" lon="114.194603"><ele>1562</ele><time>2025-05-24T02:40:56Z</time></trkpt>
      <trkpt lat="27.505189" lon="114.194552"><ele>1556</ele><time>2025-05-24T02:41:20Z</time></trkpt>
      <trkpt lat="27.505203" lon="114.194652"><ele>1553</ele><time>2025-05-24T02:43:05Z</time></trkpt>
      <trkpt lat="27.504966" lon="114.194832"><ele>1555</ele><time>2025-05-24T02:46:12Z</time></trkpt>
      <trkpt lat="27.504622" lon="114.195316"><ele>1537</ele><time>2025-05-24T02:47:34Z</time></trkpt>
      <trkpt lat="27.50471" lon="114.195277"><ele>1542</ele><time>2025-05-24T02:47:59Z</time></trkpt>
      <trkpt lat="27.504284" lon="114.195464"><ele>1519</ele><time>2025-05-24T02:50:29Z</time></trkpt>
      <trkpt lat="27.50403" lon="114.195909"><ele>1520</ele><time>2025-05-24T02:51:24Z</time></trkpt>
      <trkpt lat="27.503815" lon="114.19612"><ele>1522</ele><time>2025-05-24T02:51:47Z</time></trkpt>
      <trkpt lat="27.503771" lon="114.196425"><ele>1521</ele><time>2025-05-24T02:52:14Z</time></trkpt>
      <trkpt lat="27.503582" lon="114.196796"><ele>1525</ele><time>2025-05-24T02:54:32Z</time></trkpt>
      <trkpt lat="27.503348" lon="114.197116"><ele>1539</ele><time>2025-05-24T02:55:45Z</time></trkpt>
      <trkpt lat="27.503107" lon="114.197249"><ele>1558</ele><time>2025-05-24T02:57:02Z</time></trkpt>
      <trkpt lat="27.503218" lon="114.197767"><ele>1577</ele><time>2025-05-24T02:58:43Z</time></trkpt>
      <trkpt lat="27.503203" lon="114.197975"><ele>1586</ele><time>2025-05-24T02:59:24Z</time></trkpt>
      <trkpt lat="27.502948" lon="114.198277"><ele>1596</ele><time>2025-05-24T03:00:31Z</time></trkpt>
      <trkpt lat="27.502687" lon="114.198408"><ele>1601</ele><time>2025-05-24T03:01:10Z</time></trkpt>
      <trkpt lat="27.502122" lon="114.198316"><ele>1608</ele><time>2025-05-24T03:02:14Z</time></trkpt>
      <trkpt lat="27.501962" lon="114.198589"><ele>1614</ele><time>2025-05-24T03:05:31Z</time></trkpt>
      <trkpt lat="27.501596" lon="114.19871"><ele>1628</ele><time>2025-05-24T03:06:30Z</time></trkpt>
      <trkpt lat="27.501252" lon="114.198571"><ele>1647</ele><time>2025-05-24T03:07:51Z</time></trkpt>
      <trkpt lat="27.501167" lon="114.198616"><ele>1649</ele><time>2025-05-24T03:08:45Z</time></trkpt>
      <trkpt lat="27.501117" lon="114.198812"><ele>1658</ele><time>2025-05-24T03:09:12Z</time></trkpt>
      <trkpt lat="27.501025" lon="114.198803"><ele>1662</ele><time>2025-05-24T03:09:29Z</time></trkpt>
      <trkpt lat="27.500862" lon="114.198907"><ele>1670</ele><time>2025-05-24T03:10:18Z</time></trkpt>
      <trkpt lat="27.500401" lon="114.198927"><ele>1673</ele><time>2025-05-24T03:11:14Z</time></trkpt>
      <trkpt lat="27.500225" lon="114.198824"><ele>1675</ele><time>2025-05-24T03:11:31Z</time></trkpt>
      <trkpt lat="27.499764" lon="114.198924"><ele>1673</ele><time>2025-05-24T03:12:21Z</time></trkpt>
      <trkpt lat="27.499503" lon="114.198822"><ele>1677</ele><time>2025-05-24T03:12:52Z</time></trkpt>
      <trkpt lat="27.498946" lon="114.198886"><ele>1671</ele><time>2025-05-24T03:13:49Z</time></trkpt>
      <trkpt lat="27.498785" lon="114.198762"><ele>1673</ele><time>2025-05-24T03:14:07Z</time></trkpt>
      <trkpt lat="27.498228" lon="114.198728"><ele>1665</ele><time>2025-05-24T03:14:58Z</time></trkpt>
      <trkpt lat="27.498185" lon="114.198629"><ele>1671</ele><time>2025-05-24T03:20:56Z</time></trkpt>
      <trkpt lat="27.497933" lon="114.198493"><ele>1662</ele><time>2025-05-24T03:21:37Z</time></trkpt>
      <trkpt lat="27.497663" lon="114.198186"><ele>1651</ele><time>2025-05-24T03:22:11Z</time></trkpt>
      <trkpt lat="27.497567" lon="114.198171"><ele>1648</ele><time>2025-05-24T03:22:21Z</time></trkpt>
      <trkpt lat="27.497531" lon="114.198068"><ele>1644</ele><time>2025-05-24T03:22:35Z</time></trkpt>
      <trkpt lat="27.497575" lon="114.197863"><ele>1636</ele><time>2025-05-24T03:23:02Z</time></trkpt>
      <trkpt lat="27.497318" lon="114.19781"><ele>1626</ele><time>2025-05-24T03:23:52Z</time></trkpt>
      <trkpt lat="27.497123" lon="114.197576"><ele>1613</ele><time>2025-05-24T03:25:28Z</time></trkpt>
      <trkpt lat="27.496855" lon="114.197557"><ele>1599</ele><time>2025-05-24T03:26:29Z</time></trkpt>
      <trkpt lat="27.496469" lon="114.197297"><ele>1588</ele><time>2025-05-24T03:27:37Z</time></trkpt>
      <trkpt lat="27.496183" lon="114.197212"><ele>1589</ele><time>2025-05-24T03:28:09Z</time></trkpt>
      <trkpt lat="27.495905" lon="114.197279"><ele>1589</ele><time>2025-05-24T03:28:37Z</time></trkpt>
      <trkpt lat="27.495355" lon="114.197108"><ele>1581</ele><time>2025-05-24T03:29:25Z</time></trkpt>
      <trkpt lat="27.495184" lon="114.197204"><ele>1581</ele><time>2025-05-24T03:29:43Z</time></trkpt>
      <trkpt lat="27.495086" lon="114.197163"><ele>1585</ele><time>2025-05-24T03:29:56Z</time></trkpt>
      <trkpt lat="27.49529" lon="114.197073"><ele>1583</ele><time>2025-05-24T03:31:43Z</time></trkpt>
      <trkpt lat="27.495054" lon="114.197157"><ele>1582</ele><time>2025-05-24T03:32:17Z</time></trkpt>
      <trkpt lat="27.495015" lon="114.197014"><ele>1582</ele><time>2025-05-24T03:33:21Z</time></trkpt>
      <trkpt lat="27.494902" lon="114.1974"><ele>1584</ele><time>2025-05-24T03:34:40Z</time></trkpt>
      <trkpt lat="27.494998" lon="114.197344"><ele>1583</ele><time>2025-05-24T03:35:41Z</time></trkpt>
      <trkpt lat="27.495133" lon="114.197072"><ele>1583</ele><time>2025-05-24T03:36:36Z</time></trkpt>
      <trkpt lat="27.495178" lon="114.197228"><ele>1603</ele><time>2025-05-24T03:43:50Z</time></trkpt>
      <trkpt lat="27.495115" lon="114.197141"><ele>1585</ele><time>2025-05-24T03:45:01Z</time></trkpt>
      <trkpt lat="27.495191" lon="114.197079"><ele>1576</ele><time>2025-05-24T03:49:08Z</time></trkpt>
      <trkpt lat="27.49511" lon="114.197129"><ele>1582</ele><time>2025-05-24T03:49:40Z</time></trkpt>
      <trkpt lat="27.495141" lon="114.197227"><ele>1585</ele><time>2025-05-24T03:49:49Z</time></trkpt>
      <trkpt lat="27.49509" lon="114.197142"><ele>1583</ele><time>2025-05-24T03:51:06Z</time></trkpt>
      <trkpt lat="27.495112" lon="114.196921"><ele>1582</ele><time>2025-05-24T03:52:22Z</time></trkpt>
      <trkpt lat="27.495125" lon="114.197015"><ele>1585</ele><time>2025-05-24T03:52:53Z</time></trkpt>
      <trkpt lat="27.494939" lon="114.197061"><ele>1584</ele><time>2025-05-24T03:53:11Z</time></trkpt>
      <trkpt lat="27.49459" lon="114.19693"><ele>1587</ele><time>2025-05-24T03:53:49Z</time></trkpt>
      <trkpt lat="27.494334" lon="114.19707"><ele>1590</ele><time>2025-05-24T03:54:29Z</time></trkpt>
      <trkpt lat="27.494138" lon="114.197058"><ele>1585</ele><time>2025-05-24T03:54:55Z</time></trkpt>
      <trkpt lat="27.493876" lon="114.197165"><ele>1585</ele><time>2025-05-24T03:55:21Z</time></trkpt>
      <trkpt lat="27.493701" lon="114.197086"><ele>1584</ele><time>2025-05-24T03:55:38Z</time></trkpt>
      <trkpt lat="27.493048" lon="114.197099"><ele>1578</ele><time>2025-05-24T03:57:29Z</time></trkpt>
      <trkpt lat="27.492922" lon="114.196833"><ele>1583</ele><time>2025-05-24T03:58:40Z</time></trkpt>
      <trkpt lat="27.492736" lon="114.196834"><ele>1584</ele><time>2025-05-24T03:59:05Z</time></trkpt>
      <trkpt lat="27.492567" lon="114.196756"><ele>1579</ele><time>2025-05-24T03:59:52Z</time></trkpt>
      <trkpt lat="27.49245" lon="114.196916"><ele>1568</ele><time>2025-05-24T04:00:45Z</time></trkpt>
      <trkpt lat="27.492245" lon="114.196951"><ele>1554</ele><time>2025-05-24T04:01:43Z</time></trkpt>
      <trkpt lat="27.491859" lon="114.197245"><ele>1531</ele><time>2025-05-24T04:03:26Z</time></trkpt>
      <trkpt lat="27.491782" lon="114.197191"><ele>1525</ele><time>2025-05-24T04:03:52Z</time></trkpt>
      <trkpt lat="27.491408" lon="114.197253"><ele>1506</ele><time>2025-05-24T04:05:51Z</time></trkpt>
      <trkpt lat="27.491204" lon="114.197043"><ele>1497</ele><time>2025-05-24T04:06:39Z</time></trkpt>
      <trkpt lat="27.490939" lon="114.196957"><ele>1489</ele><time>2025-05-24T04:07:36Z</time></trkpt>
      <trkpt lat="27.49063" lon="114.1967"><ele>1474</ele><time>2025-05-24T04:08:46Z</time></trkpt>
      <trkpt lat="27.490517" lon="114.196405"><ele>1466</ele><time>2025-05-24T04:09:35Z</time></trkpt>
      <trkpt lat="27.490519" lon="114.196203"><ele>1458</ele><time>2025-05-24T04:10:22Z</time></trkpt>
      <trkpt lat="27.490469" lon="114.196115"><ele>1454</ele><time>2025-05-24T04:10:36Z</time></trkpt>
      <trkpt lat="27.490379" lon="114.196132"><ele>1447</ele><time>2025-05-24T04:10:54Z</time></trkpt>
      <trkpt lat="27.490396" lon="114.19593"><ele>1440</ele><time>2025-05-24T04:11:25Z</time></trkpt>
      <trkpt lat="27.490245" lon="114.195536"><ele>1423</ele><time>2025-05-24T04:12:31Z</time></trkpt>
      <trkpt lat="27.490272" lon="114.195439"><ele>1422</ele><time>2025-05-24T04:12:41Z</time></trkpt>
      <trkpt lat="27.490076" lon="114.195084"><ele>1405</ele><time>2025-05-24T04:13:43Z</time></trkpt>
      <trkpt lat="27.489898" lon="114.195027"><ele>1399</ele><time>2025-05-24T04:14:09Z</time></trkpt>
      <trkpt lat="27.489172" lon="114.194526"><ele>1397</ele><time>2025-05-24T04:15:34Z</time></trkpt>
      <trkpt lat="27.489102" lon="114.194328"><ele>1398</ele><time>2025-05-24T04:15:52Z</time></trkpt>
      <trkpt lat="27.488421" lon="114.194043"><ele>1414</ele><time>2025-05-24T04:20:27Z</time></trkpt>
      <trkpt lat="27.488135" lon="114.19375"><ele>1428</ele><time>2025-05-24T04:22:03Z</time></trkpt>
      <trkpt lat="27.488046" lon="114.19345"><ele>1437</ele><time>2025-05-24T04:23:02Z</time></trkpt>
      <trkpt lat="27.487874" lon="114.193324"><ele>1446</ele><time>2025-05-24T04:24:04Z</time></trkpt>
      <trkpt lat="27.487793" lon="114.193278"><ele>1454</ele><time>2025-05-24T04:24:43Z</time></trkpt>
      <trkpt lat="27.487612" lon="114.193315"><ele>1466</ele><time>2025-05-24T04:26:05Z</time></trkpt>
      <trkpt lat="27.487568" lon="114.19341"><ele>1469</ele><time>2025-05-24T04:26:40Z</time></trkpt>
      <trkpt lat="27.487422" lon="114.193145"><ele>1483</ele><time>2025-05-24T04:28:44Z</time></trkpt>
      <trkpt lat="27.48717" lon="114.193022"><ele>1502</ele><time>2025-05-24T04:30:54Z</time></trkpt>
      <trkpt lat="27.486886" lon="114.193009"><ele>1520</ele><time>2025-05-24T04:32:19Z</time></trkpt>
      <trkpt lat="27.486377" lon="114.192807"><ele>1549</ele><time>2025-05-24T04:35:19Z</time></trkpt>
      <trkpt lat="27.486293" lon="114.192848"><ele>1553</ele><time>2025-05-24T04:35:44Z</time></trkpt>
      <trkpt lat="27.48578" lon="114.1926"><ele>1582</ele><time>2025-05-24T04:44:44Z</time></trkpt>
      <trkpt lat="27.485342" lon="114.19192"><ele>1614</ele><time>2025-05-24T04:48:03Z</time></trkpt>
      <trkpt lat="27.485001" lon="114.191572"><ele>1625</ele><time>2025-05-24T04:49:38Z</time></trkpt>
      <trkpt lat="27.484466" lon="114.191178"><ele>1634</ele><time>2025-05-24T04:51:48Z</time></trkpt>
      <trkpt lat="27.483929" lon="114.191025"><ele>1637</ele><time>2025-05-24T04:53:03Z</time></trkpt>
      <trkpt lat="27.483408" lon="114.19077"><ele>1640</ele><time>2025-05-24T04:56:24Z</time></trkpt>
      <trkpt lat="27.48335" lon="114.190683"><ele>1640</ele><time>2025-05-24T04:56:37Z</time></trkpt>
      <trkpt lat="27.482712" lon="114.190539"><ele>1626</ele><time>2025-05-24T04:58:12Z</time></trkpt>
      <trkpt lat="27.482346" lon="114.190605"><ele>1617</ele><time>2025-05-24T04:59:00Z</time></trkpt>
      <trkpt lat="27.482077" lon="114.190506"><ele>1620</ele><time>2025-05-24T04:59:32Z</time></trkpt>
      <trkpt lat="27.481548" lon="114.190668"><ele>1609</ele><time>2025-05-24T05:00:29Z</time></trkpt>
      <trkpt lat="27.481334" lon="114.19045"><ele>1607</ele><time>2025-05-24T05:00:55Z</time></trkpt>
      <trkpt lat="27.481054" lon="114.190444"><ele>1600</ele><time>2025-05-24T05:01:20Z</time></trkpt>
      <trkpt lat="27.480982" lon="114.190381"><ele>1598</ele><time>2025-05-24T05:01:27Z</time></trkpt>
      <trkpt lat="27.480838" lon="114.189983"><ele>1583</ele><time>2025-05-24T05:02:11Z</time></trkpt>
      <trkpt lat="27.48076" lon="114.189919"><ele>1585</ele><time>2025-05-24T05:02:22Z</time></trkpt>
      <trkpt lat="27.480475" lon="114.189961"><ele>1582</ele><time>2025-05-24T05:03:07Z</time></trkpt>
      <trkpt lat="27.479862" lon="114.189662"><ele>1569</ele><time>2025-05-24T05:04:38Z</time></trkpt>
      <trkpt lat="27.479577" lon="114.189683"><ele>1566</ele><time>2025-05-24T05:05:04Z</time></trkpt>
      <trkpt lat="27.479378" lon="114.18992"><ele>1564</ele><time>2025-05-24T05:05:26Z</time></trkpt>
      <trkpt lat="27.479199" lon="114.189997"><ele>1560</ele><time>2025-05-24T05:05:55Z</time></trkpt>
      <trkpt lat="27.478661" lon="114.189801"><ele>1554</ele><time>2025-05-24T05:07:00Z</time></trkpt>
      <trkpt lat="27.478489" lon="114.189906"><ele>1552</ele><time>2025-05-24T05:07:15Z</time></trkpt>
      <trkpt lat="27.478309" lon="114.189875"><ele>1544</ele><time>2025-05-24T05:07:36Z</time></trkpt>
      <trkpt lat="27.47802" lon="114.189956"><ele>1539</ele><time>2025-05-24T05:08:05Z</time></trkpt>
      <trkpt lat="27.477743" lon="114.189905"><ele>1529</ele><time>2025-05-24T05:12:13Z</time></trkpt>
      <trkpt lat="27.477274" lon="114.190037"><ele>1523</ele><time>2025-05-24T05:13:05Z</time></trkpt>
      <trkpt lat="27.477187" lon="114.190005"><ele>1522</ele><time>2025-05-24T05:13:42Z</time></trkpt>
      <trkpt lat="27.477044" lon="114.189745"><ele>1520</ele><time>2025-05-24T05:14:10Z</time></trkpt>
      <trkpt lat="27.476697" lon="114.189391"><ele>1504</ele><time>2025-05-24T05:16:03Z</time></trkpt>
      <trkpt lat="27.4766" lon="114.189386"><ele>1503</ele><time>2025-05-24T05:16:15Z</time></trkpt>
      <trkpt lat="27.476227" lon="114.189063"><ele>1502</ele><time>2025-05-24T05:17:08Z</time></trkpt>
      <trkpt lat="27.476115" lon="114.188775"><ele>1508</ele><time>2025-05-24T05:19:27Z</time></trkpt>
      <trkpt lat="27.476058" lon="114.188361"><ele>1524</ele><time>2025-05-24T05:20:37Z</time></trkpt>
      <trkpt lat="27.475934" lon="114.18808"><ele>1534</ele><time>2025-05-24T05:21:27Z</time></trkpt>
      <trkpt lat="27.475697" lon="114.187761"><ele>1543</ele><time>2025-05-24T05:22:25Z</time></trkpt>
      <trkpt lat="27.475174" lon="114.187566"><ele>1556</ele><time>2025-05-24T05:23:46Z</time></trkpt>
      <trkpt lat="27.474922" lon="114.187408"><ele>1560</ele><time>2025-05-24T05:24:21Z</time></trkpt>
      <trkpt lat="27.474879" lon="114.187312"><ele>1559</ele><time>2025-05-24T05:24:31Z</time></trkpt>
      <trkpt lat="27.474965" lon="114.187024"><ele>1565</ele><time>2025-05-24T05:25:12Z</time></trkpt>
      <trkpt lat="27.475166" lon="114.186811"><ele>1579</ele><time>2025-05-24T05:26:03Z</time></trkpt>
      <trkpt lat="27.475243" lon="114.186624"><ele>1585</ele><time>2025-05-24T05:26:43Z</time></trkpt>
      <trkpt lat="27.475226" lon="114.186415"><ele>1593</ele><time>2025-05-24T05:27:25Z</time></trkpt>
      <trkpt lat="27.47512" lon="114.18625"><ele>1602</ele><time>2025-05-24T05:28:13Z</time></trkpt>
      <trkpt lat="27.475063" lon="114.185632"><ele>1610</ele><time>2025-05-24T05:30:28Z</time></trkpt>
      <trkpt lat="27.474934" lon="114.185353"><ele>1608</ele><time>2025-05-24T05:34:29Z</time></trkpt>
      <trkpt lat="27.475119" lon="114.184756"><ele>1607</ele><time>2025-05-24T05:35:57Z</time></trkpt>
      <trkpt lat="27.474997" lon="114.184467"><ele>1610</ele><time>2025-05-24T05:36:29Z</time></trkpt>
      <trkpt lat="27.474684" lon="114.184057"><ele>1612</ele><time>2025-05-24T05:37:31Z</time></trkpt>
      <trkpt lat="27.474453" lon="114.183249"><ele>1611</ele><time>2025-05-24T05:38:53Z</time></trkpt>
      <trkpt lat="27.474134" lon="114.182848"><ele>1615</ele><time>2025-05-24T05:39:55Z</time></trkpt>
      <trkpt lat="27.474082" lon="114.182433"><ele>1614</ele><time>2025-05-24T05:40:34Z</time></trkpt>
      <trkpt lat="27.474167" lon="114.181914"><ele>1614</ele><time>2025-05-24T05:41:32Z</time></trkpt>
      <trkpt lat="27.474089" lon="114.181713"><ele>1612</ele><time>2025-05-24T05:41:52Z</time></trkpt>
      <trkpt lat="27.474143" lon="114.181187"><ele>1600</ele><time>2025-05-24T05:43:16Z</time></trkpt>
      <trkpt lat="27.474088" lon="114.18087"><ele>1598</ele><time>2025-05-24T05:43:49Z</time></trkpt>
      <trkpt lat="27.473938" lon="114.180736"><ele>1596</ele><time>2025-05-24T05:44:13Z</time></trkpt>
      <trkpt lat="27.474568" lon="114.180284"><ele>1582</ele><time>2025-05-24T05:47:45Z</time></trkpt>
      <trkpt lat="27.474923" lon="114.180117"><ele>1577</ele><time>2025-05-24T05:48:24Z</time></trkpt>
      <trkpt lat="27.475178" lon="114.179663"><ele>1571</ele><time>2025-05-24T05:59:59Z</time></trkpt>
      <trkpt lat="27.475217" lon="114.179469"><ele>1577</ele><time>2025-05-24T06:00:22Z</time></trkpt>
      <trkpt lat="27.47561" lon="114.179037"><ele>1575</ele><time>2025-05-24T06:01:51Z</time></trkpt>
      <trkpt lat="27.476078" lon="114.179002"><ele>1581</ele><time>2025-05-24T06:03:20Z</time></trkpt>
      <trkpt lat="27.476678" lon="114.178734"><ele>1584</ele><time>2025-05-24T06:04:26Z</time></trkpt>
      <trkpt lat="27.478226" lon="114.177519"><ele>1565</ele><time>2025-05-24T06:08:58Z</time></trkpt>
      <trkpt lat="27.478483" lon="114.177409"><ele>1551</ele><time>2025-05-24T06:10:29Z</time></trkpt>
      <trkpt lat="27.478645" lon="114.177493"><ele>1540</ele><time>2025-05-24T06:11:19Z</time></trkpt>
      <trkpt lat="27.479084" lon="114.177359"><ele>1517</ele><time>2025-05-24T06:13:09Z</time></trkpt>
      <trkpt lat="27.479019" lon="114.177164"><ele>1505</ele><time>2025-05-24T06:14:07Z</time></trkpt>
      <trkpt lat="27.479116" lon="114.177132"><ele>1496</ele><time>2025-05-24T06:14:42Z</time></trkpt>
      <trkpt lat="27.479114" lon="114.177029"><ele>1489</ele><time>2025-05-24T06:15:13Z</time></trkpt>
      <trkpt lat="27.479301" lon="114.176806"><ele>1477</ele><time>2025-05-24T06:16:08Z</time></trkpt>
      <trkpt lat="27.479763" lon="114.176467"><ele>1462</ele><time>2025-05-24T06:21:04Z</time></trkpt>
      <trkpt lat="27.47971" lon="114.176383"><ele>1459</ele><time>2025-05-24T06:21:47Z</time></trkpt>
      <trkpt lat="27.479617" lon="114.176375"><ele>1452</ele><time>2025-05-24T06:22:27Z</time></trkpt>
      <trkpt lat="27.479523" lon="114.176201"><ele>1441</ele><time>2025-05-24T06:23:41Z</time></trkpt>
      <trkpt lat="27.479735" lon="114.176015"><ele>1421</ele><time>2025-05-24T06:24:40Z</time></trkpt>
      <trkpt lat="27.479798" lon="114.175612"><ele>1402</ele><time>2025-05-24T06:27:08Z</time></trkpt>
      <trkpt lat="27.479988" lon="114.175576"><ele>1392</ele><time>2025-05-24T06:27:49Z</time></trkpt>
      <trkpt lat="27.480236" lon="114.175157"><ele>1377</ele><time>2025-05-24T06:30:23Z</time></trkpt>
      <trkpt lat="27.480122" lon="114.174873"><ele>1369</ele><time>2025-05-24T06:31:30Z</time></trkpt>
      <trkpt lat="27.480163" lon="114.174673"><ele>1362</ele><time>2025-05-24T06:32:33Z</time></trkpt>
      <trkpt lat="27.480356" lon="114.174436"><ele>1351</ele><time>2025-05-24T06:33:43Z</time></trkpt>
      <trkpt lat="27.480415" lon="114.174133"><ele>1339</ele><time>2025-05-24T06:35:17Z</time></trkpt>
      <trkpt lat="27.480488" lon="114.174047"><ele>1335</ele><time>2025-05-24T06:35:30Z</time></trkpt>
      <trkpt lat="27.480421" lon="114.173959"><ele>1338</ele><time>2025-05-24T06:35:45Z</time></trkpt>
      <trkpt lat="27.480537" lon="114.173936"><ele>1337</ele><time>2025-05-24T06:36:20Z</time></trkpt>
      <trkpt lat="27.480469" lon="114.174139"><ele>1338</ele><time>2025-05-24T06:37:07Z</time></trkpt>
      <trkpt lat="27.480284" lon="114.17412"><ele>1339</ele><time>2025-05-24T06:44:07Z</time></trkpt>
      <trkpt lat="27.480127" lon="114.174215"><ele>1334</ele><time>2025-05-24T06:44:46Z</time></trkpt>
      <trkpt lat="27.47994" lon="114.174219"><ele>1330</ele><time>2025-05-24T06:45:24Z</time></trkpt>
      <trkpt lat="27.479639" lon="114.174436"><ele>1319</ele><time>2025-05-24T06:46:28Z</time></trkpt>
      <trkpt lat="27.479665" lon="114.174028"><ele>1305</ele><time>2025-05-24T06:47:50Z</time></trkpt>
      <trkpt lat="27.479909" lon="114.1739"><ele>1291</ele><time>2025-05-24T06:48:38Z</time></trkpt>
      <trkpt lat="27.480184" lon="114.17334"><ele>1278</ele><time>2025-05-24T06:50:30Z</time></trkpt>
      <trkpt lat="27.48045" lon="114.173051"><ele>1261</ele><time>2025-05-24T06:51:57Z</time></trkpt>
      <trkpt lat="27.480575" lon="114.17265"><ele>1254</ele><time>2025-05-24T06:53:03Z</time></trkpt>
      <trkpt lat="27.480669" lon="114.172642"><ele>1252</ele><time>2025-05-24T06:53:33Z</time></trkpt>
      <trkpt lat="27.480841" lon="114.172163"><ele>1230</ele><time>2025-05-24T06:55:29Z</time></trkpt>
      <trkpt lat="27.481115" lon="114.172123"><ele>1223</ele><time>2025-05-24T06:56:57Z</time></trkpt>
      <trkpt lat="27.481068" lon="114.171921"><ele>1212</ele><time>2025-05-24T06:58:28Z</time></trkpt>
      <trkpt lat="27.480956" lon="114.171931"><ele>1202</ele><time>2025-05-24T06:59:18Z</time></trkpt>
      <trkpt lat="27.481089" lon="114.172075"><ele>1197</ele><time>2025-05-24T07:00:17Z</time></trkpt>
      <trkpt lat="27.481167" lon="114.172014"><ele>1200</ele><time>2025-05-24T07:00:29Z</time></trkpt>
      <trkpt lat="27.481124" lon="114.171923"><ele>1199</ele><time>2025-05-24T07:00:40Z</time></trkpt>
      <trkpt lat="27.481096" lon="114.172027"><ele>1191</ele><time>2025-05-24T07:01:03Z</time></trkpt>
      <trkpt lat="27.481166" lon="114.171936"><ele>1191</ele><time>2025-05-24T07:01:20Z</time></trkpt>
      <trkpt lat="27.481116" lon="114.172044"><ele>1190</ele><time>2025-05-24T07:01:24Z</time></trkpt>
      <trkpt lat="27.481268" lon="114.172156"><ele>1178</ele><time>2025-05-24T07:02:09Z</time></trkpt>
      <trkpt lat="27.481339" lon="114.17209"><ele>1165</ele><time>2025-05-24T07:03:27Z</time></trkpt>
      <trkpt lat="27.481309" lon="114.171993"><ele>1157</ele><time>2025-05-24T07:04:11Z</time></trkpt>
      <trkpt lat="27.481355" lon="114.172081"><ele>1146</ele><time>2025-05-24T07:05:02Z</time></trkpt>
      <trkpt lat="27.481375" lon="114.17198"><ele>1130</ele><time>2025-05-24T07:05:51Z</time></trkpt>
      <trkpt lat="27.481473" lon="114.171974"><ele>1125</ele><time>2025-05-24T07:06:17Z</time></trkpt>
      <trkpt lat="27.481363" lon="114.171783"><ele>1117</ele><time>2025-05-24T07:07:02Z</time></trkpt>
      <trkpt lat="27.481329" lon="114.171887"><ele>1112</ele><time>2025-05-24T07:09:14Z</time></trkpt>
      <trkpt lat="27.481291" lon="114.171788"><ele>1117</ele><time>2025-05-24T07:09:50Z</time></trkpt>
      <trkpt lat="27.481376" lon="114.171861"><ele>1114</ele><time>2025-05-24T07:10:00Z</time></trkpt>
      <trkpt lat="27.481418" lon="114.171769"><ele>1110</ele><time>2025-05-24T07:14:54Z</time></trkpt>
      <trkpt lat="27.481691" lon="114.171813"><ele>1098</ele><time>2025-05-24T07:15:59Z</time></trkpt>
      <trkpt lat="27.48195" lon="114.172101"><ele>1091</ele><time>2025-05-24T07:17:05Z</time></trkpt>
      <trkpt lat="27.48199" lon="114.172"><ele>1090</ele><time>2025-05-24T07:17:24Z</time></trkpt>
      <trkpt lat="27.48218" lon="114.171998"><ele>1075</ele><time>2025-05-24T07:18:23Z</time></trkpt>
      <trkpt lat="27.48229" lon="114.171718"><ele>1057</ele><time>2025-05-24T07:19:50Z</time></trkpt>
      <trkpt lat="27.482214" lon="114.171531"><ele>1049</ele><time>2025-05-24T07:20:22Z</time></trkpt>
      <trkpt lat="27.482385" lon="114.171296"><ele>1037</ele><time>2025-05-24T07:21:46Z</time></trkpt>
      <trkpt lat="27.48244" lon="114.170893"><ele>1031</ele><time>2025-05-24T07:23:20Z</time></trkpt>
      <trkpt lat="27.482587" lon="114.17052"><ele>1014</ele><time>2025-05-24T07:25:09Z</time></trkpt>
      <trkpt lat="27.482677" lon="114.170507"><ele>1009</ele><time>2025-05-24T07:25:27Z</time></trkpt>
      <trkpt lat="27.482734" lon="114.170205"><ele>997</ele><time>2025-05-24T07:26:33Z</time></trkpt>
      <trkpt lat="27.48295" lon="114.169854"><ele>980</ele><time>2025-05-24T07:28:00Z</time></trkpt>
      <trkpt lat="27.483215" lon="114.169844"><ele>973</ele><time>2025-05-24T07:28:57Z</time></trkpt>
      <trkpt lat="27.483341" lon="114.169567"><ele>974</ele><time>2025-05-24T07:30:03Z</time></trkpt>
      <trkpt lat="27.48366" lon="114.169364"><ele>956</ele><time>2025-05-24T07:31:35Z</time></trkpt>
      <trkpt lat="27.483617" lon="114.16927"><ele>945</ele><time>2025-05-24T07:32:22Z</time></trkpt>
      <trkpt lat="27.483714" lon="114.169275"><ele>939</ele><time>2025-05-24T07:32:45Z</time></trkpt>
      <trkpt lat="27.483977" lon="114.1696"><ele>934</ele><time>2025-05-24T07:35:03Z</time></trkpt>
      <trkpt lat="27.48434" lon="114.169717"><ele>918</ele><time>2025-05-24T07:36:10Z</time></trkpt>
      <trkpt lat="27.48447" lon="114.169862"><ele>912</ele><time>2025-05-24T07:36:30Z</time></trkpt>
      <trkpt lat="27.484816" lon="114.16986"><ele>907</ele><time>2025-05-24T07:37:40Z</time></trkpt>
      <trkpt lat="27.485017" lon="114.170075"><ele>897</ele><time>2025-05-24T07:39:05Z</time></trkpt>
      <trkpt lat="27.485387" lon="114.170149"><ele>887</ele><time>2025-05-24T07:40:16Z</time></trkpt>
      <trkpt lat="27.486096" lon="114.169967"><ele>876</ele><time>2025-05-24T07:42:29Z</time></trkpt>
      <trkpt lat="27.486369" lon="114.170022"><ele>870</ele><time>2025-05-24T07:43:09Z</time></trkpt>
      <trkpt lat="27.486749" lon="114.169994"><ele>856</ele><time>2025-05-24T07:44:12Z</time></trkpt>
      <trkpt lat="27.48717" lon="114.169789"><ele>845</ele><time>2025-05-24T07:45:33Z</time></trkpt>
      <trkpt lat="27.487337" lon="114.169878"><ele>839</ele><time>2025-05-24T07:46:17Z</time></trkpt>
      <trkpt lat="27.4876" lon="114.169789"><ele>829</ele><time>2025-05-24T07:47:17Z</time></trkpt>
      <trkpt lat="27.487656" lon="114.169705"><ele>828</ele><time>2025-05-24T07:47:28Z</time></trkpt>
      <trkpt lat="27.487921" lon="114.16958"><ele>823</ele><time>2025-05-24T07:48:12Z</time></trkpt>
      <trkpt lat="27.488817" lon="114.169411"><ele>797</ele><time>2025-05-24T07:51:47Z</time></trkpt>
      <trkpt lat="27.489062" lon="114.169549"><ele>785</ele><time>2025-05-24T07:53:35Z</time></trkpt>
      <trkpt lat="27.489607" lon="114.169401"><ele>777</ele><time>2025-05-24T07:54:57Z</time></trkpt>
      <trkpt lat="27.490138" lon="114.169542"><ele>764</ele><time>2025-05-24T07:56:46Z</time></trkpt>
      <trkpt lat="27.49069" lon="114.169433"><ele>750</ele><time>2025-05-24T08:04:01Z</time></trkpt>
      <trkpt lat="27.49086" lon="114.169508"><ele>746</ele><time>2025-05-24T08:04:27Z</time></trkpt>
      <trkpt lat="27.491141" lon="114.169522"><ele>736</ele><time>2025-05-24T08:05:22Z</time></trkpt>
      <trkpt lat="27.491449" lon="114.169293"><ele>729</ele><time>2025-05-24T08:06:14Z</time></trkpt>
      <trkpt lat="27.491708" lon="114.168871"><ele>719</ele><time>2025-05-24T08:07:37Z</time></trkpt>
      <trkpt lat="27.492269" lon="114.168508"><ele>704</ele><time>2025-05-24T08:09:21Z</time></trkpt>
      <trkpt lat="27.492815" lon="114.168413"><ele>699</ele><time>2025-05-24T08:10:30Z</time></trkpt>
      <trkpt lat="27.493648" lon="114.168506"><ele>689</ele><time>2025-05-24T08:12:31Z</time></trkpt>
      <trkpt lat="27.493927" lon="114.168246"><ele>675</ele><time>2025-05-24T08:13:42Z</time></trkpt>
      <trkpt lat="27.493999" lon="114.167841"><ele>671</ele><time>2025-05-24T08:14:23Z</time></trkpt>
      <trkpt lat="27.494172" lon="114.167596"><ele>665</ele><time>2025-05-24T08:15:10Z</time></trkpt>
      <trkpt lat="27.494175" lon="114.166964"><ele>652</ele><time>2025-05-24T08:16:27Z</time></trkpt>
      <trkpt lat="27.494116" lon="114.16655"><ele>640</ele><time>2025-05-24T08:17:18Z</time></trkpt>
      <trkpt lat="27.494259" lon="114.166271"><ele>636</ele><time>2025-05-24T08:18:03Z</time></trkpt>
      <trkpt lat="27.494434" lon="114.166226"><ele>633</ele><time>2025-05-24T08:18:21Z</time></trkpt>
      <trkpt lat="27.494513" lon="114.166036"><ele>630</ele><time>2025-05-24T08:18:47Z</time></trkpt>
      <trkpt lat="27.49471" lon="114.165811"><ele>622</ele><time>2025-05-24T08:19:33Z</time></trkpt>
      <trkpt lat="27.495213" lon="114.165553"><ele>612</ele><time>2025-05-24T08:20:55Z</time></trkpt>
      <trkpt lat="27.495403" lon="114.16553"><ele>610</ele><time>2025-05-24T08:21:17Z</time></trkpt>
      <trkpt lat="27.49565" lon="114.165224"><ele>608</ele><time>2025-05-24T08:22:03Z</time></trkpt>
      <trkpt lat="27.496399" lon="114.165161"><ele>591</ele><time>2025-05-24T08:23:49Z</time></trkpt>
      <trkpt lat="27.496458" lon="114.165076"><ele>589</ele><time>2025-05-24T08:24:02Z</time></trkpt>
      <trkpt lat="27.496377" lon="114.164888"><ele>590</ele><time>2025-05-24T08:24:35Z</time></trkpt>
      <trkpt lat="27.496192" lon="114.164861"><ele>592</ele><time>2025-05-24T08:24:56Z</time></trkpt>
      <trkpt lat="27.496099" lon="114.164906"><ele>593</ele><time>2025-05-24T08:25:10Z</time></trkpt>
      <trkpt lat="27.49607" lon="114.16501"><ele>592</ele><time>2025-05-24T08:25:25Z</time></trkpt>
      <trkpt lat="27.496008" lon="114.164868"><ele>593</ele><time>2025-05-24T08:25:57Z</time></trkpt>
      <trkpt lat="27.496202" lon="114.16476"><ele>588</ele><time>2025-05-24T08:26:26Z</time></trkpt>
      <trkpt lat="27.496485" lon="114.164719"><ele>585</ele><time>2025-05-24T08:27:06Z</time></trkpt>
      <trkpt lat="27.496808" lon="114.164914"><ele>581</ele><time>2025-05-24T08:27:45Z</time></trkpt>
    </trkseg>
  </trk>
</gpx>
