<?xml version="1.0" encoding="UTF-8"?>
<gpx version="1.1" creator="MyWorld" xmlns="http://www.topografix.com/GPX/1/1">
  <metadata><name>杭州标毅线（二次下撤）</name></metadata>
  <trk>
    <name>杭州标毅线（二次下撤）</name>
    <trkseg>
      <trkpt lat="30.27361" lon="120.114818"><ele>13</ele><time>2025-08-30T22:40:38Z</time></trkpt>
      <trkpt lat="30.273061" lon="120.114965"><ele>36</ele><time>2025-08-30T22:42:15Z</time></trkpt>
      <trkpt lat="30.272051" lon="120.114048"><ele>58</ele><time>2025-08-30T22:44:42Z</time></trkpt>
      <trkpt lat="30.27209" lon="120.114233"><ele>58</ele><time>2025-08-30T22:44:57Z</time></trkpt>
      <trkpt lat="30.272168" lon="120.114298"><ele>61</ele><time>2025-08-30T22:45:06Z</time></trkpt>
      <trkpt lat="30.272076" lon="120.114277"><ele>64</ele><time>2025-08-30T22:45:19Z</time></trkpt>
      <trkpt lat="30.271979" lon="120.114408"><ele>68</ele><time>2025-08-30T22:45:53Z</time></trkpt>
      <trkpt lat="30.271799" lon="120.114465"><ele>80</ele><time>2025-08-30T22:46:46Z</time></trkpt>
      <trkpt lat="30.271745" lon="120.114551"><ele>84</ele><time>2025-08-30T22:47:24Z</time></trkpt>
      <trkpt lat="30.271791" lon="120.114651"><ele>86</ele><time>2025-08-30T22:47:37Z</time></trkpt>
      <trkpt lat="30.271607" lon="120.114664"><ele>92</ele><time>2025-08-30T22:48:14Z</time></trkpt>
      <trkpt lat="30.271647" lon="120.114768"><ele>92</ele><time>2025-08-30T22:48:28Z</time></trkpt>
      <trkpt lat="30.271556" lon="120.114784"><ele>99</ele><time>2025-08-30T22:48:53Z</time></trkpt>
      <trkpt lat="30.271626" lon="120.114864"><ele>102</ele><time>2025-08-30T22:49:09Z</time></trkpt>
      <trkpt lat="30.271563" lon="120.115087"><ele>105</ele><time>2025-08-30T22:49:32Z</time></trkpt>
      <trkpt lat="30.271641" lon="120.115297"><ele>110</ele><time>2025-08-30T22:49:54Z</time></trkpt>
      <trkpt lat="30.271591" lon="120.115386"><ele>111</ele><time>2025-08-30T22:50:09Z</time></trkpt>
      <trkpt lat="30.271061" lon="120.114925"><ele>129</ele><time>2025-08-30T22:51:10Z</time></trkpt>
      <trkpt lat="30.270698" lon="120.114774"><ele>139</ele><time>2025-08-30T22:51:57Z</time></trkpt>
      <trkpt lat="30.270579" lon="120.114926"><ele>141</ele><time>2025-08-30T22:52:28Z</time></trkpt>
      <trkpt lat="30.270495" lon="120.114866"><ele>142</ele><time>2025-08-30T22:52:38Z</time></trkpt>
      <trkpt lat="30.270129" lon="120.114519"><ele>152</ele><time>2025-08-30T22:53:36Z</time></trkpt>
      <trkpt lat="30.270032" lon="120.114334"><ele>155</ele><time>2025-08-30T22:53:53Z</time></trkpt>
      <trkpt lat="30.269972" lon="120.114015"><ele>159</ele><time>2025-08-30T22:54:18Z</time></trkpt>
      <trkpt lat="30.269802" lon="120.113754"><ele>155</ele><time>2025-08-30T22:54:44Z</time></trkpt>
      <trkpt lat="30.269164" lon="120.113243"><ele>144</ele><time>2025-08-30T22:55:50Z</time></trkpt>
      <trkpt lat="30.269013" lon="120.112958"><ele>152</ele><time>2025-08-30T22:56:27Z</time></trkpt>
      <trkpt lat="30.268034" lon="120.111906"><ele>158</ele><time>2025-08-30T22:58:47Z</time></trkpt>
      <trkpt lat="30.267652" lon="120.111386"><ele>149</ele><time>2025-08-30T22:59:39Z</time></trkpt>
      <trkpt lat="30.267224" lon="120.110621"><ele>150</ele><time>2025-08-30T23:00:48Z</time></trkpt>
      <trkpt lat="30.266901" lon="120.109596"><ele>168</ele><time>2025-08-30T23:02:09Z</time></trkpt>
      <trkpt lat="30.26679" lon="120.109422"><ele>171</ele><time>2025-08-30T23:02:24Z</time></trkpt>
      <trkpt lat="30.266319" lon="120.10905"><ele>165</ele><time>2025-08-30T23:03:18Z</time></trkpt>
      <trkpt lat="30.265751" lon="120.108896"><ele>155</ele><time>2025-08-30T23:04:09Z</time></trkpt>
      <trkpt lat="30.265309" lon="120.108657"><ele>159</ele><time>2025-08-30T23:04:48Z</time></trkpt>
      <trkpt lat="30.264813" lon="120.107971"><ele>162</ele><time>2025-08-30T23:05:51Z</time></trkpt>
      <trkpt lat="30.264075" lon="120.107483"><ele>151</ele><time>2025-08-30T23:07:07Z</time></trkpt>
      <trkpt lat="30.263672" lon="120.107"><ele>161</ele><time>2025-08-30T23:07:55Z</time></trkpt>
      <trkpt lat="30.263012" lon="120.106526"><ele>158</ele><time>2025-08-30T23:09:18Z</time></trkpt>
      <trkpt lat="30.26252" lon="120.106534"><ele>154</ele><time>2025-08-30T23:10:00Z</time></trkpt>
      <trkpt lat="30.261966" lon="120.106326"><ele>160</ele><time>2025-08-30T23:10:46Z</time></trkpt>
      <trkpt lat="30.261893" lon="120.10625"><ele>160</ele><time>2025-08-30T23:10:54Z</time></trkpt>
      <trkpt lat="30.261717" lon="120.105619"><ele>158</ele><time>2025-08-30T23:11:40Z</time></trkpt>
      <trkpt lat="30.261151" lon="120.105253"><ele>148</ele><time>2025-08-30T23:12:44Z</time></trkpt>
      <trkpt lat="30.260958" lon="120.105212"><ele>144</ele><time>2025-08-30T23:13:02Z</time></trkpt>
      <trkpt lat="30.260433" lon="120.104918"><ele>143</ele><time>2025-08-30T23:13:51Z</time></trkpt>
      <trkpt lat="30.259862" lon="120.104839"><ele>152</ele><time>2025-08-30T23:14:42Z</time></trkpt>
      <trkpt lat="30.259592" lon="120.104697"><ele>148</ele><time>2025-08-30T23:15:10Z</time></trkpt>
      <trkpt lat="30.259408" lon="120.104737"><ele>144</ele><time>2025-08-30T23:15:33Z</time></trkpt>
      <trkpt lat="30.25915" lon="120.104623"><ele>135</ele><time>2025-08-30T23:16:10Z</time></trkpt>
      <trkpt lat="30.258879" lon="120.104649"><ele>127</ele><time>2025-08-30T23:16:47Z</time></trkpt>
      <trkpt lat="30.25818" lon="120.104059"><ele>117</ele><time>2025-08-30T23:18:26Z</time></trkpt>
      <trkpt lat="30.257993" lon="120.104031"><ele>114</ele><time>2025-08-30T23:18:40Z</time></trkpt>
      <trkpt lat="30.257375" lon="120.104279"><ele>121</ele><time>2025-08-30T23:19:37Z</time></trkpt>
      <trkpt lat="30.256902" lon="120.104371"><ele>124</ele><time>2025-08-30T23:20:22Z</time></trkpt>
      <trkpt lat="30.256356" lon="120.10476"><ele>127</ele><time>2025-08-30T23:22:10Z</time></trkpt>
      <trkpt lat="30.255985" lon="120.10486"><ele>125</ele><time>2025-08-30T23:22:36Z</time></trkpt>
      <trkpt lat="30.255605" lon="120.104841"><ele>127</ele><time>2025-08-30T23:23:11Z</time></trkpt>
      <trkpt lat="30.255264" lon="120.104657"><ele>130</ele><time>2025-08-30T23:23:42Z</time></trkpt>
      <trkpt lat="30.255136" lon="120.104503"><ele>131</ele><time>2025-08-30T23:23:58Z</time></trkpt>
      <trkpt lat="30.255084" lon="120.104168"><ele>133</ele><time>2025-08-30T23:24:26Z</time></trkpt>
      <trkpt lat="30.254936" lon="120.103891"><ele>136</ele><time>2025-08-30T23:24:49Z</time></trkpt>
      <trkpt lat="30.254561" lon="120.103418"><ele>147</ele><time>2025-08-30T23:25:53Z</time></trkpt>
      <trkpt lat="30.254287" lon="120.103334"><ele>153</ele><time>2025-08-30T23:26:20Z</time></trkpt>
      <trkpt lat="30.254122" lon="120.103086"><ele>161</ele><time>2025-08-30T23:26:58Z</time></trkpt>
      <trkpt lat="30.254026" lon="120.103107"><ele>163</ele><time>2025-08-30T23:27:13Z</time></trkpt>
      <trkpt lat="30.253677" lon="120.102946"><ele>173</ele><time>2025-08-30T23:28:00Z</time></trkpt>
      <trkpt lat="30.25318" lon="120.102643"><ele>173</ele><time>2025-08-30T23:28:48Z</time></trkpt>
      <trkpt lat="30.252941" lon="120.102167"><ele>173</ele><time>2025-08-30T23:29:29Z</time></trkpt>
      <trkpt lat="30.252248" lon="120.101574"><ele>188</ele><time>2025-08-30T23:30:50Z</time></trkpt>
      <trkpt lat="30.252377" lon="120.100721"><ele>200</ele><time>2025-08-30T23:32:12Z</time></trkpt>
      <trkpt lat="30.252371" lon="120.100617"><ele>203</ele><time>2025-08-30T23:32:22Z</time></trkpt>
      <trkpt lat="30.252152" lon="120.10043"><ele>211</ele><time>2025-08-30T23:32:57Z</time></trkpt>
      <trkpt lat="30.252239" lon="120.099686"><ele>231</ele><time>2025-08-30T23:34:30Z</time></trkpt>
      <trkpt lat="30.251877" lon="120.099064"><ele>243</ele><time>2025-08-30T23:35:49Z</time></trkpt>
      <trkpt lat="30.251643" lon="120.098467"><ele>238</ele><time>2025-08-30T23:36:43Z</time></trkpt>
      <trkpt lat="30.251407" lon="120.098282"><ele>234</ele><time>2025-08-30T23:37:14Z</time></trkpt>
      <trkpt lat="30.251304" lon="120.098098"><ele>229</ele><time>2025-08-30T23:37:33Z</time></trkpt>
      <trkpt lat="30.251052" lon="120.097395"><ele>231</ele><time>2025-08-30T23:38:28Z</time></trkpt>
      <trkpt lat="30.250729" lon="120.096998"><ele>230</ele><time>2025-08-30T23:39:07Z</time></trkpt>
      <trkpt lat="30.250213" lon="120.095796"><ele>240</ele><time>2025-08-30T23:40:59Z</time></trkpt>
      <trkpt lat="30.250202" lon="120.095579"><ele>242</ele><time>2025-08-30T23:41:18Z</time></trkpt>
      <trkpt lat="30.25047" lon="120.094509"><ele>243</ele><time>2025-08-30T23:42:37Z</time></trkpt>
      <trkpt lat="30.250549" lon="120.09366"><ele>257</ele><time>2025-08-30T23:44:02Z</time></trkpt>
      <trkpt lat="30.250544" lon="120.093332"><ele>263</ele><time>2025-08-30T23:44:36Z</time></trkpt>
      <trkpt lat="30.250369" lon="120.093052"><ele>264</ele><time>2025-08-30T23:45:04Z</time></trkpt>
      <trkpt lat="30.24979" lon="120.092643"><ele>273</ele><time>2025-08-30T23:46:09Z</time></trkpt>
      <trkpt lat="30.249312" lon="120.092587"><ele>285</ele><time>2025-08-30T23:47:06Z</time></trkpt>
      <trkpt lat="30.248979" lon="120.09218"><ele>282</ele><time>2025-08-30T23:47:55Z</time></trkpt>
      <trkpt lat="30.248792" lon="120.092116"><ele>283</ele><time>2025-08-30T23:48:19Z</time></trkpt>
      <trkpt lat="30.248748" lon="120.092022"><ele>285</ele><time>2025-08-30T23:48:34Z</time></trkpt>
      <trkpt lat="30.248653" lon="120.092036"><ele>286</ele><time>2025-08-30T23:48:50Z</time></trkpt>
      <trkpt lat="30.248539" lon="120.091877"><ele>288</ele><time>2025-08-30T23:49:14Z</time></trkpt>
      <trkpt lat="30.248379" lon="120.091978"><ele>295</ele><time>2025-08-30T23:49:54Z</time></trkpt>
      <trkpt lat="30.247852" lon="120.091703"><ele>297</ele><time>2025-08-30T23:50:44Z</time></trkpt>
      <trkpt lat="30.247596" lon="120.091244"><ele>297</ele><time>2025-08-30T23:51:22Z</time></trkpt>
      <trkpt lat="30.247152" lon="120.090793"><ele>299</ele><time>2025-08-30T23:52:08Z</time></trkpt>
      <trkpt lat="30.247133" lon="120.090016"><ele>299</ele><time>2025-08-30T23:53:02Z</time></trkpt>
      <trkpt lat="30.247345" lon="120.089667"><ele>296</ele><time>2025-08-30T23:53:34Z</time></trkpt>
      <trkpt lat="30.247159" lon="120.089711"><ele>298</ele><time>2025-08-30T23:54:22Z</time></trkpt>
      <trkpt lat="30.246794" lon="120.089543"><ele>288</ele><time>2025-08-30T23:55:10Z</time></trkpt>
      <trkpt lat="30.246306" lon="120.08952"><ele>277</ele><time>2025-08-30T23:56:03Z</time></trkpt>
      <trkpt lat="30.245692" lon="120.089215"><ele>277</ele><time>2025-08-30T23:57:20Z</time></trkpt>
      <trkpt lat="30.245236" lon="120.089122"><ele>293</ele><time>2025-08-30T23:58:39Z</time></trkpt>
      <trkpt lat="30.245061" lon="120.088864"><ele>305</ele><time>2025-08-30T23:59:35Z</time></trkpt>
      <trkpt lat="30.245025" lon="120.088541"><ele>311</ele><time>2025-08-31T00:00:39Z</time></trkpt>
      <trkpt lat="30.244855" lon="120.088594"><ele>320</ele><time>2025-08-31T00:01:42Z</time></trkpt>
      <trkpt lat="30.244782" lon="120.08852"><ele>320</ele><time>2025-08-31T00:01:53Z</time></trkpt>
      <trkpt lat="30.244494" lon="120.087729"><ele>352</ele><time>2025-08-31T00:04:16Z</time></trkpt>
      <trkpt lat="30.243783" lon="120.087211"><ele>334</ele><time>2025-08-31T00:06:08Z</time></trkpt>
      <trkpt lat="30.243039" lon="120.087077"><ele>321</ele><time>2025-08-31T00:07:23Z</time></trkpt>
      <trkpt lat="30.242811" lon="120.086871"><ele>320</ele><time>2025-08-31T00:07:51Z</time></trkpt>
      <trkpt lat="30.242606" lon="120.086494"><ele>320</ele><time>2025-08-31T00:08:27Z</time></trkpt>
      <trkpt lat="30.242179" lon="120.086072"><ele>315</ele><time>2025-08-31T00:09:21Z</time></trkpt>
      <trkpt lat="30.241844" lon="120.085854"><ele>305</ele><time>2025-08-31T00:10:20Z</time></trkpt>
      <trkpt lat="30.241406" lon="120.085677"><ele>306</ele><time>2025-08-31T00:11:15Z</time></trkpt>
      <trkpt lat="30.240826" lon="120.084937"><ele>294</ele><time>2025-08-31T00:12:58Z</time></trkpt>
      <trkpt lat="30.240448" lon="120.084604"><ele>291</ele><time>2025-08-31T00:13:57Z</time></trkpt>
      <trkpt lat="30.240324" lon="120.083978"><ele>297</ele><time>2025-08-31T00:15:11Z</time></trkpt>
      <trkpt lat="30.240101" lon="120.083753"><ele>301</ele><time>2025-08-31T00:15:48Z</time></trkpt>
      <trkpt lat="30.24001" lon="120.083451"><ele>319</ele><time>2025-08-31T00:16:35Z</time></trkpt>
      <trkpt lat="30.239825" lon="120.08321"><ele>310</ele><time>2025-08-31T00:17:33Z</time></trkpt>
      <trkpt lat="30.239273" lon="120.082848"><ele>307</ele><time>2025-08-31T00:19:23Z</time></trkpt>
      <trkpt lat="30.239028" lon="120.082497"><ele>309</ele><time>2025-08-31T00:20:11Z</time></trkpt>
      <trkpt lat="30.238865" lon="120.082103"><ele>322</ele><time>2025-08-31T00:21:10Z</time></trkpt>
      <trkpt lat="30.23856" lon="120.08171"><ele>326</ele><time>2025-08-31T00:22:42Z</time></trkpt>
      <trkpt lat="30.237926" lon="120.081801"><ele>331</ele><time>2025-08-31T00:24:11Z</time></trkpt>
      <trkpt lat="30.237469" lon="120.081722"><ele>337</ele><time>2025-08-31T00:25:36Z</time></trkpt>
      <trkpt lat="30.237361" lon="120.081515"><ele>339</ele><time>2025-08-31T00:26:00Z</time></trkpt>
      <trkpt lat="30.237149" lon="120.081302"><ele>344</ele><time>2025-08-31T00:26:41Z</time></trkpt>
      <trkpt lat="30.236518" lon="120.081422"><ele>322</ele><time>2025-08-31T00:28:35Z</time></trkpt>
      <trkpt lat="30.236451" lon="120.081351"><ele>322</ele><time>2025-08-31T00:29:02Z</time></trkpt>
      <trkpt lat="30.236085" lon="120.081342"><ele>294</ele><time>2025-08-31T00:30:57Z</time></trkpt>
      <trkpt lat="30.23602" lon="120.081267"><ele>290</ele><time>2025-08-31T00:31:14Z</time></trkpt>
      <trkpt lat="30.235566" lon="120.081271"><ele>264</ele><time>2025-08-31T00:32:58Z</time></trkpt>
      <trkpt lat="30.235107" lon="120.080916"><ele>252</ele><time>2025-08-31T00:33:58Z</time></trkpt>
      <trkpt lat="30.234321" lon="120.080567"><ele>242</ele><time>2025-08-31T00:36:01Z</time></trkpt>
      <trkpt lat="30.234249" lon="120.080638"><ele>241</ele><time>2025-08-31T00:36:11Z</time></trkpt>
      <trkpt lat="30.233766" lon="120.080645"><ele>231</ele><time>2025-08-31T00:37:08Z</time></trkpt>
      <trkpt lat="30.233601" lon="120.080775"><ele>226</ele><time>2025-08-31T00:37:32Z</time></trkpt>
      <trkpt lat="30.233525" lon="120.080974"><ele>224</ele><time>2025-08-31T00:37:51Z</time></trkpt>
      <trkpt lat="30.233255" lon="120.081276"><ele>228</ele><time>2025-08-31T00:38:50Z</time></trkpt>
      <trkpt lat="30.232924" lon="120.081464"><ele>240</ele><time>2025-08-31T00:39:47Z</time></trkpt>
      <trkpt lat="30.232746" lon="120.081438"><ele>246</ele><time>2025-08-31T00:40:05Z</time></trkpt>
      <trkpt lat="30.232364" lon="120.081743"><ele>251</ele><time>2025-08-31T00:40:54Z</time></trkpt>
      <trkpt lat="30.2321" lon="120.081641"><ele>255</ele><time>2025-08-31T00:41:32Z</time></trkpt>
      <trkpt lat="30.231818" lon="120.081652"><ele>263</ele><time>2025-08-31T00:42:32Z</time></trkpt>
      <trkpt lat="30.231666" lon="120.081531"><ele>268</ele><time>2025-08-31T00:42:59Z</time></trkpt>
      <trkpt lat="30.231382" lon="120.081459"><ele>277</ele><time>2025-08-31T00:43:42Z</time></trkpt>
      <trkpt lat="30.2311" lon="120.081471"><ele>288</ele><time>2025-08-31T00:44:34Z</time></trkpt>
      <trkpt lat="30.230739" lon="120.081355"><ele>279</ele><time>2025-08-31T00:45:27Z</time></trkpt>
      <trkpt lat="30.23011" lon="120.080561"><ele>251</ele><time>2025-08-31T00:47:32Z</time></trkpt>
      <trkpt lat="30.229578" lon="120.080322"><ele>239</ele><time>2025-08-31T00:48:37Z</time></trkpt>
      <trkpt lat="30.229059" lon="120.079665"><ele>253</ele><time>2025-08-31T00:49:56Z</time></trkpt>
      <trkpt lat="30.22809" lon="120.079023"><ele>276</ele><time>2025-08-31T00:52:05Z</time></trkpt>
      <trkpt lat="30.227969" lon="120.078856"><ele>278</ele><time>2025-08-31T00:52:22Z</time></trkpt>
      <trkpt lat="30.227854" lon="120.079158"><ele>282</ele><time>2025-08-31T00:53:17Z</time></trkpt>
      <trkpt lat="30.227612" lon="120.079493"><ele>282</ele><time>2025-08-31T00:54:05Z</time></trkpt>
      <trkpt lat="30.22759" lon="120.079819"><ele>277</ele><time>2025-08-31T00:54:35Z</time></trkpt>
      <trkpt lat="30.227689" lon="120.080128"><ele>279</ele><time>2025-08-31T00:55:01Z</time></trkpt>
      <trkpt lat="30.227662" lon="120.080455"><ele>275</ele><time>2025-08-31T00:55:43Z</time></trkpt>
      <trkpt lat="30.227613" lon="120.080801"><ele>272</ele><time>2025-08-31T00:56:09Z</time></trkpt>
      <trkpt lat="30.227377" lon="120.081284"><ele>269</ele><time>2025-08-31T00:57:02Z</time></trkpt>
      <trkpt lat="30.227314" lon="120.081697"><ele>264</ele><time>2025-08-31T00:58:05Z</time></trkpt>
      <trkpt lat="30.227387" lon="120.082576"><ele>264</ele><time>2025-08-31T00:59:12Z</time></trkpt>
      <trkpt lat="30.227156" lon="120.082925"><ele>263</ele><time>2025-08-31T00:59:47Z</time></trkpt>
      <trkpt lat="30.226828" lon="120.083084"><ele>275</ele><time>2025-08-31T01:00:33Z</time></trkpt>
      <trkpt lat="30.226724" lon="120.083373"><ele>287</ele><time>2025-08-31T01:01:26Z</time></trkpt>
      <trkpt lat="30.226444" lon="120.083445"><ele>293</ele><time>2025-08-31T01:02:13Z</time></trkpt>
      <trkpt lat="30.226225" lon="120.083786"><ele>300</ele><time>2025-08-31T01:03:06Z</time></trkpt>
      <trkpt lat="30.226112" lon="120.084199"><ele>304</ele><time>2025-08-31T01:03:43Z</time></trkpt>
      <trkpt lat="30.226109" lon="120.084649"><ele>309</ele><time>2025-08-31T01:04:21Z</time></trkpt>
      <trkpt lat="30.22606" lon="120.084744"><ele>311</ele><time>2025-08-31T01:04:32Z</time></trkpt>
      <trkpt lat="30.226102" lon="120.084952"><ele>309</ele><time>2025-08-31T01:04:54Z</time></trkpt>
      <trkpt lat="30.226031" lon="120.085051"><ele>309</ele><time>2025-08-31T01:09:34Z</time></trkpt>
      <trkpt lat="30.22547" lon="120.085068"><ele>323</ele><time>2025-08-31T01:10:52Z</time></trkpt>
      <trkpt lat="30.224979" lon="120.085329"><ele>346</ele><time>2025-08-31T01:13:32Z</time></trkpt>
      <trkpt lat="30.224623" lon="120.085234"><ele>357</ele><time>2025-08-31T01:15:19Z</time></trkpt>
      <trkpt lat="30.22453" lon="120.085267"><ele>360</ele><time>2025-08-31T01:15:44Z</time></trkpt>
      <trkpt lat="30.224464" lon="120.085581"><ele>351</ele><time>2025-08-31T01:16:48Z</time></trkpt>
      <trkpt lat="30.224212" lon="120.086047"><ele>340</ele><time>2025-08-31T01:18:22Z</time></trkpt>
      <trkpt lat="30.224091" lon="120.086789"><ele>325</ele><time>2025-08-31T01:19:40Z</time></trkpt>
      <trkpt lat="30.223752" lon="120.087168"><ele>337</ele><time>2025-08-31T01:20:38Z</time></trkpt>
      <trkpt lat="30.223473" lon="120.087744"><ele>339</ele><time>2025-08-31T01:21:38Z</time></trkpt>
      <trkpt lat="30.223177" lon="120.088024"><ele>340</ele><time>2025-08-31T01:22:14Z</time></trkpt>
      <trkpt lat="30.223083" lon="120.088038"><ele>342</ele><time>2025-08-31T01:22:27Z</time></trkpt>
      <trkpt lat="30.222618" lon="120.087706"><ele>360</ele><time>2025-08-31T01:23:40Z</time></trkpt>
      <trkpt lat="30.222157" lon="120.087783"><ele>380</ele><time>2025-08-31T01:28:26Z</time></trkpt>
      <trkpt lat="30.221409" lon="120.087634"><ele>410</ele><time>2025-08-31T01:33:19Z</time></trkpt>
      <trkpt lat="30.221279" lon="120.088155"><ele>405</ele><time>2025-08-31T01:38:26Z</time></trkpt>
      <trkpt lat="30.221011" lon="120.08862"><ele>407</ele><time>2025-08-31T01:39:09Z</time></trkpt>
      <trkpt lat="30.220967" lon="120.089058"><ele>402</ele><time>2025-08-31T01:39:44Z</time></trkpt>
      <trkpt lat="30.220843" lon="120.08936"><ele>394</ele><time>2025-08-31T01:40:25Z</time></trkpt>
      <trkpt lat="30.22043" lon="120.089803"><ele>378</ele><time>2025-08-31T01:41:39Z</time></trkpt>
      <trkpt lat="30.22025" lon="120.090541"><ele>364</ele><time>2025-08-31T01:43:02Z</time></trkpt>
      <trkpt lat="30.220027" lon="120.090732"><ele>353</ele><time>2025-08-31T01:44:14Z</time></trkpt>
      <trkpt lat="30.220005" lon="120.090839"><ele>344</ele><time>2025-08-31T01:44:57Z</time></trkpt>
      <trkpt lat="30.219838" lon="120.090928"><ele>330</ele><time>2025-08-31T01:46:04Z</time></trkpt>
      <trkpt lat="30.219776" lon="120.091122"><ele>322</ele><time>2025-08-31T01:46:35Z</time></trkpt>
      <trkpt lat="30.219688" lon="120.091155"><ele>318</ele><time>2025-08-31T01:46:54Z</time></trkpt>
      <trkpt lat="30.219738" lon="120.091359"><ele>312</ele><time>2025-08-31T01:47:21Z</time></trkpt>
      <trkpt lat="30.219633" lon="120.091779"><ele>296</ele><time>2025-08-31T01:48:41Z</time></trkpt>
      <trkpt lat="30.219395" lon="120.091973"><ele>291</ele><time>2025-08-31T01:49:22Z</time></trkpt>
      <trkpt lat="30.219019" lon="120.092081"><ele>290</ele><time>2025-08-31T01:50:12Z</time></trkpt>
      <trkpt lat="30.218874" lon="120.092209"><ele>292</ele><time>2025-08-31T01:50:30Z</time></trkpt>
      <trkpt lat="30.218513" lon="120.092342"><ele>291</ele><time>2025-08-31T01:51:19Z</time></trkpt>
      <trkpt lat="30.218125" lon="120.092681"><ele>291</ele><time>2025-08-31T01:52:00Z</time></trkpt>
      <trkpt lat="30.217828" lon="120.092747"><ele>297</ele><time>2025-08-31T01:52:29Z</time></trkpt>
      <trkpt lat="30.217579" lon="120.092885"><ele>299</ele><time>2025-08-31T01:52:53Z</time></trkpt>
      <trkpt lat="30.21683" lon="120.092989"><ele>318</ele><time>2025-08-31T01:54:25Z</time></trkpt>
      <trkpt lat="30.216833" lon="120.093094"><ele>319</ele><time>2025-08-31T01:54:43Z</time></trkpt>
      <trkpt lat="30.216324" lon="120.093357"><ele>330</ele><time>2025-08-31T01:56:17Z</time></trkpt>
      <trkpt lat="30.216265" lon="120.093558"><ele>330</ele><time>2025-08-31T01:56:32Z</time></trkpt>
      <trkpt lat="30.216297" lon="120.093775"><ele>327</ele><time>2025-08-31T01:56:49Z</time></trkpt>
      <trkpt lat="30.216216" lon="120.09383"><ele>327</ele><time>2025-08-31T01:57:15Z</time></trkpt>
      <trkpt lat="30.215948" lon="120.093955"><ele>332</ele><time>2025-08-31T01:57:53Z</time></trkpt>
      <trkpt lat="30.215362" lon="120.093376"><ele>314</ele><time>2025-08-31T01:59:11Z</time></trkpt>
      <trkpt lat="30.215246" lon="120.093076"><ele>313</ele><time>2025-08-31T01:59:43Z</time></trkpt>
      <trkpt lat="30.214618" lon="120.092783"><ele>297</ele><time>2025-08-31T02:00:35Z</time></trkpt>
      <trkpt lat="30.214486" lon="120.092644"><ele>296</ele><time>2025-08-31T02:00:47Z</time></trkpt>
      <trkpt lat="30.214199" lon="120.092652"><ele>291</ele><time>2025-08-31T02:01:13Z</time></trkpt>
      <trkpt lat="30.214026" lon="120.092728"><ele>290</ele><time>2025-08-31T02:01:30Z</time></trkpt>
      <trkpt lat="30.212986" lon="120.092643"><ele>255</ele><time>2025-08-31T02:03:25Z</time></trkpt>
      <trkpt lat="30.212376" lon="120.092956"><ele>248</ele><time>2025-08-31T02:04:22Z</time></trkpt>
      <trkpt lat="30.211996" lon="120.092975"><ele>249</ele><time>2025-08-31T02:05:12Z</time></trkpt>
      <trkpt lat="30.211722" lon="120.093086"><ele>251</ele><time>2025-08-31T02:05:38Z</time></trkpt>
      <trkpt lat="30.211491" lon="120.093266"><ele>257</ele><time>2025-08-31T02:06:09Z</time></trkpt>
      <trkpt lat="30.211369" lon="120.09368"><ele>262</ele><time>2025-08-31T02:06:45Z</time></trkpt>
      <trkpt lat="30.210893" lon="120.094235"><ele>264</ele><time>2025-08-31T02:07:45Z</time></trkpt>
      <trkpt lat="30.210447" lon="120.094641"><ele>266</ele><time>2025-08-31T02:08:35Z</time></trkpt>
      <trkpt lat="30.210173" lon="120.094735"><ele>268</ele><time>2025-08-31T02:09:00Z</time></trkpt>
      <trkpt lat="30.209529" lon="120.095387"><ele>272</ele><time>2025-08-31T02:10:18Z</time></trkpt>
      <trkpt lat="30.209253" lon="120.095465"><ele>275</ele><time>2025-08-31T02:10:47Z</time></trkpt>
      <trkpt lat="30.208979" lon="120.095353"><ele>276</ele><time>2025-08-31T02:11:11Z</time></trkpt>
      <trkpt lat="30.208778" lon="120.09512"><ele>276</ele><time>2025-08-31T02:11:34Z</time></trkpt>
      <trkpt lat="30.208489" lon="120.095095"><ele>281</ele><time>2025-08-31T02:12:00Z</time></trkpt>
      <trkpt lat="30.208226" lon="120.094954"><ele>289</ele><time>2025-08-31T02:12:32Z</time></trkpt>
      <trkpt lat="30.208119" lon="120.094655"><ele>285</ele><time>2025-08-31T02:12:58Z</time></trkpt>
      <trkpt lat="30.208134" lon="120.094547"><ele>284</ele><time>2025-08-31T02:13:06Z</time></trkpt>
      <trkpt lat="30.208016" lon="120.094374"><ele>285</ele><time>2025-08-31T02:13:23Z</time></trkpt>
      <trkpt lat="30.208058" lon="120.094165"><ele>287</ele><time>2025-08-31T02:13:41Z</time></trkpt>
      <trkpt lat="30.207931" lon="120.094007"><ele>288</ele><time>2025-08-31T02:13:58Z</time></trkpt>
      <trkpt lat="30.207752" lon="120.093976"><ele>294</ele><time>2025-08-31T02:14:15Z</time></trkpt>
      <trkpt lat="30.207334" lon="120.094192"><ele>307</ele><time>2025-08-31T02:15:09Z</time></trkpt>
      <trkpt lat="30.20704" lon="120.094135"><ele>308</ele><time>2025-08-31T02:15:47Z</time></trkpt>
      <trkpt lat="30.206582" lon="120.093766"><ele>312</ele><time>2025-08-31T02:16:46Z</time></trkpt>
      <trkpt lat="30.20638" lon="120.093383"><ele>312</ele><time>2025-08-31T02:17:26Z</time></trkpt>
      <trkpt lat="30.206148" lon="120.093179"><ele>309</ele><time>2025-08-31T02:17:55Z</time></trkpt>
      <trkpt lat="30.206049" lon="120.093163"><ele>310</ele><time>2025-08-31T02:18:03Z</time></trkpt>
      <trkpt lat="30.20577" lon="120.093452"><ele>321</ele><time>2025-08-31T02:18:42Z</time></trkpt>
      <trkpt lat="30.205276" lon="120.093468"><ele>326</ele><time>2025-08-31T02:19:27Z</time></trkpt>
      <trkpt lat="30.205095" lon="120.093396"><ele>330</ele><time>2025-08-31T02:19:47Z</time></trkpt>
      <trkpt lat="30.204815" lon="120.093127"><ele>331</ele><time>2025-08-31T02:20:23Z</time></trkpt>
      <trkpt lat="30.20471" lon="120.092713"><ele>326</ele><time>2025-08-31T02:20:59Z</time></trkpt>
      <trkpt lat="30.204454" lon="120.092577"><ele>328</ele><time>2025-08-31T02:21:22Z</time></trkpt>
      <trkpt lat="30.204268" lon="120.092332"><ele>329</ele><time>2025-08-31T02:21:48Z</time></trkpt>
      <trkpt lat="30.203973" lon="120.092348"><ele>332</ele><time>2025-08-31T02:22:18Z</time></trkpt>
      <trkpt lat="30.203612" lon="120.092212"><ele>330</ele><time>2025-08-31T02:22:54Z</time></trkpt>
      <trkpt lat="30.203435" lon="120.092283"><ele>329</ele><time>2025-08-31T02:23:11Z</time></trkpt>
      <trkpt lat="30.203176" lon="120.092597"><ele>324</ele><time>2025-08-31T02:23:44Z</time></trkpt>
      <trkpt lat="30.20269" lon="120.092609"><ele>321</ele><time>2025-08-31T02:24:28Z</time></trkpt>
      <trkpt lat="30.202431" lon="120.092506"><ele>319</ele><time>2025-08-31T02:25:03Z</time></trkpt>
      <trkpt lat="30.201608" lon="120.093413"><ele>325</ele><time>2025-08-31T02:26:46Z</time></trkpt>
      <trkpt lat="30.201446" lon="120.093698"><ele>326</ele><time>2025-08-31T02:27:15Z</time></trkpt>
      <trkpt lat="30.201356" lon="120.093732"><ele>326</ele><time>2025-08-31T02:27:24Z</time></trkpt>
      <trkpt lat="30.201108" lon="120.093574"><ele>326</ele><time>2025-08-31T02:27:49Z</time></trkpt>
      <trkpt lat="30.20038" lon="120.093798"><ele>313</ele><time>2025-08-31T02:29:01Z</time></trkpt>
      <trkpt lat="30.199458" lon="120.094365"><ele>330</ele><time>2025-08-31T02:31:06Z</time></trkpt>
      <trkpt lat="30.199277" lon="120.094409"><ele>333</ele><time>2025-08-31T02:31:26Z</time></trkpt>
      <trkpt lat="30.199126" lon="120.094693"><ele>337</ele><time>2025-08-31T02:32:01Z</time></trkpt>
      <trkpt lat="30.19889" lon="120.094895"><ele>339</ele><time>2025-08-31T02:32:31Z</time></trkpt>
      <trkpt lat="30.198701" lon="120.09494"><ele>342</ele><time>2025-08-31T02:32:48Z</time></trkpt>
      <trkpt lat="30.19832" lon="120.09488"><ele>344</ele><time>2025-08-31T02:33:24Z</time></trkpt>
      <trkpt lat="30.198485" lon="120.094997"><ele>347</ele><time>2025-08-31T02:33:53Z</time></trkpt>
      <trkpt lat="30.19837" lon="120.09501"><ele>346</ele><time>2025-08-31T02:34:16Z</time></trkpt>
      <trkpt lat="30.198386" lon="120.094906"><ele>346</ele><time>2025-08-31T02:39:00Z</time></trkpt>
      <trkpt lat="30.197776" lon="120.094926"><ele>342</ele><time>2025-08-31T02:42:03Z</time></trkpt>
      <trkpt lat="30.197643" lon="120.095193"><ele>343</ele><time>2025-08-31T02:42:32Z</time></trkpt>
      <trkpt lat="30.197546" lon="120.095178"><ele>344</ele><time>2025-08-31T02:42:40Z</time></trkpt>
      <trkpt lat="30.197435" lon="120.095351"><ele>341</ele><time>2025-08-31T02:43:03Z</time></trkpt>
      <trkpt lat="30.197056" lon="120.09539"><ele>335</ele><time>2025-08-31T02:43:43Z</time></trkpt>
      <trkpt lat="30.197146" lon="120.095576"><ele>331</ele><time>2025-08-31T02:44:06Z</time></trkpt>
      <trkpt lat="30.197477" lon="120.095773"><ele>331</ele><time>2025-08-31T02:44:49Z</time></trkpt>
      <trkpt lat="30.197466" lon="120.096792"><ele>305</ele><time>2025-08-31T02:46:10Z</time></trkpt>
      <trkpt lat="30.197195" lon="120.098061"><ele>271</ele><time>2025-08-31T02:48:27Z</time></trkpt>
      <trkpt lat="30.196961" lon="120.098556"><ele>259</ele><time>2025-08-31T02:49:17Z</time></trkpt>
      <trkpt lat="30.196692" lon="120.098867"><ele>257</ele><time>2025-08-31T02:49:50Z</time></trkpt>
      <trkpt lat="30.196665" lon="120.099198"><ele>254</ele><time>2025-08-31T02:50:14Z</time></trkpt>
      <trkpt lat="30.196515" lon="120.099701"><ele>247</ele><time>2025-08-31T02:50:51Z</time></trkpt>
      <trkpt lat="30.196428" lon="120.099755"><ele>242</ele><time>2025-08-31T02:51:10Z</time></trkpt>
      <trkpt lat="30.196367" lon="120.099957"><ele>234</ele><time>2025-08-31T02:51:55Z</time></trkpt>
      <trkpt lat="30.19643" lon="120.100037"><ele>232</ele><time>2025-08-31T02:52:05Z</time></trkpt>
      <trkpt lat="30.196707" lon="120.100088"><ele>233</ele><time>2025-08-31T02:52:47Z</time></trkpt>
      <trkpt lat="30.196808" lon="120.100391"><ele>224</ele><time>2025-08-31T02:53:24Z</time></trkpt>
      <trkpt lat="30.196717" lon="120.100909"><ele>206</ele><time>2025-08-31T02:54:49Z</time></trkpt>
      <trkpt lat="30.196685" lon="120.101657"><ele>199</ele><time>2025-08-31T02:55:59Z</time></trkpt>
      <trkpt lat="30.196397" lon="120.102336"><ele>186</ele><time>2025-08-31T02:57:26Z</time></trkpt>
      <trkpt lat="30.19635" lon="120.102648"><ele>181</ele><time>2025-08-31T02:57:54Z</time></trkpt>
      <trkpt lat="30.196049" lon="120.10286"><ele>166</ele><time>2025-08-31T02:59:47Z</time></trkpt>
      <trkpt lat="30.195806" lon="120.103298"><ele>134</ele><time>2025-08-31T03:02:05Z</time></trkpt>
      <trkpt lat="30.19539" lon="120.103747"><ele>117</ele><time>2025-08-31T03:03:37Z</time></trkpt>
      <trkpt lat="30.195253" lon="120.104379"><ele>105</ele><time>2025-08-31T03:04:41Z</time></trkpt>
      <trkpt lat="30.195435" lon="120.104875"><ele>92</ele><time>2025-08-31T03:05:36Z</time></trkpt>
      <trkpt lat="30.195514" lon="120.104936"><ele>91</ele><time>2025-08-31T03:05:47Z</time></trkpt>
      <trkpt lat="30.195705" lon="120.104887"><ele>85</ele><time>2025-08-31T03:06:15Z</time></trkpt>
      <trkpt lat="30.195819" lon="120.104477"><ele>85</ele><time>2025-08-31T03:07:22Z</time></trkpt>
      <trkpt lat="30.1959" lon="120.104427"><ele>84</ele><time>2025-08-31T03:07:31Z</time></trkpt>
      <trkpt lat="30.195962" lon="120.104622"><ele>78</ele><time>2025-08-31T03:08:08Z</time></trkpt>
      <trkpt lat="30.196159" lon="120.104859"><ele>70</ele><time>2025-08-31T03:08:55Z</time></trkpt>
      <trkpt lat="30.196668" lon="120.105166"><ele>53</ele><time>2025-08-31T03:10:13Z</time></trkpt>
      <trkpt lat="30.196959" lon="120.10545"><ele>35</ele><time>2025-08-31T03:10:50Z</time></trkpt>
      <trkpt lat="30.197013" lon="120.105536"><ele>32</ele><time>2025-08-31T03:11:01Z</time></trkpt>
      <trkpt lat="30.19697" lon="120.105747"><ele>29</ele><time>2025-08-31T03:11:21Z</time></trkpt>
      <trkpt lat="30.197027" lon="120.105842"><ele>29</ele><time>2025-08-31T03:11:30Z</time></trkpt>
      <trkpt lat="30.197021" lon="120.106255"><ele>28</ele><time>2025-08-31T03:12:05Z</time></trkpt>
      <trkpt lat="30.197175" lon="120.10666"><ele>26</ele><time>2025-08-31T03:12:46Z</time></trkpt>
      <trkpt lat="30.197162" lon="120.106771"><ele>27</ele><time>2025-08-31T03:12:54Z</time></trkpt>
      <trkpt lat="30.197248" lon="120.106811"><ele>27</ele><time>2025-08-31T03:13:12Z</time></trkpt>
      <trkpt lat="30.197329" lon="120.107118"><ele>27</ele><time>2025-08-31T03:13:40Z</time></trkpt>
      <trkpt lat="30.197569" lon="120.10727"><ele>23</ele><time>2025-08-31T03:14:04Z</time></trkpt>
      <trkpt lat="30.197575" lon="120.107377"><ele>22</ele><time>2025-08-31T03:14:13Z</time></trkpt>
      <trkpt lat="30.197756" lon="120.107648"><ele>19</ele><time>2025-08-31T03:14:45Z</time></trkpt>
      <trkpt lat="30.198142" lon="120.107973"><ele>23</ele><time>2025-08-31T03:15:25Z</time></trkpt>
      <trkpt lat="30.198228" lon="120.108379"><ele>20</ele><time>2025-08-31T03:16:01Z</time></trkpt>
      <trkpt lat="30.198213" lon="120.108921"><ele>19</ele><time>2025-08-31T03:16:42Z</time></trkpt>
      <trkpt lat="30.198267" lon="120.109005"><ele>19</ele><time>2025-08-31T03:16:50Z</time></trkpt>
      <trkpt lat="30.198917" lon="120.109023"><ele>23</ele><time>2025-08-31T03:18:10Z</time></trkpt>
      <trkpt lat="30.19918" lon="120.109479"><ele>25</ele><time>2025-08-31T03:18:53Z</time></trkpt>
      <trkpt lat="30.199578" lon="120.109792"><ele>35</ele><time>2025-08-31T03:19:38Z</time></trkpt>
      <trkpt lat="30.199761" lon="120.110021"><ele>35</ele><time>2025-08-31T03:20:00Z</time></trkpt>
      <trkpt lat="30.199945" lon="120.109995"><ele>32</ele><time>2025-08-31T03:20:16Z</time></trkpt>
      <trkpt lat="30.200345" lon="120.110246"><ele>26</ele><time>2025-08-31T03:21:00Z</time></trkpt>
      <trkpt lat="30.200605" lon="120.110158"><ele>26</ele><time>2025-08-31T03:21:25Z</time></trkpt>
      <trkpt lat="30.200877" lon="120.110268"><ele>30</ele><time>2025-08-31T03:21:53Z</time></trkpt>
      <trkpt lat="30.201068" lon="120.110255"><ele>33</ele><time>2025-08-31T03:22:15Z</time></trkpt>
      <trkpt lat="30.201406" lon="120.110468"><ele>38</ele><time>2025-08-31T03:22:55Z</time></trkpt>
      <trkpt lat="30.201505" lon="120.110457"><ele>38</ele><time>2025-08-31T03:23:06Z</time></trkpt>
      <trkpt lat="30.201738" lon="120.11065"><ele>44</ele><time>2025-08-31T03:23:36Z</time></trkpt>
      <trkpt lat="30.202017" lon="120.110717"><ele>47</ele><time>2025-08-31T03:24:14Z</time></trkpt>
      <trkpt lat="30.20225" lon="120.110906"><ele>54</ele><time>2025-08-31T03:24:47Z</time></trkpt>
      <trkpt lat="30.20252" lon="120.110902"><ele>54</ele><time>2025-08-31T03:26:22Z</time></trkpt>
      <trkpt lat="30.202907" lon="120.111367"><ele>67</ele><time>2025-08-31T03:28:00Z</time></trkpt>
      <trkpt lat="30.202979" lon="120.111573"><ele>79</ele><time>2025-08-31T03:36:35Z</time></trkpt>
      <trkpt lat="30.203344" lon="120.111934"><ele>88</ele><time>2025-08-31T03:37:39Z</time></trkpt>
      <trkpt lat="30.203373" lon="120.112142"><ele>108</ele><time>2025-08-31T03:38:03Z</time></trkpt>
      <trkpt lat="30.203453" lon="120.112191"><ele>108</ele><time>2025-08-31T03:38:22Z</time></trkpt>
      <trkpt lat="30.20374" lon="120.112734"><ele>108</ele><time>2025-08-31T03:39:48Z</time></trkpt>
      <trkpt lat="30.20381" lon="120.113048"><ele>114</ele><time>2025-08-31T03:40:48Z</time></trkpt>
      <trkpt lat="30.203671" lon="120.113339"><ele>125</ele><time>2025-08-31T03:41:49Z</time></trkpt>
      <trkpt lat="30.203866" lon="120.113373"><ele>123</ele><time>2025-08-31T03:44:08Z</time></trkpt>
      <trkpt lat="30.204142" lon="120.113814"><ele>122</ele><time>2025-08-31T03:44:56Z</time></trkpt>
      <trkpt lat="30.20395" lon="120.114193"><ele>141</ele><time>2025-08-31T03:45:56Z</time></trkpt>
      <trkpt lat="30.203861" lon="120.114243"><ele>142</ele><time>2025-08-31T03:46:06Z</time></trkpt>
      <trkpt lat="30.204047" lon="120.114215"><ele>142</ele><time>2025-08-31T03:46:51Z</time></trkpt>
      <trkpt lat="30.204159" lon="120.114387"><ele>139</ele><time>2025-08-31T03:47:18Z</time></trkpt>
      <trkpt lat="30.204231" lon="120.114697"><ele>145</ele><time>2025-08-31T03:47:57Z</time></trkpt>
      <trkpt lat="30.204147" lon="120.115009"><ele>160</ele><time>2025-08-31T03:48:37Z</time></trkpt>
      <trkpt lat="30.204326" lon="120.115049"><ele>155</ele><time>2025-08-31T03:49:01Z</time></trkpt>
      <trkpt lat="30.20429" lon="120.115269"><ele>156</ele><time>2025-08-31T03:49:26Z</time></trkpt>
      <trkpt lat="30.204351" lon="120.115356"><ele>166</ele><time>2025-08-31T03:49:41Z</time></trkpt>
      <trkpt lat="30.204441" lon="120.1154"><ele>167</ele><time>2025-08-31T03:49:50Z</time></trkpt>
      <trkpt lat="30.204601" lon="120.115671"><ele>170</ele><time>2025-08-31T03:50:32Z</time></trkpt>
      <trkpt lat="30.20476" lon="120.115534"><ele>175</ele><time>2025-08-31T03:50:57Z</time></trkpt>
      <trkpt lat="30.204851" lon="120.115524"><ele>175</ele><time>2025-08-31T03:51:13Z</time></trkpt>
      <trkpt lat="30.205006" lon="120.115668"><ele>185</ele><time>2025-08-31T03:51:41Z</time></trkpt>
      <trkpt lat="30.205367" lon="120.115607"><ele>194</ele><time>2025-08-31T03:52:39Z</time></trkpt>
      <trkpt lat="30.205425" lon="120.115516"><ele>196</ele><time>2025-08-31T03:52:59Z</time></trkpt>
      <trkpt lat="30.205472" lon="120.115606"><ele>199</ele><time>2025-08-31T03:53:42Z</time></trkpt>
      <trkpt lat="30.205375" lon="120.115783"><ele>202</ele><time>2025-08-31T03:54:04Z</time></trkpt>
      <trkpt lat="30.20529" lon="120.115821"><ele>205</ele><time>2025-08-31T03:54:14Z</time></trkpt>
      <trkpt lat="30.205385" lon="120.115808"><ele>204</ele><time>2025-08-31T03:54:42Z</time></trkpt>
      <trkpt lat="30.205262" lon="120.115968"><ele>200</ele><time>2025-08-31T03:55:08Z</time></trkpt>
      <trkpt lat="30.205444" lon="120.115919"><ele>203</ele><time>2025-08-31T04:08:11Z</time></trkpt>
      <trkpt lat="30.205706" lon="120.116016"><ele>209</ele><time>2025-08-31T04:09:08Z</time></trkpt>
      <trkpt lat="30.205893" lon="120.115971"><ele>216</ele><time>2025-08-31T04:09:47Z</time></trkpt>
      <trkpt lat="30.206235" lon="120.116126"><ele>218</ele><time>2025-08-31T04:10:36Z</time></trkpt>
      <trkpt lat="30.206499" lon="120.11601"><ele>210</ele><time>2025-08-31T04:11:18Z</time></trkpt>
      <trkpt lat="30.20725" lon="120.115871"><ele>190</ele><time>2025-08-31T04:12:55Z</time></trkpt>
      <trkpt lat="30.207525" lon="120.115905"><ele>189</ele><time>2025-08-31T04:13:21Z</time></trkpt>
      <trkpt lat="30.207877" lon="120.115784"><ele>181</ele><time>2025-08-31T04:14:03Z</time></trkpt>
      <trkpt lat="30.208016" lon="120.11563"><ele>179</ele><time>2025-08-31T04:14:27Z</time></trkpt>
      <trkpt lat="30.207941" lon="120.114565"><ele>151</ele><time>2025-08-31T04:17:53Z</time></trkpt>
      <trkpt lat="30.208174" lon="120.113985"><ele>133</ele><time>2025-08-31T04:19:17Z</time></trkpt>
      <trkpt lat="30.208588" lon="120.11353"><ele>127</ele><time>2025-08-31T04:20:16Z</time></trkpt>
      <trkpt lat="30.209077" lon="120.112613"><ele>122</ele><time>2025-08-31T04:22:02Z</time></trkpt>
      <trkpt lat="30.209549" lon="120.112242"><ele>126</ele><time>2025-08-31T04:23:13Z</time></trkpt>
      <trkpt lat="30.209589" lon="120.111803"><ele>128</ele><time>2025-08-31T04:23:50Z</time></trkpt>
      <trkpt lat="30.209439" lon="120.111499"><ele>123</ele><time>2025-08-31T04:24:20Z</time></trkpt>
      <trkpt lat="30.209145" lon="120.111255"><ele>113</ele><time>2025-08-31T04:25:11Z</time></trkpt>
      <trkpt lat="30.20899" lon="120.110865"><ele>112</ele><time>2025-08-31T04:26:00Z</time></trkpt>
      <trkpt lat="30.208994" lon="120.110746"><ele>112</ele><time>2025-08-31T04:26:09Z</time></trkpt>
      <trkpt lat="30.209283" lon="120.110181"><ele>99</ele><time>2025-08-31T04:27:05Z</time></trkpt>
      <trkpt lat="30.209279" lon="120.109967"><ele>92</ele><time>2025-08-31T04:27:28Z</time></trkpt>
      <trkpt lat="30.20918" lon="120.109664"><ele>79</ele><time>2025-08-31T04:28:23Z</time></trkpt>
      <trkpt lat="30.209093" lon="120.109615"><ele>76</ele><time>2025-08-31T04:28:40Z</time></trkpt>
      <trkpt lat="30.209086" lon="120.109405"><ele>70</ele><time>2025-08-31T04:29:21Z</time></trkpt>
      <trkpt lat="30.208994" lon="120.109399"><ele>69</ele><time>2025-08-31T04:29:48Z</time></trkpt>
      <trkpt lat="30.208967" lon="120.109297"><ele>67</ele><time>2025-08-31T04:30:06Z</time></trkpt>
      <trkpt lat="30.208617" lon="120.109089"><ele>59</ele><time>2025-08-31T04:31:20Z</time></trkpt>
      <trkpt lat="30.208735" lon="120.108902"><ele>60</ele><time>2025-08-31T04:31:37Z</time></trkpt>
      <trkpt lat="30.208925" lon="120.108913"><ele>62</ele><time>2025-08-31T04:31:56Z</time></trkpt>
      <trkpt lat="30.209166" lon="120.109074"><ele>64</ele><time>2025-08-31T04:32:37Z</time></trkpt>
      <trkpt lat="30.209101" lon="120.109147"><ele>65</ele><time>2025-08-31T04:34:23Z</time></trkpt>
    </trkseg>
  </trk>
</gpx>
