<?xml version="1.0" encoding="UTF-8"?>
<gpx version="1.1" creator="MyWorld" xmlns="http://www.topografix.com/GPX/1/1">
  <metadata><name>杭州径山</name></metadata>
  <trk>
    <name>杭州径山</name>
    <trkseg>
      <trkpt lat="30.397509" lon="119.788816"><ele>69</ele><time>2025-03-01T01:51:10Z</time></trkpt>
      <trkpt lat="30.39704" lon="119.788449"><ele>70</ele><time>2025-03-01T01:52:00Z</time></trkpt>
      <trkpt lat="30.396377" lon="119.787795"><ele>77</ele><time>2025-03-01T01:53:14Z</time></trkpt>
      <trkpt lat="30.395949" lon="119.786432"><ele>81</ele><time>2025-03-01T01:55:16Z</time></trkpt>
      <trkpt lat="30.396046" lon="119.786439"><ele>79</ele><time>2025-03-01T01:55:38Z</time></trkpt>
      <trkpt lat="30.396416" lon="119.786931"><ele>78</ele><time>2025-03-01T01:56:25Z</time></trkpt>
      <trkpt lat="30.396673" lon="119.787516"><ele>76</ele><time>2025-03-01T01:57:11Z</time></trkpt>
      <trkpt lat="30.396744" lon="119.787443"><ele>75</ele><time>2025-03-01T01:57:21Z</time></trkpt>
      <trkpt lat="30.396873" lon="119.787154"><ele>78</ele><time>2025-03-01T01:57:46Z</time></trkpt>
      <trkpt lat="30.396915" lon="119.786603"><ele>79</ele><time>2025-03-01T01:58:28Z</time></trkpt>
      <trkpt lat="30.397154" lon="119.785862"><ele>83</ele><time>2025-03-01T01:59:32Z</time></trkpt>
      <trkpt lat="30.397286" lon="119.785699"><ele>83</ele><time>2025-03-01T01:59:49Z</time></trkpt>
      <trkpt lat="30.397936" lon="119.785467"><ele>85</ele><time>2025-03-01T02:00:51Z</time></trkpt>
      <trkpt lat="30.3981" lon="119.784969"><ele>89</ele><time>2025-03-01T02:01:41Z</time></trkpt>
      <trkpt lat="30.398199" lon="119.784428"><ele>92</ele><time>2025-03-01T02:02:29Z</time></trkpt>
      <trkpt lat="30.39856" lon="119.784084"><ele>95</ele><time>2025-03-01T02:03:12Z</time></trkpt>
      <trkpt lat="30.398569" lon="119.783753"><ele>97</ele><time>2025-03-01T02:03:42Z</time></trkpt>
      <trkpt lat="30.398685" lon="119.78345"><ele>102</ele><time>2025-03-01T02:04:11Z</time></trkpt>
      <trkpt lat="30.398924" lon="119.783356"><ele>104</ele><time>2025-03-01T02:04:45Z</time></trkpt>
      <trkpt lat="30.399006" lon="119.78328"><ele>111</ele><time>2025-03-01T02:05:01Z</time></trkpt>
      <trkpt lat="30.399022" lon="119.783167"><ele>110</ele><time>2025-03-01T02:05:11Z</time></trkpt>
      <trkpt lat="30.398979" lon="119.782856"><ele>114</ele><time>2025-03-01T02:06:10Z</time></trkpt>
      <trkpt lat="30.398785" lon="119.782796"><ele>113</ele><time>2025-03-01T02:06:58Z</time></trkpt>
      <trkpt lat="30.398704" lon="119.782265"><ele>117</ele><time>2025-03-01T02:07:48Z</time></trkpt>
      <trkpt lat="30.398782" lon="119.782064"><ele>115</ele><time>2025-03-01T02:08:11Z</time></trkpt>
      <trkpt lat="30.398695" lon="119.781874"><ele>121</ele><time>2025-03-01T02:08:31Z</time></trkpt>
      <trkpt lat="30.39838" lon="119.781652"><ele>124</ele><time>2025-03-01T02:09:25Z</time></trkpt>
      <trkpt lat="30.398292" lon="119.781622"><ele>125</ele><time>2025-03-01T02:09:36Z</time></trkpt>
      <trkpt lat="30.398212" lon="119.781677"><ele>128</ele><time>2025-03-01T02:10:25Z</time></trkpt>
      <trkpt lat="30.397841" lon="119.781565"><ele>139</ele><time>2025-03-01T02:11:31Z</time></trkpt>
      <trkpt lat="30.39773" lon="119.781386"><ele>141</ele><time>2025-03-01T02:12:01Z</time></trkpt>
      <trkpt lat="30.397636" lon="119.781396"><ele>141</ele><time>2025-03-01T02:12:18Z</time></trkpt>
      <trkpt lat="30.397609" lon="119.781183"><ele>144</ele><time>2025-03-01T02:12:37Z</time></trkpt>
      <trkpt lat="30.397622" lon="119.781399"><ele>162</ele><time>2025-03-01T02:13:43Z</time></trkpt>
      <trkpt lat="30.397548" lon="119.781336"><ele>160</ele><time>2025-03-01T02:14:15Z</time></trkpt>
      <trkpt lat="30.397415" lon="119.781047"><ele>165</ele><time>2025-03-01T02:14:59Z</time></trkpt>
      <trkpt lat="30.397134" lon="119.780756"><ele>164</ele><time>2025-03-01T02:16:04Z</time></trkpt>
      <trkpt lat="30.397086" lon="119.780546"><ele>161</ele><time>2025-03-01T02:16:47Z</time></trkpt>
      <trkpt lat="30.397161" lon="119.780225"><ele>163</ele><time>2025-03-01T02:17:19Z</time></trkpt>
      <trkpt lat="30.397127" lon="119.780128"><ele>162</ele><time>2025-03-01T02:17:30Z</time></trkpt>
      <trkpt lat="30.397184" lon="119.779274"><ele>173</ele><time>2025-03-01T02:19:00Z</time></trkpt>
      <trkpt lat="30.397131" lon="119.779187"><ele>177</ele><time>2025-03-01T02:19:12Z</time></trkpt>
      <trkpt lat="30.397034" lon="119.779212"><ele>180</ele><time>2025-03-01T02:19:24Z</time></trkpt>
      <trkpt lat="30.396988" lon="119.77911"><ele>179</ele><time>2025-03-01T02:19:48Z</time></trkpt>
      <trkpt lat="30.39707" lon="119.778353"><ele>178</ele><time>2025-03-01T02:20:51Z</time></trkpt>
      <trkpt lat="30.39719" lon="119.777833"><ele>180</ele><time>2025-03-01T02:21:34Z</time></trkpt>
      <trkpt lat="30.397167" lon="119.7775"><ele>183</ele><time>2025-03-01T02:22:00Z</time></trkpt>
      <trkpt lat="30.397042" lon="119.777206"><ele>188</ele><time>2025-03-01T02:22:30Z</time></trkpt>
      <trkpt lat="30.396683" lon="119.776852"><ele>194</ele><time>2025-03-01T02:23:20Z</time></trkpt>
      <trkpt lat="30.396377" lon="119.775818"><ele>203</ele><time>2025-03-01T02:29:40Z</time></trkpt>
      <trkpt lat="30.396495" lon="119.775285"><ele>210</ele><time>2025-03-01T02:30:35Z</time></trkpt>
      <trkpt lat="30.396952" lon="119.774722"><ele>214</ele><time>2025-03-01T02:31:46Z</time></trkpt>
      <trkpt lat="30.396962" lon="119.774285"><ele>220</ele><time>2025-03-01T02:32:25Z</time></trkpt>
      <trkpt lat="30.397349" lon="119.773294"><ele>236</ele><time>2025-03-01T02:34:13Z</time></trkpt>
      <trkpt lat="30.397257" lon="119.772883"><ele>250</ele><time>2025-03-01T02:35:11Z</time></trkpt>
      <trkpt lat="30.396824" lon="119.772646"><ele>260</ele><time>2025-03-01T02:36:06Z</time></trkpt>
      <trkpt lat="30.396531" lon="119.772223"><ele>264</ele><time>2025-03-01T02:37:06Z</time></trkpt>
      <trkpt lat="30.396817" lon="119.77168"><ele>270</ele><time>2025-03-01T02:38:10Z</time></trkpt>
      <trkpt lat="30.397182" lon="119.771173"><ele>276</ele><time>2025-03-01T02:39:14Z</time></trkpt>
      <trkpt lat="30.397284" lon="119.770644"><ele>286</ele><time>2025-03-01T02:40:09Z</time></trkpt>
      <trkpt lat="30.397259" lon="119.770424"><ele>288</ele><time>2025-03-01T02:40:30Z</time></trkpt>
      <trkpt lat="30.397474" lon="119.769794"><ele>300</ele><time>2025-03-01T02:41:34Z</time></trkpt>
      <trkpt lat="30.397483" lon="119.769581"><ele>299</ele><time>2025-03-01T02:41:52Z</time></trkpt>
      <trkpt lat="30.397366" lon="119.76905"><ele>306</ele><time>2025-03-01T02:42:37Z</time></trkpt>
      <trkpt lat="30.397489" lon="119.76786"><ele>311</ele><time>2025-03-01T02:44:20Z</time></trkpt>
      <trkpt lat="30.39763" lon="119.767462"><ele>314</ele><time>2025-03-01T02:44:56Z</time></trkpt>
      <trkpt lat="30.397481" lon="119.766944"><ele>317</ele><time>2025-03-01T02:45:43Z</time></trkpt>
      <trkpt lat="30.397505" lon="119.766509"><ele>322</ele><time>2025-03-01T02:46:26Z</time></trkpt>
      <trkpt lat="30.39728" lon="119.765569"><ele>335</ele><time>2025-03-01T02:48:07Z</time></trkpt>
      <trkpt lat="30.396745" lon="119.765099"><ele>343</ele><time>2025-03-01T02:49:16Z</time></trkpt>
      <trkpt lat="30.396409" lon="119.764704"><ele>353</ele><time>2025-03-01T02:50:16Z</time></trkpt>
      <trkpt lat="30.395921" lon="119.763894"><ele>379</ele><time>2025-03-01T02:54:06Z</time></trkpt>
      <trkpt lat="30.395701" lon="119.762622"><ele>401</ele><time>2025-03-01T02:56:31Z</time></trkpt>
      <trkpt lat="30.395754" lon="119.762301"><ele>408</ele><time>2025-03-01T02:57:05Z</time></trkpt>
      <trkpt lat="30.395712" lon="119.762099"><ele>410</ele><time>2025-03-01T02:57:27Z</time></trkpt>
      <trkpt lat="30.395576" lon="119.761948"><ele>411</ele><time>2025-03-01T02:57:49Z</time></trkpt>
      <trkpt lat="30.395519" lon="119.761627"><ele>414</ele><time>2025-03-01T02:58:41Z</time></trkpt>
      <trkpt lat="30.395114" lon="119.76043"><ele>432</ele><time>2025-03-01T03:00:45Z</time></trkpt>
      <trkpt lat="30.395049" lon="119.760004"><ele>444</ele><time>2025-03-01T03:01:36Z</time></trkpt>
      <trkpt lat="30.394532" lon="119.75908"><ele>458</ele><time>2025-03-01T03:04:10Z</time></trkpt>
      <trkpt lat="30.394363" lon="119.758459"><ele>471</ele><time>2025-03-01T03:05:26Z</time></trkpt>
      <trkpt lat="30.394088" lon="119.757775"><ele>482</ele><time>2025-03-01T03:06:52Z</time></trkpt>
      <trkpt lat="30.393942" lon="119.757603"><ele>488</ele><time>2025-03-01T03:07:22Z</time></trkpt>
      <trkpt lat="30.393539" lon="119.756407"><ele>494</ele><time>2025-03-01T03:09:27Z</time></trkpt>
      <trkpt lat="30.393573" lon="119.75597"><ele>491</ele><time>2025-03-01T03:10:03Z</time></trkpt>
      <trkpt lat="30.393507" lon="119.755656"><ele>491</ele><time>2025-03-01T03:10:30Z</time></trkpt>
      <trkpt lat="30.392978" lon="119.754745"><ele>499</ele><time>2025-03-01T03:12:07Z</time></trkpt>
      <trkpt lat="30.392499" lon="119.753181"><ele>514</ele><time>2025-03-01T03:14:44Z</time></trkpt>
      <trkpt lat="30.392345" lon="119.752432"><ele>524</ele><time>2025-03-01T03:16:01Z</time></trkpt>
      <trkpt lat="30.392075" lon="119.752106"><ele>527</ele><time>2025-03-01T03:16:40Z</time></trkpt>
      <trkpt lat="30.391643" lon="119.75187"><ele>532</ele><time>2025-03-01T03:17:28Z</time></trkpt>
      <trkpt lat="30.391452" lon="119.751859"><ele>529</ele><time>2025-03-01T03:17:44Z</time></trkpt>
      <trkpt lat="30.390846" lon="119.751568"><ele>533</ele><time>2025-03-01T03:18:48Z</time></trkpt>
      <trkpt lat="30.390753" lon="119.751576"><ele>532</ele><time>2025-03-01T03:18:57Z</time></trkpt>
      <trkpt lat="30.390514" lon="119.751772"><ele>534</ele><time>2025-03-01T03:19:24Z</time></trkpt>
      <trkpt lat="30.389955" lon="119.751927"><ele>533</ele><time>2025-03-01T03:20:14Z</time></trkpt>
      <trkpt lat="30.389502" lon="119.751745"><ele>528</ele><time>2025-03-01T03:20:59Z</time></trkpt>
      <trkpt lat="30.38943" lon="119.751678"><ele>527</ele><time>2025-03-01T03:21:07Z</time></trkpt>
      <trkpt lat="30.389289" lon="119.751266"><ele>521</ele><time>2025-03-01T03:21:42Z</time></trkpt>
      <trkpt lat="30.389207" lon="119.751195"><ele>520</ele><time>2025-03-01T03:21:52Z</time></trkpt>
      <trkpt lat="30.38912" lon="119.751225"><ele>520</ele><time>2025-03-01T03:22:00Z</time></trkpt>
      <trkpt lat="30.389096" lon="119.751861"><ele>513</ele><time>2025-03-01T03:22:54Z</time></trkpt>
      <trkpt lat="30.388722" lon="119.751831"><ele>506</ele><time>2025-03-01T03:23:30Z</time></trkpt>
      <trkpt lat="30.388376" lon="119.751987"><ele>507</ele><time>2025-03-01T03:24:09Z</time></trkpt>
      <trkpt lat="30.388298" lon="119.752057"><ele>506</ele><time>2025-03-01T03:24:20Z</time></trkpt>
      <trkpt lat="30.388302" lon="119.752169"><ele>504</ele><time>2025-03-01T03:24:46Z</time></trkpt>
      <trkpt lat="30.388367" lon="119.752374"><ele>502</ele><time>2025-03-01T03:25:06Z</time></trkpt>
      <trkpt lat="30.388553" lon="119.752616"><ele>505</ele><time>2025-03-01T03:25:34Z</time></trkpt>
      <trkpt lat="30.38894" lon="119.752944"><ele>505</ele><time>2025-03-01T03:26:21Z</time></trkpt>
      <trkpt lat="30.389287" lon="119.753098"><ele>508</ele><time>2025-03-01T03:26:56Z</time></trkpt>
      <trkpt lat="30.389289" lon="119.753205"><ele>514</ele><time>2025-03-01T03:27:05Z</time></trkpt>
      <trkpt lat="30.389028" lon="119.753294"><ele>514</ele><time>2025-03-01T03:27:33Z</time></trkpt>
      <trkpt lat="30.388742" lon="119.753213"><ele>510</ele><time>2025-03-01T03:28:09Z</time></trkpt>
      <trkpt lat="30.388407" lon="119.753577"><ele>505</ele><time>2025-03-01T03:29:08Z</time></trkpt>
      <trkpt lat="30.387744" lon="119.753525"><ele>504</ele><time>2025-03-01T03:30:09Z</time></trkpt>
      <trkpt lat="30.387616" lon="119.754163"><ele>506</ele><time>2025-03-01T03:31:03Z</time></trkpt>
      <trkpt lat="30.387389" lon="119.754354"><ele>507</ele><time>2025-03-01T03:31:28Z</time></trkpt>
      <trkpt lat="30.387178" lon="119.754721"><ele>505</ele><time>2025-03-01T03:32:06Z</time></trkpt>
      <trkpt lat="30.386804" lon="119.754722"><ele>508</ele><time>2025-03-01T03:32:58Z</time></trkpt>
      <trkpt lat="30.38638" lon="119.754983"><ele>514</ele><time>2025-03-01T03:33:45Z</time></trkpt>
      <trkpt lat="30.386258" lon="119.755151"><ele>516</ele><time>2025-03-01T03:34:02Z</time></trkpt>
      <trkpt lat="30.385811" lon="119.755025"><ele>525</ele><time>2025-03-01T03:35:54Z</time></trkpt>
      <trkpt lat="30.385775" lon="119.755121"><ele>525</ele><time>2025-03-01T03:36:15Z</time></trkpt>
      <trkpt lat="30.385681" lon="119.755113"><ele>524</ele><time>2025-03-01T03:36:27Z</time></trkpt>
      <trkpt lat="30.385421" lon="119.755271"><ele>526</ele><time>2025-03-01T03:36:59Z</time></trkpt>
      <trkpt lat="30.384854" lon="119.755642"><ele>536</ele><time>2025-03-01T03:38:06Z</time></trkpt>
      <trkpt lat="30.384722" lon="119.756043"><ele>535</ele><time>2025-03-01T03:38:40Z</time></trkpt>
      <trkpt lat="30.384712" lon="119.756263"><ele>540</ele><time>2025-03-01T03:39:02Z</time></trkpt>
      <trkpt lat="30.384645" lon="119.756337"><ele>542</ele><time>2025-03-01T03:39:18Z</time></trkpt>
      <trkpt lat="30.383332" lon="119.757003"><ele>548</ele><time>2025-03-01T03:41:45Z</time></trkpt>
      <trkpt lat="30.383175" lon="119.75714"><ele>548</ele><time>2025-03-01T03:42:02Z</time></trkpt>
      <trkpt lat="30.382983" lon="119.757159"><ele>548</ele><time>2025-03-01T03:42:24Z</time></trkpt>
      <trkpt lat="30.383078" lon="119.757358"><ele>541</ele><time>2025-03-01T03:42:49Z</time></trkpt>
      <trkpt lat="30.38297" lon="119.75718"><ele>547</ele><time>2025-03-01T03:44:22Z</time></trkpt>
      <trkpt lat="30.382615" lon="119.757017"><ele>549</ele><time>2025-03-01T03:45:00Z</time></trkpt>
      <trkpt lat="30.383148" lon="119.757268"><ele>547</ele><time>2025-03-01T03:46:49Z</time></trkpt>
      <trkpt lat="30.383321" lon="119.757537"><ele>542</ele><time>2025-03-01T03:47:13Z</time></trkpt>
      <trkpt lat="30.383286" lon="119.757638"><ele>544</ele><time>2025-03-01T03:47:23Z</time></trkpt>
      <trkpt lat="30.382883" lon="119.758272"><ele>531</ele><time>2025-03-01T03:48:20Z</time></trkpt>
      <trkpt lat="30.382327" lon="119.758739"><ele>526</ele><time>2025-03-01T03:49:17Z</time></trkpt>
      <trkpt lat="30.381985" lon="119.759129"><ele>521</ele><time>2025-03-01T03:49:57Z</time></trkpt>
      <trkpt lat="30.38151" lon="119.759824"><ele>524</ele><time>2025-03-01T03:51:25Z</time></trkpt>
      <trkpt lat="30.381038" lon="119.760179"><ele>531</ele><time>2025-03-01T03:52:27Z</time></trkpt>
      <trkpt lat="30.381035" lon="119.760395"><ele>535</ele><time>2025-03-01T03:52:52Z</time></trkpt>
      <trkpt lat="30.380941" lon="119.760701"><ele>534</ele><time>2025-03-01T03:53:21Z</time></trkpt>
      <trkpt lat="30.380815" lon="119.760876"><ele>533</ele><time>2025-03-01T03:53:38Z</time></trkpt>
      <trkpt lat="30.380836" lon="119.760978"><ele>529</ele><time>2025-03-01T03:53:51Z</time></trkpt>
      <trkpt lat="30.381024" lon="119.760949"><ele>528</ele><time>2025-03-01T03:54:11Z</time></trkpt>
      <trkpt lat="30.381357" lon="119.761136"><ele>530</ele><time>2025-03-01T03:54:48Z</time></trkpt>
      <trkpt lat="30.381541" lon="119.761168"><ele>523</ele><time>2025-03-01T03:55:16Z</time></trkpt>
      <trkpt lat="30.381997" lon="119.76108"><ele>517</ele><time>2025-03-01T03:56:09Z</time></trkpt>
      <trkpt lat="30.382079" lon="119.760893"><ele>523</ele><time>2025-03-01T04:00:13Z</time></trkpt>
      <trkpt lat="30.382145" lon="119.760967"><ele>526</ele><time>2025-03-01T04:01:00Z</time></trkpt>
      <trkpt lat="30.382143" lon="119.760861"><ele>524</ele><time>2025-03-01T04:01:27Z</time></trkpt>
      <trkpt lat="30.382" lon="119.760721"><ele>523</ele><time>2025-03-01T04:02:04Z</time></trkpt>
      <trkpt lat="30.382201" lon="119.761135"><ele>526</ele><time>2025-03-01T04:03:29Z</time></trkpt>
      <trkpt lat="30.382157" lon="119.76104"><ele>523</ele><time>2025-03-01T04:03:50Z</time></trkpt>
      <trkpt lat="30.381978" lon="119.760951"><ele>524</ele><time>2025-03-01T04:04:03Z</time></trkpt>
      <trkpt lat="30.382264" lon="119.76075"><ele>527</ele><time>2025-03-01T04:04:52Z</time></trkpt>
      <trkpt lat="30.382337" lon="119.760814"><ele>524</ele><time>2025-03-01T04:05:22Z</time></trkpt>
      <trkpt lat="30.382524" lon="119.760798"><ele>525</ele><time>2025-03-01T04:05:47Z</time></trkpt>
      <trkpt lat="30.382439" lon="119.760844"><ele>525</ele><time>2025-03-01T04:06:24Z</time></trkpt>
      <trkpt lat="30.382477" lon="119.760748"><ele>525</ele><time>2025-03-01T04:07:33Z</time></trkpt>
      <trkpt lat="30.382382" lon="119.760458"><ele>520</ele><time>2025-03-01T04:08:09Z</time></trkpt>
      <trkpt lat="30.38266" lon="119.760148"><ele>517</ele><time>2025-03-01T04:08:50Z</time></trkpt>
      <trkpt lat="30.382754" lon="119.760121"><ele>521</ele><time>2025-03-01T04:09:03Z</time></trkpt>
      <trkpt lat="30.382532" lon="119.760303"><ele>525</ele><time>2025-03-01T04:37:25Z</time></trkpt>
      <trkpt lat="30.382614" lon="119.760244"><ele>525</ele><time>2025-03-01T04:37:32Z</time></trkpt>
      <trkpt lat="30.382544" lon="119.760187"><ele>526</ele><time>2025-03-01T04:44:45Z</time></trkpt>
      <trkpt lat="30.382366" lon="119.760451"><ele>524</ele><time>2025-03-01T04:45:13Z</time></trkpt>
      <trkpt lat="30.382286" lon="119.76065"><ele>523</ele><time>2025-03-01T04:45:30Z</time></trkpt>
      <trkpt lat="30.382371" lon="119.760979"><ele>523</ele><time>2025-03-01T04:46:06Z</time></trkpt>
      <trkpt lat="30.382194" lon="119.761077"><ele>532</ele><time>2025-03-01T04:46:27Z</time></trkpt>
      <trkpt lat="30.38197" lon="119.761403"><ele>529</ele><time>2025-03-01T04:47:34Z</time></trkpt>
      <trkpt lat="30.382055" lon="119.761587"><ele>526</ele><time>2025-03-01T04:52:10Z</time></trkpt>
      <trkpt lat="30.38206" lon="119.762024"><ele>526</ele><time>2025-03-01T04:52:39Z</time></trkpt>
      <trkpt lat="30.382158" lon="119.762226"><ele>525</ele><time>2025-03-01T04:52:55Z</time></trkpt>
      <trkpt lat="30.382161" lon="119.762446"><ele>520</ele><time>2025-03-01T04:53:19Z</time></trkpt>
      <trkpt lat="30.382099" lon="119.762642"><ele>520</ele><time>2025-03-01T04:53:39Z</time></trkpt>
      <trkpt lat="30.381892" lon="119.762872"><ele>523</ele><time>2025-03-01T04:54:05Z</time></trkpt>
      <trkpt lat="30.381885" lon="119.763426"><ele>524</ele><time>2025-03-01T04:54:51Z</time></trkpt>
      <trkpt lat="30.382135" lon="119.763871"><ele>518</ele><time>2025-03-01T04:55:34Z</time></trkpt>
      <trkpt lat="30.382309" lon="119.763917"><ele>513</ele><time>2025-03-01T04:55:52Z</time></trkpt>
      <trkpt lat="30.382653" lon="119.764275"><ele>523</ele><time>2025-03-01T04:56:47Z</time></trkpt>
      <trkpt lat="30.382782" lon="119.765001"><ele>512</ele><time>2025-03-01T04:58:06Z</time></trkpt>
      <trkpt lat="30.38304" lon="119.765447"><ele>503</ele><time>2025-03-01T04:59:11Z</time></trkpt>
      <trkpt lat="30.383305" lon="119.765731"><ele>501</ele><time>2025-03-01T04:59:52Z</time></trkpt>
      <trkpt lat="30.383202" lon="119.766241"><ele>488</ele><time>2025-03-01T05:00:57Z</time></trkpt>
      <trkpt lat="30.383243" lon="119.766681"><ele>477</ele><time>2025-03-01T05:01:42Z</time></trkpt>
      <trkpt lat="30.383362" lon="119.76711"><ele>463</ele><time>2025-03-01T05:02:23Z</time></trkpt>
      <trkpt lat="30.383522" lon="119.767383"><ele>463</ele><time>2025-03-01T05:02:56Z</time></trkpt>
      <trkpt lat="30.383468" lon="119.767582"><ele>461</ele><time>2025-03-01T05:03:19Z</time></trkpt>
      <trkpt lat="30.383291" lon="119.767661"><ele>463</ele><time>2025-03-01T05:03:46Z</time></trkpt>
      <trkpt lat="30.383187" lon="119.767831"><ele>456</ele><time>2025-03-01T05:04:12Z</time></trkpt>
      <trkpt lat="30.38317" lon="119.768156"><ele>447</ele><time>2025-03-01T05:04:48Z</time></trkpt>
      <trkpt lat="30.382947" lon="119.768879"><ele>431</ele><time>2025-03-01T05:06:25Z</time></trkpt>
      <trkpt lat="30.382581" lon="119.769245"><ele>413</ele><time>2025-03-01T05:07:30Z</time></trkpt>
      <trkpt lat="30.382629" lon="119.769664"><ele>407</ele><time>2025-03-01T05:08:22Z</time></trkpt>
      <trkpt lat="30.382355" lon="119.770352"><ele>393</ele><time>2025-03-01T05:09:50Z</time></trkpt>
      <trkpt lat="30.382272" lon="119.770983"><ele>375</ele><time>2025-03-01T05:11:16Z</time></trkpt>
      <trkpt lat="30.382287" lon="119.771305"><ele>368</ele><time>2025-03-01T05:12:04Z</time></trkpt>
      <trkpt lat="30.382174" lon="119.771584"><ele>365</ele><time>2025-03-01T05:12:42Z</time></trkpt>
      <trkpt lat="30.382084" lon="119.771613"><ele>359</ele><time>2025-03-01T05:13:13Z</time></trkpt>
      <trkpt lat="30.382047" lon="119.77151"><ele>360</ele><time>2025-03-01T05:13:25Z</time></trkpt>
      <trkpt lat="30.382091" lon="119.77129"><ele>360</ele><time>2025-03-01T05:13:51Z</time></trkpt>
      <trkpt lat="30.38195" lon="119.771414"><ele>362</ele><time>2025-03-01T05:14:16Z</time></trkpt>
      <trkpt lat="30.381857" lon="119.771244"><ele>352</ele><time>2025-03-01T05:15:14Z</time></trkpt>
      <trkpt lat="30.381788" lon="119.771328"><ele>350</ele><time>2025-03-01T05:15:28Z</time></trkpt>
      <trkpt lat="30.381755" lon="119.771763"><ele>332</ele><time>2025-03-01T05:16:21Z</time></trkpt>
      <trkpt lat="30.381852" lon="119.772068"><ele>328</ele><time>2025-03-01T05:16:57Z</time></trkpt>
      <trkpt lat="30.381858" lon="119.772604"><ele>327</ele><time>2025-03-01T05:17:55Z</time></trkpt>
      <trkpt lat="30.381913" lon="119.772697"><ele>323</ele><time>2025-03-01T05:18:05Z</time></trkpt>
      <trkpt lat="30.382377" lon="119.772764"><ele>278</ele><time>2025-03-01T05:19:40Z</time></trkpt>
      <trkpt lat="30.382331" lon="119.77308"><ele>284</ele><time>2025-03-01T05:20:44Z</time></trkpt>
      <trkpt lat="30.382495" lon="119.773341"><ele>273</ele><time>2025-03-01T05:21:34Z</time></trkpt>
      <trkpt lat="30.382486" lon="119.773668"><ele>268</ele><time>2025-03-01T05:22:13Z</time></trkpt>
      <trkpt lat="30.382441" lon="119.773575"><ele>269</ele><time>2025-03-01T05:22:38Z</time></trkpt>
      <trkpt lat="30.382367" lon="119.773637"><ele>276</ele><time>2025-03-01T05:23:03Z</time></trkpt>
      <trkpt lat="30.382404" lon="119.773972"><ele>268</ele><time>2025-03-01T05:23:38Z</time></trkpt>
      <trkpt lat="30.382537" lon="119.774125"><ele>262</ele><time>2025-03-01T05:23:59Z</time></trkpt>
      <trkpt lat="30.382666" lon="119.774544"><ele>251</ele><time>2025-03-01T05:24:46Z</time></trkpt>
      <trkpt lat="30.382721" lon="119.774338"><ele>233</ele><time>2025-03-01T05:25:28Z</time></trkpt>
      <trkpt lat="30.382837" lon="119.774498"><ele>224</ele><time>2025-03-01T05:26:09Z</time></trkpt>
      <trkpt lat="30.383198" lon="119.774582"><ele>213</ele><time>2025-03-01T05:27:07Z</time></trkpt>
      <trkpt lat="30.384047" lon="119.775468"><ele>191</ele><time>2025-03-01T05:29:35Z</time></trkpt>
      <trkpt lat="30.384609" lon="119.775414"><ele>190</ele><time>2025-03-01T05:30:30Z</time></trkpt>
      <trkpt lat="30.384942" lon="119.775615"><ele>193</ele><time>2025-03-01T05:31:05Z</time></trkpt>
      <trkpt lat="30.385511" lon="119.775681"><ele>195</ele><time>2025-03-01T05:32:09Z</time></trkpt>
      <trkpt lat="30.385866" lon="119.775542"><ele>195</ele><time>2025-03-01T05:32:49Z</time></trkpt>
      <trkpt lat="30.385963" lon="119.775577"><ele>198</ele><time>2025-03-01T05:32:58Z</time></trkpt>
      <trkpt lat="30.386133" lon="119.775686"><ele>200</ele><time>2025-03-01T05:33:20Z</time></trkpt>
      <trkpt lat="30.386918" lon="119.777044"><ele>203</ele><time>2025-03-01T05:35:43Z</time></trkpt>
      <trkpt lat="30.387374" lon="119.777262"><ele>212</ele><time>2025-03-01T05:36:33Z</time></trkpt>
      <trkpt lat="30.387168" lon="119.777242"><ele>208</ele><time>2025-03-01T05:36:59Z</time></trkpt>
      <trkpt lat="30.38724" lon="119.77719"><ele>209</ele><time>2025-03-01T05:39:39Z</time></trkpt>
      <trkpt lat="30.387195" lon="119.777289"><ele>206</ele><time>2025-03-01T05:40:35Z</time></trkpt>
      <trkpt lat="30.387427" lon="119.77723"><ele>210</ele><time>2025-03-01T05:43:07Z</time></trkpt>
      <trkpt lat="30.387333" lon="119.777226"><ele>210</ele><time>2025-03-01T05:43:12Z</time></trkpt>
      <trkpt lat="30.387445" lon="119.77707"><ele>208</ele><time>2025-03-01T05:44:43Z</time></trkpt>
      <trkpt lat="30.38737" lon="119.777179"><ele>208</ele><time>2025-03-01T05:46:52Z</time></trkpt>
      <trkpt lat="30.387166" lon="119.777099"><ele>208</ele><time>2025-03-01T05:47:11Z</time></trkpt>
      <trkpt lat="30.387233" lon="119.777192"><ele>207</ele><time>2025-03-01T05:47:21Z</time></trkpt>
      <trkpt lat="30.387229" lon="119.777086"><ele>209</ele><time>2025-03-01T05:50:25Z</time></trkpt>
      <trkpt lat="30.387134" lon="119.777133"><ele>206</ele><time>2025-03-01T05:50:49Z</time></trkpt>
      <trkpt lat="30.387211" lon="119.77707"><ele>206</ele><time>2025-03-01T05:51:13Z</time></trkpt>
      <trkpt lat="30.387104" lon="119.777356"><ele>206</ele><time>2025-03-01T05:53:05Z</time></trkpt>
      <trkpt lat="30.387289" lon="119.777174"><ele>207</ele><time>2025-03-01T05:53:11Z</time></trkpt>
      <trkpt lat="30.387106" lon="119.777129"><ele>206</ele><time>2025-03-01T06:15:29Z</time></trkpt>
      <trkpt lat="30.3871" lon="119.777243"><ele>207</ele><time>2025-03-01T06:15:56Z</time></trkpt>
      <trkpt lat="30.387236" lon="119.777401"><ele>205</ele><time>2025-03-01T06:16:13Z</time></trkpt>
      <trkpt lat="30.388206" lon="119.7781"><ele>206</ele><time>2025-03-01T06:17:55Z</time></trkpt>
      <trkpt lat="30.388577" lon="119.778259"><ele>205</ele><time>2025-03-01T06:18:28Z</time></trkpt>
      <trkpt lat="30.388866" lon="119.778298"><ele>203</ele><time>2025-03-01T06:18:55Z</time></trkpt>
      <trkpt lat="30.388816" lon="119.77821"><ele>204</ele><time>2025-03-01T06:19:09Z</time></trkpt>
      <trkpt lat="30.388981" lon="119.778342"><ele>206</ele><time>2025-03-01T06:19:31Z</time></trkpt>
      <trkpt lat="30.389274" lon="119.778428"><ele>203</ele><time>2025-03-01T06:19:55Z</time></trkpt>
      <trkpt lat="30.390034" lon="119.77898"><ele>197</ele><time>2025-03-01T06:21:09Z</time></trkpt>
      <trkpt lat="30.390094" lon="119.778901"><ele>190</ele><time>2025-03-01T06:22:16Z</time></trkpt>
      <trkpt lat="30.39037" lon="119.778811"><ele>193</ele><time>2025-03-01T06:22:42Z</time></trkpt>
      <trkpt lat="30.390587" lon="119.778588"><ele>192</ele><time>2025-03-01T06:23:06Z</time></trkpt>
      <trkpt lat="30.390867" lon="119.778549"><ele>190</ele><time>2025-03-01T06:23:29Z</time></trkpt>
      <trkpt lat="30.391121" lon="119.778408"><ele>189</ele><time>2025-03-01T06:23:53Z</time></trkpt>
      <trkpt lat="30.39118" lon="119.778492"><ele>189</ele><time>2025-03-01T06:24:03Z</time></trkpt>
      <trkpt lat="30.391161" lon="119.778702"><ele>194</ele><time>2025-03-01T06:24:36Z</time></trkpt>
      <trkpt lat="30.390723" lon="119.779554"><ele>174</ele><time>2025-03-01T06:25:48Z</time></trkpt>
      <trkpt lat="30.390723" lon="119.779663"><ele>171</ele><time>2025-03-01T06:25:56Z</time></trkpt>
      <trkpt lat="30.390953" lon="119.77985"><ele>168</ele><time>2025-03-01T06:26:42Z</time></trkpt>
      <trkpt lat="30.391239" lon="119.779968"><ele>165</ele><time>2025-03-01T06:27:14Z</time></trkpt>
      <trkpt lat="30.39162" lon="119.779959"><ele>163</ele><time>2025-03-01T06:28:03Z</time></trkpt>
      <trkpt lat="30.391857" lon="119.780155"><ele>160</ele><time>2025-03-01T06:28:27Z</time></trkpt>
      <trkpt lat="30.392328" lon="119.7801"><ele>154</ele><time>2025-03-01T06:29:05Z</time></trkpt>
      <trkpt lat="30.392575" lon="119.780289"><ele>152</ele><time>2025-03-01T06:29:30Z</time></trkpt>
      <trkpt lat="30.393336" lon="119.780239"><ele>147</ele><time>2025-03-01T06:30:31Z</time></trkpt>
      <trkpt lat="30.393423" lon="119.780295"><ele>145</ele><time>2025-03-01T06:30:40Z</time></trkpt>
      <trkpt lat="30.393569" lon="119.780699"><ele>144</ele><time>2025-03-01T06:31:15Z</time></trkpt>
      <trkpt lat="30.393588" lon="119.781133"><ele>140</ele><time>2025-03-01T06:32:15Z</time></trkpt>
      <trkpt lat="30.393371" lon="119.781375"><ele>134</ele><time>2025-03-01T06:32:42Z</time></trkpt>
      <trkpt lat="30.393277" lon="119.781353"><ele>132</ele><time>2025-03-01T06:33:06Z</time></trkpt>
      <trkpt lat="30.393082" lon="119.781128"><ele>131</ele><time>2025-03-01T06:33:43Z</time></trkpt>
      <trkpt lat="30.392967" lon="119.78141"><ele>135</ele><time>2025-03-01T06:34:24Z</time></trkpt>
      <trkpt lat="30.393005" lon="119.781628"><ele>127</ele><time>2025-03-01T06:34:46Z</time></trkpt>
      <trkpt lat="30.392934" lon="119.782061"><ele>123</ele><time>2025-03-01T06:35:24Z</time></trkpt>
      <trkpt lat="30.393116" lon="119.78258"><ele>114</ele><time>2025-03-01T06:36:08Z</time></trkpt>
      <trkpt lat="30.393226" lon="119.782751"><ele>109</ele><time>2025-03-01T06:36:26Z</time></trkpt>
      <trkpt lat="30.393923" lon="119.783369"><ele>101</ele><time>2025-03-01T06:37:39Z</time></trkpt>
      <trkpt lat="30.394191" lon="119.783682"><ele>97</ele><time>2025-03-01T06:38:10Z</time></trkpt>
      <trkpt lat="30.396303" lon="119.786815"><ele>85</ele><time>2025-03-01T06:43:04Z</time></trkpt>
      <trkpt lat="30.396602" lon="119.787389"><ele>83</ele><time>2025-03-01T06:43:50Z</time></trkpt>
      <trkpt lat="30.396756" lon="119.788154"><ele>77</ele><time>2025-03-01T06:44:42Z</time></trkpt>
      <trkpt lat="30.397383" lon="119.788668"><ele>77</ele><time>2025-03-01T06:45:43Z</time></trkpt>
      <trkpt lat="30.397879" lon="119.789204"><ele>74</ele><time>2025-03-01T06:46:39Z</time></trkpt>
      <trkpt lat="30.398155" lon="119.789308"><ele>77</ele><time>2025-03-01T06:47:02Z</time></trkpt>
    </trkseg>
  </trk>
</gpx>
