<?xml version="1.0" encoding="UTF-8"?>
<gpx version="1.1" creator="MyWorld" xmlns="http://www.topografix.com/GPX/1/1">
  <metadata><name>恩施朝东岩</name></metadata>
  <trk>
    <name>恩施朝东岩</name>
    <trkseg>
      <trkpt lat="30.342896" lon="109.275985"><ele>1367</ele><time>2025-05-02T00:05:34Z</time></trkpt>
      <trkpt lat="30.343266" lon="109.276101"><ele>1363</ele><time>2025-05-02T00:06:07Z</time></trkpt>
      <trkpt lat="30.343283" lon="109.276443"><ele>1365</ele><time>2025-05-02T00:06:37Z</time></trkpt>
      <trkpt lat="30.343525" lon="109.277147"><ele>1361</ele><time>2025-05-02T00:07:36Z</time></trkpt>
      <trkpt lat="30.343625" lon="109.277784"><ele>1361</ele><time>2025-05-02T00:08:24Z</time></trkpt>
      <trkpt lat="30.34344" lon="109.279422"><ele>1361</ele><time>2025-05-02T00:10:32Z</time></trkpt>
      <trkpt lat="30.343279" lon="109.279918"><ele>1363</ele><time>2025-05-02T00:11:11Z</time></trkpt>
      <trkpt lat="30.343247" lon="109.280471"><ele>1365</ele><time>2025-05-02T00:11:52Z</time></trkpt>
      <trkpt lat="30.343359" lon="109.280885"><ele>1368</ele><time>2025-05-02T00:12:26Z</time></trkpt>
      <trkpt lat="30.343627" lon="109.281479"><ele>1369</ele><time>2025-05-02T00:13:16Z</time></trkpt>
      <trkpt lat="30.343907" lon="109.282435"><ele>1375</ele><time>2025-05-02T00:14:32Z</time></trkpt>
      <trkpt lat="30.343941" lon="109.282663"><ele>1375</ele><time>2025-05-02T00:14:49Z</time></trkpt>
      <trkpt lat="30.343883" lon="109.283"><ele>1378</ele><time>2025-05-02T00:15:16Z</time></trkpt>
      <trkpt lat="30.343973" lon="109.282973"><ele>1379</ele><time>2025-05-02T00:15:36Z</time></trkpt>
      <trkpt lat="30.344302" lon="109.282415"><ele>1385</ele><time>2025-05-02T00:16:27Z</time></trkpt>
      <trkpt lat="30.34456" lon="109.282299"><ele>1385</ele><time>2025-05-02T00:16:52Z</time></trkpt>
      <trkpt lat="30.344998" lon="109.281864"><ele>1388</ele><time>2025-05-02T00:17:42Z</time></trkpt>
      <trkpt lat="30.345624" lon="109.281604"><ele>1391</ele><time>2025-05-02T00:18:34Z</time></trkpt>
      <trkpt lat="30.346127" lon="109.281584"><ele>1397</ele><time>2025-05-02T00:19:16Z</time></trkpt>
      <trkpt lat="30.346446" lon="109.281817"><ele>1396</ele><time>2025-05-02T00:19:48Z</time></trkpt>
      <trkpt lat="30.346816" lon="109.28246"><ele>1397</ele><time>2025-05-02T00:20:44Z</time></trkpt>
      <trkpt lat="30.347082" lon="109.282551"><ele>1393</ele><time>2025-05-02T00:21:07Z</time></trkpt>
      <trkpt lat="30.347179" lon="109.28285"><ele>1391</ele><time>2025-05-02T00:21:29Z</time></trkpt>
      <trkpt lat="30.347572" lon="109.283341"><ele>1390</ele><time>2025-05-02T00:22:33Z</time></trkpt>
      <trkpt lat="30.347705" lon="109.283645"><ele>1393</ele><time>2025-05-02T00:23:02Z</time></trkpt>
      <trkpt lat="30.348059" lon="109.283148"><ele>1401</ele><time>2025-05-02T00:27:56Z</time></trkpt>
      <trkpt lat="30.348141" lon="109.282832"><ele>1411</ele><time>2025-05-02T00:28:45Z</time></trkpt>
      <trkpt lat="30.348261" lon="109.282672"><ele>1414</ele><time>2025-05-02T00:29:11Z</time></trkpt>
      <trkpt lat="30.348565" lon="109.282436"><ele>1415</ele><time>2025-05-02T00:31:11Z</time></trkpt>
      <trkpt lat="30.348656" lon="109.282444"><ele>1431</ele><time>2025-05-02T00:33:24Z</time></trkpt>
      <trkpt lat="30.348758" lon="109.28227"><ele>1428</ele><time>2025-05-02T00:33:53Z</time></trkpt>
      <trkpt lat="30.349075" lon="109.282033"><ele>1422</ele><time>2025-05-02T00:34:59Z</time></trkpt>
      <trkpt lat="30.349255" lon="109.281977"><ele>1418</ele><time>2025-05-02T00:35:30Z</time></trkpt>
      <trkpt lat="30.349784" lon="109.281378"><ele>1413</ele><time>2025-05-02T00:39:31Z</time></trkpt>
      <trkpt lat="30.35005" lon="109.281314"><ele>1405</ele><time>2025-05-02T00:40:10Z</time></trkpt>
      <trkpt lat="30.350244" lon="109.281099"><ele>1397</ele><time>2025-05-02T00:40:53Z</time></trkpt>
      <trkpt lat="30.350677" lon="109.280964"><ele>1395</ele><time>2025-05-02T00:42:02Z</time></trkpt>
      <trkpt lat="30.350849" lon="109.280979"><ele>1398</ele><time>2025-05-02T00:42:23Z</time></trkpt>
      <trkpt lat="30.351166" lon="109.280758"><ele>1395</ele><time>2025-05-02T00:43:22Z</time></trkpt>
      <trkpt lat="30.35142" lon="109.280171"><ele>1387</ele><time>2025-05-02T00:44:37Z</time></trkpt>
      <trkpt lat="30.351526" lon="109.280171"><ele>1390</ele><time>2025-05-02T00:44:49Z</time></trkpt>
      <trkpt lat="30.351572" lon="109.280261"><ele>1395</ele><time>2025-05-02T00:44:54Z</time></trkpt>
      <trkpt lat="30.351629" lon="109.280174"><ele>1394</ele><time>2025-05-02T00:45:13Z</time></trkpt>
      <trkpt lat="30.351646" lon="109.280282"><ele>1401</ele><time>2025-05-02T00:47:02Z</time></trkpt>
      <trkpt lat="30.351822" lon="109.2802"><ele>1392</ele><time>2025-05-02T00:47:47Z</time></trkpt>
      <trkpt lat="30.351846" lon="109.280096"><ele>1388</ele><time>2025-05-02T00:48:02Z</time></trkpt>
      <trkpt lat="30.352001" lon="109.279999"><ele>1387</ele><time>2025-05-02T00:48:37Z</time></trkpt>
      <trkpt lat="30.352283" lon="109.279905"><ele>1383</ele><time>2025-05-02T00:49:12Z</time></trkpt>
      <trkpt lat="30.352291" lon="109.279797"><ele>1379</ele><time>2025-05-02T00:49:24Z</time></trkpt>
      <trkpt lat="30.352516" lon="109.279461"><ele>1378</ele><time>2025-05-02T00:50:37Z</time></trkpt>
      <trkpt lat="30.3525" lon="109.279347"><ele>1374</ele><time>2025-05-02T00:50:49Z</time></trkpt>
      <trkpt lat="30.352778" lon="109.279056"><ele>1368</ele><time>2025-05-02T00:51:41Z</time></trkpt>
      <trkpt lat="30.352868" lon="109.279048"><ele>1371</ele><time>2025-05-02T00:51:47Z</time></trkpt>
      <trkpt lat="30.352881" lon="109.27894"><ele>1368</ele><time>2025-05-02T00:52:00Z</time></trkpt>
      <trkpt lat="30.35302" lon="109.278795"><ele>1372</ele><time>2025-05-02T00:53:04Z</time></trkpt>
      <trkpt lat="30.353061" lon="109.278582"><ele>1362</ele><time>2025-05-02T00:53:30Z</time></trkpt>
      <trkpt lat="30.353298" lon="109.278331"><ele>1362</ele><time>2025-05-02T00:54:01Z</time></trkpt>
      <trkpt lat="30.353266" lon="109.278231"><ele>1364</ele><time>2025-05-02T00:54:08Z</time></trkpt>
      <trkpt lat="30.353346" lon="109.278035"><ele>1365</ele><time>2025-05-02T00:54:36Z</time></trkpt>
      <trkpt lat="30.353766" lon="109.277604"><ele>1368</ele><time>2025-05-02T00:55:56Z</time></trkpt>
      <trkpt lat="30.353843" lon="109.277407"><ele>1364</ele><time>2025-05-02T00:56:24Z</time></trkpt>
      <trkpt lat="30.354145" lon="109.277175"><ele>1365</ele><time>2025-05-02T00:57:24Z</time></trkpt>
      <trkpt lat="30.354219" lon="109.276964"><ele>1358</ele><time>2025-05-02T00:58:00Z</time></trkpt>
      <trkpt lat="30.354362" lon="109.276824"><ele>1356</ele><time>2025-05-02T00:58:26Z</time></trkpt>
      <trkpt lat="30.354611" lon="109.276365"><ele>1351</ele><time>2025-05-02T00:59:40Z</time></trkpt>
      <trkpt lat="30.354954" lon="109.27617"><ele>1352</ele><time>2025-05-02T01:00:23Z</time></trkpt>
      <trkpt lat="30.355087" lon="109.275874"><ele>1351</ele><time>2025-05-02T01:00:57Z</time></trkpt>
      <trkpt lat="30.355179" lon="109.27583"><ele>1354</ele><time>2025-05-02T01:01:06Z</time></trkpt>
      <trkpt lat="30.355251" lon="109.275532"><ele>1344</ele><time>2025-05-02T01:01:48Z</time></trkpt>
      <trkpt lat="30.355758" lon="109.274909"><ele>1344</ele><time>2025-05-02T01:04:52Z</time></trkpt>
      <trkpt lat="30.355904" lon="109.274518"><ele>1344</ele><time>2025-05-02T01:05:53Z</time></trkpt>
      <trkpt lat="30.356054" lon="109.274392"><ele>1343</ele><time>2025-05-02T01:06:12Z</time></trkpt>
      <trkpt lat="30.356166" lon="109.2739"><ele>1317</ele><time>2025-05-02T01:07:12Z</time></trkpt>
      <trkpt lat="30.356431" lon="109.273745"><ele>1318</ele><time>2025-05-02T01:07:41Z</time></trkpt>
      <trkpt lat="30.356806" lon="109.27382"><ele>1333</ele><time>2025-05-02T01:08:27Z</time></trkpt>
      <trkpt lat="30.35697" lon="109.27372"><ele>1330</ele><time>2025-05-02T01:10:43Z</time></trkpt>
      <trkpt lat="30.356936" lon="109.273392"><ele>1337</ele><time>2025-05-02T01:13:33Z</time></trkpt>
      <trkpt lat="30.357027" lon="109.273094"><ele>1336</ele><time>2025-05-02T01:14:48Z</time></trkpt>
      <trkpt lat="30.357225" lon="109.273064"><ele>1342</ele><time>2025-05-02T01:15:16Z</time></trkpt>
      <trkpt lat="30.357267" lon="109.272972"><ele>1337</ele><time>2025-05-02T01:15:32Z</time></trkpt>
      <trkpt lat="30.357208" lon="109.27289"><ele>1332</ele><time>2025-05-02T01:16:11Z</time></trkpt>
      <trkpt lat="30.357367" lon="109.272774"><ele>1319</ele><time>2025-05-02T01:16:44Z</time></trkpt>
      <trkpt lat="30.357456" lon="109.272789"><ele>1329</ele><time>2025-05-02T01:17:02Z</time></trkpt>
      <trkpt lat="30.357437" lon="109.272586"><ele>1298</ele><time>2025-05-02T01:19:57Z</time></trkpt>
      <trkpt lat="30.357599" lon="109.272472"><ele>1305</ele><time>2025-05-02T01:21:48Z</time></trkpt>
      <trkpt lat="30.357657" lon="109.272272"><ele>1298</ele><time>2025-05-02T01:23:36Z</time></trkpt>
      <trkpt lat="30.357733" lon="109.272211"><ele>1297</ele><time>2025-05-02T01:24:02Z</time></trkpt>
      <trkpt lat="30.357924" lon="109.272222"><ele>1308</ele><time>2025-05-02T01:24:43Z</time></trkpt>
      <trkpt lat="30.358087" lon="109.271947"><ele>1310</ele><time>2025-05-02T01:33:57Z</time></trkpt>
      <trkpt lat="30.358307" lon="109.271979"><ele>1314</ele><time>2025-05-02T01:34:44Z</time></trkpt>
      <trkpt lat="30.358401" lon="109.271928"><ele>1310</ele><time>2025-05-02T01:35:05Z</time></trkpt>
      <trkpt lat="30.358378" lon="109.27161"><ele>1303</ele><time>2025-05-02T01:37:16Z</time></trkpt>
      <trkpt lat="30.358379" lon="109.271718"><ele>1308</ele><time>2025-05-02T01:40:18Z</time></trkpt>
      <trkpt lat="30.358413" lon="109.271606"><ele>1303</ele><time>2025-05-02T01:40:55Z</time></trkpt>
      <trkpt lat="30.35854" lon="109.271896"><ele>1378</ele><time>2025-05-02T02:05:13Z</time></trkpt>
      <trkpt lat="30.358151" lon="109.269522"><ele>1490</ele><time>2025-05-02T02:05:23Z</time></trkpt>
      <trkpt lat="30.357743" lon="109.267457"><ele>1418</ele><time>2025-05-02T02:05:33Z</time></trkpt>
      <trkpt lat="30.358076" lon="109.270357"><ele>1407</ele><time>2025-05-02T02:05:35Z</time></trkpt>
      <trkpt lat="30.358402" lon="109.271456"><ele>1380</ele><time>2025-05-02T02:05:37Z</time></trkpt>
      <trkpt lat="30.358328" lon="109.270904"><ele>1374</ele><time>2025-05-02T02:05:42Z</time></trkpt>
      <trkpt lat="30.35843" lon="109.271272"><ele>1339</ele><time>2025-05-02T02:05:51Z</time></trkpt>
      <trkpt lat="30.357987" lon="109.268369"><ele>1457</ele><time>2025-05-02T02:06:09Z</time></trkpt>
      <trkpt lat="30.357807" lon="109.268063"><ele>1421</ele><time>2025-05-02T02:06:18Z</time></trkpt>
      <trkpt lat="30.358595" lon="109.270286"><ele>1272</ele><time>2025-05-02T02:06:46Z</time></trkpt>
      <trkpt lat="30.358829" lon="109.271102"><ele>1286</ele><time>2025-05-02T02:06:53Z</time></trkpt>
      <trkpt lat="30.358646" lon="109.270616"><ele>1248</ele><time>2025-05-02T02:06:55Z</time></trkpt>
      <trkpt lat="30.3591" lon="109.271399"><ele>1308</ele><time>2025-05-02T02:07:35Z</time></trkpt>
      <trkpt lat="30.359233" lon="109.271276"><ele>1305</ele><time>2025-05-02T02:08:55Z</time></trkpt>
      <trkpt lat="30.359528" lon="109.27135"><ele>1312</ele><time>2025-05-02T02:09:31Z</time></trkpt>
      <trkpt lat="30.359914" lon="109.27129"><ele>1310</ele><time>2025-05-02T02:10:32Z</time></trkpt>
      <trkpt lat="30.360078" lon="109.271189"><ele>1305</ele><time>2025-05-02T02:10:55Z</time></trkpt>
      <trkpt lat="30.360111" lon="109.271084"><ele>1301</ele><time>2025-05-02T02:11:09Z</time></trkpt>
      <trkpt lat="30.360292" lon="109.270992"><ele>1307</ele><time>2025-05-02T02:11:30Z</time></trkpt>
      <trkpt lat="30.360492" lon="109.270743"><ele>1301</ele><time>2025-05-02T02:12:29Z</time></trkpt>
      <trkpt lat="30.360597" lon="109.270756"><ele>1305</ele><time>2025-05-02T02:12:41Z</time></trkpt>
      <trkpt lat="30.360833" lon="109.270591"><ele>1307</ele><time>2025-05-02T02:13:45Z</time></trkpt>
      <trkpt lat="30.361194" lon="109.270508"><ele>1314</ele><time>2025-05-02T02:14:42Z</time></trkpt>
      <trkpt lat="30.361285" lon="109.270505"><ele>1314</ele><time>2025-05-02T02:14:54Z</time></trkpt>
      <trkpt lat="30.36143" lon="109.270644"><ele>1312</ele><time>2025-05-02T02:16:21Z</time></trkpt>
      <trkpt lat="30.361612" lon="109.270578"><ele>1313</ele><time>2025-05-02T02:16:57Z</time></trkpt>
      <trkpt lat="30.361885" lon="109.270636"><ele>1312</ele><time>2025-05-02T02:17:37Z</time></trkpt>
      <trkpt lat="30.362564" lon="109.270964"><ele>1319</ele><time>2025-05-02T02:20:02Z</time></trkpt>
      <trkpt lat="30.36276" lon="109.270708"><ele>1319</ele><time>2025-05-02T02:20:40Z</time></trkpt>
      <trkpt lat="30.36294" lon="109.270767"><ele>1314</ele><time>2025-05-02T02:21:12Z</time></trkpt>
      <trkpt lat="30.362982" lon="109.271017"><ele>1324</ele><time>2025-05-02T02:21:49Z</time></trkpt>
      <trkpt lat="30.363187" lon="109.271212"><ele>1319</ele><time>2025-05-02T02:22:55Z</time></trkpt>
      <trkpt lat="30.363122" lon="109.271425"><ele>1332</ele><time>2025-05-02T02:23:22Z</time></trkpt>
      <trkpt lat="30.363379" lon="109.27174"><ele>1343</ele><time>2025-05-02T02:28:02Z</time></trkpt>
      <trkpt lat="30.363474" lon="109.272037"><ele>1343</ele><time>2025-05-02T02:29:11Z</time></trkpt>
      <trkpt lat="30.363643" lon="109.272278"><ele>1343</ele><time>2025-05-02T02:30:16Z</time></trkpt>
      <trkpt lat="30.363933" lon="109.272526"><ele>1344</ele><time>2025-05-02T02:32:16Z</time></trkpt>
      <trkpt lat="30.364293" lon="109.272591"><ele>1349</ele><time>2025-05-02T02:34:13Z</time></trkpt>
      <trkpt lat="30.364477" lon="109.27257"><ele>1353</ele><time>2025-05-02T02:39:42Z</time></trkpt>
      <trkpt lat="30.364501" lon="109.272344"><ele>1356</ele><time>2025-05-02T02:41:25Z</time></trkpt>
      <trkpt lat="30.364574" lon="109.272408"><ele>1362</ele><time>2025-05-02T02:42:38Z</time></trkpt>
      <trkpt lat="30.364646" lon="109.272344"><ele>1356</ele><time>2025-05-02T02:47:37Z</time></trkpt>
      <trkpt lat="30.364696" lon="109.272142"><ele>1343</ele><time>2025-05-02T02:48:25Z</time></trkpt>
      <trkpt lat="30.36478" lon="109.272093"><ele>1351</ele><time>2025-05-02T02:48:54Z</time></trkpt>
      <trkpt lat="30.365151" lon="109.271471"><ele>1343</ele><time>2025-05-02T02:50:37Z</time></trkpt>
      <trkpt lat="30.365306" lon="109.271356"><ele>1344</ele><time>2025-05-02T02:50:51Z</time></trkpt>
      <trkpt lat="30.365391" lon="109.271156"><ele>1347</ele><time>2025-05-02T02:51:34Z</time></trkpt>
      <trkpt lat="30.365686" lon="109.271118"><ele>1339</ele><time>2025-05-02T02:52:28Z</time></trkpt>
      <trkpt lat="30.365761" lon="109.27119"><ele>1348</ele><time>2025-05-02T02:52:58Z</time></trkpt>
      <trkpt lat="30.365996" lon="109.270991"><ele>1349</ele><time>2025-05-02T02:54:05Z</time></trkpt>
      <trkpt lat="30.36626" lon="109.271092"><ele>1363</ele><time>2025-05-02T02:56:08Z</time></trkpt>
      <trkpt lat="30.36639" lon="109.271255"><ele>1364</ele><time>2025-05-02T02:56:21Z</time></trkpt>
      <trkpt lat="30.366846" lon="109.27134"><ele>1365</ele><time>2025-05-02T02:57:30Z</time></trkpt>
      <trkpt lat="30.36704" lon="109.27132"><ele>1367</ele><time>2025-05-02T02:58:00Z</time></trkpt>
      <trkpt lat="30.3672" lon="109.271202"><ele>1363</ele><time>2025-05-02T02:58:31Z</time></trkpt>
      <trkpt lat="30.367287" lon="109.271247"><ele>1369</ele><time>2025-05-02T02:58:54Z</time></trkpt>
      <trkpt lat="30.367463" lon="109.271199"><ele>1369</ele><time>2025-05-02T02:59:32Z</time></trkpt>
      <trkpt lat="30.367564" lon="109.27125"><ele>1372</ele><time>2025-05-02T03:00:03Z</time></trkpt>
      <trkpt lat="30.367601" lon="109.271351"><ele>1376</ele><time>2025-05-02T03:00:48Z</time></trkpt>
      <trkpt lat="30.367694" lon="109.271136"><ele>1388</ele><time>2025-05-02T03:16:48Z</time></trkpt>
      <trkpt lat="30.368098" lon="109.271368"><ele>1372</ele><time>2025-05-02T03:21:32Z</time></trkpt>
      <trkpt lat="30.368136" lon="109.271472"><ele>1377</ele><time>2025-05-02T03:21:42Z</time></trkpt>
      <trkpt lat="30.36823" lon="109.271496"><ele>1377</ele><time>2025-05-02T03:22:10Z</time></trkpt>
      <trkpt lat="30.368434" lon="109.271728"><ele>1385</ele><time>2025-05-02T03:23:01Z</time></trkpt>
      <trkpt lat="30.36853" lon="109.271748"><ele>1389</ele><time>2025-05-02T03:23:29Z</time></trkpt>
      <trkpt lat="30.368785" lon="109.271628"><ele>1392</ele><time>2025-05-02T03:24:57Z</time></trkpt>
      <trkpt lat="30.368838" lon="109.271721"><ele>1393</ele><time>2025-05-02T03:25:14Z</time></trkpt>
      <trkpt lat="30.368766" lon="109.271656"><ele>1391</ele><time>2025-05-02T03:35:27Z</time></trkpt>
    </trkseg>
  </trk>
</gpx>
