<?xml version="1.0" encoding="UTF-8"?>
<gpx version="1.1" creator="MyWorld" xmlns="http://www.topografix.com/GPX/1/1">
  <metadata><name>无锡军嶂古道越野跑</name></metadata>
  <trk>
    <name>无锡军嶂古道越野跑</name>
    <trkseg>
      <trkpt lat="31.465031" lon="120.237083"><ele>27</ele><time>2025-12-07T01:21:04Z</time></trkpt>
      <trkpt lat="31.464962" lon="120.237192"><ele>27</ele><time>2025-12-07T01:27:29Z</time></trkpt>
      <trkpt lat="31.464985" lon="120.237146"><ele>27</ele><time>2025-12-07T01:27:35Z</time></trkpt>
      <trkpt lat="31.464936" lon="120.237144"><ele>28</ele><time>2025-12-07T01:28:27Z</time></trkpt>
      <trkpt lat="31.465126" lon="120.237826"><ele>30</ele><time>2025-12-07T01:30:54Z</time></trkpt>
      <trkpt lat="31.465836" lon="120.237703"><ele>32</ele><time>2025-12-07T01:31:32Z</time></trkpt>
      <trkpt lat="31.465998" lon="120.237576"><ele>33</ele><time>2025-12-07T01:31:40Z</time></trkpt>
      <trkpt lat="31.46598" lon="120.237382"><ele>31</ele><time>2025-12-07T01:31:47Z</time></trkpt>
      <trkpt lat="31.465311" lon="120.2358"><ele>29</ele><time>2025-12-07T01:32:54Z</time></trkpt>
      <trkpt lat="31.465068" lon="120.235836"><ele>33</ele><time>2025-12-07T01:33:08Z</time></trkpt>
      <trkpt lat="31.464723" lon="120.236082"><ele>32</ele><time>2025-12-07T01:33:36Z</time></trkpt>
      <trkpt lat="31.463965" lon="120.236141"><ele>30</ele><time>2025-12-07T01:34:15Z</time></trkpt>
      <trkpt lat="31.463679" lon="120.235965"><ele>29</ele><time>2025-12-07T01:34:30Z</time></trkpt>
      <trkpt lat="31.46356" lon="120.235531"><ele>32</ele><time>2025-12-07T01:34:49Z</time></trkpt>
      <trkpt lat="31.46333" lon="120.235337"><ele>30</ele><time>2025-12-07T01:35:04Z</time></trkpt>
      <trkpt lat="31.463076" lon="120.235249"><ele>36</ele><time>2025-12-07T01:35:19Z</time></trkpt>
      <trkpt lat="31.463027" lon="120.23526"><ele>37</ele><time>2025-12-07T01:35:23Z</time></trkpt>
      <trkpt lat="31.462819" lon="120.235719"><ele>36</ele><time>2025-12-07T01:35:48Z</time></trkpt>
      <trkpt lat="31.462658" lon="120.235833"><ele>34</ele><time>2025-12-07T01:35:57Z</time></trkpt>
      <trkpt lat="31.462441" lon="120.235815"><ele>31</ele><time>2025-12-07T01:36:08Z</time></trkpt>
      <trkpt lat="31.462325" lon="120.235712"><ele>30</ele><time>2025-12-07T01:36:15Z</time></trkpt>
      <trkpt lat="31.462214" lon="120.235167"><ele>28</ele><time>2025-12-07T01:36:38Z</time></trkpt>
      <trkpt lat="31.462324" lon="120.234502"><ele>31</ele><time>2025-12-07T01:37:11Z</time></trkpt>
      <trkpt lat="31.462261" lon="120.234382"><ele>32</ele><time>2025-12-07T01:37:17Z</time></trkpt>
      <trkpt lat="31.462101" lon="120.234299"><ele>31</ele><time>2025-12-07T01:37:24Z</time></trkpt>
      <trkpt lat="31.461783" lon="120.234474"><ele>34</ele><time>2025-12-07T01:37:43Z</time></trkpt>
      <trkpt lat="31.461481" lon="120.234503"><ele>33</ele><time>2025-12-07T01:37:57Z</time></trkpt>
      <trkpt lat="31.461458" lon="120.233648"><ele>31</ele><time>2025-12-07T01:38:27Z</time></trkpt>
      <trkpt lat="31.461374" lon="120.233438"><ele>30</ele><time>2025-12-07T01:38:35Z</time></trkpt>
      <trkpt lat="31.461318" lon="120.233427"><ele>31</ele><time>2025-12-07T01:38:38Z</time></trkpt>
      <trkpt lat="31.460899" lon="120.234013"><ele>26</ele><time>2025-12-07T01:39:05Z</time></trkpt>
      <trkpt lat="31.459972" lon="120.234928"><ele>20</ele><time>2025-12-07T01:39:49Z</time></trkpt>
      <trkpt lat="31.459695" lon="120.235316"><ele>21</ele><time>2025-12-07T01:40:07Z</time></trkpt>
      <trkpt lat="31.459462" lon="120.235386"><ele>20</ele><time>2025-12-07T01:40:17Z</time></trkpt>
      <trkpt lat="31.459379" lon="120.235322"><ele>21</ele><time>2025-12-07T01:40:22Z</time></trkpt>
      <trkpt lat="31.459318" lon="120.234811"><ele>23</ele><time>2025-12-07T01:40:41Z</time></trkpt>
      <trkpt lat="31.459567" lon="120.233658"><ele>24</ele><time>2025-12-07T01:41:26Z</time></trkpt>
      <trkpt lat="31.460223" lon="120.232373"><ele>32</ele><time>2025-12-07T01:42:46Z</time></trkpt>
      <trkpt lat="31.460212" lon="120.232166"><ele>34</ele><time>2025-12-07T01:42:56Z</time></trkpt>
      <trkpt lat="31.460087" lon="120.231854"><ele>33</ele><time>2025-12-07T01:43:09Z</time></trkpt>
      <trkpt lat="31.460092" lon="120.231526"><ele>31</ele><time>2025-12-07T01:43:21Z</time></trkpt>
      <trkpt lat="31.460272" lon="120.231243"><ele>31</ele><time>2025-12-07T01:43:34Z</time></trkpt>
      <trkpt lat="31.460956" lon="120.230921"><ele>38</ele><time>2025-12-07T01:44:17Z</time></trkpt>
      <trkpt lat="31.461064" lon="120.230769"><ele>37</ele><time>2025-12-07T01:44:27Z</time></trkpt>
      <trkpt lat="31.460901" lon="120.230597"><ele>36</ele><time>2025-12-07T01:44:38Z</time></trkpt>
      <trkpt lat="31.460854" lon="120.230294"><ele>37</ele><time>2025-12-07T01:44:49Z</time></trkpt>
      <trkpt lat="31.460479" lon="120.230333"><ele>36</ele><time>2025-12-07T01:45:02Z</time></trkpt>
      <trkpt lat="31.460292" lon="120.230267"><ele>36</ele><time>2025-12-07T01:45:10Z</time></trkpt>
      <trkpt lat="31.460002" lon="120.230012"><ele>33</ele><time>2025-12-07T01:45:25Z</time></trkpt>
      <trkpt lat="31.459906" lon="120.229839"><ele>34</ele><time>2025-12-07T01:45:33Z</time></trkpt>
      <trkpt lat="31.4599" lon="120.229594"><ele>37</ele><time>2025-12-07T01:45:41Z</time></trkpt>
      <trkpt lat="31.45998" lon="120.229399"><ele>37</ele><time>2025-12-07T01:45:51Z</time></trkpt>
      <trkpt lat="31.460374" lon="120.229002"><ele>42</ele><time>2025-12-07T01:46:21Z</time></trkpt>
      <trkpt lat="31.460611" lon="120.228878"><ele>43</ele><time>2025-12-07T01:46:39Z</time></trkpt>
      <trkpt lat="31.460798" lon="120.228617"><ele>45</ele><time>2025-12-07T01:46:50Z</time></trkpt>
      <trkpt lat="31.460785" lon="120.22837"><ele>45</ele><time>2025-12-07T01:47:01Z</time></trkpt>
      <trkpt lat="31.460542" lon="120.228159"><ele>44</ele><time>2025-12-07T01:47:20Z</time></trkpt>
      <trkpt lat="31.460501" lon="120.227972"><ele>45</ele><time>2025-12-07T01:47:32Z</time></trkpt>
      <trkpt lat="31.460672" lon="120.227555"><ele>56</ele><time>2025-12-07T01:48:04Z</time></trkpt>
      <trkpt lat="31.460915" lon="120.227352"><ele>69</ele><time>2025-12-07T01:48:54Z</time></trkpt>
      <trkpt lat="31.461205" lon="120.226764"><ele>84</ele><time>2025-12-07T01:50:18Z</time></trkpt>
      <trkpt lat="31.461102" lon="120.226222"><ele>78</ele><time>2025-12-07T01:51:04Z</time></trkpt>
      <trkpt lat="31.460961" lon="120.22599"><ele>73</ele><time>2025-12-07T01:51:27Z</time></trkpt>
      <trkpt lat="31.460748" lon="120.225823"><ele>73</ele><time>2025-12-07T01:51:46Z</time></trkpt>
      <trkpt lat="31.460321" lon="120.225668"><ele>81</ele><time>2025-12-07T01:52:24Z</time></trkpt>
      <trkpt lat="31.460216" lon="120.22554"><ele>79</ele><time>2025-12-07T01:52:38Z</time></trkpt>
      <trkpt lat="31.46017" lon="120.225356"><ele>73</ele><time>2025-12-07T01:52:48Z</time></trkpt>
      <trkpt lat="31.460315" lon="120.224833"><ele>59</ele><time>2025-12-07T01:53:17Z</time></trkpt>
      <trkpt lat="31.460245" lon="120.224555"><ele>54</ele><time>2025-12-07T01:53:31Z</time></trkpt>
      <trkpt lat="31.459968" lon="120.224504"><ele>45</ele><time>2025-12-07T01:54:06Z</time></trkpt>
      <trkpt lat="31.459713" lon="120.224798"><ele>46</ele><time>2025-12-07T01:54:21Z</time></trkpt>
      <trkpt lat="31.45942" lon="120.22497"><ele>50</ele><time>2025-12-07T01:54:33Z</time></trkpt>
      <trkpt lat="31.458001" lon="120.225264"><ele>60</ele><time>2025-12-07T01:55:48Z</time></trkpt>
      <trkpt lat="31.457533" lon="120.225303"><ele>64</ele><time>2025-12-07T01:56:22Z</time></trkpt>
      <trkpt lat="31.456989" lon="120.22504"><ele>66</ele><time>2025-12-07T01:57:00Z</time></trkpt>
      <trkpt lat="31.456885" lon="120.224665"><ele>70</ele><time>2025-12-07T01:57:24Z</time></trkpt>
      <trkpt lat="31.456619" lon="120.224438"><ele>83</ele><time>2025-12-07T01:58:21Z</time></trkpt>
      <trkpt lat="31.456199" lon="120.224256"><ele>92</ele><time>2025-12-07T01:59:11Z</time></trkpt>
      <trkpt lat="31.455615" lon="120.223294"><ele>121</ele><time>2025-12-07T02:01:16Z</time></trkpt>
      <trkpt lat="31.455153" lon="120.222823"><ele>149</ele><time>2025-12-07T02:03:22Z</time></trkpt>
      <trkpt lat="31.454745" lon="120.222718"><ele>163</ele><time>2025-12-07T02:04:31Z</time></trkpt>
      <trkpt lat="31.454481" lon="120.222576"><ele>172</ele><time>2025-12-07T02:05:14Z</time></trkpt>
      <trkpt lat="31.454038" lon="120.222137"><ele>181</ele><time>2025-12-07T02:06:17Z</time></trkpt>
      <trkpt lat="31.453303" lon="120.221664"><ele>196</ele><time>2025-12-07T02:07:46Z</time></trkpt>
      <trkpt lat="31.453158" lon="120.221629"><ele>199</ele><time>2025-12-07T02:08:02Z</time></trkpt>
      <trkpt lat="31.452644" lon="120.221748"><ele>214</ele><time>2025-12-07T02:09:09Z</time></trkpt>
      <trkpt lat="31.452357" lon="120.221693"><ele>224</ele><time>2025-12-07T02:09:50Z</time></trkpt>
      <trkpt lat="31.452164" lon="120.221616"><ele>228</ele><time>2025-12-07T02:10:12Z</time></trkpt>
      <trkpt lat="31.451987" lon="120.221409"><ele>229</ele><time>2025-12-07T02:10:34Z</time></trkpt>
      <trkpt lat="31.451811" lon="120.221316"><ele>229</ele><time>2025-12-07T02:10:51Z</time></trkpt>
      <trkpt lat="31.45151" lon="120.221285"><ele>232</ele><time>2025-12-07T02:11:17Z</time></trkpt>
      <trkpt lat="31.451107" lon="120.221082"><ele>242</ele><time>2025-12-07T02:11:55Z</time></trkpt>
      <trkpt lat="31.450431" lon="120.221497"><ele>236</ele><time>2025-12-07T02:12:43Z</time></trkpt>
      <trkpt lat="31.450379" lon="120.221878"><ele>228</ele><time>2025-12-07T02:13:04Z</time></trkpt>
      <trkpt lat="31.45011" lon="120.222362"><ele>218</ele><time>2025-12-07T02:13:23Z</time></trkpt>
      <trkpt lat="31.450101" lon="120.222476"><ele>217</ele><time>2025-12-07T02:13:27Z</time></trkpt>
      <trkpt lat="31.449784" lon="120.222946"><ele>205</ele><time>2025-12-07T02:13:51Z</time></trkpt>
      <trkpt lat="31.449623" lon="120.22391"><ele>195</ele><time>2025-12-07T02:14:32Z</time></trkpt>
      <trkpt lat="31.449341" lon="120.224293"><ele>180</ele><time>2025-12-07T02:15:06Z</time></trkpt>
      <trkpt lat="31.449048" lon="120.224552"><ele>170</ele><time>2025-12-07T02:15:26Z</time></trkpt>
      <trkpt lat="31.44847" lon="120.22551"><ele>144</ele><time>2025-12-07T02:16:16Z</time></trkpt>
      <trkpt lat="31.448093" lon="120.225845"><ele>136</ele><time>2025-12-07T02:16:40Z</time></trkpt>
      <trkpt lat="31.447822" lon="120.226332"><ele>122</ele><time>2025-12-07T02:17:13Z</time></trkpt>
      <trkpt lat="31.447642" lon="120.226374"><ele>119</ele><time>2025-12-07T02:17:23Z</time></trkpt>
      <trkpt lat="31.447657" lon="120.226532"><ele>113</ele><time>2025-12-07T02:17:30Z</time></trkpt>
      <trkpt lat="31.447371" lon="120.226955"><ele>102</ele><time>2025-12-07T02:17:55Z</time></trkpt>
      <trkpt lat="31.447174" lon="120.227556"><ele>94</ele><time>2025-12-07T02:18:20Z</time></trkpt>
      <trkpt lat="31.447173" lon="120.228151"><ele>87</ele><time>2025-12-07T02:18:40Z</time></trkpt>
      <trkpt lat="31.447448" lon="120.229228"><ele>73</ele><time>2025-12-07T02:19:15Z</time></trkpt>
      <trkpt lat="31.447352" lon="120.229595"><ele>64</ele><time>2025-12-07T02:19:36Z</time></trkpt>
      <trkpt lat="31.447404" lon="120.229886"><ele>55</ele><time>2025-12-07T02:19:52Z</time></trkpt>
      <trkpt lat="31.447227" lon="120.230529"><ele>37</ele><time>2025-12-07T02:20:31Z</time></trkpt>
      <trkpt lat="31.447151" lon="120.23117"><ele>24</ele><time>2025-12-07T02:21:08Z</time></trkpt>
      <trkpt lat="31.447019" lon="120.231527"><ele>20</ele><time>2025-12-07T02:21:26Z</time></trkpt>
      <trkpt lat="31.44712" lon="120.231754"><ele>18</ele><time>2025-12-07T02:21:37Z</time></trkpt>
      <trkpt lat="31.447157" lon="120.232484"><ele>17</ele><time>2025-12-07T02:22:05Z</time></trkpt>
      <trkpt lat="31.447331" lon="120.233274"><ele>17</ele><time>2025-12-07T02:22:37Z</time></trkpt>
      <trkpt lat="31.447592" lon="120.233692"><ele>16</ele><time>2025-12-07T02:22:53Z</time></trkpt>
      <trkpt lat="31.449212" lon="120.234953"><ele>16</ele><time>2025-12-07T02:24:18Z</time></trkpt>
      <trkpt lat="31.449462" lon="120.234857"><ele>16</ele><time>2025-12-07T02:24:31Z</time></trkpt>
      <trkpt lat="31.450174" lon="120.23352"><ele>20</ele><time>2025-12-07T02:25:33Z</time></trkpt>
      <trkpt lat="31.450992" lon="120.232269"><ele>28</ele><time>2025-12-07T02:26:41Z</time></trkpt>
      <trkpt lat="31.451753" lon="120.23124"><ele>28</ele><time>2025-12-07T02:27:46Z</time></trkpt>
      <trkpt lat="31.451967" lon="120.231295"><ele>35</ele><time>2025-12-07T02:28:59Z</time></trkpt>
      <trkpt lat="31.452278" lon="120.231594"><ele>45</ele><time>2025-12-07T02:29:42Z</time></trkpt>
      <trkpt lat="31.45238" lon="120.231328"><ele>48</ele><time>2025-12-07T02:30:03Z</time></trkpt>
      <trkpt lat="31.452616" lon="120.230984"><ele>51</ele><time>2025-12-07T02:30:32Z</time></trkpt>
      <trkpt lat="31.453195" lon="120.230623"><ele>63</ele><time>2025-12-07T02:31:35Z</time></trkpt>
      <trkpt lat="31.4536" lon="120.229993"><ele>72</ele><time>2025-12-07T02:32:37Z</time></trkpt>
      <trkpt lat="31.453943" lon="120.229141"><ele>75</ele><time>2025-12-07T02:33:48Z</time></trkpt>
      <trkpt lat="31.45419" lon="120.228791"><ele>76</ele><time>2025-12-07T02:34:33Z</time></trkpt>
      <trkpt lat="31.45442" lon="120.228745"><ele>80</ele><time>2025-12-07T02:34:59Z</time></trkpt>
      <trkpt lat="31.455034" lon="120.229031"><ele>89</ele><time>2025-12-07T02:36:05Z</time></trkpt>
      <trkpt lat="31.455346" lon="120.229074"><ele>91</ele><time>2025-12-07T02:36:39Z</time></trkpt>
      <trkpt lat="31.455732" lon="120.22902"><ele>88</ele><time>2025-12-07T02:37:05Z</time></trkpt>
      <trkpt lat="31.456103" lon="120.228863"><ele>89</ele><time>2025-12-07T02:37:36Z</time></trkpt>
      <trkpt lat="31.456328" lon="120.228984"><ele>86</ele><time>2025-12-07T02:37:52Z</time></trkpt>
      <trkpt lat="31.456419" lon="120.228672"><ele>83</ele><time>2025-12-07T02:38:08Z</time></trkpt>
      <trkpt lat="31.456526" lon="120.228612"><ele>81</ele><time>2025-12-07T02:38:12Z</time></trkpt>
      <trkpt lat="31.456566" lon="120.228475"><ele>81</ele><time>2025-12-07T02:38:17Z</time></trkpt>
      <trkpt lat="31.456785" lon="120.228341"><ele>84</ele><time>2025-12-07T02:38:28Z</time></trkpt>
      <trkpt lat="31.456765" lon="120.228285"><ele>86</ele><time>2025-12-07T02:38:31Z</time></trkpt>
      <trkpt lat="31.45701" lon="120.227898"><ele>90</ele><time>2025-12-07T02:38:57Z</time></trkpt>
      <trkpt lat="31.457309" lon="120.226777"><ele>110</ele><time>2025-12-07T02:40:24Z</time></trkpt>
      <trkpt lat="31.457511" lon="120.226588"><ele>108</ele><time>2025-12-07T02:40:46Z</time></trkpt>
      <trkpt lat="31.45756" lon="120.226433"><ele>102</ele><time>2025-12-07T02:41:01Z</time></trkpt>
      <trkpt lat="31.457917" lon="120.226136"><ele>89</ele><time>2025-12-07T02:41:36Z</time></trkpt>
      <trkpt lat="31.457993" lon="120.225985"><ele>88</ele><time>2025-12-07T02:41:47Z</time></trkpt>
      <trkpt lat="31.45849" lon="120.225938"><ele>82</ele><time>2025-12-07T02:42:23Z</time></trkpt>
      <trkpt lat="31.458726" lon="120.225832"><ele>86</ele><time>2025-12-07T02:42:40Z</time></trkpt>
      <trkpt lat="31.45898" lon="120.225902"><ele>85</ele><time>2025-12-07T02:42:56Z</time></trkpt>
      <trkpt lat="31.459178" lon="120.226099"><ele>84</ele><time>2025-12-07T02:43:13Z</time></trkpt>
      <trkpt lat="31.45929" lon="120.22612"><ele>86</ele><time>2025-12-07T02:43:21Z</time></trkpt>
      <trkpt lat="31.459341" lon="120.226277"><ele>85</ele><time>2025-12-07T02:43:30Z</time></trkpt>
      <trkpt lat="31.460254" lon="120.226188"><ele>92</ele><time>2025-12-07T02:44:58Z</time></trkpt>
      <trkpt lat="31.46109" lon="120.226703"><ele>85</ele><time>2025-12-07T02:46:09Z</time></trkpt>
      <trkpt lat="31.461126" lon="120.226865"><ele>83</ele><time>2025-12-07T02:46:28Z</time></trkpt>
      <trkpt lat="31.461291" lon="120.226833"><ele>86</ele><time>2025-12-07T02:46:41Z</time></trkpt>
      <trkpt lat="31.461506" lon="120.226995"><ele>92</ele><time>2025-12-07T02:46:54Z</time></trkpt>
      <trkpt lat="31.461682" lon="120.226957"><ele>92</ele><time>2025-12-07T02:47:02Z</time></trkpt>
      <trkpt lat="31.461793" lon="120.22715"><ele>97</ele><time>2025-12-07T02:47:13Z</time></trkpt>
      <trkpt lat="31.462066" lon="120.227208"><ele>98</ele><time>2025-12-07T02:47:29Z</time></trkpt>
      <trkpt lat="31.462359" lon="120.226874"><ele>94</ele><time>2025-12-07T02:47:46Z</time></trkpt>
      <trkpt lat="31.46257" lon="120.226879"><ele>93</ele><time>2025-12-07T02:47:54Z</time></trkpt>
      <trkpt lat="31.462611" lon="120.226814"><ele>93</ele><time>2025-12-07T02:47:56Z</time></trkpt>
      <trkpt lat="31.462866" lon="120.226755"><ele>87</ele><time>2025-12-07T02:48:08Z</time></trkpt>
      <trkpt lat="31.462914" lon="120.226668"><ele>87</ele><time>2025-12-07T02:48:12Z</time></trkpt>
      <trkpt lat="31.462877" lon="120.226378"><ele>81</ele><time>2025-12-07T02:48:33Z</time></trkpt>
      <trkpt lat="31.462999" lon="120.226104"><ele>70</ele><time>2025-12-07T02:48:50Z</time></trkpt>
      <trkpt lat="31.462972" lon="120.225887"><ele>64</ele><time>2025-12-07T02:49:07Z</time></trkpt>
      <trkpt lat="31.463088" lon="120.225745"><ele>61</ele><time>2025-12-07T02:49:14Z</time></trkpt>
      <trkpt lat="31.463361" lon="120.225607"><ele>59</ele><time>2025-12-07T02:49:26Z</time></trkpt>
      <trkpt lat="31.463638" lon="120.225565"><ele>62</ele><time>2025-12-07T02:49:39Z</time></trkpt>
      <trkpt lat="31.463973" lon="120.225679"><ele>65</ele><time>2025-12-07T02:50:10Z</time></trkpt>
      <trkpt lat="31.464346" lon="120.227086"><ele>62</ele><time>2025-12-07T02:52:54Z</time></trkpt>
      <trkpt lat="31.464502" lon="120.227283"><ele>69</ele><time>2025-12-07T02:53:21Z</time></trkpt>
      <trkpt lat="31.464719" lon="120.227378"><ele>75</ele><time>2025-12-07T02:53:55Z</time></trkpt>
      <trkpt lat="31.464963" lon="120.227633"><ele>85</ele><time>2025-12-07T02:54:55Z</time></trkpt>
      <trkpt lat="31.465323" lon="120.227824"><ele>95</ele><time>2025-12-07T02:55:56Z</time></trkpt>
      <trkpt lat="31.46545" lon="120.228025"><ele>93</ele><time>2025-12-07T02:56:10Z</time></trkpt>
      <trkpt lat="31.46553" lon="120.228315"><ele>91</ele><time>2025-12-07T02:56:26Z</time></trkpt>
      <trkpt lat="31.465718" lon="120.22849"><ele>92</ele><time>2025-12-07T02:56:40Z</time></trkpt>
      <trkpt lat="31.465789" lon="120.228707"><ele>94</ele><time>2025-12-07T02:56:58Z</time></trkpt>
      <trkpt lat="31.466058" lon="120.229033"><ele>102</ele><time>2025-12-07T02:57:48Z</time></trkpt>
      <trkpt lat="31.466623" lon="120.229066"><ele>108</ele><time>2025-12-07T02:58:42Z</time></trkpt>
      <trkpt lat="31.466941" lon="120.229162"><ele>108</ele><time>2025-12-07T02:59:01Z</time></trkpt>
      <trkpt lat="31.467048" lon="120.229296"><ele>110</ele><time>2025-12-07T02:59:11Z</time></trkpt>
      <trkpt lat="31.46743" lon="120.22941"><ele>119</ele><time>2025-12-07T02:59:51Z</time></trkpt>
      <trkpt lat="31.467524" lon="120.229562"><ele>124</ele><time>2025-12-07T03:00:07Z</time></trkpt>
      <trkpt lat="31.4678" lon="120.22968"><ele>126</ele><time>2025-12-07T03:00:38Z</time></trkpt>
      <trkpt lat="31.467901" lon="120.229988"><ele>128</ele><time>2025-12-07T03:01:03Z</time></trkpt>
      <trkpt lat="31.467848" lon="120.230163"><ele>128</ele><time>2025-12-07T03:01:19Z</time></trkpt>
      <trkpt lat="31.467896" lon="120.230412"><ele>127</ele><time>2025-12-07T03:01:35Z</time></trkpt>
      <trkpt lat="31.468082" lon="120.230744"><ele>125</ele><time>2025-12-07T03:02:00Z</time></trkpt>
      <trkpt lat="31.468332" lon="120.230863"><ele>121</ele><time>2025-12-07T03:02:15Z</time></trkpt>
      <trkpt lat="31.468906" lon="120.230972"><ele>105</ele><time>2025-12-07T03:02:49Z</time></trkpt>
      <trkpt lat="31.468998" lon="120.231049"><ele>104</ele><time>2025-12-07T03:02:55Z</time></trkpt>
      <trkpt lat="31.469053" lon="120.231225"><ele>104</ele><time>2025-12-07T03:03:03Z</time></trkpt>
      <trkpt lat="31.469463" lon="120.231683"><ele>99</ele><time>2025-12-07T03:03:26Z</time></trkpt>
      <trkpt lat="31.469517" lon="120.231867"><ele>97</ele><time>2025-12-07T03:03:35Z</time></trkpt>
      <trkpt lat="31.469628" lon="120.231982"><ele>98</ele><time>2025-12-07T03:03:42Z</time></trkpt>
      <trkpt lat="31.470183" lon="120.232168"><ele>105</ele><time>2025-12-07T03:04:14Z</time></trkpt>
      <trkpt lat="31.470335" lon="120.232332"><ele>109</ele><time>2025-12-07T03:04:31Z</time></trkpt>
      <trkpt lat="31.470538" lon="120.232398"><ele>113</ele><time>2025-12-07T03:04:50Z</time></trkpt>
      <trkpt lat="31.470834" lon="120.232361"><ele>118</ele><time>2025-12-07T03:05:16Z</time></trkpt>
      <trkpt lat="31.471126" lon="120.232445"><ele>126</ele><time>2025-12-07T03:05:46Z</time></trkpt>
      <trkpt lat="31.471377" lon="120.232404"><ele>132</ele><time>2025-12-07T03:06:18Z</time></trkpt>
      <trkpt lat="31.471671" lon="120.232617"><ele>137</ele><time>2025-12-07T03:07:01Z</time></trkpt>
      <trkpt lat="31.471821" lon="120.232584"><ele>137</ele><time>2025-12-07T03:07:14Z</time></trkpt>
      <trkpt lat="31.472043" lon="120.232828"><ele>138</ele><time>2025-12-07T03:07:40Z</time></trkpt>
      <trkpt lat="31.472503" lon="120.233121"><ele>136</ele><time>2025-12-07T03:08:16Z</time></trkpt>
      <trkpt lat="31.47295" lon="120.233535"><ele>144</ele><time>2025-12-07T03:09:05Z</time></trkpt>
      <trkpt lat="31.473053" lon="120.234044"><ele>148</ele><time>2025-12-07T03:09:49Z</time></trkpt>
      <trkpt lat="31.473158" lon="120.234193"><ele>146</ele><time>2025-12-07T03:09:57Z</time></trkpt>
      <trkpt lat="31.473319" lon="120.23433"><ele>145</ele><time>2025-12-07T03:10:10Z</time></trkpt>
      <trkpt lat="31.473628" lon="120.234419"><ele>141</ele><time>2025-12-07T03:10:23Z</time></trkpt>
      <trkpt lat="31.474472" lon="120.235225"><ele>112</ele><time>2025-12-07T03:11:19Z</time></trkpt>
      <trkpt lat="31.474703" lon="120.235269"><ele>112</ele><time>2025-12-07T03:11:29Z</time></trkpt>
      <trkpt lat="31.475429" lon="120.235065"><ele>104</ele><time>2025-12-07T03:12:07Z</time></trkpt>
      <trkpt lat="31.476014" lon="120.235191"><ele>108</ele><time>2025-12-07T03:12:40Z</time></trkpt>
      <trkpt lat="31.476537" lon="120.235155"><ele>111</ele><time>2025-12-07T03:13:07Z</time></trkpt>
      <trkpt lat="31.476901" lon="120.234806"><ele>105</ele><time>2025-12-07T03:13:28Z</time></trkpt>
      <trkpt lat="31.47738" lon="120.234667"><ele>104</ele><time>2025-12-07T03:13:52Z</time></trkpt>
      <trkpt lat="31.477682" lon="120.234966"><ele>96</ele><time>2025-12-07T03:14:15Z</time></trkpt>
      <trkpt lat="31.477739" lon="120.234952"><ele>94</ele><time>2025-12-07T03:14:18Z</time></trkpt>
      <trkpt lat="31.477996" lon="120.235415"><ele>83</ele><time>2025-12-07T03:14:54Z</time></trkpt>
      <trkpt lat="31.478346" lon="120.235592"><ele>76</ele><time>2025-12-07T03:15:25Z</time></trkpt>
      <trkpt lat="31.478699" lon="120.235147"><ele>67</ele><time>2025-12-07T03:15:49Z</time></trkpt>
      <trkpt lat="31.479059" lon="120.235021"><ele>59</ele><time>2025-12-07T03:16:02Z</time></trkpt>
      <trkpt lat="31.47949" lon="120.234753"><ele>48</ele><time>2025-12-07T03:16:22Z</time></trkpt>
      <trkpt lat="31.480176" lon="120.233842"><ele>21</ele><time>2025-12-07T03:17:20Z</time></trkpt>
      <trkpt lat="31.480774" lon="120.233582"><ele>13</ele><time>2025-12-07T03:17:51Z</time></trkpt>
      <trkpt lat="31.480877" lon="120.233402"><ele>12</ele><time>2025-12-07T03:18:00Z</time></trkpt>
      <trkpt lat="31.480921" lon="120.233377"><ele>14</ele><time>2025-12-07T03:18:03Z</time></trkpt>
      <trkpt lat="31.481289" lon="120.233767"><ele>12</ele><time>2025-12-07T03:18:28Z</time></trkpt>
      <trkpt lat="31.480934" lon="120.234776"><ele>13</ele><time>2025-12-07T03:19:19Z</time></trkpt>
      <trkpt lat="31.480724" lon="120.236924"><ele>16</ele><time>2025-12-07T03:21:07Z</time></trkpt>
      <trkpt lat="31.480802" lon="120.237257"><ele>16</ele><time>2025-12-07T03:21:22Z</time></trkpt>
      <trkpt lat="31.480792" lon="120.238346"><ele>16</ele><time>2025-12-07T03:22:05Z</time></trkpt>
      <trkpt lat="31.480943" lon="120.239048"><ele>15</ele><time>2025-12-07T03:22:32Z</time></trkpt>
      <trkpt lat="31.481341" lon="120.239848"><ele>20</ele><time>2025-12-07T03:23:24Z</time></trkpt>
      <trkpt lat="31.481683" lon="120.240192"><ele>23</ele><time>2025-12-07T03:23:47Z</time></trkpt>
      <trkpt lat="31.481774" lon="120.240961"><ele>24</ele><time>2025-12-07T03:24:15Z</time></trkpt>
      <trkpt lat="31.481863" lon="120.241184"><ele>24</ele><time>2025-12-07T03:24:28Z</time></trkpt>
      <trkpt lat="31.482023" lon="120.241338"><ele>26</ele><time>2025-12-07T03:24:45Z</time></trkpt>
      <trkpt lat="31.482019" lon="120.241523"><ele>26</ele><time>2025-12-07T03:24:56Z</time></trkpt>
      <trkpt lat="31.482097" lon="120.241685"><ele>25</ele><time>2025-12-07T03:25:07Z</time></trkpt>
      <trkpt lat="31.482658" lon="120.242316"><ele>37</ele><time>2025-12-07T03:26:04Z</time></trkpt>
      <trkpt lat="31.483392" lon="120.242434"><ele>61</ele><time>2025-12-07T03:27:43Z</time></trkpt>
      <trkpt lat="31.484161" lon="120.242782"><ele>89</ele><time>2025-12-07T03:29:43Z</time></trkpt>
      <trkpt lat="31.484406" lon="120.243083"><ele>95</ele><time>2025-12-07T03:30:30Z</time></trkpt>
      <trkpt lat="31.484454" lon="120.24325"><ele>97</ele><time>2025-12-07T03:30:44Z</time></trkpt>
      <trkpt lat="31.484286" lon="120.243602"><ele>101</ele><time>2025-12-07T03:31:20Z</time></trkpt>
      <trkpt lat="31.484276" lon="120.244398"><ele>117</ele><time>2025-12-07T03:32:35Z</time></trkpt>
      <trkpt lat="31.4841" lon="120.244765"><ele>125</ele><time>2025-12-07T03:33:12Z</time></trkpt>
      <trkpt lat="31.483709" lon="120.245188"><ele>127</ele><time>2025-12-07T03:33:47Z</time></trkpt>
      <trkpt lat="31.483114" lon="120.245343"><ele>128</ele><time>2025-12-07T03:34:20Z</time></trkpt>
      <trkpt lat="31.482621" lon="120.245396"><ele>129</ele><time>2025-12-07T03:34:49Z</time></trkpt>
      <trkpt lat="31.481166" lon="120.245227"><ele>127</ele><time>2025-12-07T03:36:05Z</time></trkpt>
      <trkpt lat="31.480317" lon="120.245404"><ele>135</ele><time>2025-12-07T03:37:14Z</time></trkpt>
      <trkpt lat="31.479651" lon="120.245435"><ele>135</ele><time>2025-12-07T03:37:44Z</time></trkpt>
      <trkpt lat="31.479351" lon="120.245611"><ele>136</ele><time>2025-12-07T03:37:58Z</time></trkpt>
      <trkpt lat="31.478904" lon="120.245685"><ele>133</ele><time>2025-12-07T03:38:18Z</time></trkpt>
      <trkpt lat="31.478099" lon="120.24543"><ele>146</ele><time>2025-12-07T03:39:36Z</time></trkpt>
      <trkpt lat="31.477423" lon="120.245054"><ele>157</ele><time>2025-12-07T03:41:10Z</time></trkpt>
      <trkpt lat="31.47739" lon="120.244949"><ele>160</ele><time>2025-12-07T03:41:29Z</time></trkpt>
      <trkpt lat="31.476529" lon="120.244555"><ele>166</ele><time>2025-12-07T03:43:44Z</time></trkpt>
      <trkpt lat="31.476406" lon="120.244381"><ele>169</ele><time>2025-12-07T03:44:00Z</time></trkpt>
      <trkpt lat="31.476019" lon="120.244155"><ele>170</ele><time>2025-12-07T03:44:22Z</time></trkpt>
      <trkpt lat="31.475724" lon="120.244091"><ele>169</ele><time>2025-12-07T03:44:37Z</time></trkpt>
      <trkpt lat="31.47537" lon="120.243874"><ele>158</ele><time>2025-12-07T03:44:55Z</time></trkpt>
      <trkpt lat="31.475002" lon="120.243807"><ele>145</ele><time>2025-12-07T03:45:12Z</time></trkpt>
      <trkpt lat="31.474404" lon="120.243463"><ele>139</ele><time>2025-12-07T03:45:54Z</time></trkpt>
      <trkpt lat="31.474261" lon="120.243558"><ele>135</ele><time>2025-12-07T03:46:04Z</time></trkpt>
      <trkpt lat="31.473975" lon="120.243338"><ele>147</ele><time>2025-12-07T03:46:47Z</time></trkpt>
      <trkpt lat="31.473636" lon="120.243288"><ele>150</ele><time>2025-12-07T03:47:21Z</time></trkpt>
      <trkpt lat="31.473568" lon="120.243162"><ele>150</ele><time>2025-12-07T03:47:36Z</time></trkpt>
      <trkpt lat="31.473429" lon="120.243212"><ele>150</ele><time>2025-12-07T03:47:49Z</time></trkpt>
      <trkpt lat="31.473182" lon="120.243159"><ele>154</ele><time>2025-12-07T03:48:03Z</time></trkpt>
      <trkpt lat="31.473093" lon="120.243055"><ele>156</ele><time>2025-12-07T03:48:11Z</time></trkpt>
      <trkpt lat="31.472958" lon="120.243075"><ele>159</ele><time>2025-12-07T03:48:22Z</time></trkpt>
      <trkpt lat="31.472502" lon="120.2427"><ele>172</ele><time>2025-12-07T03:49:25Z</time></trkpt>
      <trkpt lat="31.472232" lon="120.242192"><ele>173</ele><time>2025-12-07T03:50:06Z</time></trkpt>
      <trkpt lat="31.471915" lon="120.241954"><ele>165</ele><time>2025-12-07T03:50:29Z</time></trkpt>
      <trkpt lat="31.471498" lon="120.242051"><ele>155</ele><time>2025-12-07T03:50:53Z</time></trkpt>
      <trkpt lat="31.471405" lon="120.242003"><ele>152</ele><time>2025-12-07T03:50:59Z</time></trkpt>
      <trkpt lat="31.471142" lon="120.242063"><ele>146</ele><time>2025-12-07T03:51:16Z</time></trkpt>
      <trkpt lat="31.470874" lon="120.241983"><ele>140</ele><time>2025-12-07T03:51:29Z</time></trkpt>
      <trkpt lat="31.470658" lon="120.242039"><ele>136</ele><time>2025-12-07T03:51:43Z</time></trkpt>
      <trkpt lat="31.470444" lon="120.24186"><ele>140</ele><time>2025-12-07T03:51:55Z</time></trkpt>
      <trkpt lat="31.469991" lon="120.24167"><ele>143</ele><time>2025-12-07T03:52:18Z</time></trkpt>
      <trkpt lat="31.469529" lon="120.241683"><ele>146</ele><time>2025-12-07T03:52:47Z</time></trkpt>
      <trkpt lat="31.469267" lon="120.241509"><ele>147</ele><time>2025-12-07T03:53:07Z</time></trkpt>
      <trkpt lat="31.469143" lon="120.241605"><ele>144</ele><time>2025-12-07T03:53:17Z</time></trkpt>
      <trkpt lat="31.468726" lon="120.241558"><ele>139</ele><time>2025-12-07T03:53:40Z</time></trkpt>
      <trkpt lat="31.468545" lon="120.241698"><ele>138</ele><time>2025-12-07T03:53:51Z</time></trkpt>
      <trkpt lat="31.468486" lon="120.24158"><ele>135</ele><time>2025-12-07T03:53:59Z</time></trkpt>
      <trkpt lat="31.468342" lon="120.24152"><ele>130</ele><time>2025-12-07T03:54:12Z</time></trkpt>
      <trkpt lat="31.468115" lon="120.241252"><ele>119</ele><time>2025-12-07T03:54:39Z</time></trkpt>
      <trkpt lat="31.467841" lon="120.241113"><ele>110</ele><time>2025-12-07T03:54:59Z</time></trkpt>
      <trkpt lat="31.467538" lon="120.240831"><ele>104</ele><time>2025-12-07T03:55:16Z</time></trkpt>
      <trkpt lat="31.467268" lon="120.240193"><ele>99</ele><time>2025-12-07T03:55:51Z</time></trkpt>
      <trkpt lat="31.46723" lon="120.239939"><ele>100</ele><time>2025-12-07T03:56:04Z</time></trkpt>
      <trkpt lat="31.467102" lon="120.23974"><ele>99</ele><time>2025-12-07T03:56:16Z</time></trkpt>
      <trkpt lat="31.466767" lon="120.239428"><ele>88</ele><time>2025-12-07T03:56:45Z</time></trkpt>
      <trkpt lat="31.466149" lon="120.239008"><ele>69</ele><time>2025-12-07T03:57:28Z</time></trkpt>
      <trkpt lat="31.466043" lon="120.23898"><ele>69</ele><time>2025-12-07T03:57:34Z</time></trkpt>
      <trkpt lat="31.465835" lon="120.239096"><ele>65</ele><time>2025-12-07T03:57:44Z</time></trkpt>
      <trkpt lat="31.465168" lon="120.239219"><ele>54</ele><time>2025-12-07T03:58:10Z</time></trkpt>
      <trkpt lat="31.46504" lon="120.239333"><ele>52</ele><time>2025-12-07T03:58:18Z</time></trkpt>
      <trkpt lat="31.46494" lon="120.23974"><ele>42</ele><time>2025-12-07T03:58:44Z</time></trkpt>
      <trkpt lat="31.464633" lon="120.239616"><ele>41</ele><time>2025-12-07T03:58:59Z</time></trkpt>
      <trkpt lat="31.46398" lon="120.239616"><ele>41</ele><time>2025-12-07T03:59:24Z</time></trkpt>
      <trkpt lat="31.463804" lon="120.239542"><ele>39</ele><time>2025-12-07T03:59:32Z</time></trkpt>
      <trkpt lat="31.463579" lon="120.239328"><ele>39</ele><time>2025-12-07T03:59:44Z</time></trkpt>
      <trkpt lat="31.463435" lon="120.239133"><ele>38</ele><time>2025-12-07T03:59:54Z</time></trkpt>
      <trkpt lat="31.463343" lon="120.238739"><ele>32</ele><time>2025-12-07T04:00:09Z</time></trkpt>
      <trkpt lat="31.463357" lon="120.238422"><ele>30</ele><time>2025-12-07T04:00:21Z</time></trkpt>
      <trkpt lat="31.4635" lon="120.238231"><ele>30</ele><time>2025-12-07T04:00:30Z</time></trkpt>
      <trkpt lat="31.464021" lon="120.238006"><ele>36</ele><time>2025-12-07T04:01:05Z</time></trkpt>
      <trkpt lat="31.46509" lon="120.237845"><ele>31</ele><time>2025-12-07T04:02:02Z</time></trkpt>
      <trkpt lat="31.464975" lon="120.237208"><ele>30</ele><time>2025-12-07T04:02:28Z</time></trkpt>
      <trkpt lat="31.464765" lon="120.237026"><ele>30</ele><time>2025-12-07T04:04:07Z</time></trkpt>
      <trkpt lat="31.464779" lon="120.23713"><ele>30</ele><time>2025-12-07T04:05:12Z</time></trkpt>
    </trkseg>
  </trk>
</gpx>
