<?xml version="1.0" encoding="UTF-8"?>
<gpx version="1.1" creator="MyWorld" xmlns="http://www.topografix.com/GPX/1/1">
  <metadata><name>绍兴上青古道</name></metadata>
  <trk>
    <name>绍兴上青古道</name>
    <trkseg>
      <trkpt lat="29.905027" lon="120.658268"><ele>33</ele><time>2025-03-07T02:09:28Z</time></trkpt>
      <trkpt lat="29.904549" lon="120.657946"><ele>35</ele><time>2025-03-07T02:10:55Z</time></trkpt>
      <trkpt lat="29.904173" lon="120.658266"><ele>38</ele><time>2025-03-07T02:14:06Z</time></trkpt>
      <trkpt lat="29.903577" lon="120.659085"><ele>41</ele><time>2025-03-07T02:16:20Z</time></trkpt>
      <trkpt lat="29.902824" lon="120.659248"><ele>43</ele><time>2025-03-07T02:17:58Z</time></trkpt>
      <trkpt lat="29.902559" lon="120.659146"><ele>44</ele><time>2025-03-07T02:18:35Z</time></trkpt>
      <trkpt lat="29.9021" lon="120.659281"><ele>48</ele><time>2025-03-07T02:19:27Z</time></trkpt>
      <trkpt lat="29.901782" lon="120.659062"><ele>48</ele><time>2025-03-07T02:20:27Z</time></trkpt>
      <trkpt lat="29.901425" lon="120.658919"><ele>51</ele><time>2025-03-07T02:21:21Z</time></trkpt>
      <trkpt lat="29.900634" lon="120.659254"><ele>49</ele><time>2025-03-07T02:23:05Z</time></trkpt>
      <trkpt lat="29.900232" lon="120.659545"><ele>50</ele><time>2025-03-07T02:23:50Z</time></trkpt>
      <trkpt lat="29.899788" lon="120.659739"><ele>53</ele><time>2025-03-07T02:24:34Z</time></trkpt>
      <trkpt lat="29.898642" lon="120.65975"><ele>58</ele><time>2025-03-07T02:26:25Z</time></trkpt>
      <trkpt lat="29.898113" lon="120.659999"><ele>56</ele><time>2025-03-07T02:28:26Z</time></trkpt>
      <trkpt lat="29.897838" lon="120.660055"><ele>58</ele><time>2025-03-07T02:28:57Z</time></trkpt>
      <trkpt lat="29.897289" lon="120.659982"><ele>62</ele><time>2025-03-07T02:30:39Z</time></trkpt>
      <trkpt lat="29.896915" lon="120.660014"><ele>64</ele><time>2025-03-07T02:31:26Z</time></trkpt>
      <trkpt lat="29.896662" lon="120.660146"><ele>65</ele><time>2025-03-07T02:32:28Z</time></trkpt>
      <trkpt lat="29.89638" lon="120.660439"><ele>68</ele><time>2025-03-07T02:33:19Z</time></trkpt>
      <trkpt lat="29.896104" lon="120.660498"><ele>68</ele><time>2025-03-07T02:33:48Z</time></trkpt>
      <trkpt lat="29.895866" lon="120.660685"><ele>70</ele><time>2025-03-07T02:34:15Z</time></trkpt>
      <trkpt lat="29.895394" lon="120.660821"><ele>73</ele><time>2025-03-07T02:35:04Z</time></trkpt>
      <trkpt lat="29.894957" lon="120.661056"><ele>77</ele><time>2025-03-07T02:36:37Z</time></trkpt>
      <trkpt lat="29.894697" lon="120.661153"><ele>78</ele><time>2025-03-07T02:37:53Z</time></trkpt>
      <trkpt lat="29.894127" lon="120.661132"><ele>85</ele><time>2025-03-07T02:39:32Z</time></trkpt>
      <trkpt lat="29.893853" lon="120.661234"><ele>87</ele><time>2025-03-07T02:40:41Z</time></trkpt>
      <trkpt lat="29.893695" lon="120.661355"><ele>91</ele><time>2025-03-07T02:41:37Z</time></trkpt>
      <trkpt lat="29.89349" lon="120.661734"><ele>91</ele><time>2025-03-07T02:42:15Z</time></trkpt>
      <trkpt lat="29.89283" lon="120.662102"><ele>97</ele><time>2025-03-07T02:46:08Z</time></trkpt>
      <trkpt lat="29.892679" lon="120.662362"><ele>102</ele><time>2025-03-07T02:46:40Z</time></trkpt>
      <trkpt lat="29.892311" lon="120.662431"><ele>107</ele><time>2025-03-07T02:47:28Z</time></trkpt>
      <trkpt lat="29.892281" lon="120.662537"><ele>119</ele><time>2025-03-07T02:49:47Z</time></trkpt>
      <trkpt lat="29.892181" lon="120.662572"><ele>116</ele><time>2025-03-07T02:49:56Z</time></trkpt>
      <trkpt lat="29.891992" lon="120.662817"><ele>115</ele><time>2025-03-07T02:50:28Z</time></trkpt>
      <trkpt lat="29.891922" lon="120.663017"><ele>119</ele><time>2025-03-07T02:50:54Z</time></trkpt>
      <trkpt lat="29.891506" lon="120.663448"><ele>133</ele><time>2025-03-07T02:52:20Z</time></trkpt>
      <trkpt lat="29.891237" lon="120.664021"><ele>145</ele><time>2025-03-07T02:53:58Z</time></trkpt>
      <trkpt lat="29.890992" lon="120.664355"><ele>157</ele><time>2025-03-07T02:56:07Z</time></trkpt>
      <trkpt lat="29.889975" lon="120.665291"><ele>193</ele><time>2025-03-07T03:02:11Z</time></trkpt>
      <trkpt lat="29.889994" lon="120.665393"><ele>196</ele><time>2025-03-07T03:02:39Z</time></trkpt>
      <trkpt lat="29.889875" lon="120.665557"><ele>202</ele><time>2025-03-07T03:05:41Z</time></trkpt>
      <trkpt lat="29.889838" lon="120.665778"><ele>211</ele><time>2025-03-07T03:06:22Z</time></trkpt>
      <trkpt lat="29.889565" lon="120.666199"><ele>225</ele><time>2025-03-07T03:08:48Z</time></trkpt>
      <trkpt lat="29.889553" lon="120.666314"><ele>231</ele><time>2025-03-07T03:09:04Z</time></trkpt>
      <trkpt lat="29.889596" lon="120.66641"><ele>236</ele><time>2025-03-07T03:09:22Z</time></trkpt>
      <trkpt lat="29.890019" lon="120.666602"><ele>244</ele><time>2025-03-07T03:14:57Z</time></trkpt>
      <trkpt lat="29.889605" lon="120.666867"><ele>261</ele><time>2025-03-07T03:16:21Z</time></trkpt>
      <trkpt lat="29.889266" lon="120.667498"><ele>261</ele><time>2025-03-07T03:18:48Z</time></trkpt>
      <trkpt lat="29.889289" lon="120.667708"><ele>258</ele><time>2025-03-07T03:19:49Z</time></trkpt>
      <trkpt lat="29.889193" lon="120.668356"><ele>243</ele><time>2025-03-07T03:21:41Z</time></trkpt>
      <trkpt lat="29.889074" lon="120.668531"><ele>235</ele><time>2025-03-07T03:22:50Z</time></trkpt>
      <trkpt lat="29.888889" lon="120.668502"><ele>232</ele><time>2025-03-07T03:24:35Z</time></trkpt>
      <trkpt lat="29.888806" lon="120.668553"><ele>228</ele><time>2025-03-07T03:24:56Z</time></trkpt>
      <trkpt lat="29.888694" lon="120.669412"><ele>213</ele><time>2025-03-07T03:28:48Z</time></trkpt>
      <trkpt lat="29.888285" lon="120.670137"><ele>200</ele><time>2025-03-07T03:31:25Z</time></trkpt>
      <trkpt lat="29.887946" lon="120.670499"><ele>196</ele><time>2025-03-07T03:33:54Z</time></trkpt>
      <trkpt lat="29.887683" lon="120.671197"><ele>186</ele><time>2025-03-07T03:35:38Z</time></trkpt>
      <trkpt lat="29.887507" lon="120.671122"><ele>186</ele><time>2025-03-07T03:36:27Z</time></trkpt>
      <trkpt lat="29.887411" lon="120.670944"><ele>186</ele><time>2025-03-07T03:36:56Z</time></trkpt>
      <trkpt lat="29.887157" lon="120.671065"><ele>184</ele><time>2025-03-07T03:38:17Z</time></trkpt>
      <trkpt lat="29.886875" lon="120.670006"><ele>187</ele><time>2025-03-07T03:41:24Z</time></trkpt>
      <trkpt lat="29.886473" lon="120.669405"><ele>193</ele><time>2025-03-07T03:42:35Z</time></trkpt>
      <trkpt lat="29.886477" lon="120.668431"><ele>188</ele><time>2025-03-07T03:45:08Z</time></trkpt>
      <trkpt lat="29.886348" lon="120.667805"><ele>191</ele><time>2025-03-07T03:46:19Z</time></trkpt>
      <trkpt lat="29.88618" lon="120.66754"><ele>196</ele><time>2025-03-07T03:46:45Z</time></trkpt>
      <trkpt lat="29.886096" lon="120.667234"><ele>195</ele><time>2025-03-07T03:47:15Z</time></trkpt>
      <trkpt lat="29.886077" lon="120.666254"><ele>198</ele><time>2025-03-07T03:48:45Z</time></trkpt>
      <trkpt lat="29.885899" lon="120.665874"><ele>200</ele><time>2025-03-07T03:49:21Z</time></trkpt>
      <trkpt lat="29.885511" lon="120.665557"><ele>203</ele><time>2025-03-07T03:50:10Z</time></trkpt>
      <trkpt lat="29.885276" lon="120.665213"><ele>205</ele><time>2025-03-07T03:50:48Z</time></trkpt>
      <trkpt lat="29.885271" lon="120.664896"><ele>205</ele><time>2025-03-07T03:51:23Z</time></trkpt>
      <trkpt lat="29.885512" lon="120.664548"><ele>203</ele><time>2025-03-07T03:52:04Z</time></trkpt>
      <trkpt lat="29.885539" lon="120.664343"><ele>202</ele><time>2025-03-07T03:52:21Z</time></trkpt>
      <trkpt lat="29.884701" lon="120.663153"><ele>219</ele><time>2025-03-07T03:55:22Z</time></trkpt>
      <trkpt lat="29.88435" lon="120.662516"><ele>222</ele><time>2025-03-07T03:56:42Z</time></trkpt>
      <trkpt lat="29.88437" lon="120.662408"><ele>221</ele><time>2025-03-07T03:58:29Z</time></trkpt>
      <trkpt lat="29.884465" lon="120.662395"><ele>220</ele><time>2025-03-07T03:58:40Z</time></trkpt>
      <trkpt lat="29.884479" lon="120.662073"><ele>231</ele><time>2025-03-07T03:59:46Z</time></trkpt>
      <trkpt lat="29.884116" lon="120.661972"><ele>230</ele><time>2025-03-07T04:05:24Z</time></trkpt>
      <trkpt lat="29.884116" lon="120.661765"><ele>231</ele><time>2025-03-07T04:05:47Z</time></trkpt>
      <trkpt lat="29.883668" lon="120.660703"><ele>235</ele><time>2025-03-07T04:07:56Z</time></trkpt>
      <trkpt lat="29.883446" lon="120.659765"><ele>236</ele><time>2025-03-07T04:09:28Z</time></trkpt>
      <trkpt lat="29.883258" lon="120.659537"><ele>241</ele><time>2025-03-07T04:10:00Z</time></trkpt>
      <trkpt lat="29.883227" lon="120.659216"><ele>250</ele><time>2025-03-07T04:10:36Z</time></trkpt>
      <trkpt lat="29.883113" lon="120.659035"><ele>243</ele><time>2025-03-07T04:11:38Z</time></trkpt>
      <trkpt lat="29.883115" lon="120.658823"><ele>247</ele><time>2025-03-07T04:12:02Z</time></trkpt>
      <trkpt lat="29.882715" lon="120.658379"><ele>248</ele><time>2025-03-07T04:13:26Z</time></trkpt>
      <trkpt lat="29.882639" lon="120.658183"><ele>250</ele><time>2025-03-07T04:14:29Z</time></trkpt>
      <trkpt lat="29.882184" lon="120.658027"><ele>258</ele><time>2025-03-07T04:15:23Z</time></trkpt>
      <trkpt lat="29.881844" lon="120.657146"><ele>262</ele><time>2025-03-07T04:17:18Z</time></trkpt>
      <trkpt lat="29.881321" lon="120.656881"><ele>269</ele><time>2025-03-07T04:18:18Z</time></trkpt>
      <trkpt lat="29.881198" lon="120.656714"><ele>269</ele><time>2025-03-07T04:18:40Z</time></trkpt>
      <trkpt lat="29.881" lon="120.656237"><ele>272</ele><time>2025-03-07T04:21:37Z</time></trkpt>
      <trkpt lat="29.880742" lon="120.655931"><ele>278</ele><time>2025-03-07T04:23:06Z</time></trkpt>
      <trkpt lat="29.880545" lon="120.655461"><ele>286</ele><time>2025-03-07T04:24:07Z</time></trkpt>
      <trkpt lat="29.880517" lon="120.655257"><ele>290</ele><time>2025-03-07T04:24:32Z</time></trkpt>
      <trkpt lat="29.879771" lon="120.654649"><ele>308</ele><time>2025-03-07T04:38:04Z</time></trkpt>
      <trkpt lat="29.879519" lon="120.654214"><ele>313</ele><time>2025-03-07T04:41:41Z</time></trkpt>
      <trkpt lat="29.879174" lon="120.65335"><ele>338</ele><time>2025-03-07T04:44:21Z</time></trkpt>
      <trkpt lat="29.878975" lon="120.653129"><ele>348</ele><time>2025-03-07T04:45:12Z</time></trkpt>
      <trkpt lat="29.878874" lon="120.652818"><ele>356</ele><time>2025-03-07T04:46:20Z</time></trkpt>
      <trkpt lat="29.878426" lon="120.652443"><ele>370</ele><time>2025-03-07T04:48:14Z</time></trkpt>
      <trkpt lat="29.877916" lon="120.651683"><ele>398</ele><time>2025-03-07T04:53:07Z</time></trkpt>
      <trkpt lat="29.877795" lon="120.651393"><ele>408</ele><time>2025-03-07T04:55:04Z</time></trkpt>
      <trkpt lat="29.877765" lon="120.651073"><ele>416</ele><time>2025-03-07T04:55:43Z</time></trkpt>
      <trkpt lat="29.877596" lon="120.650449"><ele>421</ele><time>2025-03-07T05:01:05Z</time></trkpt>
      <trkpt lat="29.877431" lon="120.65035"><ele>416</ele><time>2025-03-07T05:01:34Z</time></trkpt>
      <trkpt lat="29.877332" lon="120.649935"><ele>413</ele><time>2025-03-07T05:03:00Z</time></trkpt>
      <trkpt lat="29.876818" lon="120.649484"><ele>392</ele><time>2025-03-07T05:06:57Z</time></trkpt>
      <trkpt lat="29.876518" lon="120.649082"><ele>375</ele><time>2025-03-07T05:08:23Z</time></trkpt>
      <trkpt lat="29.876131" lon="120.648794"><ele>363</ele><time>2025-03-07T05:10:41Z</time></trkpt>
      <trkpt lat="29.876086" lon="120.648474"><ele>353</ele><time>2025-03-07T05:12:35Z</time></trkpt>
      <trkpt lat="29.875968" lon="120.648181"><ele>348</ele><time>2025-03-07T05:16:57Z</time></trkpt>
      <trkpt lat="29.875592" lon="120.647578"><ele>326</ele><time>2025-03-07T05:19:56Z</time></trkpt>
      <trkpt lat="29.875543" lon="120.646939"><ele>307</ele><time>2025-03-07T05:22:59Z</time></trkpt>
      <trkpt lat="29.875392" lon="120.646666"><ele>294</ele><time>2025-03-07T05:24:16Z</time></trkpt>
      <trkpt lat="29.875304" lon="120.646144"><ele>277</ele><time>2025-03-07T05:25:57Z</time></trkpt>
      <trkpt lat="29.875125" lon="120.645768"><ele>263</ele><time>2025-03-07T05:28:34Z</time></trkpt>
      <trkpt lat="29.875076" lon="120.644604"><ele>231</ele><time>2025-03-07T05:32:48Z</time></trkpt>
      <trkpt lat="29.875135" lon="120.644294"><ele>228</ele><time>2025-03-07T05:33:52Z</time></trkpt>
      <trkpt lat="29.875082" lon="120.6441"><ele>223</ele><time>2025-03-07T05:34:22Z</time></trkpt>
      <trkpt lat="29.875542" lon="120.643011"><ele>213</ele><time>2025-03-07T05:36:32Z</time></trkpt>
      <trkpt lat="29.875401" lon="120.642607"><ele>207</ele><time>2025-03-07T05:37:25Z</time></trkpt>
      <trkpt lat="29.875391" lon="120.641871"><ele>197</ele><time>2025-03-07T05:38:59Z</time></trkpt>
      <trkpt lat="29.875454" lon="120.641795"><ele>197</ele><time>2025-03-07T05:39:18Z</time></trkpt>
      <trkpt lat="29.875474" lon="120.641383"><ele>197</ele><time>2025-03-07T05:41:19Z</time></trkpt>
      <trkpt lat="29.875652" lon="120.641126"><ele>186</ele><time>2025-03-07T05:42:19Z</time></trkpt>
      <trkpt lat="29.875712" lon="120.64082"><ele>188</ele><time>2025-03-07T05:42:51Z</time></trkpt>
      <trkpt lat="29.875487" lon="120.640136"><ele>167</ele><time>2025-03-07T05:44:58Z</time></trkpt>
      <trkpt lat="29.875336" lon="120.639861"><ele>169</ele><time>2025-03-07T05:46:28Z</time></trkpt>
      <trkpt lat="29.875113" lon="120.639675"><ele>153</ele><time>2025-03-07T05:52:23Z</time></trkpt>
      <trkpt lat="29.875106" lon="120.639468"><ele>147</ele><time>2025-03-07T05:53:07Z</time></trkpt>
      <trkpt lat="29.874987" lon="120.639184"><ele>137</ele><time>2025-03-07T06:02:09Z</time></trkpt>
      <trkpt lat="29.874829" lon="120.639074"><ele>132</ele><time>2025-03-07T06:02:36Z</time></trkpt>
      <trkpt lat="29.874457" lon="120.639022"><ele>123</ele><time>2025-03-07T06:03:34Z</time></trkpt>
      <trkpt lat="29.874303" lon="120.638895"><ele>116</ele><time>2025-03-07T06:04:14Z</time></trkpt>
      <trkpt lat="29.873838" lon="120.639027"><ele>115</ele><time>2025-03-07T06:06:20Z</time></trkpt>
      <trkpt lat="29.873188" lon="120.638884"><ele>110</ele><time>2025-03-07T06:07:41Z</time></trkpt>
      <trkpt lat="29.872915" lon="120.63894"><ele>106</ele><time>2025-03-07T06:08:14Z</time></trkpt>
      <trkpt lat="29.872759" lon="120.639196"><ele>104</ele><time>2025-03-07T06:09:00Z</time></trkpt>
      <trkpt lat="29.872575" lon="120.639167"><ele>104</ele><time>2025-03-07T06:09:20Z</time></trkpt>
      <trkpt lat="29.872499" lon="120.639231"><ele>104</ele><time>2025-03-07T06:09:29Z</time></trkpt>
      <trkpt lat="29.872249" lon="120.639087"><ele>108</ele><time>2025-03-07T06:09:56Z</time></trkpt>
      <trkpt lat="29.87206" lon="120.638706"><ele>107</ele><time>2025-03-07T06:10:29Z</time></trkpt>
      <trkpt lat="29.872077" lon="120.63828"><ele>103</ele><time>2025-03-07T06:11:01Z</time></trkpt>
      <trkpt lat="29.872009" lon="120.637844"><ele>102</ele><time>2025-03-07T06:11:38Z</time></trkpt>
      <trkpt lat="29.871735" lon="120.63691"><ele>106</ele><time>2025-03-07T06:13:05Z</time></trkpt>
      <trkpt lat="29.871511" lon="120.636445"><ele>96</ele><time>2025-03-07T06:13:52Z</time></trkpt>
      <trkpt lat="29.871179" lon="120.636063"><ele>94</ele><time>2025-03-07T06:14:39Z</time></trkpt>
      <trkpt lat="29.870858" lon="120.635534"><ele>91</ele><time>2025-03-07T06:15:37Z</time></trkpt>
      <trkpt lat="29.870718" lon="120.635125"><ele>90</ele><time>2025-03-07T06:16:17Z</time></trkpt>
    </trkseg>
  </trk>
</gpx>
