<?xml version="1.0" encoding="UTF-8"?>
<gpx version="1.1" creator="MyWorld" xmlns="http://www.topografix.com/GPX/1/1">
  <metadata><name>杭州临安吴越古道</name></metadata>
  <trk>
    <name>杭州临安吴越古道</name>
    <trkseg>
      <trkpt lat="30.275859" lon="119.100593"><ele>678</ele><time>2025-06-14T01:01:48Z</time></trkpt>
      <trkpt lat="30.275924" lon="119.100814"><ele>688</ele><time>2025-06-14T01:02:06Z</time></trkpt>
      <trkpt lat="30.276082" lon="119.100962"><ele>692</ele><time>2025-06-14T01:02:25Z</time></trkpt>
      <trkpt lat="30.276092" lon="119.101291"><ele>696</ele><time>2025-06-14T01:02:56Z</time></trkpt>
      <trkpt lat="30.276191" lon="119.101605"><ele>700</ele><time>2025-06-14T01:03:28Z</time></trkpt>
      <trkpt lat="30.276065" lon="119.10214"><ele>704</ele><time>2025-06-14T01:04:55Z</time></trkpt>
      <trkpt lat="30.276077" lon="119.102576"><ele>706</ele><time>2025-06-14T01:05:41Z</time></trkpt>
      <trkpt lat="30.276161" lon="119.102627"><ele>706</ele><time>2025-06-14T01:05:53Z</time></trkpt>
      <trkpt lat="30.276548" lon="119.102648"><ele>710</ele><time>2025-06-14T01:06:47Z</time></trkpt>
      <trkpt lat="30.276928" lon="119.102583"><ele>721</ele><time>2025-06-14T01:07:34Z</time></trkpt>
      <trkpt lat="30.277244" lon="119.102809"><ele>722</ele><time>2025-06-14T01:08:15Z</time></trkpt>
      <trkpt lat="30.277605" lon="119.102885"><ele>725</ele><time>2025-06-14T01:09:11Z</time></trkpt>
      <trkpt lat="30.278063" lon="119.102749"><ele>728</ele><time>2025-06-14T01:10:45Z</time></trkpt>
      <trkpt lat="30.278339" lon="119.102828"><ele>731</ele><time>2025-06-14T01:11:20Z</time></trkpt>
      <trkpt lat="30.278611" lon="119.102774"><ele>735</ele><time>2025-06-14T01:12:00Z</time></trkpt>
      <trkpt lat="30.279453" lon="119.102788"><ele>744</ele><time>2025-06-14T01:13:40Z</time></trkpt>
      <trkpt lat="30.279513" lon="119.102879"><ele>746</ele><time>2025-06-14T01:13:52Z</time></trkpt>
      <trkpt lat="30.279874" lon="119.103018"><ele>753</ele><time>2025-06-14T01:14:36Z</time></trkpt>
      <trkpt lat="30.280712" lon="119.103139"><ele>761</ele><time>2025-06-14T01:16:14Z</time></trkpt>
      <trkpt lat="30.281146" lon="119.103311"><ele>772</ele><time>2025-06-14T01:17:12Z</time></trkpt>
      <trkpt lat="30.281197" lon="119.103405"><ele>773</ele><time>2025-06-14T01:17:54Z</time></trkpt>
      <trkpt lat="30.281191" lon="119.103615"><ele>774</ele><time>2025-06-14T01:19:10Z</time></trkpt>
      <trkpt lat="30.281271" lon="119.103667"><ele>778</ele><time>2025-06-14T01:19:26Z</time></trkpt>
      <trkpt lat="30.28134" lon="119.103988"><ele>787</ele><time>2025-06-14T01:20:05Z</time></trkpt>
      <trkpt lat="30.281243" lon="119.104742"><ele>795</ele><time>2025-06-14T01:21:36Z</time></trkpt>
      <trkpt lat="30.281149" lon="119.104936"><ele>790</ele><time>2025-06-14T01:21:54Z</time></trkpt>
      <trkpt lat="30.280845" lon="119.10518"><ele>792</ele><time>2025-06-14T01:22:52Z</time></trkpt>
      <trkpt lat="30.280571" lon="119.105166"><ele>805</ele><time>2025-06-14T01:23:21Z</time></trkpt>
      <trkpt lat="30.280329" lon="119.105506"><ele>802</ele><time>2025-06-14T01:24:19Z</time></trkpt>
      <trkpt lat="30.280362" lon="119.105829"><ele>810</ele><time>2025-06-14T01:24:48Z</time></trkpt>
      <trkpt lat="30.280209" lon="119.106111"><ele>814</ele><time>2025-06-14T01:25:21Z</time></trkpt>
      <trkpt lat="30.280296" lon="119.106518"><ele>829</ele><time>2025-06-14T01:26:45Z</time></trkpt>
      <trkpt lat="30.280478" lon="119.106608"><ele>833</ele><time>2025-06-14T01:27:13Z</time></trkpt>
      <trkpt lat="30.280628" lon="119.106883"><ele>832</ele><time>2025-06-14T01:27:53Z</time></trkpt>
      <trkpt lat="30.280916" lon="119.106919"><ele>834</ele><time>2025-06-14T01:28:26Z</time></trkpt>
      <trkpt lat="30.281155" lon="119.106754"><ele>829</ele><time>2025-06-14T01:28:57Z</time></trkpt>
      <trkpt lat="30.28118" lon="119.106653"><ele>827</ele><time>2025-06-14T01:29:09Z</time></trkpt>
      <trkpt lat="30.2811" lon="119.106595"><ele>826</ele><time>2025-06-14T01:29:19Z</time></trkpt>
      <trkpt lat="30.281457" lon="119.106436"><ele>831</ele><time>2025-06-14T01:30:05Z</time></trkpt>
      <trkpt lat="30.281735" lon="119.106406"><ele>831</ele><time>2025-06-14T01:31:16Z</time></trkpt>
      <trkpt lat="30.281793" lon="119.106498"><ele>834</ele><time>2025-06-14T01:31:26Z</time></trkpt>
      <trkpt lat="30.282068" lon="119.106617"><ele>832</ele><time>2025-06-14T01:31:58Z</time></trkpt>
      <trkpt lat="30.282349" lon="119.10659"><ele>837</ele><time>2025-06-14T01:32:27Z</time></trkpt>
      <trkpt lat="30.282504" lon="119.106466"><ele>836</ele><time>2025-06-14T01:32:44Z</time></trkpt>
      <trkpt lat="30.28265" lon="119.106199"><ele>842</ele><time>2025-06-14T01:33:15Z</time></trkpt>
      <trkpt lat="30.282831" lon="119.106283"><ele>843</ele><time>2025-06-14T01:33:39Z</time></trkpt>
      <trkpt lat="30.282959" lon="119.106127"><ele>844</ele><time>2025-06-14T01:34:09Z</time></trkpt>
      <trkpt lat="30.283141" lon="119.106091"><ele>847</ele><time>2025-06-14T01:34:33Z</time></trkpt>
      <trkpt lat="30.283213" lon="119.106163"><ele>848</ele><time>2025-06-14T01:34:55Z</time></trkpt>
      <trkpt lat="30.283755" lon="119.106307"><ele>858</ele><time>2025-06-14T01:35:52Z</time></trkpt>
      <trkpt lat="30.284067" lon="119.106537"><ele>859</ele><time>2025-06-14T01:36:33Z</time></trkpt>
      <trkpt lat="30.28425" lon="119.106574"><ele>865</ele><time>2025-06-14T01:36:56Z</time></trkpt>
      <trkpt lat="30.284532" lon="119.106511"><ele>864</ele><time>2025-06-14T01:37:29Z</time></trkpt>
      <trkpt lat="30.284948" lon="119.106768"><ele>871</ele><time>2025-06-14T01:38:24Z</time></trkpt>
      <trkpt lat="30.285059" lon="119.106923"><ele>870</ele><time>2025-06-14T01:38:55Z</time></trkpt>
      <trkpt lat="30.285115" lon="119.107006"><ele>873</ele><time>2025-06-14T01:39:33Z</time></trkpt>
      <trkpt lat="30.285037" lon="119.107081"><ele>874</ele><time>2025-06-14T01:39:49Z</time></trkpt>
      <trkpt lat="30.285066" lon="119.107298"><ele>874</ele><time>2025-06-14T01:40:14Z</time></trkpt>
      <trkpt lat="30.285367" lon="119.107708"><ele>880</ele><time>2025-06-14T01:41:09Z</time></trkpt>
      <trkpt lat="30.28565" lon="119.107766"><ele>879</ele><time>2025-06-14T01:41:36Z</time></trkpt>
      <trkpt lat="30.285938" lon="119.107726"><ele>885</ele><time>2025-06-14T01:42:14Z</time></trkpt>
      <trkpt lat="30.28597" lon="119.10783"><ele>889</ele><time>2025-06-14T01:42:29Z</time></trkpt>
      <trkpt lat="30.28613" lon="119.107956"><ele>892</ele><time>2025-06-14T01:42:49Z</time></trkpt>
      <trkpt lat="30.286181" lon="119.108042"><ele>894</ele><time>2025-06-14T01:43:02Z</time></trkpt>
      <trkpt lat="30.286128" lon="119.108251"><ele>898</ele><time>2025-06-14T01:43:25Z</time></trkpt>
      <trkpt lat="30.286213" lon="119.109001"><ele>905</ele><time>2025-06-14T01:44:51Z</time></trkpt>
      <trkpt lat="30.286479" lon="119.108912"><ele>904</ele><time>2025-06-14T01:46:16Z</time></trkpt>
      <trkpt lat="30.286552" lon="119.108979"><ele>908</ele><time>2025-06-14T01:46:26Z</time></trkpt>
      <trkpt lat="30.286562" lon="119.109193"><ele>907</ele><time>2025-06-14T01:46:48Z</time></trkpt>
      <trkpt lat="30.286767" lon="119.109677"><ele>909</ele><time>2025-06-14T01:47:38Z</time></trkpt>
      <trkpt lat="30.287047" lon="119.109728"><ele>911</ele><time>2025-06-14T01:48:08Z</time></trkpt>
      <trkpt lat="30.28732" lon="119.109646"><ele>916</ele><time>2025-06-14T01:48:36Z</time></trkpt>
      <trkpt lat="30.287954" lon="119.10983"><ele>927</ele><time>2025-06-14T01:49:53Z</time></trkpt>
      <trkpt lat="30.288314" lon="119.109796"><ele>931</ele><time>2025-06-14T01:50:37Z</time></trkpt>
      <trkpt lat="30.288555" lon="119.109974"><ele>933</ele><time>2025-06-14T01:53:30Z</time></trkpt>
      <trkpt lat="30.288551" lon="119.110189"><ele>941</ele><time>2025-06-14T01:53:55Z</time></trkpt>
      <trkpt lat="30.288182" lon="119.110922"><ele>952</ele><time>2025-06-14T01:55:46Z</time></trkpt>
      <trkpt lat="30.288217" lon="119.111235"><ele>959</ele><time>2025-06-14T01:56:21Z</time></trkpt>
      <trkpt lat="30.288491" lon="119.111306"><ele>960</ele><time>2025-06-14T01:57:01Z</time></trkpt>
      <trkpt lat="30.288632" lon="119.111457"><ele>965</ele><time>2025-06-14T01:57:28Z</time></trkpt>
      <trkpt lat="30.289054" lon="119.111693"><ele>980</ele><time>2025-06-14T01:58:57Z</time></trkpt>
      <trkpt lat="30.289079" lon="119.111909"><ele>980</ele><time>2025-06-14T01:59:21Z</time></trkpt>
      <trkpt lat="30.289253" lon="119.11215"><ele>987</ele><time>2025-06-14T02:00:09Z</time></trkpt>
      <trkpt lat="30.289256" lon="119.112356"><ele>989</ele><time>2025-06-14T02:00:45Z</time></trkpt>
      <trkpt lat="30.289319" lon="119.112442"><ele>992</ele><time>2025-06-14T02:00:59Z</time></trkpt>
      <trkpt lat="30.28939" lon="119.112509"><ele>993</ele><time>2025-06-14T02:01:11Z</time></trkpt>
      <trkpt lat="30.289576" lon="119.112468"><ele>997</ele><time>2025-06-14T02:01:39Z</time></trkpt>
      <trkpt lat="30.289675" lon="119.112651"><ele>1001</ele><time>2025-06-14T02:02:02Z</time></trkpt>
      <trkpt lat="30.289944" lon="119.112721"><ele>1005</ele><time>2025-06-14T02:03:45Z</time></trkpt>
      <trkpt lat="30.290359" lon="119.113207"><ele>1016</ele><time>2025-06-14T02:06:09Z</time></trkpt>
      <trkpt lat="30.290997" lon="119.113621"><ele>1029</ele><time>2025-06-14T02:08:01Z</time></trkpt>
      <trkpt lat="30.291185" lon="119.113956"><ele>1034</ele><time>2025-06-14T02:09:01Z</time></trkpt>
      <trkpt lat="30.291374" lon="119.114022"><ele>1039</ele><time>2025-06-14T02:09:23Z</time></trkpt>
      <trkpt lat="30.291463" lon="119.113988"><ele>1038</ele><time>2025-06-14T02:09:33Z</time></trkpt>
      <trkpt lat="30.291584" lon="119.114144"><ele>1043</ele><time>2025-06-14T02:10:55Z</time></trkpt>
      <trkpt lat="30.29169" lon="119.114147"><ele>1045</ele><time>2025-06-14T02:11:10Z</time></trkpt>
      <trkpt lat="30.291752" lon="119.114071"><ele>1046</ele><time>2025-06-14T02:11:27Z</time></trkpt>
      <trkpt lat="30.292021" lon="119.114159"><ele>1045</ele><time>2025-06-14T02:12:09Z</time></trkpt>
      <trkpt lat="30.292035" lon="119.1147"><ele>1049</ele><time>2025-06-14T02:13:03Z</time></trkpt>
      <trkpt lat="30.292362" lon="119.115065"><ele>1055</ele><time>2025-06-14T02:13:57Z</time></trkpt>
      <trkpt lat="30.292605" lon="119.11522"><ele>1059</ele><time>2025-06-14T02:14:32Z</time></trkpt>
      <trkpt lat="30.293148" lon="119.11514"><ele>1063</ele><time>2025-06-14T02:19:44Z</time></trkpt>
      <trkpt lat="30.293464" lon="119.115384"><ele>1067</ele><time>2025-06-14T02:20:36Z</time></trkpt>
      <trkpt lat="30.294103" lon="119.115219"><ele>1075</ele><time>2025-06-14T02:21:49Z</time></trkpt>
      <trkpt lat="30.294149" lon="119.115029"><ele>1084</ele><time>2025-06-14T02:22:28Z</time></trkpt>
      <trkpt lat="30.294322" lon="119.114945"><ele>1090</ele><time>2025-06-14T02:22:49Z</time></trkpt>
      <trkpt lat="30.294284" lon="119.114842"><ele>1094</ele><time>2025-06-14T02:23:02Z</time></trkpt>
      <trkpt lat="30.294572" lon="119.11491"><ele>1093</ele><time>2025-06-14T02:26:30Z</time></trkpt>
      <trkpt lat="30.294953" lon="119.114818"><ele>1092</ele><time>2025-06-14T02:27:03Z</time></trkpt>
      <trkpt lat="30.295627" lon="119.114854"><ele>1093</ele><time>2025-06-14T02:28:02Z</time></trkpt>
      <trkpt lat="30.297005" lon="119.115382"><ele>1100</ele><time>2025-06-14T02:30:01Z</time></trkpt>
      <trkpt lat="30.298028" lon="119.115952"><ele>1101</ele><time>2025-06-14T02:31:43Z</time></trkpt>
      <trkpt lat="30.299795" lon="119.117211"><ele>1110</ele><time>2025-06-14T02:35:10Z</time></trkpt>
      <trkpt lat="30.300357" lon="119.117226"><ele>1115</ele><time>2025-06-14T02:36:07Z</time></trkpt>
      <trkpt lat="30.300473" lon="119.117401"><ele>1115</ele><time>2025-06-14T02:36:26Z</time></trkpt>
      <trkpt lat="30.300477" lon="119.117296"><ele>1113</ele><time>2025-06-14T02:37:27Z</time></trkpt>
      <trkpt lat="30.300438" lon="119.117394"><ele>1117</ele><time>2025-06-14T02:40:33Z</time></trkpt>
      <trkpt lat="30.300322" lon="119.117229"><ele>1113</ele><time>2025-06-14T02:41:57Z</time></trkpt>
      <trkpt lat="30.300446" lon="119.117381"><ele>1114</ele><time>2025-06-14T02:42:45Z</time></trkpt>
      <trkpt lat="30.300426" lon="119.117595"><ele>1118</ele><time>2025-06-14T02:55:12Z</time></trkpt>
      <trkpt lat="30.30057" lon="119.117871"><ele>1121</ele><time>2025-06-14T02:55:36Z</time></trkpt>
      <trkpt lat="30.301383" lon="119.118216"><ele>1120</ele><time>2025-06-14T02:56:47Z</time></trkpt>
      <trkpt lat="30.301444" lon="119.118539"><ele>1119</ele><time>2025-06-14T02:57:16Z</time></trkpt>
      <trkpt lat="30.30166" lon="119.118756"><ele>1120</ele><time>2025-06-14T02:57:43Z</time></trkpt>
      <trkpt lat="30.302866" lon="119.11964"><ele>1118</ele><time>2025-06-14T03:00:16Z</time></trkpt>
      <trkpt lat="30.302964" lon="119.119462"><ele>1117</ele><time>2025-06-14T03:01:29Z</time></trkpt>
      <trkpt lat="30.302911" lon="119.119672"><ele>1121</ele><time>2025-06-14T03:02:00Z</time></trkpt>
      <trkpt lat="30.303337" lon="119.119915"><ele>1121</ele><time>2025-06-14T03:02:47Z</time></trkpt>
      <trkpt lat="30.303897" lon="119.120092"><ele>1123</ele><time>2025-06-14T03:03:45Z</time></trkpt>
      <trkpt lat="30.304546" lon="119.120049"><ele>1123</ele><time>2025-06-14T03:04:49Z</time></trkpt>
      <trkpt lat="30.305656" lon="119.119476"><ele>1118</ele><time>2025-06-14T03:07:13Z</time></trkpt>
      <trkpt lat="30.306311" lon="119.119527"><ele>1116</ele><time>2025-06-14T03:08:17Z</time></trkpt>
      <trkpt lat="30.306442" lon="119.119679"><ele>1116</ele><time>2025-06-14T03:08:36Z</time></trkpt>
      <trkpt lat="30.30662" lon="119.119656"><ele>1116</ele><time>2025-06-14T03:08:56Z</time></trkpt>
      <trkpt lat="30.306741" lon="119.119255"><ele>1118</ele><time>2025-06-14T03:09:32Z</time></trkpt>
      <trkpt lat="30.306916" lon="119.119003"><ele>1116</ele><time>2025-06-14T03:10:01Z</time></trkpt>
      <trkpt lat="30.307382" lon="119.118908"><ele>1120</ele><time>2025-06-14T03:11:22Z</time></trkpt>
      <trkpt lat="30.307473" lon="119.118724"><ele>1115</ele><time>2025-06-14T03:11:59Z</time></trkpt>
      <trkpt lat="30.30749" lon="119.117923"><ele>1117</ele><time>2025-06-14T03:13:43Z</time></trkpt>
      <trkpt lat="30.307594" lon="119.117382"><ele>1114</ele><time>2025-06-14T03:14:30Z</time></trkpt>
      <trkpt lat="30.307546" lon="119.11716"><ele>1117</ele><time>2025-06-14T03:14:49Z</time></trkpt>
      <trkpt lat="30.307853" lon="119.116771"><ele>1114</ele><time>2025-06-14T03:15:42Z</time></trkpt>
      <trkpt lat="30.307935" lon="119.116352"><ele>1119</ele><time>2025-06-14T03:16:35Z</time></trkpt>
      <trkpt lat="30.307914" lon="119.116137"><ele>1117</ele><time>2025-06-14T03:16:59Z</time></trkpt>
      <trkpt lat="30.307673" lon="119.115812"><ele>1117</ele><time>2025-06-14T03:17:42Z</time></trkpt>
      <trkpt lat="30.307818" lon="119.115683"><ele>1118</ele><time>2025-06-14T03:18:40Z</time></trkpt>
      <trkpt lat="30.308442" lon="119.115827"><ele>1120</ele><time>2025-06-14T03:19:54Z</time></trkpt>
      <trkpt lat="30.30895" lon="119.115545"><ele>1125</ele><time>2025-06-14T03:20:56Z</time></trkpt>
      <trkpt lat="30.30955" lon="119.114846"><ele>1139</ele><time>2025-06-14T03:22:29Z</time></trkpt>
      <trkpt lat="30.310277" lon="119.113455"><ele>1152</ele><time>2025-06-14T03:25:18Z</time></trkpt>
      <trkpt lat="30.310227" lon="119.112913"><ele>1165</ele><time>2025-06-14T03:26:08Z</time></trkpt>
      <trkpt lat="30.310255" lon="119.112483"><ele>1172</ele><time>2025-06-14T03:26:53Z</time></trkpt>
      <trkpt lat="30.310074" lon="119.111977"><ele>1178</ele><time>2025-06-14T03:28:45Z</time></trkpt>
      <trkpt lat="30.310093" lon="119.111758"><ele>1177</ele><time>2025-06-14T03:33:37Z</time></trkpt>
      <trkpt lat="30.309844" lon="119.111581"><ele>1178</ele><time>2025-06-14T03:34:03Z</time></trkpt>
      <trkpt lat="30.309745" lon="119.111274"><ele>1179</ele><time>2025-06-14T03:34:29Z</time></trkpt>
      <trkpt lat="30.309909" lon="119.110877"><ele>1174</ele><time>2025-06-14T03:35:14Z</time></trkpt>
      <trkpt lat="30.309891" lon="119.110771"><ele>1176</ele><time>2025-06-14T03:35:24Z</time></trkpt>
      <trkpt lat="30.309767" lon="119.110481"><ele>1180</ele><time>2025-06-14T03:35:59Z</time></trkpt>
      <trkpt lat="30.309685" lon="119.110071"><ele>1186</ele><time>2025-06-14T03:36:34Z</time></trkpt>
      <trkpt lat="30.309346" lon="119.109402"><ele>1201</ele><time>2025-06-14T03:37:52Z</time></trkpt>
      <trkpt lat="30.309573" lon="119.10881"><ele>1208</ele><time>2025-06-14T03:38:53Z</time></trkpt>
      <trkpt lat="30.309679" lon="119.108294"><ele>1217</ele><time>2025-06-14T03:39:35Z</time></trkpt>
      <trkpt lat="30.310311" lon="119.10746"><ele>1193</ele><time>2025-06-14T03:41:25Z</time></trkpt>
      <trkpt lat="30.310323" lon="119.107136"><ele>1195</ele><time>2025-06-14T03:41:54Z</time></trkpt>
      <trkpt lat="30.310265" lon="119.107045"><ele>1195</ele><time>2025-06-14T03:42:06Z</time></trkpt>
      <trkpt lat="30.310306" lon="119.10652"><ele>1188</ele><time>2025-06-14T03:42:58Z</time></trkpt>
      <trkpt lat="30.310249" lon="119.106434"><ele>1187</ele><time>2025-06-14T03:43:09Z</time></trkpt>
      <trkpt lat="30.309782" lon="119.106361"><ele>1178</ele><time>2025-06-14T03:44:06Z</time></trkpt>
      <trkpt lat="30.309531" lon="119.106222"><ele>1167</ele><time>2025-06-14T03:44:40Z</time></trkpt>
      <trkpt lat="30.309351" lon="119.106311"><ele>1166</ele><time>2025-06-14T03:44:56Z</time></trkpt>
      <trkpt lat="30.309255" lon="119.106285"><ele>1168</ele><time>2025-06-14T03:45:04Z</time></trkpt>
      <trkpt lat="30.309028" lon="119.10609"><ele>1167</ele><time>2025-06-14T03:45:35Z</time></trkpt>
      <trkpt lat="30.308758" lon="119.106001"><ele>1153</ele><time>2025-06-14T03:46:11Z</time></trkpt>
      <trkpt lat="30.308753" lon="119.105887"><ele>1148</ele><time>2025-06-14T03:46:29Z</time></trkpt>
      <trkpt lat="30.30868" lon="119.105824"><ele>1147</ele><time>2025-06-14T03:46:49Z</time></trkpt>
      <trkpt lat="30.308697" lon="119.105717"><ele>1140</ele><time>2025-06-14T03:47:10Z</time></trkpt>
      <trkpt lat="30.308836" lon="119.105575"><ele>1137</ele><time>2025-06-14T03:47:35Z</time></trkpt>
      <trkpt lat="30.308477" lon="119.105435"><ele>1127</ele><time>2025-06-14T03:48:17Z</time></trkpt>
      <trkpt lat="30.308104" lon="119.105067"><ele>1118</ele><time>2025-06-14T03:49:12Z</time></trkpt>
      <trkpt lat="30.308061" lon="119.104855"><ele>1105</ele><time>2025-06-14T03:49:45Z</time></trkpt>
      <trkpt lat="30.307934" lon="119.104702"><ele>1103</ele><time>2025-06-14T03:50:15Z</time></trkpt>
      <trkpt lat="30.307388" lon="119.104613"><ele>1092</ele><time>2025-06-14T03:51:14Z</time></trkpt>
      <trkpt lat="30.307058" lon="119.104394"><ele>1083</ele><time>2025-06-14T03:51:57Z</time></trkpt>
      <trkpt lat="30.306964" lon="119.103765"><ele>1063</ele><time>2025-06-14T03:54:25Z</time></trkpt>
      <trkpt lat="30.306723" lon="119.103585"><ele>1056</ele><time>2025-06-14T03:54:56Z</time></trkpt>
      <trkpt lat="30.306688" lon="119.103071"><ele>1046</ele><time>2025-06-14T03:55:52Z</time></trkpt>
      <trkpt lat="30.306773" lon="119.102879"><ele>1041</ele><time>2025-06-14T03:56:17Z</time></trkpt>
      <trkpt lat="30.306529" lon="119.102178"><ele>1015</ele><time>2025-06-14T03:58:19Z</time></trkpt>
      <trkpt lat="30.306522" lon="119.101967"><ele>1006</ele><time>2025-06-14T03:58:59Z</time></trkpt>
      <trkpt lat="30.306606" lon="119.101656"><ele>995</ele><time>2025-06-14T03:59:46Z</time></trkpt>
      <trkpt lat="30.306544" lon="119.10158"><ele>993</ele><time>2025-06-14T04:00:01Z</time></trkpt>
      <trkpt lat="30.306607" lon="119.101277"><ele>980</ele><time>2025-06-14T04:00:48Z</time></trkpt>
      <trkpt lat="30.30654" lon="119.100953"><ele>970</ele><time>2025-06-14T04:02:36Z</time></trkpt>
      <trkpt lat="30.306621" lon="119.100094"><ele>942</ele><time>2025-06-14T04:04:32Z</time></trkpt>
      <trkpt lat="30.306519" lon="119.099796"><ele>935</ele><time>2025-06-14T04:05:07Z</time></trkpt>
      <trkpt lat="30.306077" lon="119.099088"><ele>918</ele><time>2025-06-14T04:07:39Z</time></trkpt>
      <trkpt lat="30.306169" lon="119.097998"><ele>893</ele><time>2025-06-14T04:09:39Z</time></trkpt>
      <trkpt lat="30.306088" lon="119.097588"><ele>884</ele><time>2025-06-14T04:10:23Z</time></trkpt>
      <trkpt lat="30.306152" lon="119.097268"><ele>876</ele><time>2025-06-14T04:10:58Z</time></trkpt>
      <trkpt lat="30.305862" lon="119.096466"><ele>862</ele><time>2025-06-14T04:13:07Z</time></trkpt>
      <trkpt lat="30.30581" lon="119.095827"><ele>844</ele><time>2025-06-14T04:14:51Z</time></trkpt>
      <trkpt lat="30.305556" lon="119.095115"><ele>830</ele><time>2025-06-14T04:16:06Z</time></trkpt>
      <trkpt lat="30.305514" lon="119.094791"><ele>821</ele><time>2025-06-14T04:16:38Z</time></trkpt>
      <trkpt lat="30.30528" lon="119.094448"><ele>814</ele><time>2025-06-14T04:17:12Z</time></trkpt>
      <trkpt lat="30.305255" lon="119.094339"><ele>815</ele><time>2025-06-14T04:17:23Z</time></trkpt>
      <trkpt lat="30.305345" lon="119.094296"><ele>815</ele><time>2025-06-14T04:17:29Z</time></trkpt>
      <trkpt lat="30.305135" lon="119.093926"><ele>824</ele><time>2025-06-14T04:18:04Z</time></trkpt>
      <trkpt lat="30.305142" lon="119.093808"><ele>832</ele><time>2025-06-14T04:18:15Z</time></trkpt>
      <trkpt lat="30.305077" lon="119.093728"><ele>826</ele><time>2025-06-14T04:18:25Z</time></trkpt>
      <trkpt lat="30.305001" lon="119.093811"><ele>820</ele><time>2025-06-14T04:18:30Z</time></trkpt>
      <trkpt lat="30.304843" lon="119.09354"><ele>793</ele><time>2025-06-14T04:18:58Z</time></trkpt>
      <trkpt lat="30.304872" lon="119.093428"><ele>790</ele><time>2025-06-14T04:19:06Z</time></trkpt>
      <trkpt lat="30.30471" lon="119.093334"><ele>794</ele><time>2025-06-14T04:19:21Z</time></trkpt>
      <trkpt lat="30.304733" lon="119.093126"><ele>785</ele><time>2025-06-14T04:19:41Z</time></trkpt>
      <trkpt lat="30.304376" lon="119.0928"><ele>779</ele><time>2025-06-14T04:20:31Z</time></trkpt>
      <trkpt lat="30.304359" lon="119.092693"><ele>780</ele><time>2025-06-14T04:20:40Z</time></trkpt>
      <trkpt lat="30.30428" lon="119.092627"><ele>776</ele><time>2025-06-14T04:20:48Z</time></trkpt>
      <trkpt lat="30.304186" lon="119.092643"><ele>775</ele><time>2025-06-14T04:20:55Z</time></trkpt>
      <trkpt lat="30.303781" lon="119.092034"><ele>761</ele><time>2025-06-14T04:22:03Z</time></trkpt>
      <trkpt lat="30.303438" lon="119.091653"><ele>747</ele><time>2025-06-14T04:22:50Z</time></trkpt>
      <trkpt lat="30.303007" lon="119.091446"><ele>750</ele><time>2025-06-14T04:23:34Z</time></trkpt>
      <trkpt lat="30.3028" lon="119.091098"><ele>739</ele><time>2025-06-14T04:24:20Z</time></trkpt>
      <trkpt lat="30.302173" lon="119.090619"><ele>724</ele><time>2025-06-14T04:25:45Z</time></trkpt>
      <trkpt lat="30.30199" lon="119.09056"><ele>722</ele><time>2025-06-14T04:26:13Z</time></trkpt>
      <trkpt lat="30.301703" lon="119.090149"><ele>717</ele><time>2025-06-14T04:27:36Z</time></trkpt>
      <trkpt lat="30.301536" lon="119.090244"><ele>712</ele><time>2025-06-14T04:28:06Z</time></trkpt>
      <trkpt lat="30.301358" lon="119.090163"><ele>712</ele><time>2025-06-14T04:28:25Z</time></trkpt>
      <trkpt lat="30.301312" lon="119.089957"><ele>710</ele><time>2025-06-14T04:28:42Z</time></trkpt>
      <trkpt lat="30.301447" lon="119.089554"><ele>709</ele><time>2025-06-14T04:29:15Z</time></trkpt>
      <trkpt lat="30.301397" lon="119.089131"><ele>708</ele><time>2025-06-14T04:30:38Z</time></trkpt>
      <trkpt lat="30.301418" lon="119.08846"><ele>704</ele><time>2025-06-14T04:31:29Z</time></trkpt>
      <trkpt lat="30.30126" lon="119.087842"><ele>698</ele><time>2025-06-14T04:32:18Z</time></trkpt>
      <trkpt lat="30.300815" lon="119.08766"><ele>684</ele><time>2025-06-14T04:33:17Z</time></trkpt>
      <trkpt lat="30.300452" lon="119.087319"><ele>680</ele><time>2025-06-14T04:34:01Z</time></trkpt>
      <trkpt lat="30.300164" lon="119.087271"><ele>679</ele><time>2025-06-14T04:34:25Z</time></trkpt>
      <trkpt lat="30.300082" lon="119.087338"><ele>678</ele><time>2025-06-14T04:34:32Z</time></trkpt>
      <trkpt lat="30.299976" lon="119.087317"><ele>680</ele><time>2025-06-14T04:34:40Z</time></trkpt>
      <trkpt lat="30.299821" lon="119.086917"><ele>680</ele><time>2025-06-14T04:35:17Z</time></trkpt>
      <trkpt lat="30.299679" lon="119.086759"><ele>676</ele><time>2025-06-14T04:35:34Z</time></trkpt>
      <trkpt lat="30.299506" lon="119.086731"><ele>671</ele><time>2025-06-14T04:35:55Z</time></trkpt>
      <trkpt lat="30.299359" lon="119.086597"><ele>666</ele><time>2025-06-14T04:36:14Z</time></trkpt>
      <trkpt lat="30.299087" lon="119.086551"><ele>661</ele><time>2025-06-14T04:36:38Z</time></trkpt>
      <trkpt lat="30.298919" lon="119.086285"><ele>658</ele><time>2025-06-14T04:37:03Z</time></trkpt>
      <trkpt lat="30.298648" lon="119.086241"><ele>655</ele><time>2025-06-14T04:37:27Z</time></trkpt>
      <trkpt lat="30.29849" lon="119.086131"><ele>652</ele><time>2025-06-14T04:37:48Z</time></trkpt>
      <trkpt lat="30.298301" lon="119.086123"><ele>648</ele><time>2025-06-14T04:38:06Z</time></trkpt>
      <trkpt lat="30.298318" lon="119.086648"><ele>647</ele><time>2025-06-14T04:39:28Z</time></trkpt>
      <trkpt lat="30.29839" lon="119.086572"><ele>652</ele><time>2025-06-14T05:38:50Z</time></trkpt>
      <trkpt lat="30.298678" lon="119.086499"><ele>650</ele><time>2025-06-14T05:39:03Z</time></trkpt>
      <trkpt lat="30.298283" lon="119.086566"><ele>650</ele><time>2025-06-14T05:39:19Z</time></trkpt>
      <trkpt lat="30.298383" lon="119.086621"><ele>650</ele><time>2025-06-14T05:40:38Z</time></trkpt>
      <trkpt lat="30.298466" lon="119.086575"><ele>652</ele><time>2025-06-14T06:01:03Z</time></trkpt>
      <trkpt lat="30.298359" lon="119.086557"><ele>653</ele><time>2025-06-14T06:01:48Z</time></trkpt>
      <trkpt lat="30.298305" lon="119.08676"><ele>647</ele><time>2025-06-14T06:03:44Z</time></trkpt>
      <trkpt lat="30.298116" lon="119.086774"><ele>647</ele><time>2025-06-14T06:04:26Z</time></trkpt>
      <trkpt lat="30.297997" lon="119.08662"><ele>645</ele><time>2025-06-14T06:04:46Z</time></trkpt>
      <trkpt lat="30.297865" lon="119.086088"><ele>640</ele><time>2025-06-14T06:05:45Z</time></trkpt>
      <trkpt lat="30.297549" lon="119.085679"><ele>634</ele><time>2025-06-14T06:06:25Z</time></trkpt>
      <trkpt lat="30.296813" lon="119.085143"><ele>630</ele><time>2025-06-14T06:07:42Z</time></trkpt>
      <trkpt lat="30.296385" lon="119.084679"><ele>623</ele><time>2025-06-14T06:08:39Z</time></trkpt>
      <trkpt lat="30.296294" lon="119.084679"><ele>621</ele><time>2025-06-14T06:09:14Z</time></trkpt>
      <trkpt lat="30.295722" lon="119.084293"><ele>615</ele><time>2025-06-14T06:10:09Z</time></trkpt>
      <trkpt lat="30.295461" lon="119.084402"><ele>616</ele><time>2025-06-14T06:10:54Z</time></trkpt>
      <trkpt lat="30.295304" lon="119.084283"><ele>620</ele><time>2025-06-14T06:11:18Z</time></trkpt>
      <trkpt lat="30.295204" lon="119.084099"><ele>623</ele><time>2025-06-14T06:11:37Z</time></trkpt>
      <trkpt lat="30.295033" lon="119.08401"><ele>628</ele><time>2025-06-14T06:11:58Z</time></trkpt>
      <trkpt lat="30.294768" lon="119.084054"><ele>634</ele><time>2025-06-14T06:12:38Z</time></trkpt>
      <trkpt lat="30.294353" lon="119.084332"><ele>640</ele><time>2025-06-14T06:13:30Z</time></trkpt>
      <trkpt lat="30.293538" lon="119.08507"><ele>650</ele><time>2025-06-14T06:15:27Z</time></trkpt>
      <trkpt lat="30.292972" lon="119.085972"><ele>682</ele><time>2025-06-14T06:17:51Z</time></trkpt>
      <trkpt lat="30.292767" lon="119.08619"><ele>695</ele><time>2025-06-14T06:18:38Z</time></trkpt>
      <trkpt lat="30.292812" lon="119.086293"><ele>691</ele><time>2025-06-14T06:18:45Z</time></trkpt>
      <trkpt lat="30.292778" lon="119.086394"><ele>690</ele><time>2025-06-14T06:18:53Z</time></trkpt>
      <trkpt lat="30.292543" lon="119.086587"><ele>697</ele><time>2025-06-14T06:19:21Z</time></trkpt>
      <trkpt lat="30.291807" lon="119.087591"><ele>715</ele><time>2025-06-14T06:21:35Z</time></trkpt>
      <trkpt lat="30.291613" lon="119.088072"><ele>727</ele><time>2025-06-14T06:23:04Z</time></trkpt>
      <trkpt lat="30.291431" lon="119.088008"><ele>727</ele><time>2025-06-14T06:24:22Z</time></trkpt>
      <trkpt lat="30.291032" lon="119.088302"><ele>740</ele><time>2025-06-14T06:27:37Z</time></trkpt>
      <trkpt lat="30.290858" lon="119.088369"><ele>744</ele><time>2025-06-14T06:28:01Z</time></trkpt>
      <trkpt lat="30.29077" lon="119.088335"><ele>747</ele><time>2025-06-14T06:28:13Z</time></trkpt>
      <trkpt lat="30.290436" lon="119.088539"><ele>755</ele><time>2025-06-14T06:29:07Z</time></trkpt>
      <trkpt lat="30.290247" lon="119.08854"><ele>758</ele><time>2025-06-14T06:29:34Z</time></trkpt>
      <trkpt lat="30.289911" lon="119.088747"><ele>768</ele><time>2025-06-14T06:30:29Z</time></trkpt>
      <trkpt lat="30.289464" lon="119.088861"><ele>779</ele><time>2025-06-14T06:31:50Z</time></trkpt>
      <trkpt lat="30.288859" lon="119.089156"><ele>798</ele><time>2025-06-14T06:33:28Z</time></trkpt>
      <trkpt lat="30.288305" lon="119.08958"><ele>820</ele><time>2025-06-14T06:35:15Z</time></trkpt>
      <trkpt lat="30.287984" lon="119.08997"><ele>828</ele><time>2025-06-14T06:36:28Z</time></trkpt>
      <trkpt lat="30.287729" lon="119.090096"><ele>835</ele><time>2025-06-14T06:37:09Z</time></trkpt>
      <trkpt lat="30.287187" lon="119.090521"><ele>844</ele><time>2025-06-14T06:38:33Z</time></trkpt>
      <trkpt lat="30.286889" lon="119.091069"><ele>858</ele><time>2025-06-14T06:40:05Z</time></trkpt>
      <trkpt lat="30.286709" lon="119.091157"><ele>860</ele><time>2025-06-14T06:40:29Z</time></trkpt>
      <trkpt lat="30.286328" lon="119.091193"><ele>869</ele><time>2025-06-14T06:41:22Z</time></trkpt>
      <trkpt lat="30.285745" lon="119.091533"><ele>883</ele><time>2025-06-14T06:42:50Z</time></trkpt>
      <trkpt lat="30.285299" lon="119.09192"><ele>895</ele><time>2025-06-14T06:44:11Z</time></trkpt>
      <trkpt lat="30.28455" lon="119.092044"><ele>910</ele><time>2025-06-14T06:45:47Z</time></trkpt>
      <trkpt lat="30.284289" lon="119.092187"><ele>914</ele><time>2025-06-14T06:46:23Z</time></trkpt>
      <trkpt lat="30.283651" lon="119.092259"><ele>912</ele><time>2025-06-14T06:47:51Z</time></trkpt>
      <trkpt lat="30.283126" lon="119.092495"><ele>908</ele><time>2025-06-14T06:48:57Z</time></trkpt>
      <trkpt lat="30.282289" lon="119.092432"><ele>900</ele><time>2025-06-14T06:50:44Z</time></trkpt>
      <trkpt lat="30.281131" lon="119.092738"><ele>883</ele><time>2025-06-14T06:52:44Z</time></trkpt>
      <trkpt lat="30.280976" lon="119.092871"><ele>877</ele><time>2025-06-14T06:53:07Z</time></trkpt>
      <trkpt lat="30.28079" lon="119.092894"><ele>871</ele><time>2025-06-14T06:53:30Z</time></trkpt>
      <trkpt lat="30.280704" lon="119.09333"><ele>871</ele><time>2025-06-14T06:54:12Z</time></trkpt>
      <trkpt lat="30.280506" lon="119.093544"><ele>868</ele><time>2025-06-14T06:55:14Z</time></trkpt>
      <trkpt lat="30.279687" lon="119.093768"><ele>853</ele><time>2025-06-14T06:56:51Z</time></trkpt>
      <trkpt lat="30.279329" lon="119.094111"><ele>842</ele><time>2025-06-14T06:57:53Z</time></trkpt>
      <trkpt lat="30.279058" lon="119.094206"><ele>837</ele><time>2025-06-14T06:58:35Z</time></trkpt>
      <trkpt lat="30.278849" lon="119.09455"><ele>828</ele><time>2025-06-14T06:59:19Z</time></trkpt>
      <trkpt lat="30.278793" lon="119.094765"><ele>828</ele><time>2025-06-14T06:59:35Z</time></trkpt>
      <trkpt lat="30.278359" lon="119.095171"><ele>813</ele><time>2025-06-14T07:00:36Z</time></trkpt>
      <trkpt lat="30.277827" lon="119.095425"><ele>792</ele><time>2025-06-14T07:02:11Z</time></trkpt>
      <trkpt lat="30.277674" lon="119.095566"><ele>791</ele><time>2025-06-14T07:02:43Z</time></trkpt>
      <trkpt lat="30.277341" lon="119.096093"><ele>778</ele><time>2025-06-14T07:04:20Z</time></trkpt>
      <trkpt lat="30.27707" lon="119.096395"><ele>764</ele><time>2025-06-14T07:05:15Z</time></trkpt>
      <trkpt lat="30.276786" lon="119.097077"><ele>749</ele><time>2025-06-14T07:06:38Z</time></trkpt>
      <trkpt lat="30.276656" lon="119.097219"><ele>749</ele><time>2025-06-14T07:06:54Z</time></trkpt>
      <trkpt lat="30.276477" lon="119.097272"><ele>747</ele><time>2025-06-14T07:07:12Z</time></trkpt>
      <trkpt lat="30.276279" lon="119.0975"><ele>745</ele><time>2025-06-14T07:07:44Z</time></trkpt>
      <trkpt lat="30.275825" lon="119.097601"><ele>734</ele><time>2025-06-14T07:08:31Z</time></trkpt>
      <trkpt lat="30.275754" lon="119.097674"><ele>733</ele><time>2025-06-14T07:08:48Z</time></trkpt>
      <trkpt lat="30.275792" lon="119.097771"><ele>730</ele><time>2025-06-14T07:09:05Z</time></trkpt>
      <trkpt lat="30.275714" lon="119.097966"><ele>723</ele><time>2025-06-14T07:09:44Z</time></trkpt>
      <trkpt lat="30.275516" lon="119.097754"><ele>707</ele><time>2025-06-14T07:10:42Z</time></trkpt>
      <trkpt lat="30.275457" lon="119.097835"><ele>706</ele><time>2025-06-14T07:11:00Z</time></trkpt>
      <trkpt lat="30.27527" lon="119.09784"><ele>697</ele><time>2025-06-14T07:11:37Z</time></trkpt>
      <trkpt lat="30.275183" lon="119.098152"><ele>689</ele><time>2025-06-14T07:12:46Z</time></trkpt>
      <trkpt lat="30.275052" lon="119.09831"><ele>682</ele><time>2025-06-14T07:13:15Z</time></trkpt>
      <trkpt lat="30.274714" lon="119.098497"><ele>676</ele><time>2025-06-14T07:13:53Z</time></trkpt>
      <trkpt lat="30.27427" lon="119.098888"><ele>663</ele><time>2025-06-14T07:15:03Z</time></trkpt>
      <trkpt lat="30.274086" lon="119.098931"><ele>658</ele><time>2025-06-14T07:15:27Z</time></trkpt>
      <trkpt lat="30.27426" lon="119.099008"><ele>659</ele><time>2025-06-14T07:16:07Z</time></trkpt>
      <trkpt lat="30.274724" lon="119.09899"><ele>662</ele><time>2025-06-14T07:16:56Z</time></trkpt>
      <trkpt lat="30.275098" lon="119.099305"><ele>669</ele><time>2025-06-14T07:17:45Z</time></trkpt>
      <trkpt lat="30.275451" lon="119.099451"><ele>671</ele><time>2025-06-14T07:18:25Z</time></trkpt>
      <trkpt lat="30.275831" lon="119.099957"><ele>675</ele><time>2025-06-14T07:20:44Z</time></trkpt>
      <trkpt lat="30.275792" lon="119.100192"><ele>679</ele><time>2025-06-14T07:21:05Z</time></trkpt>
      <trkpt lat="30.276002" lon="119.099944"><ele>684</ele><time>2025-06-14T07:21:19Z</time></trkpt>
    </trkseg>
  </trk>
</gpx>
