<?xml version="1.0" encoding="UTF-8"?>
<gpx version="1.1" creator="MyWorld" xmlns="http://www.topografix.com/GPX/1/1">
  <metadata><name>郑州少室山</name></metadata>
  <trk>
    <name>郑州少室山</name>
    <trkseg>
      <trkpt lat="34.464248" lon="112.922685"><ele>730</ele><time>2025-04-11T03:05:07Z</time></trkpt>
      <trkpt lat="34.46519" lon="112.923142"><ele>808</ele><time>2025-04-11T03:11:37Z</time></trkpt>
      <trkpt lat="34.46526" lon="112.923064"><ele>812</ele><time>2025-04-11T03:12:20Z</time></trkpt>
      <trkpt lat="34.465256" lon="112.922948"><ele>817</ele><time>2025-04-11T03:12:32Z</time></trkpt>
      <trkpt lat="34.465347" lon="112.922959"><ele>817</ele><time>2025-04-11T03:12:58Z</time></trkpt>
      <trkpt lat="34.46538" lon="112.923162"><ele>822</ele><time>2025-04-11T03:13:36Z</time></trkpt>
      <trkpt lat="34.465438" lon="112.923076"><ele>823</ele><time>2025-04-11T03:13:58Z</time></trkpt>
      <trkpt lat="34.465494" lon="112.923163"><ele>829</ele><time>2025-04-11T03:14:25Z</time></trkpt>
      <trkpt lat="34.465577" lon="112.923105"><ele>829</ele><time>2025-04-11T03:14:40Z</time></trkpt>
      <trkpt lat="34.465722" lon="112.923386"><ele>837</ele><time>2025-04-11T03:15:25Z</time></trkpt>
      <trkpt lat="34.466031" lon="112.923658"><ele>842</ele><time>2025-04-11T03:16:42Z</time></trkpt>
      <trkpt lat="34.466025" lon="112.92388"><ele>857</ele><time>2025-04-11T03:17:52Z</time></trkpt>
      <trkpt lat="34.466113" lon="112.923909"><ele>865</ele><time>2025-04-11T03:19:40Z</time></trkpt>
      <trkpt lat="34.4661" lon="112.924019"><ele>878</ele><time>2025-04-11T03:24:43Z</time></trkpt>
      <trkpt lat="34.466344" lon="112.924166"><ele>907</ele><time>2025-04-11T03:26:47Z</time></trkpt>
      <trkpt lat="34.466396" lon="112.924073"><ele>916</ele><time>2025-04-11T03:29:25Z</time></trkpt>
      <trkpt lat="34.466769" lon="112.924111"><ele>931</ele><time>2025-04-11T03:31:28Z</time></trkpt>
      <trkpt lat="34.467217" lon="112.924246"><ele>952</ele><time>2025-04-11T03:34:00Z</time></trkpt>
      <trkpt lat="34.467619" lon="112.924499"><ele>991</ele><time>2025-04-11T03:37:37Z</time></trkpt>
      <trkpt lat="34.46736" lon="112.924571"><ele>1004</ele><time>2025-04-11T03:42:08Z</time></trkpt>
      <trkpt lat="34.46743" lon="112.924642"><ele>1009</ele><time>2025-04-11T03:42:48Z</time></trkpt>
      <trkpt lat="34.467384" lon="112.924737"><ele>1015</ele><time>2025-04-11T03:44:10Z</time></trkpt>
      <trkpt lat="34.467289" lon="112.924741"><ele>1021</ele><time>2025-04-11T03:44:25Z</time></trkpt>
      <trkpt lat="34.467334" lon="112.924847"><ele>1025</ele><time>2025-04-11T03:44:44Z</time></trkpt>
      <trkpt lat="34.467263" lon="112.924916"><ele>1035</ele><time>2025-04-11T03:45:36Z</time></trkpt>
      <trkpt lat="34.467413" lon="112.925049"><ele>1036</ele><time>2025-04-11T03:48:18Z</time></trkpt>
      <trkpt lat="34.467676" lon="112.925138"><ele>1047</ele><time>2025-04-11T03:50:21Z</time></trkpt>
      <trkpt lat="34.467686" lon="112.925253"><ele>1049</ele><time>2025-04-11T03:50:38Z</time></trkpt>
      <trkpt lat="34.467627" lon="112.925152"><ele>1049</ele><time>2025-04-11T03:54:11Z</time></trkpt>
      <trkpt lat="34.467445" lon="112.925215"><ele>1051</ele><time>2025-04-11T03:58:07Z</time></trkpt>
      <trkpt lat="34.4676" lon="112.925333"><ele>1054</ele><time>2025-04-11T03:58:52Z</time></trkpt>
      <trkpt lat="34.467461" lon="112.925748"><ele>1071</ele><time>2025-04-11T04:00:44Z</time></trkpt>
      <trkpt lat="34.46758" lon="112.926265"><ele>1081</ele><time>2025-04-11T04:04:57Z</time></trkpt>
      <trkpt lat="34.467953" lon="112.926586"><ele>1087</ele><time>2025-04-11T04:06:03Z</time></trkpt>
      <trkpt lat="34.468048" lon="112.926585"><ele>1078</ele><time>2025-04-11T04:06:32Z</time></trkpt>
      <trkpt lat="34.467897" lon="112.92686"><ele>1065</ele><time>2025-04-11T04:07:54Z</time></trkpt>
      <trkpt lat="34.468026" lon="112.927488"><ele>1066</ele><time>2025-04-11T04:14:24Z</time></trkpt>
      <trkpt lat="34.467995" lon="112.927595"><ele>1056</ele><time>2025-04-11T04:15:09Z</time></trkpt>
      <trkpt lat="34.468085" lon="112.927795"><ele>1055</ele><time>2025-04-11T04:15:35Z</time></trkpt>
      <trkpt lat="34.468069" lon="112.927911"><ele>1052</ele><time>2025-04-11T04:15:49Z</time></trkpt>
      <trkpt lat="34.467928" lon="112.928073"><ele>1049</ele><time>2025-04-11T04:16:19Z</time></trkpt>
      <trkpt lat="34.46797" lon="112.928841"><ele>1035</ele><time>2025-04-11T04:17:57Z</time></trkpt>
      <trkpt lat="34.468329" lon="112.928793"><ele>1041</ele><time>2025-04-11T04:18:42Z</time></trkpt>
      <trkpt lat="34.468431" lon="112.928592"><ele>1045</ele><time>2025-04-11T04:19:16Z</time></trkpt>
      <trkpt lat="34.468461" lon="112.928351"><ele>1048</ele><time>2025-04-11T04:20:33Z</time></trkpt>
      <trkpt lat="34.468539" lon="112.928296"><ele>1046</ele><time>2025-04-11T04:20:47Z</time></trkpt>
      <trkpt lat="34.468619" lon="112.928352"><ele>1045</ele><time>2025-04-11T04:21:04Z</time></trkpt>
      <trkpt lat="34.468665" lon="112.92857"><ele>1043</ele><time>2025-04-11T04:22:06Z</time></trkpt>
      <trkpt lat="34.468748" lon="112.928647"><ele>1041</ele><time>2025-04-11T04:22:21Z</time></trkpt>
      <trkpt lat="34.468767" lon="112.92876"><ele>1038</ele><time>2025-04-11T04:22:31Z</time></trkpt>
      <trkpt lat="34.468679" lon="112.928728"><ele>1038</ele><time>2025-04-11T04:24:08Z</time></trkpt>
      <trkpt lat="34.468725" lon="112.928827"><ele>1034</ele><time>2025-04-11T04:24:30Z</time></trkpt>
      <trkpt lat="34.469014" lon="112.928874"><ele>1045</ele><time>2025-04-11T04:25:39Z</time></trkpt>
      <trkpt lat="34.468923" lon="112.928869"><ele>1057</ele><time>2025-04-11T04:26:20Z</time></trkpt>
      <trkpt lat="34.468954" lon="112.928644"><ele>1060</ele><time>2025-04-11T04:26:44Z</time></trkpt>
      <trkpt lat="34.469217" lon="112.92833"><ele>1066</ele><time>2025-04-11T04:32:26Z</time></trkpt>
      <trkpt lat="34.469456" lon="112.927861"><ele>1087</ele><time>2025-04-11T04:34:17Z</time></trkpt>
      <trkpt lat="34.469445" lon="112.927642"><ele>1094</ele><time>2025-04-11T04:36:31Z</time></trkpt>
      <trkpt lat="34.469504" lon="112.927745"><ele>1095</ele><time>2025-04-11T04:36:43Z</time></trkpt>
      <trkpt lat="34.469415" lon="112.927527"><ele>1094</ele><time>2025-04-11T04:37:40Z</time></trkpt>
      <trkpt lat="34.469456" lon="112.927303"><ele>1087</ele><time>2025-04-11T04:38:29Z</time></trkpt>
      <trkpt lat="34.46941" lon="112.927209"><ele>1079</ele><time>2025-04-11T04:39:23Z</time></trkpt>
      <trkpt lat="34.469491" lon="112.927014"><ele>1065</ele><time>2025-04-11T04:40:42Z</time></trkpt>
      <trkpt lat="34.469667" lon="112.926957"><ele>1067</ele><time>2025-04-11T04:41:46Z</time></trkpt>
      <trkpt lat="34.469693" lon="112.926851"><ele>1063</ele><time>2025-04-11T04:42:07Z</time></trkpt>
      <trkpt lat="34.47003" lon="112.927044"><ele>1088</ele><time>2025-04-11T04:44:53Z</time></trkpt>
      <trkpt lat="34.470208" lon="112.926974"><ele>1103</ele><time>2025-04-11T04:48:07Z</time></trkpt>
      <trkpt lat="34.470246" lon="112.926857"><ele>1107</ele><time>2025-04-11T04:48:30Z</time></trkpt>
      <trkpt lat="34.470378" lon="112.92701"><ele>1108</ele><time>2025-04-11T05:04:48Z</time></trkpt>
      <trkpt lat="34.470751" lon="112.926957"><ele>1117</ele><time>2025-04-11T05:06:19Z</time></trkpt>
      <trkpt lat="34.470958" lon="112.92718"><ele>1108</ele><time>2025-04-11T05:07:43Z</time></trkpt>
      <trkpt lat="34.471141" lon="112.927191"><ele>1104</ele><time>2025-04-11T05:08:17Z</time></trkpt>
      <trkpt lat="34.471299" lon="112.927325"><ele>1105</ele><time>2025-04-11T05:08:45Z</time></trkpt>
      <trkpt lat="34.471427" lon="112.927745"><ele>1100</ele><time>2025-04-11T05:09:34Z</time></trkpt>
      <trkpt lat="34.47161" lon="112.927994"><ele>1099</ele><time>2025-04-11T05:10:18Z</time></trkpt>
      <trkpt lat="34.47164" lon="112.928215"><ele>1098</ele><time>2025-04-11T05:10:48Z</time></trkpt>
      <trkpt lat="34.471972" lon="112.928373"><ele>1094</ele><time>2025-04-11T05:11:51Z</time></trkpt>
      <trkpt lat="34.47208" lon="112.92819"><ele>1099</ele><time>2025-04-11T05:12:27Z</time></trkpt>
      <trkpt lat="34.472162" lon="112.928143"><ele>1092</ele><time>2025-04-11T05:13:58Z</time></trkpt>
      <trkpt lat="34.472242" lon="112.928203"><ele>1083</ele><time>2025-04-11T05:14:39Z</time></trkpt>
      <trkpt lat="34.472413" lon="112.928724"><ele>1066</ele><time>2025-04-11T05:16:08Z</time></trkpt>
      <trkpt lat="34.472649" lon="112.928893"><ele>1063</ele><time>2025-04-11T05:16:45Z</time></trkpt>
      <trkpt lat="34.472883" lon="112.929244"><ele>1050</ele><time>2025-04-11T05:18:32Z</time></trkpt>
      <trkpt lat="34.472945" lon="112.929159"><ele>1046</ele><time>2025-04-11T05:19:02Z</time></trkpt>
      <trkpt lat="34.472944" lon="112.929602"><ele>1030</ele><time>2025-04-11T05:20:42Z</time></trkpt>
      <trkpt lat="34.47339" lon="112.929976"><ele>1012</ele><time>2025-04-11T05:22:16Z</time></trkpt>
      <trkpt lat="34.473584" lon="112.929929"><ele>1013</ele><time>2025-04-11T05:22:43Z</time></trkpt>
      <trkpt lat="34.473606" lon="112.929708"><ele>1016</ele><time>2025-04-11T05:23:16Z</time></trkpt>
      <trkpt lat="34.473552" lon="112.929385"><ele>1004</ele><time>2025-04-11T05:24:20Z</time></trkpt>
      <trkpt lat="34.473477" lon="112.929321"><ele>998</ele><time>2025-04-11T05:24:38Z</time></trkpt>
      <trkpt lat="34.473522" lon="112.929087"><ele>993</ele><time>2025-04-11T05:24:59Z</time></trkpt>
      <trkpt lat="34.473413" lon="112.928783"><ele>999</ele><time>2025-04-11T05:25:57Z</time></trkpt>
      <trkpt lat="34.473502" lon="112.928463"><ele>1003</ele><time>2025-04-11T05:26:34Z</time></trkpt>
      <trkpt lat="34.473383" lon="112.927689"><ele>995</ele><time>2025-04-11T05:28:29Z</time></trkpt>
      <trkpt lat="34.473434" lon="112.927598"><ele>988</ele><time>2025-04-11T05:28:45Z</time></trkpt>
      <trkpt lat="34.473708" lon="112.927489"><ele>986</ele><time>2025-04-11T05:29:23Z</time></trkpt>
      <trkpt lat="34.473801" lon="112.9273"><ele>980</ele><time>2025-04-11T05:29:42Z</time></trkpt>
      <trkpt lat="34.473739" lon="112.927221"><ele>985</ele><time>2025-04-11T05:29:56Z</time></trkpt>
      <trkpt lat="34.473641" lon="112.927233"><ele>989</ele><time>2025-04-11T05:30:04Z</time></trkpt>
      <trkpt lat="34.473528" lon="112.927047"><ele>996</ele><time>2025-04-11T05:30:25Z</time></trkpt>
      <trkpt lat="34.473471" lon="112.926606"><ele>1004</ele><time>2025-04-11T05:31:37Z</time></trkpt>
      <trkpt lat="34.473557" lon="112.926266"><ele>1011</ele><time>2025-04-11T05:34:30Z</time></trkpt>
      <trkpt lat="34.473526" lon="112.926149"><ele>1010</ele><time>2025-04-11T05:34:43Z</time></trkpt>
      <trkpt lat="34.473454" lon="112.92607"><ele>1022</ele><time>2025-04-11T05:34:52Z</time></trkpt>
      <trkpt lat="34.473096" lon="112.926207"><ele>1028</ele><time>2025-04-11T05:35:27Z</time></trkpt>
      <trkpt lat="34.472907" lon="112.926141"><ele>1024</ele><time>2025-04-11T05:35:48Z</time></trkpt>
      <trkpt lat="34.472738" lon="112.92586"><ele>1025</ele><time>2025-04-11T05:36:22Z</time></trkpt>
      <trkpt lat="34.472656" lon="112.925533"><ele>1024</ele><time>2025-04-11T05:36:57Z</time></trkpt>
      <trkpt lat="34.472517" lon="112.925381"><ele>1018</ele><time>2025-04-11T05:37:17Z</time></trkpt>
      <trkpt lat="34.472431" lon="112.924709"><ele>1021</ele><time>2025-04-11T05:41:37Z</time></trkpt>
      <trkpt lat="34.472562" lon="112.924557"><ele>1025</ele><time>2025-04-11T05:43:23Z</time></trkpt>
      <trkpt lat="34.472743" lon="112.924547"><ele>1035</ele><time>2025-04-11T05:44:10Z</time></trkpt>
      <trkpt lat="34.47333" lon="112.924823"><ele>1048</ele><time>2025-04-11T05:48:35Z</time></trkpt>
      <trkpt lat="34.473484" lon="112.924396"><ele>1054</ele><time>2025-04-11T05:49:53Z</time></trkpt>
      <trkpt lat="34.474046" lon="112.924274"><ele>1056</ele><time>2025-04-11T05:51:18Z</time></trkpt>
      <trkpt lat="34.474321" lon="112.92429"><ele>1065</ele><time>2025-04-11T05:52:02Z</time></trkpt>
      <trkpt lat="34.474501" lon="112.924037"><ele>1062</ele><time>2025-04-11T05:52:48Z</time></trkpt>
      <trkpt lat="34.474508" lon="112.923917"><ele>1068</ele><time>2025-04-11T05:53:03Z</time></trkpt>
      <trkpt lat="34.474501" lon="112.9238"><ele>1070</ele><time>2025-04-11T05:53:13Z</time></trkpt>
      <trkpt lat="34.474237" lon="112.923466"><ele>1051</ele><time>2025-04-11T05:59:33Z</time></trkpt>
      <trkpt lat="34.474226" lon="112.923351"><ele>1052</ele><time>2025-04-11T05:59:42Z</time></trkpt>
      <trkpt lat="34.474299" lon="112.923283"><ele>1052</ele><time>2025-04-11T05:59:54Z</time></trkpt>
      <trkpt lat="34.475046" lon="112.92338"><ele>1058</ele><time>2025-04-11T06:01:11Z</time></trkpt>
      <trkpt lat="34.475324" lon="112.923497"><ele>1057</ele><time>2025-04-11T06:01:40Z</time></trkpt>
      <trkpt lat="34.475656" lon="112.923098"><ele>1058</ele><time>2025-04-11T06:02:30Z</time></trkpt>
      <trkpt lat="34.476126" lon="112.922938"><ele>1062</ele><time>2025-04-11T06:03:20Z</time></trkpt>
      <trkpt lat="34.476878" lon="112.922231"><ele>1068</ele><time>2025-04-11T06:04:52Z</time></trkpt>
      <trkpt lat="34.47683" lon="112.922561"><ele>1080</ele><time>2025-04-11T06:05:55Z</time></trkpt>
      <trkpt lat="34.476648" lon="112.922804"><ele>1082</ele><time>2025-04-11T06:07:02Z</time></trkpt>
      <trkpt lat="34.476701" lon="112.922895"><ele>1082</ele><time>2025-04-11T06:07:19Z</time></trkpt>
      <trkpt lat="34.476742" lon="112.922762"><ele>1080</ele><time>2025-04-11T06:07:51Z</time></trkpt>
      <trkpt lat="34.476846" lon="112.922832"><ele>1077</ele><time>2025-04-11T06:09:20Z</time></trkpt>
      <trkpt lat="34.486499" lon="112.924908"><ele>881</ele><time>2025-04-11T06:13:54Z</time></trkpt>
    </trkseg>
  </trk>
</gpx>
