<?xml version="1.0" encoding="UTF-8"?>
<gpx version="1.1" creator="MyWorld" xmlns="http://www.topografix.com/GPX/1/1">
  <metadata><name>徽杭古道</name></metadata>
  <trk>
    <name>徽杭古道</name>
    <trkseg>
      <trkpt lat="30.143439" lon="118.748944"><ele>279</ele><time>2025-07-26T02:33:18Z</time></trkpt>
      <trkpt lat="30.143575" lon="118.74947"><ele>280</ele><time>2025-07-26T02:34:06Z</time></trkpt>
      <trkpt lat="30.143698" lon="118.749645"><ele>281</ele><time>2025-07-26T02:34:28Z</time></trkpt>
      <trkpt lat="30.143569" lon="118.749813"><ele>281</ele><time>2025-07-26T02:34:53Z</time></trkpt>
      <trkpt lat="30.143473" lon="118.750125"><ele>280</ele><time>2025-07-26T02:35:19Z</time></trkpt>
      <trkpt lat="30.1435" lon="118.751446"><ele>276</ele><time>2025-07-26T02:37:01Z</time></trkpt>
      <trkpt lat="30.143199" lon="118.752444"><ele>284</ele><time>2025-07-26T02:38:44Z</time></trkpt>
      <trkpt lat="30.143253" lon="118.753233"><ele>284</ele><time>2025-07-26T02:39:45Z</time></trkpt>
      <trkpt lat="30.143423" lon="118.75387"><ele>285</ele><time>2025-07-26T02:40:38Z</time></trkpt>
      <trkpt lat="30.143068" lon="118.755014"><ele>289</ele><time>2025-07-26T02:42:18Z</time></trkpt>
      <trkpt lat="30.142983" lon="118.756436"><ele>294</ele><time>2025-07-26T02:44:10Z</time></trkpt>
      <trkpt lat="30.142957" lon="118.756548"><ele>294</ele><time>2025-07-26T02:44:20Z</time></trkpt>
      <trkpt lat="30.142864" lon="118.756444"><ele>297</ele><time>2025-07-26T02:44:56Z</time></trkpt>
      <trkpt lat="30.14309" lon="118.756512"><ele>304</ele><time>2025-07-26T02:45:58Z</time></trkpt>
      <trkpt lat="30.143173" lon="118.756712"><ele>297</ele><time>2025-07-26T02:46:17Z</time></trkpt>
      <trkpt lat="30.143137" lon="118.756933"><ele>297</ele><time>2025-07-26T02:51:01Z</time></trkpt>
      <trkpt lat="30.143023" lon="118.757108"><ele>303</ele><time>2025-07-26T02:51:36Z</time></trkpt>
      <trkpt lat="30.143074" lon="118.757647"><ele>304</ele><time>2025-07-26T02:52:38Z</time></trkpt>
      <trkpt lat="30.142931" lon="118.758172"><ele>305</ele><time>2025-07-26T02:53:29Z</time></trkpt>
      <trkpt lat="30.143152" lon="118.758375"><ele>295</ele><time>2025-07-26T02:54:02Z</time></trkpt>
      <trkpt lat="30.14312" lon="118.758478"><ele>303</ele><time>2025-07-26T02:54:41Z</time></trkpt>
      <trkpt lat="30.142956" lon="118.758592"><ele>309</ele><time>2025-07-26T02:54:57Z</time></trkpt>
      <trkpt lat="30.142822" lon="118.758871"><ele>315</ele><time>2025-07-26T02:55:29Z</time></trkpt>
      <trkpt lat="30.142137" lon="118.759447"><ele>320</ele><time>2025-07-26T02:56:52Z</time></trkpt>
      <trkpt lat="30.141803" lon="118.759871"><ele>319</ele><time>2025-07-26T02:57:41Z</time></trkpt>
      <trkpt lat="30.141826" lon="118.760415"><ele>328</ele><time>2025-07-26T02:58:48Z</time></trkpt>
      <trkpt lat="30.141966" lon="118.760822"><ele>326</ele><time>2025-07-26T02:59:24Z</time></trkpt>
      <trkpt lat="30.142015" lon="118.761253"><ele>336</ele><time>2025-07-26T03:00:06Z</time></trkpt>
      <trkpt lat="30.14196" lon="118.761344"><ele>338</ele><time>2025-07-26T03:00:38Z</time></trkpt>
      <trkpt lat="30.141781" lon="118.761394"><ele>330</ele><time>2025-07-26T03:01:39Z</time></trkpt>
      <trkpt lat="30.141745" lon="118.761501"><ele>328</ele><time>2025-07-26T03:01:52Z</time></trkpt>
      <trkpt lat="30.141654" lon="118.76152"><ele>332</ele><time>2025-07-26T03:03:53Z</time></trkpt>
      <trkpt lat="30.141709" lon="118.761603"><ele>336</ele><time>2025-07-26T03:04:38Z</time></trkpt>
      <trkpt lat="30.141591" lon="118.761879"><ele>336</ele><time>2025-07-26T03:06:36Z</time></trkpt>
      <trkpt lat="30.141651" lon="118.76219"><ele>340</ele><time>2025-07-26T03:07:30Z</time></trkpt>
      <trkpt lat="30.14151" lon="118.763137"><ele>363</ele><time>2025-07-26T03:10:05Z</time></trkpt>
      <trkpt lat="30.141393" lon="118.763301"><ele>370</ele><time>2025-07-26T03:10:31Z</time></trkpt>
      <trkpt lat="30.14121" lon="118.763795"><ele>374</ele><time>2025-07-26T03:11:45Z</time></trkpt>
      <trkpt lat="30.141244" lon="118.763894"><ele>373</ele><time>2025-07-26T03:11:57Z</time></trkpt>
      <trkpt lat="30.141334" lon="118.763909"><ele>371</ele><time>2025-07-26T03:12:08Z</time></trkpt>
      <trkpt lat="30.141519" lon="118.764272"><ele>377</ele><time>2025-07-26T03:14:40Z</time></trkpt>
      <trkpt lat="30.141521" lon="118.764592"><ele>377</ele><time>2025-07-26T03:16:25Z</time></trkpt>
      <trkpt lat="30.141662" lon="118.764851"><ele>382</ele><time>2025-07-26T03:17:43Z</time></trkpt>
      <trkpt lat="30.141513" lon="118.765227"><ele>404</ele><time>2025-07-26T03:19:42Z</time></trkpt>
      <trkpt lat="30.141459" lon="118.765653"><ele>416</ele><time>2025-07-26T03:22:21Z</time></trkpt>
      <trkpt lat="30.14146" lon="118.765969"><ele>407</ele><time>2025-07-26T03:24:42Z</time></trkpt>
      <trkpt lat="30.141542" lon="118.766163"><ele>407</ele><time>2025-07-26T03:25:31Z</time></trkpt>
      <trkpt lat="30.141402" lon="118.766429"><ele>412</ele><time>2025-07-26T03:26:07Z</time></trkpt>
      <trkpt lat="30.1415" lon="118.766839"><ele>425</ele><time>2025-07-26T03:27:00Z</time></trkpt>
      <trkpt lat="30.141626" lon="118.766988"><ele>431</ele><time>2025-07-26T03:27:57Z</time></trkpt>
      <trkpt lat="30.141249" lon="118.76798"><ele>445</ele><time>2025-07-26T03:30:57Z</time></trkpt>
      <trkpt lat="30.141269" lon="118.768188"><ele>452</ele><time>2025-07-26T03:33:26Z</time></trkpt>
      <trkpt lat="30.141026" lon="118.768342"><ele>459</ele><time>2025-07-26T03:34:12Z</time></trkpt>
      <trkpt lat="30.140716" lon="118.768736"><ele>463</ele><time>2025-07-26T03:35:14Z</time></trkpt>
      <trkpt lat="30.140537" lon="118.768768"><ele>466</ele><time>2025-07-26T03:35:44Z</time></trkpt>
      <trkpt lat="30.14032" lon="118.768958"><ele>465</ele><time>2025-07-26T03:36:13Z</time></trkpt>
      <trkpt lat="30.140225" lon="118.768971"><ele>467</ele><time>2025-07-26T03:36:32Z</time></trkpt>
      <trkpt lat="30.140111" lon="118.769146"><ele>478</ele><time>2025-07-26T03:37:15Z</time></trkpt>
      <trkpt lat="30.140169" lon="118.769231"><ele>486</ele><time>2025-07-26T03:38:01Z</time></trkpt>
      <trkpt lat="30.140176" lon="118.769553"><ele>494</ele><time>2025-07-26T03:40:42Z</time></trkpt>
      <trkpt lat="30.140013" lon="118.76964"><ele>495</ele><time>2025-07-26T03:41:34Z</time></trkpt>
      <trkpt lat="30.139939" lon="118.769835"><ele>498</ele><time>2025-07-26T03:42:41Z</time></trkpt>
      <trkpt lat="30.139717" lon="118.770031"><ele>508</ele><time>2025-07-26T03:43:53Z</time></trkpt>
      <trkpt lat="30.139481" lon="118.770363"><ele>516</ele><time>2025-07-26T03:44:47Z</time></trkpt>
      <trkpt lat="30.139306" lon="118.770435"><ele>515</ele><time>2025-07-26T03:45:08Z</time></trkpt>
      <trkpt lat="30.139169" lon="118.770585"><ele>521</ele><time>2025-07-26T03:45:30Z</time></trkpt>
      <trkpt lat="30.139119" lon="118.770674"><ele>521</ele><time>2025-07-26T03:45:40Z</time></trkpt>
      <trkpt lat="30.139227" lon="118.770843"><ele>528</ele><time>2025-07-26T03:46:06Z</time></trkpt>
      <trkpt lat="30.139157" lon="118.771143"><ele>538</ele><time>2025-07-26T03:46:54Z</time></trkpt>
      <trkpt lat="30.139012" lon="118.771288"><ele>535</ele><time>2025-07-26T03:47:17Z</time></trkpt>
      <trkpt lat="30.138835" lon="118.771301"><ele>534</ele><time>2025-07-26T03:47:40Z</time></trkpt>
      <trkpt lat="30.138765" lon="118.771375"><ele>535</ele><time>2025-07-26T03:49:10Z</time></trkpt>
      <trkpt lat="30.138626" lon="118.771782"><ele>537</ele><time>2025-07-26T03:49:49Z</time></trkpt>
      <trkpt lat="30.13843" lon="118.77202"><ele>537</ele><time>2025-07-26T03:50:38Z</time></trkpt>
      <trkpt lat="30.138453" lon="118.772332"><ele>535</ele><time>2025-07-26T03:51:12Z</time></trkpt>
      <trkpt lat="30.138134" lon="118.772547"><ele>538</ele><time>2025-07-26T03:51:59Z</time></trkpt>
      <trkpt lat="30.137805" lon="118.773063"><ele>532</ele><time>2025-07-26T03:52:52Z</time></trkpt>
      <trkpt lat="30.13794" lon="118.774019"><ele>546</ele><time>2025-07-26T03:55:10Z</time></trkpt>
      <trkpt lat="30.137926" lon="118.774342"><ele>546</ele><time>2025-07-26T03:55:42Z</time></trkpt>
      <trkpt lat="30.137836" lon="118.774527"><ele>548</ele><time>2025-07-26T03:56:06Z</time></trkpt>
      <trkpt lat="30.137845" lon="118.77475"><ele>549</ele><time>2025-07-26T03:56:28Z</time></trkpt>
      <trkpt lat="30.137736" lon="118.775051"><ele>550</ele><time>2025-07-26T03:57:10Z</time></trkpt>
      <trkpt lat="30.137738" lon="118.775494"><ele>551</ele><time>2025-07-26T03:57:57Z</time></trkpt>
      <trkpt lat="30.137996" lon="118.775805"><ele>551</ele><time>2025-07-26T03:58:33Z</time></trkpt>
      <trkpt lat="30.137889" lon="118.775973"><ele>553</ele><time>2025-07-26T03:59:03Z</time></trkpt>
      <trkpt lat="30.137809" lon="118.776402"><ele>553</ele><time>2025-07-26T03:59:55Z</time></trkpt>
      <trkpt lat="30.137917" lon="118.776712"><ele>554</ele><time>2025-07-26T04:00:37Z</time></trkpt>
      <trkpt lat="30.137784" lon="118.776867"><ele>554</ele><time>2025-07-26T04:00:58Z</time></trkpt>
      <trkpt lat="30.137668" lon="118.777284"><ele>553</ele><time>2025-07-26T04:01:40Z</time></trkpt>
      <trkpt lat="30.137675" lon="118.777601"><ele>549</ele><time>2025-07-26T04:02:07Z</time></trkpt>
      <trkpt lat="30.137801" lon="118.778115"><ele>550</ele><time>2025-07-26T04:02:55Z</time></trkpt>
      <trkpt lat="30.137712" lon="118.778641"><ele>552</ele><time>2025-07-26T04:03:55Z</time></trkpt>
      <trkpt lat="30.137867" lon="118.779262"><ele>558</ele><time>2025-07-26T04:05:40Z</time></trkpt>
      <trkpt lat="30.137802" lon="118.779577"><ele>560</ele><time>2025-07-26T04:06:08Z</time></trkpt>
      <trkpt lat="30.137874" lon="118.779786"><ele>559</ele><time>2025-07-26T04:06:39Z</time></trkpt>
      <trkpt lat="30.137864" lon="118.780168"><ele>563</ele><time>2025-07-26T04:09:52Z</time></trkpt>
      <trkpt lat="30.137672" lon="118.781021"><ele>564</ele><time>2025-07-26T04:11:10Z</time></trkpt>
      <trkpt lat="30.137717" lon="118.781237"><ele>565</ele><time>2025-07-26T04:11:26Z</time></trkpt>
      <trkpt lat="30.137674" lon="118.78145"><ele>564</ele><time>2025-07-26T04:12:03Z</time></trkpt>
      <trkpt lat="30.138098" lon="118.782549"><ele>571</ele><time>2025-07-26T04:16:25Z</time></trkpt>
      <trkpt lat="30.138054" lon="118.783211"><ele>567</ele><time>2025-07-26T04:17:32Z</time></trkpt>
      <trkpt lat="30.137904" lon="118.78372"><ele>569</ele><time>2025-07-26T04:18:19Z</time></trkpt>
      <trkpt lat="30.137931" lon="118.784154"><ele>572</ele><time>2025-07-26T04:19:02Z</time></trkpt>
      <trkpt lat="30.138081" lon="118.784783"><ele>572</ele><time>2025-07-26T04:19:59Z</time></trkpt>
      <trkpt lat="30.138028" lon="118.785121"><ele>572</ele><time>2025-07-26T04:20:30Z</time></trkpt>
      <trkpt lat="30.137585" lon="118.78595"><ele>573</ele><time>2025-07-26T04:21:50Z</time></trkpt>
      <trkpt lat="30.137408" lon="118.786"><ele>572</ele><time>2025-07-26T04:22:28Z</time></trkpt>
      <trkpt lat="30.137505" lon="118.786018"><ele>571</ele><time>2025-07-26T04:23:19Z</time></trkpt>
      <trkpt lat="30.137227" lon="118.785749"><ele>568</ele><time>2025-07-26T04:25:19Z</time></trkpt>
      <trkpt lat="30.137483" lon="118.785771"><ele>576</ele><time>2025-07-26T04:26:09Z</time></trkpt>
      <trkpt lat="30.137435" lon="118.785862"><ele>576</ele><time>2025-07-26T05:15:21Z</time></trkpt>
      <trkpt lat="30.137573" lon="118.785973"><ele>568</ele><time>2025-07-26T05:16:48Z</time></trkpt>
      <trkpt lat="30.137495" lon="118.786039"><ele>571</ele><time>2025-07-26T05:18:09Z</time></trkpt>
      <trkpt lat="30.137365" lon="118.78581"><ele>564</ele><time>2025-07-26T05:20:23Z</time></trkpt>
      <trkpt lat="30.137478" lon="118.785813"><ele>567</ele><time>2025-07-26T05:25:46Z</time></trkpt>
      <trkpt lat="30.137513" lon="118.785922"><ele>566</ele><time>2025-07-26T05:26:09Z</time></trkpt>
      <trkpt lat="30.137492" lon="118.785789"><ele>566</ele><time>2025-07-26T05:26:39Z</time></trkpt>
      <trkpt lat="30.137368" lon="118.785732"><ele>567</ele><time>2025-07-26T05:26:47Z</time></trkpt>
      <trkpt lat="30.137621" lon="118.785985"><ele>566</ele><time>2025-07-26T05:27:19Z</time></trkpt>
      <trkpt lat="30.137685" lon="118.78581"><ele>566</ele><time>2025-07-26T05:28:52Z</time></trkpt>
      <trkpt lat="30.137477" lon="118.785649"><ele>566</ele><time>2025-07-26T05:29:50Z</time></trkpt>
      <trkpt lat="30.137557" lon="118.786034"><ele>563</ele><time>2025-07-26T05:30:11Z</time></trkpt>
      <trkpt lat="30.137363" lon="118.786273"><ele>569</ele><time>2025-07-26T05:35:12Z</time></trkpt>
      <trkpt lat="30.137334" lon="118.786482"><ele>567</ele><time>2025-07-26T05:35:32Z</time></trkpt>
      <trkpt lat="30.137418" lon="118.786781"><ele>568</ele><time>2025-07-26T05:36:01Z</time></trkpt>
      <trkpt lat="30.137758" lon="118.787155"><ele>567</ele><time>2025-07-26T05:36:48Z</time></trkpt>
      <trkpt lat="30.137979" lon="118.787624"><ele>568</ele><time>2025-07-26T05:37:31Z</time></trkpt>
      <trkpt lat="30.137981" lon="118.78794"><ele>569</ele><time>2025-07-26T05:37:56Z</time></trkpt>
      <trkpt lat="30.137742" lon="118.788665"><ele>571</ele><time>2025-07-26T05:38:59Z</time></trkpt>
      <trkpt lat="30.138227" lon="118.789489"><ele>572</ele><time>2025-07-26T05:40:30Z</time></trkpt>
      <trkpt lat="30.138452" lon="118.789685"><ele>575</ele><time>2025-07-26T05:40:55Z</time></trkpt>
      <trkpt lat="30.139215" lon="118.790123"><ele>576</ele><time>2025-07-26T05:42:07Z</time></trkpt>
      <trkpt lat="30.139551" lon="118.790785"><ele>578</ele><time>2025-07-26T05:43:05Z</time></trkpt>
      <trkpt lat="30.139601" lon="118.791223"><ele>577</ele><time>2025-07-26T05:43:38Z</time></trkpt>
      <trkpt lat="30.13934" lon="118.791807"><ele>585</ele><time>2025-07-26T05:44:32Z</time></trkpt>
      <trkpt lat="30.139235" lon="118.792338"><ele>594</ele><time>2025-07-26T05:45:16Z</time></trkpt>
      <trkpt lat="30.139448" lon="118.792853"><ele>586</ele><time>2025-07-26T05:45:51Z</time></trkpt>
      <trkpt lat="30.139895" lon="118.793563"><ele>591</ele><time>2025-07-26T05:47:06Z</time></trkpt>
      <trkpt lat="30.14069" lon="118.795224"><ele>610</ele><time>2025-07-26T05:49:50Z</time></trkpt>
      <trkpt lat="30.140657" lon="118.795872"><ele>604</ele><time>2025-07-26T05:50:49Z</time></trkpt>
      <trkpt lat="30.140829" lon="118.796145"><ele>604</ele><time>2025-07-26T05:51:17Z</time></trkpt>
      <trkpt lat="30.140909" lon="118.796688"><ele>605</ele><time>2025-07-26T05:52:01Z</time></trkpt>
      <trkpt lat="30.140675" lon="118.797405"><ele>607</ele><time>2025-07-26T05:53:07Z</time></trkpt>
      <trkpt lat="30.140757" lon="118.797847"><ele>614</ele><time>2025-07-26T05:53:44Z</time></trkpt>
      <trkpt lat="30.140909" lon="118.798111"><ele>615</ele><time>2025-07-26T05:54:06Z</time></trkpt>
      <trkpt lat="30.141284" lon="118.798432"><ele>618</ele><time>2025-07-26T05:54:52Z</time></trkpt>
      <trkpt lat="30.141704" lon="118.798686"><ele>619</ele><time>2025-07-26T05:55:37Z</time></trkpt>
      <trkpt lat="30.141677" lon="118.798786"><ele>619</ele><time>2025-07-26T05:55:44Z</time></trkpt>
      <trkpt lat="30.14149" lon="118.798836"><ele>619</ele><time>2025-07-26T05:56:01Z</time></trkpt>
      <trkpt lat="30.140956" lon="118.798616"><ele>621</ele><time>2025-07-26T05:56:53Z</time></trkpt>
      <trkpt lat="30.140559" lon="118.798901"><ele>620</ele><time>2025-07-26T05:57:44Z</time></trkpt>
      <trkpt lat="30.14027" lon="118.798953"><ele>619</ele><time>2025-07-26T05:58:10Z</time></trkpt>
      <trkpt lat="30.13925" lon="118.79862"><ele>624</ele><time>2025-07-26T05:59:37Z</time></trkpt>
      <trkpt lat="30.139154" lon="118.798636"><ele>624</ele><time>2025-07-26T05:59:46Z</time></trkpt>
      <trkpt lat="30.139058" lon="118.798821"><ele>621</ele><time>2025-07-26T06:00:03Z</time></trkpt>
      <trkpt lat="30.139072" lon="118.799246"><ele>629</ele><time>2025-07-26T06:00:35Z</time></trkpt>
      <trkpt lat="30.13934" lon="118.799721"><ele>627</ele><time>2025-07-26T06:01:17Z</time></trkpt>
      <trkpt lat="30.139652" lon="118.8008"><ele>625</ele><time>2025-07-26T06:03:14Z</time></trkpt>
      <trkpt lat="30.140194" lon="118.801442"><ele>629</ele><time>2025-07-26T06:04:26Z</time></trkpt>
      <trkpt lat="30.140314" lon="118.80173"><ele>623</ele><time>2025-07-26T06:04:49Z</time></trkpt>
      <trkpt lat="30.140278" lon="118.802162"><ele>622</ele><time>2025-07-26T06:05:23Z</time></trkpt>
      <trkpt lat="30.140029" lon="118.802641"><ele>626</ele><time>2025-07-26T06:06:04Z</time></trkpt>
      <trkpt lat="30.139586" lon="118.803197"><ele>623</ele><time>2025-07-26T06:07:06Z</time></trkpt>
      <trkpt lat="30.139605" lon="118.803418"><ele>629</ele><time>2025-07-26T06:07:22Z</time></trkpt>
      <trkpt lat="30.139739" lon="118.803568"><ele>632</ele><time>2025-07-26T06:07:38Z</time></trkpt>
      <trkpt lat="30.140233" lon="118.803858"><ele>623</ele><time>2025-07-26T06:13:13Z</time></trkpt>
      <trkpt lat="30.14027" lon="118.803964"><ele>618</ele><time>2025-07-26T06:13:43Z</time></trkpt>
      <trkpt lat="30.140364" lon="118.803953"><ele>623</ele><time>2025-07-26T06:14:24Z</time></trkpt>
      <trkpt lat="30.140771" lon="118.80422"><ele>627</ele><time>2025-07-26T06:15:09Z</time></trkpt>
      <trkpt lat="30.141041" lon="118.805143"><ele>628</ele><time>2025-07-26T06:16:38Z</time></trkpt>
      <trkpt lat="30.140995" lon="118.805239"><ele>628</ele><time>2025-07-26T06:16:47Z</time></trkpt>
      <trkpt lat="30.141022" lon="118.805451"><ele>627</ele><time>2025-07-26T06:17:02Z</time></trkpt>
      <trkpt lat="30.140946" lon="118.805512"><ele>626</ele><time>2025-07-26T06:17:39Z</time></trkpt>
      <trkpt lat="30.140947" lon="118.805407"><ele>628</ele><time>2025-07-26T06:18:22Z</time></trkpt>
      <trkpt lat="30.140683" lon="118.805283"><ele>649</ele><time>2025-07-26T06:19:32Z</time></trkpt>
      <trkpt lat="30.140602" lon="118.805343"><ele>652</ele><time>2025-07-26T06:19:42Z</time></trkpt>
      <trkpt lat="30.140414" lon="118.80534"><ele>660</ele><time>2025-07-26T06:20:27Z</time></trkpt>
      <trkpt lat="30.140024" lon="118.805043"><ele>684</ele><time>2025-07-26T06:24:57Z</time></trkpt>
      <trkpt lat="30.139631" lon="118.80494"><ele>676</ele><time>2025-07-26T06:26:15Z</time></trkpt>
      <trkpt lat="30.139466" lon="118.80482"><ele>679</ele><time>2025-07-26T06:26:35Z</time></trkpt>
      <trkpt lat="30.139277" lon="118.80455"><ele>695</ele><time>2025-07-26T06:27:14Z</time></trkpt>
      <trkpt lat="30.138408" lon="118.804651"><ele>694</ele><time>2025-07-26T06:28:30Z</time></trkpt>
      <trkpt lat="30.138057" lon="118.804823"><ele>693</ele><time>2025-07-26T06:30:35Z</time></trkpt>
      <trkpt lat="30.137593" lon="118.804921"><ele>703</ele><time>2025-07-26T06:31:31Z</time></trkpt>
      <trkpt lat="30.137436" lon="118.805194"><ele>710</ele><time>2025-07-26T06:32:04Z</time></trkpt>
      <trkpt lat="30.137502" lon="118.805271"><ele>714</ele><time>2025-07-26T06:32:19Z</time></trkpt>
      <trkpt lat="30.137675" lon="118.805182"><ele>723</ele><time>2025-07-26T06:32:51Z</time></trkpt>
      <trkpt lat="30.137163" lon="118.805815"><ele>734</ele><time>2025-07-26T06:36:45Z</time></trkpt>
      <trkpt lat="30.136947" lon="118.806309"><ele>735</ele><time>2025-07-26T06:37:28Z</time></trkpt>
      <trkpt lat="30.136434" lon="118.80656"><ele>737</ele><time>2025-07-26T06:38:23Z</time></trkpt>
      <trkpt lat="30.136225" lon="118.807042"><ele>745</ele><time>2025-07-26T06:39:40Z</time></trkpt>
      <trkpt lat="30.136209" lon="118.807355"><ele>749</ele><time>2025-07-26T06:40:05Z</time></trkpt>
      <trkpt lat="30.13607" lon="118.807767"><ele>757</ele><time>2025-07-26T06:40:40Z</time></trkpt>
      <trkpt lat="30.13606" lon="118.808088"><ele>762</ele><time>2025-07-26T06:41:03Z</time></trkpt>
      <trkpt lat="30.136116" lon="118.808291"><ele>765</ele><time>2025-07-26T06:44:33Z</time></trkpt>
      <trkpt lat="30.136038" lon="118.809186"><ele>781</ele><time>2025-07-26T06:46:42Z</time></trkpt>
      <trkpt lat="30.135918" lon="118.809598"><ele>789</ele><time>2025-07-26T06:47:25Z</time></trkpt>
      <trkpt lat="30.135897" lon="118.810164"><ele>803</ele><time>2025-07-26T06:49:27Z</time></trkpt>
      <trkpt lat="30.135738" lon="118.810762"><ele>817</ele><time>2025-07-26T06:56:34Z</time></trkpt>
      <trkpt lat="30.135719" lon="118.811098"><ele>822</ele><time>2025-07-26T06:57:30Z</time></trkpt>
      <trkpt lat="30.135815" lon="118.811076"><ele>825</ele><time>2025-07-26T06:58:24Z</time></trkpt>
      <trkpt lat="30.135797" lon="118.81129"><ele>832</ele><time>2025-07-26T06:59:15Z</time></trkpt>
      <trkpt lat="30.135292" lon="118.812801"><ele>885</ele><time>2025-07-26T07:04:43Z</time></trkpt>
      <trkpt lat="30.135263" lon="118.813563"><ele>904</ele><time>2025-07-26T07:08:56Z</time></trkpt>
      <trkpt lat="30.135372" lon="118.814197"><ele>928</ele><time>2025-07-26T07:10:07Z</time></trkpt>
      <trkpt lat="30.135395" lon="118.81473"><ele>942</ele><time>2025-07-26T07:11:18Z</time></trkpt>
      <trkpt lat="30.135501" lon="118.815143"><ele>944</ele><time>2025-07-26T07:12:02Z</time></trkpt>
      <trkpt lat="30.135631" lon="118.815301"><ele>946</ele><time>2025-07-26T07:12:46Z</time></trkpt>
      <trkpt lat="30.135743" lon="118.815589"><ele>948</ele><time>2025-07-26T07:13:15Z</time></trkpt>
      <trkpt lat="30.136099" lon="118.815664"><ele>951</ele><time>2025-07-26T07:14:03Z</time></trkpt>
      <trkpt lat="30.136143" lon="118.815878"><ele>956</ele><time>2025-07-26T07:14:29Z</time></trkpt>
      <trkpt lat="30.136367" lon="118.816082"><ele>957</ele><time>2025-07-26T07:15:01Z</time></trkpt>
      <trkpt lat="30.136548" lon="118.81694"><ele>962</ele><time>2025-07-26T07:16:17Z</time></trkpt>
      <trkpt lat="30.136975" lon="118.817632"><ele>968</ele><time>2025-07-26T07:17:35Z</time></trkpt>
      <trkpt lat="30.13701" lon="118.818072"><ele>969</ele><time>2025-07-26T07:18:14Z</time></trkpt>
      <trkpt lat="30.137107" lon="118.818385"><ele>972</ele><time>2025-07-26T07:18:53Z</time></trkpt>
      <trkpt lat="30.137039" lon="118.819138"><ele>980</ele><time>2025-07-26T07:19:56Z</time></trkpt>
      <trkpt lat="30.136914" lon="118.819437"><ele>982</ele><time>2025-07-26T07:20:26Z</time></trkpt>
      <trkpt lat="30.136908" lon="118.81966"><ele>985</ele><time>2025-07-26T07:20:45Z</time></trkpt>
      <trkpt lat="30.136437" lon="118.820466"><ele>995</ele><time>2025-07-26T07:22:16Z</time></trkpt>
      <trkpt lat="30.136389" lon="118.82165"><ele>1009</ele><time>2025-07-26T07:23:59Z</time></trkpt>
      <trkpt lat="30.136135" lon="118.822358"><ele>1006</ele><time>2025-07-26T07:33:08Z</time></trkpt>
      <trkpt lat="30.136239" lon="118.822774"><ele>1006</ele><time>2025-07-26T07:33:42Z</time></trkpt>
      <trkpt lat="30.136717" lon="118.82344"><ele>1014</ele><time>2025-07-26T07:36:32Z</time></trkpt>
      <trkpt lat="30.137135" lon="118.824435"><ele>1016</ele><time>2025-07-26T07:38:52Z</time></trkpt>
      <trkpt lat="30.136976" lon="118.825494"><ele>1025</ele><time>2025-07-26T07:41:12Z</time></trkpt>
      <trkpt lat="30.136741" lon="118.826413"><ele>1036</ele><time>2025-07-26T07:43:27Z</time></trkpt>
      <trkpt lat="30.136699" lon="118.826737"><ele>1042</ele><time>2025-07-26T07:44:29Z</time></trkpt>
      <trkpt lat="30.136754" lon="118.826942"><ele>1044</ele><time>2025-07-26T07:44:49Z</time></trkpt>
      <trkpt lat="30.136698" lon="118.827137"><ele>1046</ele><time>2025-07-26T07:45:09Z</time></trkpt>
      <trkpt lat="30.136977" lon="118.827094"><ele>1040</ele><time>2025-07-26T07:49:02Z</time></trkpt>
      <trkpt lat="30.137103" lon="118.827226"><ele>1036</ele><time>2025-07-26T07:49:35Z</time></trkpt>
      <trkpt lat="30.137122" lon="118.827774"><ele>1025</ele><time>2025-07-26T07:50:39Z</time></trkpt>
      <trkpt lat="30.137294" lon="118.828598"><ele>1003</ele><time>2025-07-26T07:52:51Z</time></trkpt>
      <trkpt lat="30.137225" lon="118.829031"><ele>996</ele><time>2025-07-26T07:53:42Z</time></trkpt>
      <trkpt lat="30.137427" lon="118.82966"><ele>991</ele><time>2025-07-26T07:54:42Z</time></trkpt>
      <trkpt lat="30.137577" lon="118.830391"><ele>975</ele><time>2025-07-26T07:56:25Z</time></trkpt>
      <trkpt lat="30.137514" lon="118.830594"><ele>971</ele><time>2025-07-26T07:56:48Z</time></trkpt>
      <trkpt lat="30.137496" lon="118.831018"><ele>962</ele><time>2025-07-26T07:57:28Z</time></trkpt>
      <trkpt lat="30.137846" lon="118.831396"><ele>950</ele><time>2025-07-26T07:58:26Z</time></trkpt>
      <trkpt lat="30.138028" lon="118.831432"><ele>949</ele><time>2025-07-26T07:58:43Z</time></trkpt>
      <trkpt lat="30.138703" lon="118.830819"><ele>931</ele><time>2025-07-26T08:00:09Z</time></trkpt>
      <trkpt lat="30.138976" lon="118.830784"><ele>930</ele><time>2025-07-26T08:00:43Z</time></trkpt>
      <trkpt lat="30.139356" lon="118.831643"><ele>914</ele><time>2025-07-26T08:03:31Z</time></trkpt>
      <trkpt lat="30.13972" lon="118.831746"><ele>914</ele><time>2025-07-26T08:04:10Z</time></trkpt>
      <trkpt lat="30.139857" lon="118.8319"><ele>913</ele><time>2025-07-26T08:04:28Z</time></trkpt>
      <trkpt lat="30.140383" lon="118.832136"><ele>906</ele><time>2025-07-26T08:05:20Z</time></trkpt>
      <trkpt lat="30.140513" lon="118.83228"><ele>907</ele><time>2025-07-26T08:05:53Z</time></trkpt>
      <trkpt lat="30.140609" lon="118.832307"><ele>906</ele><time>2025-07-26T08:06:06Z</time></trkpt>
      <trkpt lat="30.140654" lon="118.832213"><ele>901</ele><time>2025-07-26T08:06:41Z</time></trkpt>
      <trkpt lat="30.14084" lon="118.832171"><ele>896</ele><time>2025-07-26T08:07:06Z</time></trkpt>
      <trkpt lat="30.141287" lon="118.83257"><ele>895</ele><time>2025-07-26T08:07:56Z</time></trkpt>
      <trkpt lat="30.141388" lon="118.832988"><ele>893</ele><time>2025-07-26T08:08:40Z</time></trkpt>
      <trkpt lat="30.141322" lon="118.83306"><ele>890</ele><time>2025-07-26T08:09:20Z</time></trkpt>
      <trkpt lat="30.141384" lon="118.833369"><ele>885</ele><time>2025-07-26T08:09:55Z</time></trkpt>
      <trkpt lat="30.141834" lon="118.833525"><ele>870</ele><time>2025-07-26T08:11:17Z</time></trkpt>
      <trkpt lat="30.141959" lon="118.833668"><ele>875</ele><time>2025-07-26T08:11:45Z</time></trkpt>
      <trkpt lat="30.141876" lon="118.834106"><ele>866</ele><time>2025-07-26T08:13:14Z</time></trkpt>
      <trkpt lat="30.14198" lon="118.834646"><ele>861</ele><time>2025-07-26T08:13:59Z</time></trkpt>
      <trkpt lat="30.141841" lon="118.834802"><ele>855</ele><time>2025-07-26T08:14:45Z</time></trkpt>
      <trkpt lat="30.141824" lon="118.834909"><ele>852</ele><time>2025-07-26T08:14:55Z</time></trkpt>
      <trkpt lat="30.141977" lon="118.835636"><ele>841</ele><time>2025-07-26T08:16:02Z</time></trkpt>
      <trkpt lat="30.141947" lon="118.835959"><ele>830</ele><time>2025-07-26T08:16:35Z</time></trkpt>
      <trkpt lat="30.142356" lon="118.836684"><ele>814</ele><time>2025-07-26T08:19:05Z</time></trkpt>
      <trkpt lat="30.142421" lon="118.836994"><ele>813</ele><time>2025-07-26T08:19:57Z</time></trkpt>
      <trkpt lat="30.142403" lon="118.837212"><ele>809</ele><time>2025-07-26T08:20:38Z</time></trkpt>
      <trkpt lat="30.142507" lon="118.83752"><ele>792</ele><time>2025-07-26T08:21:52Z</time></trkpt>
      <trkpt lat="30.142583" lon="118.83758"><ele>789</ele><time>2025-07-26T08:22:09Z</time></trkpt>
      <trkpt lat="30.142403" lon="118.837592"><ele>786</ele><time>2025-07-26T08:23:24Z</time></trkpt>
      <trkpt lat="30.142453" lon="118.837678"><ele>779</ele><time>2025-07-26T08:23:38Z</time></trkpt>
      <trkpt lat="30.142801" lon="118.83785"><ele>773</ele><time>2025-07-26T08:24:28Z</time></trkpt>
      <trkpt lat="30.142918" lon="118.838016"><ele>768</ele><time>2025-07-26T08:24:56Z</time></trkpt>
      <trkpt lat="30.143088" lon="118.838123"><ele>759</ele><time>2025-07-26T08:26:05Z</time></trkpt>
      <trkpt lat="30.143013" lon="118.838182"><ele>756</ele><time>2025-07-26T08:26:37Z</time></trkpt>
      <trkpt lat="30.143044" lon="118.838281"><ele>752</ele><time>2025-07-26T08:27:04Z</time></trkpt>
      <trkpt lat="30.143223" lon="118.838346"><ele>748</ele><time>2025-07-26T08:27:21Z</time></trkpt>
      <trkpt lat="30.143507" lon="118.838285"><ele>755</ele><time>2025-07-26T08:27:51Z</time></trkpt>
      <trkpt lat="30.143725" lon="118.838663"><ele>756</ele><time>2025-07-26T08:28:39Z</time></trkpt>
      <trkpt lat="30.143631" lon="118.839073"><ele>757</ele><time>2025-07-26T08:30:55Z</time></trkpt>
      <trkpt lat="30.143264" lon="118.839107"><ele>761</ele><time>2025-07-26T08:32:18Z</time></trkpt>
      <trkpt lat="30.143004" lon="118.839259"><ele>763</ele><time>2025-07-26T08:32:44Z</time></trkpt>
      <trkpt lat="30.142841" lon="118.839538"><ele>760</ele><time>2025-07-26T08:33:10Z</time></trkpt>
      <trkpt lat="30.142867" lon="118.839645"><ele>758</ele><time>2025-07-26T08:33:18Z</time></trkpt>
      <trkpt lat="30.14293" lon="118.83972"><ele>755</ele><time>2025-07-26T08:33:26Z</time></trkpt>
      <trkpt lat="30.143028" lon="118.839707"><ele>755</ele><time>2025-07-26T08:33:34Z</time></trkpt>
      <trkpt lat="30.143178" lon="118.839426"><ele>757</ele><time>2025-07-26T08:33:58Z</time></trkpt>
      <trkpt lat="30.143703" lon="118.839683"><ele>751</ele><time>2025-07-26T08:34:51Z</time></trkpt>
      <trkpt lat="30.144175" lon="118.839773"><ele>748</ele><time>2025-07-26T08:35:36Z</time></trkpt>
      <trkpt lat="30.144312" lon="118.83991"><ele>743</ele><time>2025-07-26T08:35:53Z</time></trkpt>
      <trkpt lat="30.144476" lon="118.840431"><ele>737</ele><time>2025-07-26T08:36:37Z</time></trkpt>
      <trkpt lat="30.144414" lon="118.840626"><ele>736</ele><time>2025-07-26T08:36:55Z</time></trkpt>
      <trkpt lat="30.143966" lon="118.840718"><ele>731</ele><time>2025-07-26T08:37:38Z</time></trkpt>
      <trkpt lat="30.143861" lon="118.840903"><ele>731</ele><time>2025-07-26T08:37:57Z</time></trkpt>
      <trkpt lat="30.143929" lon="118.841093"><ele>731</ele><time>2025-07-26T08:38:16Z</time></trkpt>
      <trkpt lat="30.144215" lon="118.841137"><ele>727</ele><time>2025-07-26T08:38:42Z</time></trkpt>
      <trkpt lat="30.144661" lon="118.840941"><ele>719</ele><time>2025-07-26T08:39:27Z</time></trkpt>
      <trkpt lat="30.144848" lon="118.84094"><ele>719</ele><time>2025-07-26T08:39:44Z</time></trkpt>
      <trkpt lat="30.144932" lon="118.841003"><ele>718</ele><time>2025-07-26T08:39:53Z</time></trkpt>
      <trkpt lat="30.144981" lon="118.841441"><ele>714</ele><time>2025-07-26T08:40:26Z</time></trkpt>
      <trkpt lat="30.145122" lon="118.841574"><ele>714</ele><time>2025-07-26T08:40:41Z</time></trkpt>
      <trkpt lat="30.145586" lon="118.841687"><ele>711</ele><time>2025-07-26T08:41:20Z</time></trkpt>
      <trkpt lat="30.146346" lon="118.841624"><ele>709</ele><time>2025-07-26T08:42:27Z</time></trkpt>
      <trkpt lat="30.146715" lon="118.84173"><ele>711</ele><time>2025-07-26T08:43:02Z</time></trkpt>
      <trkpt lat="30.146934" lon="118.842116"><ele>709</ele><time>2025-07-26T08:43:40Z</time></trkpt>
      <trkpt lat="30.147261" lon="118.842338"><ele>707</ele><time>2025-07-26T08:44:09Z</time></trkpt>
      <trkpt lat="30.148275" lon="118.84353"><ele>705</ele><time>2025-07-26T08:46:12Z</time></trkpt>
      <trkpt lat="30.148649" lon="118.843649"><ele>704</ele><time>2025-07-26T08:46:45Z</time></trkpt>
      <trkpt lat="30.148857" lon="118.843648"><ele>701</ele><time>2025-07-26T08:47:01Z</time></trkpt>
      <trkpt lat="30.14908" lon="118.843849"><ele>700</ele><time>2025-07-26T08:47:27Z</time></trkpt>
      <trkpt lat="30.149061" lon="118.844176"><ele>701</ele><time>2025-07-26T08:47:51Z</time></trkpt>
      <trkpt lat="30.148888" lon="118.844559"><ele>700</ele><time>2025-07-26T08:48:22Z</time></trkpt>
      <trkpt lat="30.148665" lon="118.844598"><ele>695</ele><time>2025-07-26T08:50:08Z</time></trkpt>
      <trkpt lat="30.148662" lon="118.84471"><ele>695</ele><time>2025-07-26T08:50:12Z</time></trkpt>
      <trkpt lat="30.14882" lon="118.844836"><ele>696</ele><time>2025-07-26T08:50:23Z</time></trkpt>
      <trkpt lat="30.148784" lon="118.845083"><ele>696</ele><time>2025-07-26T08:50:28Z</time></trkpt>
      <trkpt lat="30.14884" lon="118.845195"><ele>695</ele><time>2025-07-26T08:50:30Z</time></trkpt>
      <trkpt lat="30.149428" lon="118.845669"><ele>694</ele><time>2025-07-26T08:50:42Z</time></trkpt>
      <trkpt lat="30.14961" lon="118.846022"><ele>692</ele><time>2025-07-26T08:50:49Z</time></trkpt>
      <trkpt lat="30.149558" lon="118.846159"><ele>694</ele><time>2025-07-26T08:50:53Z</time></trkpt>
      <trkpt lat="30.148887" lon="118.846673"><ele>695</ele><time>2025-07-26T08:51:09Z</time></trkpt>
      <trkpt lat="30.148727" lon="118.846993"><ele>694</ele><time>2025-07-26T08:51:16Z</time></trkpt>
      <trkpt lat="30.148707" lon="118.847118"><ele>693</ele><time>2025-07-26T08:51:19Z</time></trkpt>
      <trkpt lat="30.148922" lon="118.847375"><ele>694</ele><time>2025-07-26T08:51:31Z</time></trkpt>
      <trkpt lat="30.148939" lon="118.847651"><ele>696</ele><time>2025-07-26T08:51:37Z</time></trkpt>
      <trkpt lat="30.148844" lon="118.848222"><ele>694</ele><time>2025-07-26T08:51:45Z</time></trkpt>
      <trkpt lat="30.148574" lon="118.848843"><ele>691</ele><time>2025-07-26T08:51:52Z</time></trkpt>
      <trkpt lat="30.148463" lon="118.849259"><ele>688</ele><time>2025-07-26T08:51:57Z</time></trkpt>
    </trkseg>
  </trk>
</gpx>
