<?xml version="1.0" encoding="UTF-8"?>
<gpx version="1.1" creator="MyWorld" xmlns="http://www.topografix.com/GPX/1/1">
  <metadata><name>深圳梧桐山</name></metadata>
  <trk>
    <name>深圳梧桐山</name>
    <trkseg>
      <trkpt lat="22.586048" lon="114.233939"><ele>127</ele><time>2025-04-18T04:57:21Z</time></trkpt>
      <trkpt lat="22.586157" lon="114.233658"><ele>124</ele><time>2025-04-18T04:57:55Z</time></trkpt>
      <trkpt lat="22.586168" lon="114.233356"><ele>128</ele><time>2025-04-18T04:58:25Z</time></trkpt>
      <trkpt lat="22.585918" lon="114.233051"><ele>126</ele><time>2025-04-18T04:59:02Z</time></trkpt>
      <trkpt lat="22.585831" lon="114.233101"><ele>124</ele><time>2025-04-18T04:59:11Z</time></trkpt>
      <trkpt lat="22.585746" lon="114.2334"><ele>124</ele><time>2025-04-18T04:59:38Z</time></trkpt>
      <trkpt lat="22.585653" lon="114.233402"><ele>124</ele><time>2025-04-18T04:59:45Z</time></trkpt>
      <trkpt lat="22.584994" lon="114.234283"><ele>135</ele><time>2025-04-18T05:01:18Z</time></trkpt>
      <trkpt lat="22.584829" lon="114.234377"><ele>136</ele><time>2025-04-18T05:01:34Z</time></trkpt>
      <trkpt lat="22.58474" lon="114.234339"><ele>138</ele><time>2025-04-18T05:01:41Z</time></trkpt>
      <trkpt lat="22.584675" lon="114.234261"><ele>137</ele><time>2025-04-18T05:01:49Z</time></trkpt>
      <trkpt lat="22.584612" lon="114.233853"><ele>141</ele><time>2025-04-18T05:02:19Z</time></trkpt>
      <trkpt lat="22.584839" lon="114.232955"><ele>146</ele><time>2025-04-18T05:03:32Z</time></trkpt>
      <trkpt lat="22.585022" lon="114.231753"><ele>148</ele><time>2025-04-18T05:05:12Z</time></trkpt>
      <trkpt lat="22.584803" lon="114.231943"><ele>157</ele><time>2025-04-18T05:05:38Z</time></trkpt>
      <trkpt lat="22.584718" lon="114.231346"><ele>167</ele><time>2025-04-18T05:06:41Z</time></trkpt>
      <trkpt lat="22.584491" lon="114.231017"><ele>179</ele><time>2025-04-18T05:07:20Z</time></trkpt>
      <trkpt lat="22.58407" lon="114.23065"><ele>192</ele><time>2025-04-18T05:08:20Z</time></trkpt>
      <trkpt lat="22.584022" lon="114.229846"><ele>215</ele><time>2025-04-18T05:09:45Z</time></trkpt>
      <trkpt lat="22.583526" lon="114.229511"><ele>219</ele><time>2025-04-18T05:10:53Z</time></trkpt>
      <trkpt lat="22.583469" lon="114.229593"><ele>215</ele><time>2025-04-18T05:11:05Z</time></trkpt>
      <trkpt lat="22.58345" lon="114.229887"><ele>217</ele><time>2025-04-18T05:11:33Z</time></trkpt>
      <trkpt lat="22.582982" lon="114.230227"><ele>231</ele><time>2025-04-18T05:12:28Z</time></trkpt>
      <trkpt lat="22.582704" lon="114.230318"><ele>237</ele><time>2025-04-18T05:13:07Z</time></trkpt>
      <trkpt lat="22.582412" lon="114.230323"><ele>241</ele><time>2025-04-18T05:13:34Z</time></trkpt>
      <trkpt lat="22.582058" lon="114.230675"><ele>248</ele><time>2025-04-18T05:14:24Z</time></trkpt>
      <trkpt lat="22.581972" lon="114.230644"><ele>251</ele><time>2025-04-18T05:14:44Z</time></trkpt>
      <trkpt lat="22.581964" lon="114.230546"><ele>252</ele><time>2025-04-18T05:14:55Z</time></trkpt>
      <trkpt lat="22.582078" lon="114.230391"><ele>255</ele><time>2025-04-18T05:15:18Z</time></trkpt>
      <trkpt lat="22.581904" lon="114.229933"><ele>276</ele><time>2025-04-18T05:16:46Z</time></trkpt>
      <trkpt lat="22.581941" lon="114.229428"><ele>302</ele><time>2025-04-18T05:18:41Z</time></trkpt>
      <trkpt lat="22.58163" lon="114.228608"><ele>333</ele><time>2025-04-18T05:21:13Z</time></trkpt>
      <trkpt lat="22.581433" lon="114.228273"><ele>349</ele><time>2025-04-18T05:22:32Z</time></trkpt>
      <trkpt lat="22.581369" lon="114.228199"><ele>347</ele><time>2025-04-18T05:22:49Z</time></trkpt>
      <trkpt lat="22.581277" lon="114.228217"><ele>345</ele><time>2025-04-18T05:23:16Z</time></trkpt>
      <trkpt lat="22.581198" lon="114.228045"><ele>364</ele><time>2025-04-18T05:25:43Z</time></trkpt>
      <trkpt lat="22.580989" lon="114.227846"><ele>378</ele><time>2025-04-18T05:26:57Z</time></trkpt>
      <trkpt lat="22.580589" lon="114.227592"><ele>400</ele><time>2025-04-18T05:28:26Z</time></trkpt>
      <trkpt lat="22.58" lon="114.227095"><ele>436</ele><time>2025-04-18T05:31:30Z</time></trkpt>
      <trkpt lat="22.579712" lon="114.226487"><ele>464</ele><time>2025-04-18T05:33:50Z</time></trkpt>
      <trkpt lat="22.580052" lon="114.225669"><ele>506</ele><time>2025-04-18T05:37:36Z</time></trkpt>
      <trkpt lat="22.580113" lon="114.224954"><ele>537</ele><time>2025-04-18T05:44:56Z</time></trkpt>
      <trkpt lat="22.580219" lon="114.224674"><ele>547</ele><time>2025-04-18T05:46:33Z</time></trkpt>
      <trkpt lat="22.580441" lon="114.224358"><ele>577</ele><time>2025-04-18T05:48:37Z</time></trkpt>
      <trkpt lat="22.580494" lon="114.224155"><ele>584</ele><time>2025-04-18T05:49:46Z</time></trkpt>
      <trkpt lat="22.580525" lon="114.223854"><ele>585</ele><time>2025-04-18T05:53:33Z</time></trkpt>
      <trkpt lat="22.580454" lon="114.223571"><ele>608</ele><time>2025-04-18T05:54:34Z</time></trkpt>
      <trkpt lat="22.580497" lon="114.223272"><ele>627</ele><time>2025-04-18T05:55:59Z</time></trkpt>
      <trkpt lat="22.580627" lon="114.222678"><ele>664</ele><time>2025-04-18T05:59:38Z</time></trkpt>
      <trkpt lat="22.580763" lon="114.222432"><ele>695</ele><time>2025-04-18T06:01:45Z</time></trkpt>
      <trkpt lat="22.580776" lon="114.222223"><ele>700</ele><time>2025-04-18T06:02:49Z</time></trkpt>
      <trkpt lat="22.580744" lon="114.222023"><ele>713</ele><time>2025-04-18T06:08:01Z</time></trkpt>
      <trkpt lat="22.580666" lon="114.221972"><ele>716</ele><time>2025-04-18T06:08:22Z</time></trkpt>
      <trkpt lat="22.58043" lon="114.22143"><ele>755</ele><time>2025-04-18T06:12:57Z</time></trkpt>
      <trkpt lat="22.580404" lon="114.221035"><ele>751</ele><time>2025-04-18T06:14:15Z</time></trkpt>
      <trkpt lat="22.580774" lon="114.220224"><ele>783</ele><time>2025-04-18T06:16:57Z</time></trkpt>
      <trkpt lat="22.580782" lon="114.220023"><ele>790</ele><time>2025-04-18T06:17:32Z</time></trkpt>
      <trkpt lat="22.580909" lon="114.219648"><ele>810</ele><time>2025-04-18T06:19:00Z</time></trkpt>
      <trkpt lat="22.58083" lon="114.21926"><ele>820</ele><time>2025-04-18T06:19:58Z</time></trkpt>
      <trkpt lat="22.580866" lon="114.218866"><ele>830</ele><time>2025-04-18T06:21:18Z</time></trkpt>
      <trkpt lat="22.581056" lon="114.218518"><ele>832</ele><time>2025-04-18T06:22:11Z</time></trkpt>
      <trkpt lat="22.58116" lon="114.217814"><ele>846</ele><time>2025-04-18T06:23:49Z</time></trkpt>
      <trkpt lat="22.581351" lon="114.217605"><ele>862</ele><time>2025-04-18T06:24:55Z</time></trkpt>
      <trkpt lat="22.581518" lon="114.217241"><ele>873</ele><time>2025-04-18T06:26:41Z</time></trkpt>
      <trkpt lat="22.581422" lon="114.216956"><ele>886</ele><time>2025-04-18T06:27:44Z</time></trkpt>
      <trkpt lat="22.581375" lon="114.216452"><ele>906</ele><time>2025-04-18T06:29:18Z</time></trkpt>
      <trkpt lat="22.581595" lon="114.216022"><ele>927</ele><time>2025-04-18T06:31:06Z</time></trkpt>
      <trkpt lat="22.58158" lon="114.215227"><ele>933</ele><time>2025-04-18T06:33:46Z</time></trkpt>
      <trkpt lat="22.581771" lon="114.214782"><ele>929</ele><time>2025-04-18T06:36:02Z</time></trkpt>
      <trkpt lat="22.581317" lon="114.214828"><ele>925</ele><time>2025-04-18T06:37:14Z</time></trkpt>
      <trkpt lat="22.580996" lon="114.215181"><ele>919</ele><time>2025-04-18T06:38:09Z</time></trkpt>
      <trkpt lat="22.580745" lon="114.215057"><ele>904</ele><time>2025-04-18T06:39:30Z</time></trkpt>
      <trkpt lat="22.580561" lon="114.215072"><ele>895</ele><time>2025-04-18T06:40:09Z</time></trkpt>
      <trkpt lat="22.580484" lon="114.215014"><ele>891</ele><time>2025-04-18T06:40:27Z</time></trkpt>
      <trkpt lat="22.58022" lon="114.214598"><ele>873</ele><time>2025-04-18T06:41:44Z</time></trkpt>
      <trkpt lat="22.580074" lon="114.214217"><ele>860</ele><time>2025-04-18T06:43:07Z</time></trkpt>
      <trkpt lat="22.579902" lon="114.214164"><ele>857</ele><time>2025-04-18T06:43:33Z</time></trkpt>
      <trkpt lat="22.579709" lon="114.213944"><ele>851</ele><time>2025-04-18T06:44:15Z</time></trkpt>
      <trkpt lat="22.579599" lon="114.21356"><ele>822</ele><time>2025-04-18T06:45:41Z</time></trkpt>
      <trkpt lat="22.57936" lon="114.213396"><ele>821</ele><time>2025-04-18T06:46:24Z</time></trkpt>
      <trkpt lat="22.579085" lon="114.213411"><ele>817</ele><time>2025-04-18T06:47:10Z</time></trkpt>
      <trkpt lat="22.578828" lon="114.21329"><ele>818</ele><time>2025-04-18T06:47:59Z</time></trkpt>
      <trkpt lat="22.578354" lon="114.212556"><ele>792</ele><time>2025-04-18T06:50:22Z</time></trkpt>
      <trkpt lat="22.578069" lon="114.212566"><ele>784</ele><time>2025-04-18T06:51:16Z</time></trkpt>
      <trkpt lat="22.577707" lon="114.211524"><ele>725</ele><time>2025-04-18T06:56:10Z</time></trkpt>
      <trkpt lat="22.577461" lon="114.211103"><ele>693</ele><time>2025-04-18T06:58:08Z</time></trkpt>
      <trkpt lat="22.576904" lon="114.210551"><ele>666</ele><time>2025-04-18T07:00:31Z</time></trkpt>
      <trkpt lat="22.576813" lon="114.210574"><ele>665</ele><time>2025-04-18T07:00:46Z</time></trkpt>
      <trkpt lat="22.576887" lon="114.210515"><ele>664</ele><time>2025-04-18T07:01:02Z</time></trkpt>
      <trkpt lat="22.577021" lon="114.21013"><ele>662</ele><time>2025-04-18T07:01:41Z</time></trkpt>
      <trkpt lat="22.577037" lon="114.20983"><ele>662</ele><time>2025-04-18T07:02:09Z</time></trkpt>
      <trkpt lat="22.576888" lon="114.208411"><ele>664</ele><time>2025-04-18T07:04:08Z</time></trkpt>
      <trkpt lat="22.576922" lon="114.207791"><ele>661</ele><time>2025-04-18T07:05:02Z</time></trkpt>
      <trkpt lat="22.576826" lon="114.207181"><ele>655</ele><time>2025-04-18T07:06:10Z</time></trkpt>
      <trkpt lat="22.576846" lon="114.206976"><ele>656</ele><time>2025-04-18T07:06:31Z</time></trkpt>
      <trkpt lat="22.576615" lon="114.206419"><ele>660</ele><time>2025-04-18T07:07:27Z</time></trkpt>
      <trkpt lat="22.576477" lon="114.205611"><ele>655</ele><time>2025-04-18T07:08:34Z</time></trkpt>
      <trkpt lat="22.57595" lon="114.205022"><ele>644</ele><time>2025-04-18T07:10:05Z</time></trkpt>
      <trkpt lat="22.575576" lon="114.204447"><ele>614</ele><time>2025-04-18T07:12:01Z</time></trkpt>
      <trkpt lat="22.57541" lon="114.204078"><ele>600</ele><time>2025-04-18T07:12:57Z</time></trkpt>
      <trkpt lat="22.575491" lon="114.203589"><ele>578</ele><time>2025-04-18T07:14:10Z</time></trkpt>
      <trkpt lat="22.575655" lon="114.203337"><ele>572</ele><time>2025-04-18T07:14:44Z</time></trkpt>
      <trkpt lat="22.575682" lon="114.203035"><ele>574</ele><time>2025-04-18T07:15:11Z</time></trkpt>
      <trkpt lat="22.575558" lon="114.202109"><ele>573</ele><time>2025-04-18T07:16:22Z</time></trkpt>
      <trkpt lat="22.575689" lon="114.201965"><ele>573</ele><time>2025-04-18T07:16:38Z</time></trkpt>
      <trkpt lat="22.576074" lon="114.202011"><ele>573</ele><time>2025-04-18T07:17:07Z</time></trkpt>
      <trkpt lat="22.576168" lon="114.201833"><ele>574</ele><time>2025-04-18T07:17:21Z</time></trkpt>
      <trkpt lat="22.57587" lon="114.201317"><ele>570</ele><time>2025-04-18T07:18:04Z</time></trkpt>
      <trkpt lat="22.575847" lon="114.201119"><ele>569</ele><time>2025-04-18T07:18:18Z</time></trkpt>
      <trkpt lat="22.576017" lon="114.200869"><ele>568</ele><time>2025-04-18T07:18:40Z</time></trkpt>
      <trkpt lat="22.576313" lon="114.200602"><ele>566</ele><time>2025-04-18T07:19:07Z</time></trkpt>
      <trkpt lat="22.57649" lon="114.200515"><ele>561</ele><time>2025-04-18T07:19:21Z</time></trkpt>
      <trkpt lat="22.576768" lon="114.200493"><ele>559</ele><time>2025-04-18T07:19:42Z</time></trkpt>
      <trkpt lat="22.576898" lon="114.200359"><ele>559</ele><time>2025-04-18T07:19:56Z</time></trkpt>
      <trkpt lat="22.576802" lon="114.19986"><ele>555</ele><time>2025-04-18T07:20:32Z</time></trkpt>
      <trkpt lat="22.576576" lon="114.199393"><ele>551</ele><time>2025-04-18T07:21:07Z</time></trkpt>
      <trkpt lat="22.576567" lon="114.19929"><ele>552</ele><time>2025-04-18T07:21:14Z</time></trkpt>
      <trkpt lat="22.576776" lon="114.198943"><ele>554</ele><time>2025-04-18T07:21:44Z</time></trkpt>
      <trkpt lat="22.576636" lon="114.19802"><ele>561</ele><time>2025-04-18T07:22:57Z</time></trkpt>
      <trkpt lat="22.576578" lon="114.197936"><ele>561</ele><time>2025-04-18T07:23:05Z</time></trkpt>
      <trkpt lat="22.576145" lon="114.197757"><ele>570</ele><time>2025-04-18T07:23:46Z</time></trkpt>
      <trkpt lat="22.575791" lon="114.197776"><ele>574</ele><time>2025-04-18T07:24:14Z</time></trkpt>
      <trkpt lat="22.575297" lon="114.197462"><ele>583</ele><time>2025-04-18T07:25:04Z</time></trkpt>
      <trkpt lat="22.574646" lon="114.197583"><ele>584</ele><time>2025-04-18T07:26:02Z</time></trkpt>
      <trkpt lat="22.574375" lon="114.197459"><ele>588</ele><time>2025-04-18T07:26:26Z</time></trkpt>
      <trkpt lat="22.574248" lon="114.197305"><ele>587</ele><time>2025-04-18T07:26:42Z</time></trkpt>
      <trkpt lat="22.574285" lon="114.196885"><ele>582</ele><time>2025-04-18T07:27:17Z</time></trkpt>
      <trkpt lat="22.574168" lon="114.196723"><ele>586</ele><time>2025-04-18T07:27:33Z</time></trkpt>
      <trkpt lat="22.574075" lon="114.196688"><ele>585</ele><time>2025-04-18T07:27:42Z</time></trkpt>
      <trkpt lat="22.57371" lon="114.196764"><ele>592</ele><time>2025-04-18T07:28:13Z</time></trkpt>
      <trkpt lat="22.572768" lon="114.196427"><ele>605</ele><time>2025-04-18T07:29:39Z</time></trkpt>
      <trkpt lat="22.572457" lon="114.196663"><ele>611</ele><time>2025-04-18T07:30:14Z</time></trkpt>
      <trkpt lat="22.572352" lon="114.196681"><ele>609</ele><time>2025-04-18T07:30:22Z</time></trkpt>
      <trkpt lat="22.572256" lon="114.196513"><ele>608</ele><time>2025-04-18T07:30:37Z</time></trkpt>
      <trkpt lat="22.571977" lon="114.195197"><ele>615</ele><time>2025-04-18T07:32:22Z</time></trkpt>
      <trkpt lat="22.57175" lon="114.19464"><ele>614</ele><time>2025-04-18T07:33:03Z</time></trkpt>
      <trkpt lat="22.571582" lon="114.194532"><ele>616</ele><time>2025-04-18T07:33:17Z</time></trkpt>
      <trkpt lat="22.571304" lon="114.194469"><ele>617</ele><time>2025-04-18T07:33:38Z</time></trkpt>
      <trkpt lat="22.570884" lon="114.194194"><ele>617</ele><time>2025-04-18T07:34:17Z</time></trkpt>
      <trkpt lat="22.570834" lon="114.194102"><ele>620</ele><time>2025-04-18T07:34:26Z</time></trkpt>
      <trkpt lat="22.570818" lon="114.194"><ele>618</ele><time>2025-04-18T07:34:34Z</time></trkpt>
      <trkpt lat="22.571294" lon="114.193236"><ele>627</ele><time>2025-04-18T07:35:39Z</time></trkpt>
      <trkpt lat="22.571292" lon="114.193039"><ele>627</ele><time>2025-04-18T07:35:54Z</time></trkpt>
      <trkpt lat="22.571158" lon="114.192659"><ele>628</ele><time>2025-04-18T07:36:24Z</time></trkpt>
      <trkpt lat="22.571213" lon="114.191502"><ele>645</ele><time>2025-04-18T07:37:59Z</time></trkpt>
      <trkpt lat="22.571112" lon="114.19132"><ele>644</ele><time>2025-04-18T07:38:16Z</time></trkpt>
      <trkpt lat="22.571117" lon="114.190914"><ele>648</ele><time>2025-04-18T07:38:50Z</time></trkpt>
      <trkpt lat="22.570956" lon="114.190323"><ele>648</ele><time>2025-04-18T07:39:39Z</time></trkpt>
      <trkpt lat="22.570984" lon="114.190017"><ele>648</ele><time>2025-04-18T07:40:01Z</time></trkpt>
      <trkpt lat="22.570603" lon="114.189538"><ele>645</ele><time>2025-04-18T07:41:02Z</time></trkpt>
      <trkpt lat="22.570313" lon="114.188786"><ele>642</ele><time>2025-04-18T07:42:12Z</time></trkpt>
      <trkpt lat="22.569581" lon="114.187846"><ele>601</ele><time>2025-04-18T07:44:42Z</time></trkpt>
      <trkpt lat="22.568871" lon="114.187611"><ele>533</ele><time>2025-04-18T07:49:52Z</time></trkpt>
      <trkpt lat="22.56832" lon="114.187528"><ele>488</ele><time>2025-04-18T07:52:20Z</time></trkpt>
      <trkpt lat="22.567769" lon="114.187182"><ele>458</ele><time>2025-04-18T07:54:15Z</time></trkpt>
      <trkpt lat="22.56735" lon="114.186786"><ele>436</ele><time>2025-04-18T07:55:57Z</time></trkpt>
      <trkpt lat="22.56612" lon="114.186421"><ele>389</ele><time>2025-04-18T07:59:32Z</time></trkpt>
      <trkpt lat="22.565888" lon="114.18626"><ele>386</ele><time>2025-04-18T08:00:03Z</time></trkpt>
      <trkpt lat="22.565619" lon="114.186173"><ele>383</ele><time>2025-04-18T08:00:34Z</time></trkpt>
      <trkpt lat="22.565419" lon="114.185963"><ele>377</ele><time>2025-04-18T08:01:16Z</time></trkpt>
      <trkpt lat="22.565141" lon="114.185981"><ele>369</ele><time>2025-04-18T08:01:55Z</time></trkpt>
      <trkpt lat="22.564353" lon="114.185128"><ele>318</ele><time>2025-04-18T08:05:38Z</time></trkpt>
      <trkpt lat="22.564149" lon="114.18467"><ele>303</ele><time>2025-04-18T08:06:53Z</time></trkpt>
      <trkpt lat="22.56412" lon="114.18447"><ele>294</ele><time>2025-04-18T08:07:34Z</time></trkpt>
      <trkpt lat="22.564046" lon="114.184403"><ele>292</ele><time>2025-04-18T08:07:45Z</time></trkpt>
      <trkpt lat="22.564057" lon="114.184013"><ele>278</ele><time>2025-04-18T08:08:45Z</time></trkpt>
      <trkpt lat="22.56371" lon="114.183695"><ele>256</ele><time>2025-04-18T08:10:42Z</time></trkpt>
      <trkpt lat="22.56345" lon="114.183179"><ele>221</ele><time>2025-04-18T08:13:31Z</time></trkpt>
      <trkpt lat="22.563047" lon="114.18263"><ele>185</ele><time>2025-04-18T08:16:01Z</time></trkpt>
      <trkpt lat="22.56277" lon="114.182677"><ele>183</ele><time>2025-04-18T08:16:33Z</time></trkpt>
      <trkpt lat="22.562262" lon="114.182924"><ele>164</ele><time>2025-04-18T08:17:59Z</time></trkpt>
      <trkpt lat="22.561979" lon="114.182925"><ele>159</ele><time>2025-04-18T08:18:31Z</time></trkpt>
      <trkpt lat="22.561668" lon="114.182721"><ele>151</ele><time>2025-04-18T08:19:29Z</time></trkpt>
      <trkpt lat="22.561493" lon="114.182475"><ele>145</ele><time>2025-04-18T08:20:07Z</time></trkpt>
      <trkpt lat="22.561384" lon="114.182076"><ele>131</ele><time>2025-04-18T08:21:13Z</time></trkpt>
      <trkpt lat="22.561051" lon="114.181722"><ele>117</ele><time>2025-04-18T08:22:23Z</time></trkpt>
      <trkpt lat="22.560915" lon="114.18144"><ele>112</ele><time>2025-04-18T08:22:54Z</time></trkpt>
      <trkpt lat="22.560959" lon="114.181246"><ele>107</ele><time>2025-04-18T08:23:19Z</time></trkpt>
      <trkpt lat="22.561113" lon="114.180998"><ele>102</ele><time>2025-04-18T08:23:50Z</time></trkpt>
      <trkpt lat="22.561376" lon="114.180923"><ele>89</ele><time>2025-04-18T08:24:32Z</time></trkpt>
      <trkpt lat="22.561523" lon="114.180663"><ele>75</ele><time>2025-04-18T08:25:10Z</time></trkpt>
      <trkpt lat="22.56122" lon="114.180154"><ele>73</ele><time>2025-04-18T08:26:20Z</time></trkpt>
      <trkpt lat="22.561192" lon="114.179952"><ele>68</ele><time>2025-04-18T08:26:42Z</time></trkpt>
    </trkseg>
  </trk>
</gpx>
