<?xml version="1.0" encoding="UTF-8"?>
<gpx version="1.1" creator="MyWorld" xmlns="http://www.topografix.com/GPX/1/1">
  <metadata><name>忻州五台山顺朝 · 第二天</name></metadata>
  <trk>
    <name>忻州五台山顺朝 · 第二天</name>
    <trkseg>
      <trkpt lat="38.961338" lon="113.504646"><ele>1944</ele><time>2025-09-29T23:01:24Z</time></trkpt>
      <trkpt lat="38.961587" lon="113.504477"><ele>1943</ele><time>2025-09-29T23:01:53Z</time></trkpt>
      <trkpt lat="38.961868" lon="113.504802"><ele>1944</ele><time>2025-09-29T23:02:30Z</time></trkpt>
      <trkpt lat="38.962224" lon="113.504979"><ele>1944</ele><time>2025-09-29T23:03:04Z</time></trkpt>
      <trkpt lat="38.96239" lon="113.50486"><ele>1944</ele><time>2025-09-29T23:04:00Z</time></trkpt>
      <trkpt lat="38.962548" lon="113.504985"><ele>1947</ele><time>2025-09-29T23:04:18Z</time></trkpt>
      <trkpt lat="38.962721" lon="113.504898"><ele>1950</ele><time>2025-09-29T23:04:37Z</time></trkpt>
      <trkpt lat="38.963041" lon="113.505137"><ele>1953</ele><time>2025-09-29T23:05:09Z</time></trkpt>
      <trkpt lat="38.963412" lon="113.505246"><ele>1954</ele><time>2025-09-29T23:05:43Z</time></trkpt>
      <trkpt lat="38.964258" lon="113.504994"><ele>1955</ele><time>2025-09-29T23:07:14Z</time></trkpt>
      <trkpt lat="38.964347" lon="113.505025"><ele>1955</ele><time>2025-09-29T23:07:27Z</time></trkpt>
      <trkpt lat="38.964353" lon="113.505159"><ele>1957</ele><time>2025-09-29T23:07:39Z</time></trkpt>
      <trkpt lat="38.964594" lon="113.505688"><ele>1963</ele><time>2025-09-29T23:08:33Z</time></trkpt>
      <trkpt lat="38.964513" lon="113.506023"><ele>1957</ele><time>2025-09-29T23:09:17Z</time></trkpt>
      <trkpt lat="38.964601" lon="113.50569"><ele>1962</ele><time>2025-09-29T23:13:18Z</time></trkpt>
      <trkpt lat="38.964731" lon="113.505873"><ele>1965</ele><time>2025-09-29T23:14:41Z</time></trkpt>
      <trkpt lat="38.965093" lon="113.505945"><ele>1970</ele><time>2025-09-29T23:15:20Z</time></trkpt>
      <trkpt lat="38.96523" lon="113.506096"><ele>1973</ele><time>2025-09-29T23:15:58Z</time></trkpt>
      <trkpt lat="38.965337" lon="113.506426"><ele>1975</ele><time>2025-09-29T23:16:32Z</time></trkpt>
      <trkpt lat="38.96569" lon="113.506546"><ele>1988</ele><time>2025-09-29T23:17:31Z</time></trkpt>
      <trkpt lat="38.965681" lon="113.506908"><ele>1990</ele><time>2025-09-29T23:19:26Z</time></trkpt>
      <trkpt lat="38.965731" lon="113.506804"><ele>1990</ele><time>2025-09-29T23:20:34Z</time></trkpt>
      <trkpt lat="38.965855" lon="113.504258"><ele>2002</ele><time>2025-09-29T23:24:12Z</time></trkpt>
      <trkpt lat="38.965949" lon="113.504319"><ele>2003</ele><time>2025-09-29T23:24:36Z</time></trkpt>
      <trkpt lat="38.96569" lon="113.503834"><ele>2005</ele><time>2025-09-29T23:25:42Z</time></trkpt>
      <trkpt lat="38.965864" lon="113.503744"><ele>2009</ele><time>2025-09-29T23:26:15Z</time></trkpt>
      <trkpt lat="38.965853" lon="113.503627"><ele>2009</ele><time>2025-09-29T23:26:38Z</time></trkpt>
      <trkpt lat="38.965535" lon="113.503187"><ele>2018</ele><time>2025-09-29T23:27:52Z</time></trkpt>
      <trkpt lat="38.965326" lon="113.502512"><ele>2026</ele><time>2025-09-29T23:29:11Z</time></trkpt>
      <trkpt lat="38.965402" lon="113.502446"><ele>2031</ele><time>2025-09-29T23:29:30Z</time></trkpt>
      <trkpt lat="38.965636" lon="113.501675"><ele>2050</ele><time>2025-09-29T23:31:40Z</time></trkpt>
      <trkpt lat="38.965809" lon="113.501585"><ele>2057</ele><time>2025-09-29T23:32:40Z</time></trkpt>
      <trkpt lat="38.96587" lon="113.500789"><ele>2082</ele><time>2025-09-29T23:35:09Z</time></trkpt>
      <trkpt lat="38.965956" lon="113.500578"><ele>2088</ele><time>2025-09-29T23:35:48Z</time></trkpt>
      <trkpt lat="38.966096" lon="113.500433"><ele>2092</ele><time>2025-09-29T23:36:19Z</time></trkpt>
      <trkpt lat="38.966283" lon="113.499898"><ele>2105</ele><time>2025-09-29T23:37:36Z</time></trkpt>
      <trkpt lat="38.966526" lon="113.499739"><ele>2108</ele><time>2025-09-29T23:39:50Z</time></trkpt>
      <trkpt lat="38.966903" lon="113.499741"><ele>2115</ele><time>2025-09-29T23:40:31Z</time></trkpt>
      <trkpt lat="38.967076" lon="113.499641"><ele>2120</ele><time>2025-09-29T23:40:54Z</time></trkpt>
      <trkpt lat="38.96754" lon="113.499722"><ele>2127</ele><time>2025-09-29T23:41:53Z</time></trkpt>
      <trkpt lat="38.967609" lon="113.499804"><ele>2129</ele><time>2025-09-29T23:42:07Z</time></trkpt>
      <trkpt lat="38.967793" lon="113.49975"><ele>2135</ele><time>2025-09-29T23:42:44Z</time></trkpt>
      <trkpt lat="38.96793" lon="113.499918"><ele>2141</ele><time>2025-09-29T23:44:12Z</time></trkpt>
      <trkpt lat="38.967982" lon="113.500157"><ele>2144</ele><time>2025-09-29T23:44:36Z</time></trkpt>
      <trkpt lat="38.968202" lon="113.500392"><ele>2147</ele><time>2025-09-29T23:45:10Z</time></trkpt>
      <trkpt lat="38.968787" lon="113.500759"><ele>2156</ele><time>2025-09-29T23:46:34Z</time></trkpt>
      <trkpt lat="38.969259" lon="113.50083"><ele>2161</ele><time>2025-09-29T23:47:35Z</time></trkpt>
      <trkpt lat="38.970511" lon="113.501315"><ele>2185</ele><time>2025-09-29T23:50:21Z</time></trkpt>
      <trkpt lat="38.971162" lon="113.501388"><ele>2189</ele><time>2025-09-29T23:51:27Z</time></trkpt>
      <trkpt lat="38.971612" lon="113.501539"><ele>2192</ele><time>2025-09-29T23:52:14Z</time></trkpt>
      <trkpt lat="38.972491" lon="113.501994"><ele>2197</ele><time>2025-09-29T23:53:47Z</time></trkpt>
      <trkpt lat="38.973063" lon="113.502123"><ele>2202</ele><time>2025-09-29T23:54:43Z</time></trkpt>
      <trkpt lat="38.974507" lon="113.503066"><ele>2216</ele><time>2025-09-29T23:57:25Z</time></trkpt>
      <trkpt lat="38.974851" lon="113.503629"><ele>2224</ele><time>2025-09-29T23:58:31Z</time></trkpt>
      <trkpt lat="38.97566" lon="113.504442"><ele>2240</ele><time>2025-09-30T00:01:15Z</time></trkpt>
      <trkpt lat="38.975943" lon="113.504431"><ele>2247</ele><time>2025-09-30T00:01:51Z</time></trkpt>
      <trkpt lat="38.976404" lon="113.50455"><ele>2253</ele><time>2025-09-30T00:02:54Z</time></trkpt>
      <trkpt lat="38.977079" lon="113.504546"><ele>2266</ele><time>2025-09-30T00:04:20Z</time></trkpt>
      <trkpt lat="38.977263" lon="113.504612"><ele>2268</ele><time>2025-09-30T00:04:42Z</time></trkpt>
      <trkpt lat="38.977539" lon="113.504554"><ele>2275</ele><time>2025-09-30T00:05:21Z</time></trkpt>
      <trkpt lat="38.978357" lon="113.503991"><ele>2301</ele><time>2025-09-30T00:07:58Z</time></trkpt>
      <trkpt lat="38.978395" lon="113.503882"><ele>2303</ele><time>2025-09-30T00:09:06Z</time></trkpt>
      <trkpt lat="38.978354" lon="113.503647"><ele>2307</ele><time>2025-09-30T00:09:34Z</time></trkpt>
      <trkpt lat="38.978411" lon="113.503175"><ele>2310</ele><time>2025-09-30T00:10:30Z</time></trkpt>
      <trkpt lat="38.97819" lon="113.502395"><ele>2321</ele><time>2025-09-30T00:12:01Z</time></trkpt>
      <trkpt lat="38.97813" lon="113.501673"><ele>2325</ele><time>2025-09-30T00:13:00Z</time></trkpt>
      <trkpt lat="38.977795" lon="113.500412"><ele>2325</ele><time>2025-09-30T00:14:36Z</time></trkpt>
      <trkpt lat="38.977635" lon="113.499084"><ele>2323</ele><time>2025-09-30T00:16:04Z</time></trkpt>
      <trkpt lat="38.977851" lon="113.498404"><ele>2323</ele><time>2025-09-30T00:16:50Z</time></trkpt>
      <trkpt lat="38.978548" lon="113.497068"><ele>2327</ele><time>2025-09-30T00:18:36Z</time></trkpt>
      <trkpt lat="38.9787" lon="113.496932"><ele>2329</ele><time>2025-09-30T00:18:52Z</time></trkpt>
      <trkpt lat="38.979268" lon="113.496934"><ele>2332</ele><time>2025-09-30T00:19:43Z</time></trkpt>
      <trkpt lat="38.979934" lon="113.496782"><ele>2333</ele><time>2025-09-30T00:20:46Z</time></trkpt>
      <trkpt lat="38.980687" lon="113.496785"><ele>2340</ele><time>2025-09-30T00:22:05Z</time></trkpt>
      <trkpt lat="38.98172" lon="113.496526"><ele>2357</ele><time>2025-09-30T00:24:15Z</time></trkpt>
      <trkpt lat="38.982104" lon="113.496542"><ele>2366</ele><time>2025-09-30T00:25:12Z</time></trkpt>
      <trkpt lat="38.982273" lon="113.496461"><ele>2370</ele><time>2025-09-30T00:26:27Z</time></trkpt>
      <trkpt lat="38.982462" lon="113.496482"><ele>2375</ele><time>2025-09-30T00:26:55Z</time></trkpt>
      <trkpt lat="38.982838" lon="113.496818"><ele>2391</ele><time>2025-09-30T00:28:57Z</time></trkpt>
      <trkpt lat="38.983271" lon="113.496588"><ele>2399</ele><time>2025-09-30T00:30:12Z</time></trkpt>
      <trkpt lat="38.983691" lon="113.496812"><ele>2412</ele><time>2025-09-30T00:31:54Z</time></trkpt>
      <trkpt lat="38.984047" lon="113.49735"><ele>2422</ele><time>2025-09-30T00:33:22Z</time></trkpt>
      <trkpt lat="38.984229" lon="113.497394"><ele>2427</ele><time>2025-09-30T00:33:50Z</time></trkpt>
      <trkpt lat="38.984352" lon="113.497587"><ele>2429</ele><time>2025-09-30T00:34:15Z</time></trkpt>
      <trkpt lat="38.9847" lon="113.497753"><ele>2427</ele><time>2025-09-30T00:35:56Z</time></trkpt>
      <trkpt lat="38.985838" lon="113.497101"><ele>2434</ele><time>2025-09-30T00:38:22Z</time></trkpt>
      <trkpt lat="38.986391" lon="113.496905"><ele>2433</ele><time>2025-09-30T00:39:12Z</time></trkpt>
      <trkpt lat="38.98721" lon="113.496052"><ele>2433</ele><time>2025-09-30T00:40:38Z</time></trkpt>
      <trkpt lat="38.987646" lon="113.495815"><ele>2433</ele><time>2025-09-30T00:41:14Z</time></trkpt>
      <trkpt lat="38.988326" lon="113.495789"><ele>2439</ele><time>2025-09-30T00:42:10Z</time></trkpt>
      <trkpt lat="38.988643" lon="113.495549"><ele>2440</ele><time>2025-09-30T00:42:42Z</time></trkpt>
      <trkpt lat="38.988923" lon="113.495513"><ele>2435</ele><time>2025-09-30T00:43:06Z</time></trkpt>
      <trkpt lat="38.989467" lon="113.495271"><ele>2432</ele><time>2025-09-30T00:43:52Z</time></trkpt>
      <trkpt lat="38.989946" lon="113.495259"><ele>2432</ele><time>2025-09-30T00:44:34Z</time></trkpt>
      <trkpt lat="38.990201" lon="113.495083"><ele>2433</ele><time>2025-09-30T00:44:59Z</time></trkpt>
      <trkpt lat="38.990588" lon="113.495041"><ele>2431</ele><time>2025-09-30T00:45:30Z</time></trkpt>
      <trkpt lat="38.992139" lon="113.494389"><ele>2423</ele><time>2025-09-30T00:47:59Z</time></trkpt>
      <trkpt lat="38.994252" lon="113.494257"><ele>2410</ele><time>2025-09-30T00:51:06Z</time></trkpt>
      <trkpt lat="38.99483" lon="113.494372"><ele>2404</ele><time>2025-09-30T00:51:55Z</time></trkpt>
      <trkpt lat="38.995907" lon="113.494868"><ele>2401</ele><time>2025-09-30T00:53:32Z</time></trkpt>
      <trkpt lat="38.996489" lon="113.495313"><ele>2397</ele><time>2025-09-30T00:54:32Z</time></trkpt>
      <trkpt lat="38.996876" lon="113.495388"><ele>2393</ele><time>2025-09-30T00:55:03Z</time></trkpt>
      <trkpt lat="38.997706" lon="113.495761"><ele>2384</ele><time>2025-09-30T00:56:17Z</time></trkpt>
      <trkpt lat="38.998157" lon="113.496188"><ele>2374</ele><time>2025-09-30T00:57:11Z</time></trkpt>
      <trkpt lat="38.998579" lon="113.496445"><ele>2367</ele><time>2025-09-30T00:57:56Z</time></trkpt>
      <trkpt lat="38.998919" lon="113.496855"><ele>2356</ele><time>2025-09-30T00:58:50Z</time></trkpt>
      <trkpt lat="38.999242" lon="113.497466"><ele>2347</ele><time>2025-09-30T00:59:45Z</time></trkpt>
      <trkpt lat="38.999462" lon="113.497716"><ele>2342</ele><time>2025-09-30T01:00:14Z</time></trkpt>
      <trkpt lat="39.000746" lon="113.498722"><ele>2317</ele><time>2025-09-30T01:02:52Z</time></trkpt>
      <trkpt lat="39.000938" lon="113.499003"><ele>2319</ele><time>2025-09-30T01:03:20Z</time></trkpt>
      <trkpt lat="39.001005" lon="113.499216"><ele>2317</ele><time>2025-09-30T01:03:45Z</time></trkpt>
      <trkpt lat="39.001158" lon="113.499346"><ele>2318</ele><time>2025-09-30T01:04:07Z</time></trkpt>
      <trkpt lat="39.002445" lon="113.499678"><ele>2319</ele><time>2025-09-30T01:06:16Z</time></trkpt>
      <trkpt lat="39.002829" lon="113.499729"><ele>2320</ele><time>2025-09-30T01:06:51Z</time></trkpt>
      <trkpt lat="39.003104" lon="113.499706"><ele>2326</ele><time>2025-09-30T01:08:08Z</time></trkpt>
      <trkpt lat="39.003017" lon="113.499673"><ele>2326</ele><time>2025-09-30T01:08:17Z</time></trkpt>
      <trkpt lat="39.003027" lon="113.499792"><ele>2321</ele><time>2025-09-30T01:14:13Z</time></trkpt>
      <trkpt lat="39.003374" lon="113.499992"><ele>2321</ele><time>2025-09-30T01:14:52Z</time></trkpt>
      <trkpt lat="39.004422" lon="113.500092"><ele>2334</ele><time>2025-09-30T01:16:56Z</time></trkpt>
      <trkpt lat="39.004586" lon="113.500197"><ele>2335</ele><time>2025-09-30T01:17:16Z</time></trkpt>
      <trkpt lat="39.004776" lon="113.500196"><ele>2337</ele><time>2025-09-30T01:17:36Z</time></trkpt>
      <trkpt lat="39.005127" lon="113.500337"><ele>2342</ele><time>2025-09-30T01:18:18Z</time></trkpt>
      <trkpt lat="39.005504" lon="113.500287"><ele>2352</ele><time>2025-09-30T01:19:13Z</time></trkpt>
      <trkpt lat="39.006311" lon="113.500585"><ele>2363</ele><time>2025-09-30T01:20:53Z</time></trkpt>
      <trkpt lat="39.007148" lon="113.500461"><ele>2367</ele><time>2025-09-30T01:22:35Z</time></trkpt>
      <trkpt lat="39.007596" lon="113.500591"><ele>2370</ele><time>2025-09-30T01:23:28Z</time></trkpt>
      <trkpt lat="39.008772" lon="113.501111"><ele>2373</ele><time>2025-09-30T01:25:29Z</time></trkpt>
      <trkpt lat="39.00899" lon="113.501338"><ele>2375</ele><time>2025-09-30T01:25:56Z</time></trkpt>
      <trkpt lat="39.009144" lon="113.501634"><ele>2377</ele><time>2025-09-30T01:26:22Z</time></trkpt>
      <trkpt lat="39.009056" lon="113.502746"><ele>2379</ele><time>2025-09-30T01:28:22Z</time></trkpt>
      <trkpt lat="39.009099" lon="113.502981"><ele>2377</ele><time>2025-09-30T01:28:40Z</time></trkpt>
      <trkpt lat="39.009335" lon="113.503376"><ele>2377</ele><time>2025-09-30T01:29:19Z</time></trkpt>
      <trkpt lat="39.009469" lon="113.503843"><ele>2376</ele><time>2025-09-30T01:30:01Z</time></trkpt>
      <trkpt lat="39.00994" lon="113.504616"><ele>2377</ele><time>2025-09-30T01:31:16Z</time></trkpt>
      <trkpt lat="39.010195" lon="113.505766"><ele>2378</ele><time>2025-09-30T01:32:55Z</time></trkpt>
      <trkpt lat="39.010465" lon="113.506418"><ele>2378</ele><time>2025-09-30T01:33:48Z</time></trkpt>
      <trkpt lat="39.010699" lon="113.506797"><ele>2379</ele><time>2025-09-30T01:34:25Z</time></trkpt>
      <trkpt lat="39.011325" lon="113.507563"><ele>2380</ele><time>2025-09-30T01:35:51Z</time></trkpt>
      <trkpt lat="39.01165" lon="113.507849"><ele>2381</ele><time>2025-09-30T01:36:38Z</time></trkpt>
      <trkpt lat="39.011936" lon="113.508306"><ele>2380</ele><time>2025-09-30T01:37:50Z</time></trkpt>
      <trkpt lat="39.012349" lon="113.508592"><ele>2379</ele><time>2025-09-30T01:38:43Z</time></trkpt>
      <trkpt lat="39.013285" lon="113.509462"><ele>2378</ele><time>2025-09-30T01:40:41Z</time></trkpt>
      <trkpt lat="39.013815" lon="113.50973"><ele>2380</ele><time>2025-09-30T01:41:43Z</time></trkpt>
      <trkpt lat="39.014191" lon="113.509817"><ele>2394</ele><time>2025-09-30T01:42:58Z</time></trkpt>
      <trkpt lat="39.014278" lon="113.509778"><ele>2396</ele><time>2025-09-30T01:43:14Z</time></trkpt>
      <trkpt lat="39.014717" lon="113.510233"><ele>2394</ele><time>2025-09-30T01:44:35Z</time></trkpt>
      <trkpt lat="39.014828" lon="113.510572"><ele>2394</ele><time>2025-09-30T01:45:06Z</time></trkpt>
      <trkpt lat="39.015117" lon="113.510891"><ele>2397</ele><time>2025-09-30T01:46:36Z</time></trkpt>
      <trkpt lat="39.015302" lon="113.510952"><ele>2399</ele><time>2025-09-30T01:46:57Z</time></trkpt>
      <trkpt lat="39.016032" lon="113.511508"><ele>2413</ele><time>2025-09-30T01:48:55Z</time></trkpt>
      <trkpt lat="39.016126" lon="113.511476"><ele>2413</ele><time>2025-09-30T01:49:03Z</time></trkpt>
      <trkpt lat="39.016298" lon="113.511564"><ele>2413</ele><time>2025-09-30T01:49:36Z</time></trkpt>
      <trkpt lat="39.01709" lon="113.512663"><ele>2408</ele><time>2025-09-30T01:51:34Z</time></trkpt>
      <trkpt lat="39.017908" lon="113.514038"><ele>2379</ele><time>2025-09-30T01:53:59Z</time></trkpt>
      <trkpt lat="39.018594" lon="113.514681"><ele>2373</ele><time>2025-09-30T01:55:44Z</time></trkpt>
      <trkpt lat="39.018909" lon="113.51514"><ele>2368</ele><time>2025-09-30T01:56:35Z</time></trkpt>
      <trkpt lat="39.019284" lon="113.515495"><ele>2361</ele><time>2025-09-30T01:57:25Z</time></trkpt>
      <trkpt lat="39.01998" lon="113.515895"><ele>2345</ele><time>2025-09-30T01:58:47Z</time></trkpt>
      <trkpt lat="39.020533" lon="113.516047"><ele>2334</ele><time>2025-09-30T02:01:23Z</time></trkpt>
      <trkpt lat="39.021118" lon="113.516443"><ele>2336</ele><time>2025-09-30T02:02:24Z</time></trkpt>
      <trkpt lat="39.022111" lon="113.516851"><ele>2330</ele><time>2025-09-30T02:04:05Z</time></trkpt>
      <trkpt lat="39.022255" lon="113.517021"><ele>2330</ele><time>2025-09-30T02:04:22Z</time></trkpt>
      <trkpt lat="39.022521" lon="113.517148"><ele>2330</ele><time>2025-09-30T02:04:46Z</time></trkpt>
      <trkpt lat="39.022929" lon="113.517487"><ele>2329</ele><time>2025-09-30T02:05:30Z</time></trkpt>
      <trkpt lat="39.023519" lon="113.518172"><ele>2334</ele><time>2025-09-30T02:06:32Z</time></trkpt>
      <trkpt lat="39.024645" lon="113.519148"><ele>2334</ele><time>2025-09-30T02:08:24Z</time></trkpt>
      <trkpt lat="39.025011" lon="113.519557"><ele>2332</ele><time>2025-09-30T02:09:04Z</time></trkpt>
      <trkpt lat="39.025473" lon="113.520346"><ele>2332</ele><time>2025-09-30T02:10:07Z</time></trkpt>
      <trkpt lat="39.02573" lon="113.521139"><ele>2330</ele><time>2025-09-30T02:11:03Z</time></trkpt>
      <trkpt lat="39.02607" lon="113.521914"><ele>2334</ele><time>2025-09-30T02:11:59Z</time></trkpt>
      <trkpt lat="39.027138" lon="113.522895"><ele>2337</ele><time>2025-09-30T02:13:57Z</time></trkpt>
      <trkpt lat="39.028043" lon="113.52324"><ele>2345</ele><time>2025-09-30T02:15:24Z</time></trkpt>
      <trkpt lat="39.028201" lon="113.523361"><ele>2346</ele><time>2025-09-30T02:15:41Z</time></trkpt>
      <trkpt lat="39.028864" lon="113.523424"><ele>2340</ele><time>2025-09-30T02:16:39Z</time></trkpt>
      <trkpt lat="39.029235" lon="113.523548"><ele>2340</ele><time>2025-09-30T02:17:09Z</time></trkpt>
      <trkpt lat="39.029842" lon="113.523906"><ele>2337</ele><time>2025-09-30T02:18:05Z</time></trkpt>
      <trkpt lat="39.030121" lon="113.523976"><ele>2341</ele><time>2025-09-30T02:18:31Z</time></trkpt>
      <trkpt lat="39.030312" lon="113.523707"><ele>2339</ele><time>2025-09-30T02:19:17Z</time></trkpt>
      <trkpt lat="39.030382" lon="113.523226"><ele>2339</ele><time>2025-09-30T02:19:51Z</time></trkpt>
      <trkpt lat="39.030634" lon="113.522419"><ele>2340</ele><time>2025-09-30T02:20:50Z</time></trkpt>
      <trkpt lat="39.030582" lon="113.522313"><ele>2342</ele><time>2025-09-30T02:20:58Z</time></trkpt>
      <trkpt lat="39.030331" lon="113.522136"><ele>2352</ele><time>2025-09-30T02:21:23Z</time></trkpt>
      <trkpt lat="39.029894" lon="113.521464"><ele>2357</ele><time>2025-09-30T02:22:22Z</time></trkpt>
      <trkpt lat="39.029837" lon="113.521357"><ele>2357</ele><time>2025-09-30T02:22:31Z</time></trkpt>
      <trkpt lat="39.029901" lon="113.521008"><ele>2358</ele><time>2025-09-30T02:22:54Z</time></trkpt>
      <trkpt lat="39.029754" lon="113.520886"><ele>2363</ele><time>2025-09-30T02:23:11Z</time></trkpt>
      <trkpt lat="39.028857" lon="113.519347"><ele>2365</ele><time>2025-09-30T02:25:36Z</time></trkpt>
      <trkpt lat="39.02881" lon="113.518988"><ele>2367</ele><time>2025-09-30T02:26:03Z</time></trkpt>
      <trkpt lat="39.02889" lon="113.518494"><ele>2372</ele><time>2025-09-30T02:26:42Z</time></trkpt>
      <trkpt lat="39.028845" lon="113.517881"><ele>2378</ele><time>2025-09-30T02:27:37Z</time></trkpt>
      <trkpt lat="39.028633" lon="113.516917"><ele>2385</ele><time>2025-09-30T02:28:59Z</time></trkpt>
      <trkpt lat="39.028625" lon="113.516315"><ele>2383</ele><time>2025-09-30T02:29:45Z</time></trkpt>
      <trkpt lat="39.028461" lon="113.515892"><ele>2387</ele><time>2025-09-30T02:30:18Z</time></trkpt>
      <trkpt lat="39.028301" lon="113.514594"><ele>2389</ele><time>2025-09-30T02:31:54Z</time></trkpt>
      <trkpt lat="39.028116" lon="113.514157"><ele>2391</ele><time>2025-09-30T02:32:28Z</time></trkpt>
      <trkpt lat="39.028075" lon="113.513559"><ele>2393</ele><time>2025-09-30T02:33:09Z</time></trkpt>
      <trkpt lat="39.027781" lon="113.51277"><ele>2395</ele><time>2025-09-30T02:34:06Z</time></trkpt>
      <trkpt lat="39.027828" lon="113.512536"><ele>2396</ele><time>2025-09-30T02:34:23Z</time></trkpt>
      <trkpt lat="39.028062" lon="113.512143"><ele>2397</ele><time>2025-09-30T02:34:58Z</time></trkpt>
      <trkpt lat="39.028174" lon="113.511814"><ele>2400</ele><time>2025-09-30T02:35:24Z</time></trkpt>
      <trkpt lat="39.028132" lon="113.511211"><ele>2405</ele><time>2025-09-30T02:36:12Z</time></trkpt>
      <trkpt lat="39.02827" lon="113.510371"><ele>2407</ele><time>2025-09-30T02:37:20Z</time></trkpt>
      <trkpt lat="39.028169" lon="113.509895"><ele>2409</ele><time>2025-09-30T02:37:54Z</time></trkpt>
      <trkpt lat="39.028158" lon="113.509279"><ele>2414</ele><time>2025-09-30T02:38:39Z</time></trkpt>
      <trkpt lat="39.028341" lon="113.509033"><ele>2416</ele><time>2025-09-30T02:39:09Z</time></trkpt>
      <trkpt lat="39.028521" lon="113.508976"><ele>2417</ele><time>2025-09-30T02:39:41Z</time></trkpt>
      <trkpt lat="39.028783" lon="113.509009"><ele>2424</ele><time>2025-09-30T02:40:19Z</time></trkpt>
      <trkpt lat="39.028931" lon="113.508864"><ele>2422</ele><time>2025-09-30T02:41:00Z</time></trkpt>
      <trkpt lat="39.029389" lon="113.508731"><ele>2425</ele><time>2025-09-30T02:41:50Z</time></trkpt>
      <trkpt lat="39.029901" lon="113.508417"><ele>2434</ele><time>2025-09-30T02:43:03Z</time></trkpt>
      <trkpt lat="39.030268" lon="113.508313"><ele>2443</ele><time>2025-09-30T02:44:03Z</time></trkpt>
      <trkpt lat="39.031098" lon="113.507797"><ele>2457</ele><time>2025-09-30T02:46:42Z</time></trkpt>
      <trkpt lat="39.032126" lon="113.507539"><ele>2466</ele><time>2025-09-30T02:49:41Z</time></trkpt>
      <trkpt lat="39.032769" lon="113.507572"><ele>2477</ele><time>2025-09-30T02:51:17Z</time></trkpt>
      <trkpt lat="39.032922" lon="113.507444"><ele>2481</ele><time>2025-09-30T02:52:34Z</time></trkpt>
      <trkpt lat="39.033472" lon="113.507317"><ele>2490</ele><time>2025-09-30T02:53:54Z</time></trkpt>
      <trkpt lat="39.033523" lon="113.507219"><ele>2490</ele><time>2025-09-30T02:54:06Z</time></trkpt>
      <trkpt lat="39.034291" lon="113.506803"><ele>2498</ele><time>2025-09-30T03:02:24Z</time></trkpt>
      <trkpt lat="39.034481" lon="113.506774"><ele>2503</ele><time>2025-09-30T03:03:02Z</time></trkpt>
      <trkpt lat="39.034656" lon="113.50685"><ele>2507</ele><time>2025-09-30T03:03:47Z</time></trkpt>
      <trkpt lat="39.034686" lon="113.507078"><ele>2521</ele><time>2025-09-30T03:05:47Z</time></trkpt>
      <trkpt lat="39.034769" lon="113.507125"><ele>2522</ele><time>2025-09-30T03:06:23Z</time></trkpt>
      <trkpt lat="39.034955" lon="113.507091"><ele>2525</ele><time>2025-09-30T03:06:44Z</time></trkpt>
      <trkpt lat="39.035555" lon="113.506154"><ele>2531</ele><time>2025-09-30T03:08:24Z</time></trkpt>
      <trkpt lat="39.035997" lon="113.504954"><ele>2545</ele><time>2025-09-30T03:10:24Z</time></trkpt>
      <trkpt lat="39.036308" lon="113.504316"><ele>2552</ele><time>2025-09-30T03:11:33Z</time></trkpt>
      <trkpt lat="39.036712" lon="113.502935"><ele>2562</ele><time>2025-09-30T03:13:46Z</time></trkpt>
      <trkpt lat="39.036643" lon="113.502465"><ele>2567</ele><time>2025-09-30T03:14:39Z</time></trkpt>
      <trkpt lat="39.036806" lon="113.502551"><ele>2571</ele><time>2025-09-30T03:15:24Z</time></trkpt>
      <trkpt lat="39.037233" lon="113.502345"><ele>2582</ele><time>2025-09-30T03:17:06Z</time></trkpt>
      <trkpt lat="39.037419" lon="113.502356"><ele>2588</ele><time>2025-09-30T03:17:43Z</time></trkpt>
      <trkpt lat="39.03764" lon="113.502569"><ele>2599</ele><time>2025-09-30T03:18:51Z</time></trkpt>
      <trkpt lat="39.037732" lon="113.502537"><ele>2602</ele><time>2025-09-30T03:19:09Z</time></trkpt>
      <trkpt lat="39.037805" lon="113.502322"><ele>2605</ele><time>2025-09-30T03:19:45Z</time></trkpt>
      <trkpt lat="39.038192" lon="113.501827"><ele>2618</ele><time>2025-09-30T03:25:16Z</time></trkpt>
      <trkpt lat="39.038642" lon="113.501404"><ele>2627</ele><time>2025-09-30T03:26:36Z</time></trkpt>
      <trkpt lat="39.038672" lon="113.501294"><ele>2626</ele><time>2025-09-30T03:31:08Z</time></trkpt>
      <trkpt lat="39.038706" lon="113.501406"><ele>2625</ele><time>2025-09-30T03:31:28Z</time></trkpt>
      <trkpt lat="39.038701" lon="113.500199"><ele>2630</ele><time>2025-09-30T03:33:02Z</time></trkpt>
      <trkpt lat="39.037956" lon="113.497717"><ele>2650</ele><time>2025-09-30T03:37:22Z</time></trkpt>
      <trkpt lat="39.037879" lon="113.497252"><ele>2657</ele><time>2025-09-30T03:38:06Z</time></trkpt>
      <trkpt lat="39.037926" lon="113.496292"><ele>2670</ele><time>2025-09-30T03:39:48Z</time></trkpt>
      <trkpt lat="39.037781" lon="113.495744"><ele>2682</ele><time>2025-09-30T03:41:16Z</time></trkpt>
      <trkpt lat="39.038094" lon="113.493407"><ele>2721</ele><time>2025-09-30T03:46:35Z</time></trkpt>
      <trkpt lat="39.038051" lon="113.492911"><ele>2734</ele><time>2025-09-30T03:47:35Z</time></trkpt>
      <trkpt lat="39.038127" lon="113.492842"><ele>2735</ele><time>2025-09-30T03:47:59Z</time></trkpt>
      <trkpt lat="39.038494" lon="113.492799"><ele>2730</ele><time>2025-09-30T03:48:35Z</time></trkpt>
      <trkpt lat="39.038412" lon="113.492725"><ele>2729</ele><time>2025-09-30T03:49:02Z</time></trkpt>
      <trkpt lat="39.038049" lon="113.492855"><ele>2736</ele><time>2025-09-30T03:49:44Z</time></trkpt>
      <trkpt lat="39.037924" lon="113.49254"><ele>2744</ele><time>2025-09-30T03:50:50Z</time></trkpt>
      <trkpt lat="39.037882" lon="113.492054"><ele>2753</ele><time>2025-09-30T03:51:44Z</time></trkpt>
      <trkpt lat="39.037524" lon="113.491362"><ele>2771</ele><time>2025-09-30T03:53:09Z</time></trkpt>
      <trkpt lat="39.037073" lon="113.491136"><ele>2773</ele><time>2025-09-30T03:53:51Z</time></trkpt>
      <trkpt lat="39.036985" lon="113.490666"><ele>2776</ele><time>2025-09-30T03:54:23Z</time></trkpt>
      <trkpt lat="39.037047" lon="113.490579"><ele>2776</ele><time>2025-09-30T03:54:35Z</time></trkpt>
      <trkpt lat="39.037235" lon="113.490621"><ele>2775</ele><time>2025-09-30T03:54:51Z</time></trkpt>
      <trkpt lat="39.037245" lon="113.490389"><ele>2776</ele><time>2025-09-30T03:55:17Z</time></trkpt>
      <trkpt lat="39.037162" lon="113.4903"><ele>2776</ele><time>2025-09-30T03:55:32Z</time></trkpt>
      <trkpt lat="39.037086" lon="113.490362"><ele>2780</ele><time>2025-09-30T03:55:51Z</time></trkpt>
      <trkpt lat="39.037185" lon="113.490371"><ele>2774</ele><time>2025-09-30T03:57:16Z</time></trkpt>
      <trkpt lat="39.037231" lon="113.490481"><ele>2775</ele><time>2025-09-30T03:57:28Z</time></trkpt>
      <trkpt lat="39.037189" lon="113.490593"><ele>2774</ele><time>2025-09-30T03:57:37Z</time></trkpt>
      <trkpt lat="39.037006" lon="113.490578"><ele>2776</ele><time>2025-09-30T03:57:51Z</time></trkpt>
      <trkpt lat="39.036934" lon="113.490647"><ele>2777</ele><time>2025-09-30T03:57:59Z</time></trkpt>
      <trkpt lat="39.036985" lon="113.491021"><ele>2776</ele><time>2025-09-30T03:58:20Z</time></trkpt>
      <trkpt lat="39.037093" lon="113.491244"><ele>2775</ele><time>2025-09-30T03:58:34Z</time></trkpt>
      <trkpt lat="39.03761" lon="113.491607"><ele>2767</ele><time>2025-09-30T03:59:22Z</time></trkpt>
      <trkpt lat="39.037813" lon="113.492014"><ele>2757</ele><time>2025-09-30T03:59:54Z</time></trkpt>
      <trkpt lat="39.037913" lon="113.492337"><ele>2747</ele><time>2025-09-30T04:00:26Z</time></trkpt>
      <trkpt lat="39.037917" lon="113.49257"><ele>2743</ele><time>2025-09-30T04:00:42Z</time></trkpt>
      <trkpt lat="39.038003" lon="113.492622"><ele>2741</ele><time>2025-09-30T04:01:02Z</time></trkpt>
      <trkpt lat="39.03801" lon="113.492854"><ele>2737</ele><time>2025-09-30T04:01:27Z</time></trkpt>
      <trkpt lat="39.03848" lon="113.492757"><ele>2729</ele><time>2025-09-30T04:02:03Z</time></trkpt>
      <trkpt lat="39.03853" lon="113.49262"><ele>2729</ele><time>2025-09-30T04:02:41Z</time></trkpt>
      <trkpt lat="39.038366" lon="113.492403"><ele>2744</ele><time>2025-09-30T04:08:43Z</time></trkpt>
      <trkpt lat="39.038441" lon="113.492586"><ele>2739</ele><time>2025-09-30T04:10:08Z</time></trkpt>
      <trkpt lat="39.038328" lon="113.49274"><ele>2738</ele><time>2025-09-30T04:10:25Z</time></trkpt>
      <trkpt lat="39.038378" lon="113.492589"><ele>2737</ele><time>2025-09-30T04:11:06Z</time></trkpt>
      <trkpt lat="39.038452" lon="113.492774"><ele>2738</ele><time>2025-09-30T04:11:11Z</time></trkpt>
      <trkpt lat="39.038483" lon="113.492663"><ele>2733</ele><time>2025-09-30T04:11:33Z</time></trkpt>
      <trkpt lat="39.038425" lon="113.492752"><ele>2730</ele><time>2025-09-30T04:12:00Z</time></trkpt>
      <trkpt lat="39.038061" lon="113.492861"><ele>2735</ele><time>2025-09-30T04:12:47Z</time></trkpt>
      <trkpt lat="39.038036" lon="113.493218"><ele>2725</ele><time>2025-09-30T04:13:42Z</time></trkpt>
      <trkpt lat="39.038085" lon="113.493325"><ele>2722</ele><time>2025-09-30T04:13:56Z</time></trkpt>
      <trkpt lat="39.037964" lon="113.493899"><ele>2711</ele><time>2025-09-30T04:15:12Z</time></trkpt>
      <trkpt lat="39.037977" lon="113.494367"><ele>2701</ele><time>2025-09-30T04:16:23Z</time></trkpt>
      <trkpt lat="39.037904" lon="113.49459"><ele>2699</ele><time>2025-09-30T04:16:56Z</time></trkpt>
      <trkpt lat="39.037791" lon="113.495668"><ele>2685</ele><time>2025-09-30T04:19:01Z</time></trkpt>
      <trkpt lat="39.037929" lon="113.496345"><ele>2673</ele><time>2025-09-30T04:20:32Z</time></trkpt>
      <trkpt lat="39.03781" lon="113.497179"><ele>2662</ele><time>2025-09-30T04:21:51Z</time></trkpt>
      <trkpt lat="39.038456" lon="113.499501"><ele>2643</ele><time>2025-09-30T04:24:58Z</time></trkpt>
      <trkpt lat="39.038684" lon="113.500033"><ele>2635</ele><time>2025-09-30T04:25:44Z</time></trkpt>
      <trkpt lat="39.038661" lon="113.500149"><ele>2634</ele><time>2025-09-30T04:25:54Z</time></trkpt>
      <trkpt lat="39.038742" lon="113.500365"><ele>2633</ele><time>2025-09-30T04:26:10Z</time></trkpt>
      <trkpt lat="39.03868" lon="113.501208"><ele>2628</ele><time>2025-09-30T04:27:14Z</time></trkpt>
      <trkpt lat="39.038726" lon="113.501567"><ele>2624</ele><time>2025-09-30T04:31:56Z</time></trkpt>
      <trkpt lat="39.038838" lon="113.50176"><ele>2629</ele><time>2025-09-30T04:32:25Z</time></trkpt>
      <trkpt lat="39.039074" lon="113.502535"><ele>2642</ele><time>2025-09-30T04:34:14Z</time></trkpt>
      <trkpt lat="39.03929" lon="113.502916"><ele>2647</ele><time>2025-09-30T04:35:14Z</time></trkpt>
      <trkpt lat="39.039353" lon="113.503144"><ele>2651</ele><time>2025-09-30T04:35:44Z</time></trkpt>
      <trkpt lat="39.039325" lon="113.503257"><ele>2653</ele><time>2025-09-30T04:36:07Z</time></trkpt>
      <trkpt lat="39.039499" lon="113.503784"><ele>2669</ele><time>2025-09-30T04:38:25Z</time></trkpt>
      <trkpt lat="39.039583" lon="113.50383"><ele>2671</ele><time>2025-09-30T04:38:48Z</time></trkpt>
      <trkpt lat="39.039481" lon="113.50415"><ele>2679</ele><time>2025-09-30T04:39:41Z</time></trkpt>
      <trkpt lat="39.039487" lon="113.504387"><ele>2684</ele><time>2025-09-30T04:40:27Z</time></trkpt>
      <trkpt lat="39.039563" lon="113.504449"><ele>2686</ele><time>2025-09-30T04:41:02Z</time></trkpt>
      <trkpt lat="39.039449" lon="113.505377"><ele>2713</ele><time>2025-09-30T04:44:30Z</time></trkpt>
      <trkpt lat="39.039476" lon="113.5056"><ele>2716</ele><time>2025-09-30T04:46:49Z</time></trkpt>
      <trkpt lat="39.039028" lon="113.507943"><ele>2739</ele><time>2025-09-30T04:51:13Z</time></trkpt>
      <trkpt lat="39.038557" lon="113.509117"><ele>2754</ele><time>2025-09-30T04:53:11Z</time></trkpt>
      <trkpt lat="39.038447" lon="113.509706"><ele>2758</ele><time>2025-09-30T04:54:02Z</time></trkpt>
      <trkpt lat="39.037889" lon="113.511395"><ele>2771</ele><time>2025-09-30T04:56:29Z</time></trkpt>
      <trkpt lat="39.037831" lon="113.511858"><ele>2775</ele><time>2025-09-30T04:57:09Z</time></trkpt>
      <trkpt lat="39.03794" lon="113.512055"><ele>2774</ele><time>2025-09-30T04:57:26Z</time></trkpt>
      <trkpt lat="39.038663" lon="113.512685"><ele>2772</ele><time>2025-09-30T04:58:42Z</time></trkpt>
      <trkpt lat="39.039534" lon="113.51317"><ele>2775</ele><time>2025-09-30T05:01:12Z</time></trkpt>
      <trkpt lat="39.040427" lon="113.513926"><ele>2778</ele><time>2025-09-30T05:02:43Z</time></trkpt>
      <trkpt lat="39.04134" lon="113.515158"><ele>2777</ele><time>2025-09-30T05:04:34Z</time></trkpt>
      <trkpt lat="39.04171" lon="113.516573"><ele>2790</ele><time>2025-09-30T05:06:30Z</time></trkpt>
      <trkpt lat="39.042141" lon="113.517041"><ele>2796</ele><time>2025-09-30T05:07:54Z</time></trkpt>
      <trkpt lat="39.042324" lon="113.517067"><ele>2798</ele><time>2025-09-30T05:08:16Z</time></trkpt>
      <trkpt lat="39.04247" lon="113.517201"><ele>2800</ele><time>2025-09-30T05:08:36Z</time></trkpt>
      <trkpt lat="39.042504" lon="113.518061"><ele>2801</ele><time>2025-09-30T05:09:46Z</time></trkpt>
      <trkpt lat="39.042574" lon="113.518301"><ele>2802</ele><time>2025-09-30T05:10:06Z</time></trkpt>
      <trkpt lat="39.042492" lon="113.518893"><ele>2804</ele><time>2025-09-30T05:10:53Z</time></trkpt>
      <trkpt lat="39.042542" lon="113.519256"><ele>2805</ele><time>2025-09-30T05:11:22Z</time></trkpt>
      <trkpt lat="39.042761" lon="113.519677"><ele>2807</ele><time>2025-09-30T05:12:01Z</time></trkpt>
      <trkpt lat="39.043134" lon="113.520955"><ele>2818</ele><time>2025-09-30T05:13:46Z</time></trkpt>
      <trkpt lat="39.043349" lon="113.521345"><ele>2821</ele><time>2025-09-30T05:14:24Z</time></trkpt>
      <trkpt lat="39.043542" lon="113.521897"><ele>2826</ele><time>2025-09-30T05:15:09Z</time></trkpt>
      <trkpt lat="39.04373" lon="113.522161"><ele>2831</ele><time>2025-09-30T05:15:37Z</time></trkpt>
      <trkpt lat="39.043793" lon="113.522394"><ele>2833</ele><time>2025-09-30T05:15:56Z</time></trkpt>
      <trkpt lat="39.044074" lon="113.522907"><ele>2838</ele><time>2025-09-30T05:16:47Z</time></trkpt>
      <trkpt lat="39.044336" lon="113.523243"><ele>2842</ele><time>2025-09-30T05:17:28Z</time></trkpt>
      <trkpt lat="39.044487" lon="113.523691"><ele>2846</ele><time>2025-09-30T05:18:04Z</time></trkpt>
      <trkpt lat="39.044985" lon="113.524561"><ele>2852</ele><time>2025-09-30T05:19:34Z</time></trkpt>
      <trkpt lat="39.045216" lon="113.525497"><ele>2862</ele><time>2025-09-30T05:20:53Z</time></trkpt>
      <trkpt lat="39.045679" lon="113.52671"><ele>2868</ele><time>2025-09-30T05:22:35Z</time></trkpt>
      <trkpt lat="39.045753" lon="113.527204"><ele>2871</ele><time>2025-09-30T05:23:13Z</time></trkpt>
      <trkpt lat="39.045925" lon="113.527754"><ele>2877</ele><time>2025-09-30T05:23:56Z</time></trkpt>
      <trkpt lat="39.045449" lon="113.530617"><ele>2895</ele><time>2025-09-30T05:27:43Z</time></trkpt>
      <trkpt lat="39.045521" lon="113.530704"><ele>2894</ele><time>2025-09-30T05:28:03Z</time></trkpt>
      <trkpt lat="39.045872" lon="113.530551"><ele>2894</ele><time>2025-09-30T05:29:14Z</time></trkpt>
      <trkpt lat="39.046152" lon="113.53054"><ele>2896</ele><time>2025-09-30T05:29:43Z</time></trkpt>
      <trkpt lat="39.046331" lon="113.530639"><ele>2894</ele><time>2025-09-30T05:30:00Z</time></trkpt>
      <trkpt lat="39.046418" lon="113.530601"><ele>2896</ele><time>2025-09-30T05:30:19Z</time></trkpt>
      <trkpt lat="39.046567" lon="113.530738"><ele>2894</ele><time>2025-09-30T05:30:35Z</time></trkpt>
      <trkpt lat="39.04684" lon="113.53078"><ele>2897</ele><time>2025-09-30T05:31:03Z</time></trkpt>
      <trkpt lat="39.046856" lon="113.530528"><ele>2893</ele><time>2025-09-30T05:31:56Z</time></trkpt>
      <trkpt lat="39.046726" lon="113.530083"><ele>2891</ele><time>2025-09-30T05:32:33Z</time></trkpt>
      <trkpt lat="39.046805" lon="113.530012"><ele>2895</ele><time>2025-09-30T05:32:53Z</time></trkpt>
      <trkpt lat="39.046705" lon="113.529992"><ele>2897</ele><time>2025-09-30T05:33:34Z</time></trkpt>
      <trkpt lat="39.0467" lon="113.530467"><ele>2895</ele><time>2025-09-30T05:34:07Z</time></trkpt>
      <trkpt lat="39.046432" lon="113.530602"><ele>2893</ele><time>2025-09-30T05:34:35Z</time></trkpt>
      <trkpt lat="39.04606" lon="113.530442"><ele>2895</ele><time>2025-09-30T05:35:10Z</time></trkpt>
      <trkpt lat="39.045931" lon="113.530276"><ele>2895</ele><time>2025-09-30T05:35:29Z</time></trkpt>
      <trkpt lat="39.046024" lon="113.530262"><ele>2894</ele><time>2025-09-30T05:36:01Z</time></trkpt>
      <trkpt lat="39.045944" lon="113.53032"><ele>2894</ele><time>2025-09-30T05:36:15Z</time></trkpt>
      <trkpt lat="39.045662" lon="113.530209"><ele>2892</ele><time>2025-09-30T05:36:39Z</time></trkpt>
      <trkpt lat="39.045579" lon="113.530273"><ele>2893</ele><time>2025-09-30T05:36:47Z</time></trkpt>
      <trkpt lat="39.045559" lon="113.530629"><ele>2894</ele><time>2025-09-30T05:37:11Z</time></trkpt>
      <trkpt lat="39.045503" lon="113.530748"><ele>2890</ele><time>2025-09-30T05:37:46Z</time></trkpt>
      <trkpt lat="39.045566" lon="113.530833"><ele>2895</ele><time>2025-09-30T05:38:39Z</time></trkpt>
      <trkpt lat="39.04515" lon="113.53112"><ele>2887</ele><time>2025-09-30T05:39:41Z</time></trkpt>
      <trkpt lat="39.045063" lon="113.53152"><ele>2866</ele><time>2025-09-30T05:42:57Z</time></trkpt>
      <trkpt lat="39.045239" lon="113.53143"><ele>2864</ele><time>2025-09-30T05:43:40Z</time></trkpt>
      <trkpt lat="39.045694" lon="113.530767"><ele>2884</ele><time>2025-09-30T05:44:27Z</time></trkpt>
      <trkpt lat="39.045471" lon="113.530534"><ele>2893</ele><time>2025-09-30T05:45:21Z</time></trkpt>
      <trkpt lat="39.045269" lon="113.530685"><ele>2893</ele><time>2025-09-30T05:47:08Z</time></trkpt>
      <trkpt lat="39.044923" lon="113.530123"><ele>2892</ele><time>2025-09-30T05:48:44Z</time></trkpt>
      <trkpt lat="39.045596" lon="113.531465"><ele>2886</ele><time>2025-09-30T05:51:31Z</time></trkpt>
      <trkpt lat="39.04648" lon="113.53208"><ele>2883</ele><time>2025-09-30T05:54:01Z</time></trkpt>
      <trkpt lat="39.047207" lon="113.532417"><ele>2887</ele><time>2025-09-30T05:55:16Z</time></trkpt>
      <trkpt lat="39.047775" lon="113.532541"><ele>2883</ele><time>2025-09-30T05:56:18Z</time></trkpt>
      <trkpt lat="39.049173" lon="113.533515"><ele>2859</ele><time>2025-09-30T05:59:49Z</time></trkpt>
      <trkpt lat="39.049448" lon="113.533482"><ele>2852</ele><time>2025-09-30T06:00:28Z</time></trkpt>
      <trkpt lat="39.049696" lon="113.533335"><ele>2846</ele><time>2025-09-30T06:01:06Z</time></trkpt>
      <trkpt lat="39.04988" lon="113.533354"><ele>2841</ele><time>2025-09-30T06:01:36Z</time></trkpt>
      <trkpt lat="39.050125" lon="113.533208"><ele>2834</ele><time>2025-09-30T06:05:18Z</time></trkpt>
      <trkpt lat="39.050675" lon="113.533183"><ele>2814</ele><time>2025-09-30T06:07:06Z</time></trkpt>
      <trkpt lat="39.051009" lon="113.532995"><ele>2804</ele><time>2025-09-30T06:08:14Z</time></trkpt>
      <trkpt lat="39.051223" lon="113.533204"><ele>2793</ele><time>2025-09-30T06:09:21Z</time></trkpt>
      <trkpt lat="39.051494" lon="113.533159"><ele>2785</ele><time>2025-09-30T06:10:15Z</time></trkpt>
      <trkpt lat="39.051672" lon="113.533426"><ele>2775</ele><time>2025-09-30T06:11:07Z</time></trkpt>
      <trkpt lat="39.052199" lon="113.533944"><ele>2766</ele><time>2025-09-30T06:12:28Z</time></trkpt>
      <trkpt lat="39.053512" lon="113.534923"><ele>2738</ele><time>2025-09-30T06:15:31Z</time></trkpt>
      <trkpt lat="39.053868" lon="113.535329"><ele>2735</ele><time>2025-09-30T06:16:14Z</time></trkpt>
      <trkpt lat="39.054549" lon="113.536319"><ele>2724</ele><time>2025-09-30T06:18:26Z</time></trkpt>
      <trkpt lat="39.054744" lon="113.536739"><ele>2723</ele><time>2025-09-30T06:19:05Z</time></trkpt>
      <trkpt lat="39.054952" lon="113.537011"><ele>2722</ele><time>2025-09-30T06:19:32Z</time></trkpt>
      <trkpt lat="39.055018" lon="113.537242"><ele>2721</ele><time>2025-09-30T06:19:49Z</time></trkpt>
      <trkpt lat="39.055415" lon="113.537786"><ele>2720</ele><time>2025-09-30T06:20:43Z</time></trkpt>
      <trkpt lat="39.055634" lon="113.53801"><ele>2719</ele><time>2025-09-30T06:21:10Z</time></trkpt>
      <trkpt lat="39.055899" lon="113.538154"><ele>2719</ele><time>2025-09-30T06:21:38Z</time></trkpt>
      <trkpt lat="39.056544" lon="113.539617"><ele>2730</ele><time>2025-09-30T06:25:28Z</time></trkpt>
      <trkpt lat="39.056762" lon="113.540276"><ele>2740</ele><time>2025-09-30T06:26:53Z</time></trkpt>
      <trkpt lat="39.057053" lon="113.540734"><ele>2743</ele><time>2025-09-30T06:28:00Z</time></trkpt>
      <trkpt lat="39.05728" lon="113.541261"><ele>2747</ele><time>2025-09-30T06:29:07Z</time></trkpt>
      <trkpt lat="39.058414" lon="113.542321"><ele>2765</ele><time>2025-09-30T06:32:46Z</time></trkpt>
      <trkpt lat="39.05861" lon="113.54258"><ele>2768</ele><time>2025-09-30T06:33:25Z</time></trkpt>
      <trkpt lat="39.059109" lon="113.543895"><ele>2772</ele><time>2025-09-30T06:36:56Z</time></trkpt>
      <trkpt lat="39.059754" lon="113.544967"><ele>2774</ele><time>2025-09-30T06:38:55Z</time></trkpt>
      <trkpt lat="39.060033" lon="113.54576"><ele>2773</ele><time>2025-09-30T06:39:57Z</time></trkpt>
      <trkpt lat="39.060106" lon="113.546343"><ele>2774</ele><time>2025-09-30T06:40:44Z</time></trkpt>
      <trkpt lat="39.059989" lon="113.547431"><ele>2776</ele><time>2025-09-30T06:42:12Z</time></trkpt>
      <trkpt lat="39.060015" lon="113.547799"><ele>2777</ele><time>2025-09-30T06:42:43Z</time></trkpt>
      <trkpt lat="39.060141" lon="113.548129"><ele>2775</ele><time>2025-09-30T06:43:10Z</time></trkpt>
      <trkpt lat="39.060761" lon="113.548442"><ele>2777</ele><time>2025-09-30T06:44:37Z</time></trkpt>
      <trkpt lat="39.062812" lon="113.548968"><ele>2775</ele><time>2025-09-30T06:48:03Z</time></trkpt>
      <trkpt lat="39.064179" lon="113.549806"><ele>2777</ele><time>2025-09-30T06:51:10Z</time></trkpt>
      <trkpt lat="39.06504" lon="113.550767"><ele>2777</ele><time>2025-09-30T06:53:28Z</time></trkpt>
      <trkpt lat="39.065344" lon="113.551623"><ele>2784</ele><time>2025-09-30T06:54:46Z</time></trkpt>
      <trkpt lat="39.065563" lon="113.552005"><ele>2785</ele><time>2025-09-30T06:55:33Z</time></trkpt>
      <trkpt lat="39.065876" lon="113.552267"><ele>2791</ele><time>2025-09-30T06:57:00Z</time></trkpt>
      <trkpt lat="39.066266" lon="113.552777"><ele>2797</ele><time>2025-09-30T07:09:28Z</time></trkpt>
      <trkpt lat="39.067644" lon="113.553774"><ele>2811</ele><time>2025-09-30T07:12:22Z</time></trkpt>
      <trkpt lat="39.068462" lon="113.554923"><ele>2815</ele><time>2025-09-30T07:14:17Z</time></trkpt>
      <trkpt lat="39.069447" lon="113.55586"><ele>2824</ele><time>2025-09-30T07:16:56Z</time></trkpt>
      <trkpt lat="39.069828" lon="113.556395"><ele>2826</ele><time>2025-09-30T07:17:48Z</time></trkpt>
      <trkpt lat="39.0704" lon="113.557029"><ele>2829</ele><time>2025-09-30T07:19:04Z</time></trkpt>
      <trkpt lat="39.071247" lon="113.557802"><ele>2834</ele><time>2025-09-30T07:21:08Z</time></trkpt>
      <trkpt lat="39.071965" lon="113.558583"><ele>2845</ele><time>2025-09-30T07:22:53Z</time></trkpt>
      <trkpt lat="39.073006" lon="113.559845"><ele>2855</ele><time>2025-09-30T07:25:23Z</time></trkpt>
      <trkpt lat="39.073153" lon="113.560154"><ele>2856</ele><time>2025-09-30T07:25:51Z</time></trkpt>
      <trkpt lat="39.073424" lon="113.560492"><ele>2859</ele><time>2025-09-30T07:26:30Z</time></trkpt>
      <trkpt lat="39.073757" lon="113.560732"><ele>2864</ele><time>2025-09-30T07:27:16Z</time></trkpt>
      <trkpt lat="39.074249" lon="113.561264"><ele>2873</ele><time>2025-09-30T07:31:51Z</time></trkpt>
      <trkpt lat="39.0745" lon="113.561407"><ele>2880</ele><time>2025-09-30T07:32:39Z</time></trkpt>
      <trkpt lat="39.074554" lon="113.561501"><ele>2882</ele><time>2025-09-30T07:32:57Z</time></trkpt>
      <trkpt lat="39.074502" lon="113.561971"><ele>2885</ele><time>2025-09-30T07:33:41Z</time></trkpt>
      <trkpt lat="39.074657" lon="113.562532"><ele>2891</ele><time>2025-09-30T07:34:38Z</time></trkpt>
      <trkpt lat="39.074747" lon="113.562534"><ele>2893</ele><time>2025-09-30T07:34:51Z</time></trkpt>
      <trkpt lat="39.075172" lon="113.562058"><ele>2899</ele><time>2025-09-30T07:36:04Z</time></trkpt>
      <trkpt lat="39.075266" lon="113.562063"><ele>2901</ele><time>2025-09-30T07:36:17Z</time></trkpt>
      <trkpt lat="39.075346" lon="113.56253"><ele>2905</ele><time>2025-09-30T07:37:05Z</time></trkpt>
      <trkpt lat="39.075472" lon="113.562694"><ele>2908</ele><time>2025-09-30T07:37:28Z</time></trkpt>
      <trkpt lat="39.075608" lon="113.562537"><ele>2911</ele><time>2025-09-30T07:37:52Z</time></trkpt>
      <trkpt lat="39.075781" lon="113.562002"><ele>2920</ele><time>2025-09-30T07:46:25Z</time></trkpt>
      <trkpt lat="39.07587" lon="113.561984"><ele>2922</ele><time>2025-09-30T07:46:40Z</time></trkpt>
      <trkpt lat="39.07619" lon="113.562557"><ele>2930</ele><time>2025-09-30T07:47:55Z</time></trkpt>
      <trkpt lat="39.076971" lon="113.563206"><ele>2948</ele><time>2025-09-30T07:50:11Z</time></trkpt>
      <trkpt lat="39.077966" lon="113.564258"><ele>2967</ele><time>2025-09-30T07:59:13Z</time></trkpt>
      <trkpt lat="39.078201" lon="113.564766"><ele>2974</ele><time>2025-09-30T08:00:24Z</time></trkpt>
      <trkpt lat="39.078429" lon="113.565786"><ele>2993</ele><time>2025-09-30T08:04:00Z</time></trkpt>
      <trkpt lat="39.078678" lon="113.565921"><ele>3007</ele><time>2025-09-30T08:05:32Z</time></trkpt>
      <trkpt lat="39.078877" lon="113.566145"><ele>3019</ele><time>2025-09-30T08:08:34Z</time></trkpt>
      <trkpt lat="39.079192" lon="113.566706"><ele>3040</ele><time>2025-09-30T08:11:02Z</time></trkpt>
      <trkpt lat="39.079283" lon="113.566694"><ele>3043</ele><time>2025-09-30T08:11:28Z</time></trkpt>
      <trkpt lat="39.079335" lon="113.567172"><ele>3049</ele><time>2025-09-30T08:12:19Z</time></trkpt>
      <trkpt lat="39.079639" lon="113.56762"><ele>3056</ele><time>2025-09-30T08:13:28Z</time></trkpt>
      <trkpt lat="39.07972" lon="113.567679"><ele>3058</ele><time>2025-09-30T08:13:39Z</time></trkpt>
      <trkpt lat="39.080003" lon="113.567635"><ele>3059</ele><time>2025-09-30T08:14:28Z</time></trkpt>
      <trkpt lat="39.080064" lon="113.567397"><ele>3061</ele><time>2025-09-30T08:14:48Z</time></trkpt>
      <trkpt lat="39.080027" lon="113.567168"><ele>3061</ele><time>2025-09-30T08:15:09Z</time></trkpt>
      <trkpt lat="39.080212" lon="113.567103"><ele>3061</ele><time>2025-09-30T08:15:50Z</time></trkpt>
      <trkpt lat="39.080366" lon="113.56721"><ele>3062</ele><time>2025-09-30T08:16:14Z</time></trkpt>
      <trkpt lat="39.080759" lon="113.566869"><ele>3062</ele><time>2025-09-30T08:19:27Z</time></trkpt>
      <trkpt lat="39.080602" lon="113.567067"><ele>3065</ele><time>2025-09-30T08:19:45Z</time></trkpt>
      <trkpt lat="39.080353" lon="113.567215"><ele>3062</ele><time>2025-09-30T08:20:48Z</time></trkpt>
    </trkseg>
  </trk>
</gpx>
