<?xml version="1.0" encoding="UTF-8"?>
<gpx version="1.1" creator="MyWorld" xmlns="http://www.topografix.com/GPX/1/1">
  <metadata><name>杭州富阳杏梅尖</name></metadata>
  <trk>
    <name>杭州富阳杏梅尖</name>
    <trkseg>
      <trkpt lat="29.849449" lon="120.034629"><ele>274</ele><time>2025-11-23T01:11:42Z</time></trkpt>
      <trkpt lat="29.850138" lon="120.034317"><ele>281</ele><time>2025-11-23T01:13:13Z</time></trkpt>
      <trkpt lat="29.850516" lon="120.033988"><ele>282</ele><time>2025-11-23T01:14:02Z</time></trkpt>
      <trkpt lat="29.85071" lon="120.033752"><ele>284</ele><time>2025-11-23T01:14:29Z</time></trkpt>
      <trkpt lat="29.850863" lon="120.033358"><ele>279</ele><time>2025-11-23T01:15:21Z</time></trkpt>
      <trkpt lat="29.851416" lon="120.032905"><ele>285</ele><time>2025-11-23T01:16:21Z</time></trkpt>
      <trkpt lat="29.851632" lon="120.032532"><ele>289</ele><time>2025-11-23T01:16:57Z</time></trkpt>
      <trkpt lat="29.851986" lon="120.031504"><ele>290</ele><time>2025-11-23T01:18:19Z</time></trkpt>
      <trkpt lat="29.852012" lon="120.030735"><ele>292</ele><time>2025-11-23T01:19:17Z</time></trkpt>
      <trkpt lat="29.85218" lon="120.030334"><ele>294</ele><time>2025-11-23T01:19:49Z</time></trkpt>
      <trkpt lat="29.852384" lon="120.029465"><ele>297</ele><time>2025-11-23T01:20:55Z</time></trkpt>
      <trkpt lat="29.852106" lon="120.028886"><ele>301</ele><time>2025-11-23T01:21:52Z</time></trkpt>
      <trkpt lat="29.852102" lon="120.028665"><ele>301</ele><time>2025-11-23T01:22:08Z</time></trkpt>
      <trkpt lat="29.852219" lon="120.028364"><ele>301</ele><time>2025-11-23T01:22:32Z</time></trkpt>
      <trkpt lat="29.852603" lon="120.027855"><ele>305</ele><time>2025-11-23T01:23:23Z</time></trkpt>
      <trkpt lat="29.852614" lon="120.027739"><ele>307</ele><time>2025-11-23T01:23:33Z</time></trkpt>
      <trkpt lat="29.852527" lon="120.027551"><ele>306</ele><time>2025-11-23T01:23:49Z</time></trkpt>
      <trkpt lat="29.852575" lon="120.027114"><ele>309</ele><time>2025-11-23T01:24:21Z</time></trkpt>
      <trkpt lat="29.853251" lon="120.026357"><ele>310</ele><time>2025-11-23T01:27:02Z</time></trkpt>
      <trkpt lat="29.853171" lon="120.026308"><ele>310</ele><time>2025-11-23T01:27:20Z</time></trkpt>
      <trkpt lat="29.8533" lon="120.026012"><ele>312</ele><time>2025-11-23T01:27:46Z</time></trkpt>
      <trkpt lat="29.853474" lon="120.025754"><ele>311</ele><time>2025-11-23T01:28:11Z</time></trkpt>
      <trkpt lat="29.853709" lon="120.025556"><ele>314</ele><time>2025-11-23T01:28:57Z</time></trkpt>
      <trkpt lat="29.853843" lon="120.025262"><ele>318</ele><time>2025-11-23T01:29:27Z</time></trkpt>
      <trkpt lat="29.854354" lon="120.024998"><ele>321</ele><time>2025-11-23T01:30:39Z</time></trkpt>
      <trkpt lat="29.854458" lon="120.024828"><ele>323</ele><time>2025-11-23T01:30:54Z</time></trkpt>
      <trkpt lat="29.854545" lon="120.024878"><ele>321</ele><time>2025-11-23T01:31:03Z</time></trkpt>
      <trkpt lat="29.854793" lon="120.02473"><ele>324</ele><time>2025-11-23T01:31:27Z</time></trkpt>
      <trkpt lat="29.855246" lon="120.02431"><ele>326</ele><time>2025-11-23T01:32:15Z</time></trkpt>
      <trkpt lat="29.855412" lon="120.024043"><ele>327</ele><time>2025-11-23T01:32:38Z</time></trkpt>
      <trkpt lat="29.856289" lon="120.021501"><ele>351</ele><time>2025-11-23T01:36:03Z</time></trkpt>
      <trkpt lat="29.856537" lon="120.021046"><ele>355</ele><time>2025-11-23T01:36:44Z</time></trkpt>
      <trkpt lat="29.857172" lon="120.019333"><ele>363</ele><time>2025-11-23T01:39:07Z</time></trkpt>
      <trkpt lat="29.857208" lon="120.019007"><ele>366</ele><time>2025-11-23T01:39:34Z</time></trkpt>
      <trkpt lat="29.857146" lon="120.018577"><ele>369</ele><time>2025-11-23T01:40:08Z</time></trkpt>
      <trkpt lat="29.857239" lon="120.018142"><ele>374</ele><time>2025-11-23T01:41:02Z</time></trkpt>
      <trkpt lat="29.857665" lon="120.017566"><ele>381</ele><time>2025-11-23T01:42:05Z</time></trkpt>
      <trkpt lat="29.858116" lon="120.01645"><ele>389</ele><time>2025-11-23T01:44:33Z</time></trkpt>
      <trkpt lat="29.858321" lon="120.016084"><ele>391</ele><time>2025-11-23T01:45:05Z</time></trkpt>
      <trkpt lat="29.858364" lon="120.015441"><ele>397</ele><time>2025-11-23T01:47:06Z</time></trkpt>
      <trkpt lat="29.858576" lon="120.015213"><ele>397</ele><time>2025-11-23T01:47:30Z</time></trkpt>
      <trkpt lat="29.858713" lon="120.014931"><ele>401</ele><time>2025-11-23T01:47:54Z</time></trkpt>
      <trkpt lat="29.859399" lon="120.014285"><ele>415</ele><time>2025-11-23T01:49:18Z</time></trkpt>
      <trkpt lat="29.859561" lon="120.014002"><ele>419</ele><time>2025-11-23T01:49:44Z</time></trkpt>
      <trkpt lat="29.859732" lon="120.013377"><ele>424</ele><time>2025-11-23T01:50:54Z</time></trkpt>
      <trkpt lat="29.85967" lon="120.013048"><ele>432</ele><time>2025-11-23T01:51:21Z</time></trkpt>
      <trkpt lat="29.860039" lon="120.01103"><ele>455</ele><time>2025-11-23T01:54:06Z</time></trkpt>
      <trkpt lat="29.860507" lon="120.010336"><ele>475</ele><time>2025-11-23T01:55:20Z</time></trkpt>
      <trkpt lat="29.860577" lon="120.010129"><ele>475</ele><time>2025-11-23T01:55:39Z</time></trkpt>
      <trkpt lat="29.860562" lon="120.01002"><ele>476</ele><time>2025-11-23T01:55:47Z</time></trkpt>
      <trkpt lat="29.860375" lon="120.009761"><ele>480</ele><time>2025-11-23T01:56:14Z</time></trkpt>
      <trkpt lat="29.860208" lon="120.009031"><ele>487</ele><time>2025-11-23T01:57:15Z</time></trkpt>
      <trkpt lat="29.860212" lon="120.00815"><ele>491</ele><time>2025-11-23T01:58:25Z</time></trkpt>
      <trkpt lat="29.860125" lon="120.007947"><ele>496</ele><time>2025-11-23T01:59:04Z</time></trkpt>
      <trkpt lat="29.860244" lon="120.007656"><ele>492</ele><time>2025-11-23T01:59:37Z</time></trkpt>
      <trkpt lat="29.860111" lon="120.007946"><ele>493</ele><time>2025-11-23T02:01:36Z</time></trkpt>
      <trkpt lat="29.859925" lon="120.007579"><ele>496</ele><time>2025-11-23T02:02:16Z</time></trkpt>
      <trkpt lat="29.859183" lon="120.006632"><ele>510</ele><time>2025-11-23T02:04:26Z</time></trkpt>
      <trkpt lat="29.859009" lon="120.006557"><ele>512</ele><time>2025-11-23T02:04:42Z</time></trkpt>
      <trkpt lat="29.858341" lon="120.006521"><ele>520</ele><time>2025-11-23T02:05:44Z</time></trkpt>
      <trkpt lat="29.857948" lon="120.006243"><ele>528</ele><time>2025-11-23T02:06:27Z</time></trkpt>
      <trkpt lat="29.857301" lon="120.00624"><ele>540</ele><time>2025-11-23T02:08:05Z</time></trkpt>
      <trkpt lat="29.85683" lon="120.006281"><ele>550</ele><time>2025-11-23T02:09:01Z</time></trkpt>
      <trkpt lat="29.856301" lon="120.006523"><ele>563</ele><time>2025-11-23T02:10:18Z</time></trkpt>
      <trkpt lat="29.855831" lon="120.00703"><ele>583</ele><time>2025-11-23T02:12:52Z</time></trkpt>
      <trkpt lat="29.855738" lon="120.007039"><ele>588</ele><time>2025-11-23T02:13:07Z</time></trkpt>
      <trkpt lat="29.855615" lon="120.007204"><ele>595</ele><time>2025-11-23T02:13:58Z</time></trkpt>
      <trkpt lat="29.85543" lon="120.007254"><ele>602</ele><time>2025-11-23T02:14:44Z</time></trkpt>
      <trkpt lat="29.855418" lon="120.007365"><ele>607</ele><time>2025-11-23T02:14:56Z</time></trkpt>
      <trkpt lat="29.855333" lon="120.007322"><ele>615</ele><time>2025-11-23T02:15:23Z</time></trkpt>
      <trkpt lat="29.855264" lon="120.007526"><ele>620</ele><time>2025-11-23T02:15:45Z</time></trkpt>
      <trkpt lat="29.855391" lon="120.007682"><ele>624</ele><time>2025-11-23T02:16:07Z</time></trkpt>
      <trkpt lat="29.855112" lon="120.007683"><ele>631</ele><time>2025-11-23T02:16:53Z</time></trkpt>
      <trkpt lat="29.855049" lon="120.00776"><ele>639</ele><time>2025-11-23T02:18:42Z</time></trkpt>
      <trkpt lat="29.855098" lon="120.007852"><ele>644</ele><time>2025-11-23T02:18:54Z</time></trkpt>
      <trkpt lat="29.855002" lon="120.007886"><ele>649</ele><time>2025-11-23T02:19:29Z</time></trkpt>
      <trkpt lat="29.85496" lon="120.007984"><ele>654</ele><time>2025-11-23T02:20:22Z</time></trkpt>
      <trkpt lat="29.855015" lon="120.008072"><ele>653</ele><time>2025-11-23T02:21:06Z</time></trkpt>
      <trkpt lat="29.854843" lon="120.008146"><ele>644</ele><time>2025-11-23T02:22:20Z</time></trkpt>
      <trkpt lat="29.854655" lon="120.008128"><ele>641</ele><time>2025-11-23T02:22:47Z</time></trkpt>
      <trkpt lat="29.854108" lon="120.008261"><ele>623</ele><time>2025-11-23T02:24:06Z</time></trkpt>
      <trkpt lat="29.853177" lon="120.008221"><ele>591</ele><time>2025-11-23T02:26:40Z</time></trkpt>
      <trkpt lat="29.85229" lon="120.007884"><ele>561</ele><time>2025-11-23T02:28:33Z</time></trkpt>
      <trkpt lat="29.851586" lon="120.008191"><ele>557</ele><time>2025-11-23T02:29:54Z</time></trkpt>
      <trkpt lat="29.850813" lon="120.00817"><ele>558</ele><time>2025-11-23T02:31:02Z</time></trkpt>
      <trkpt lat="29.850067" lon="120.008392"><ele>554</ele><time>2025-11-23T02:32:05Z</time></trkpt>
      <trkpt lat="29.849802" lon="120.008507"><ele>552</ele><time>2025-11-23T02:32:27Z</time></trkpt>
      <trkpt lat="29.849198" lon="120.009054"><ele>547</ele><time>2025-11-23T02:33:29Z</time></trkpt>
      <trkpt lat="29.848715" lon="120.010242"><ele>541</ele><time>2025-11-23T02:35:22Z</time></trkpt>
      <trkpt lat="29.848554" lon="120.010507"><ele>541</ele><time>2025-11-23T02:35:48Z</time></trkpt>
      <trkpt lat="29.848292" lon="120.010652"><ele>538</ele><time>2025-11-23T02:36:33Z</time></trkpt>
      <trkpt lat="29.847815" lon="120.010739"><ele>536</ele><time>2025-11-23T02:37:18Z</time></trkpt>
      <trkpt lat="29.847628" lon="120.01071"><ele>537</ele><time>2025-11-23T02:37:36Z</time></trkpt>
      <trkpt lat="29.847153" lon="120.011059"><ele>533</ele><time>2025-11-23T02:38:37Z</time></trkpt>
      <trkpt lat="29.846702" lon="120.011293"><ele>536</ele><time>2025-11-23T02:39:19Z</time></trkpt>
      <trkpt lat="29.846528" lon="120.011678"><ele>538</ele><time>2025-11-23T02:39:50Z</time></trkpt>
      <trkpt lat="29.846029" lon="120.012181"><ele>536</ele><time>2025-11-23T02:40:48Z</time></trkpt>
      <trkpt lat="29.845855" lon="120.012797"><ele>532</ele><time>2025-11-23T02:42:12Z</time></trkpt>
      <trkpt lat="29.845288" lon="120.013921"><ele>525</ele><time>2025-11-23T02:45:16Z</time></trkpt>
      <trkpt lat="29.845226" lon="120.014354"><ele>524</ele><time>2025-11-23T02:45:46Z</time></trkpt>
      <trkpt lat="29.844513" lon="120.015405"><ele>515</ele><time>2025-11-23T02:47:28Z</time></trkpt>
      <trkpt lat="29.844333" lon="120.016035"><ele>508</ele><time>2025-11-23T02:48:10Z</time></trkpt>
      <trkpt lat="29.844338" lon="120.016373"><ele>509</ele><time>2025-11-23T02:48:32Z</time></trkpt>
      <trkpt lat="29.844259" lon="120.016801"><ele>506</ele><time>2025-11-23T02:49:04Z</time></trkpt>
      <trkpt lat="29.843881" lon="120.017791"><ele>495</ele><time>2025-11-23T02:50:30Z</time></trkpt>
      <trkpt lat="29.843793" lon="120.018325"><ele>492</ele><time>2025-11-23T02:51:10Z</time></trkpt>
      <trkpt lat="29.843649" lon="120.018729"><ele>495</ele><time>2025-11-23T02:51:41Z</time></trkpt>
      <trkpt lat="29.843614" lon="120.019167"><ele>490</ele><time>2025-11-23T02:52:13Z</time></trkpt>
      <trkpt lat="29.843303" lon="120.020225"><ele>477</ele><time>2025-11-23T02:53:31Z</time></trkpt>
      <trkpt lat="29.843092" lon="120.020733"><ele>463</ele><time>2025-11-23T02:54:13Z</time></trkpt>
      <trkpt lat="29.843073" lon="120.020857"><ele>460</ele><time>2025-11-23T02:54:24Z</time></trkpt>
      <trkpt lat="29.843632" lon="120.021877"><ele>438</ele><time>2025-11-23T02:56:55Z</time></trkpt>
      <trkpt lat="29.843537" lon="120.021895"><ele>436</ele><time>2025-11-23T02:57:04Z</time></trkpt>
      <trkpt lat="29.843164" lon="120.021541"><ele>434</ele><time>2025-11-23T02:57:52Z</time></trkpt>
      <trkpt lat="29.84306" lon="120.021531"><ele>431</ele><time>2025-11-23T02:58:00Z</time></trkpt>
      <trkpt lat="29.843025" lon="120.021636"><ele>431</ele><time>2025-11-23T02:58:07Z</time></trkpt>
      <trkpt lat="29.843356" lon="120.022003"><ele>424</ele><time>2025-11-23T02:58:42Z</time></trkpt>
      <trkpt lat="29.843556" lon="120.022381"><ele>421</ele><time>2025-11-23T02:59:16Z</time></trkpt>
      <trkpt lat="29.844092" lon="120.023113"><ele>418</ele><time>2025-11-23T03:00:16Z</time></trkpt>
      <trkpt lat="29.844267" lon="120.023503"><ele>418</ele><time>2025-11-23T03:00:41Z</time></trkpt>
      <trkpt lat="29.844624" lon="120.023885"><ele>410</ele><time>2025-11-23T03:01:15Z</time></trkpt>
      <trkpt lat="29.844796" lon="120.024265"><ele>409</ele><time>2025-11-23T03:01:43Z</time></trkpt>
      <trkpt lat="29.844993" lon="120.024998"><ele>406</ele><time>2025-11-23T03:03:09Z</time></trkpt>
      <trkpt lat="29.845058" lon="120.025544"><ele>402</ele><time>2025-11-23T03:03:45Z</time></trkpt>
      <trkpt lat="29.845064" lon="120.025994"><ele>400</ele><time>2025-11-23T03:04:14Z</time></trkpt>
      <trkpt lat="29.844958" lon="120.026983"><ele>386</ele><time>2025-11-23T03:05:22Z</time></trkpt>
      <trkpt lat="29.845199" lon="120.027696"><ele>386</ele><time>2025-11-23T03:06:08Z</time></trkpt>
      <trkpt lat="29.845242" lon="120.028385"><ele>381</ele><time>2025-11-23T03:06:51Z</time></trkpt>
      <trkpt lat="29.845335" lon="120.028562"><ele>379</ele><time>2025-11-23T03:07:03Z</time></trkpt>
      <trkpt lat="29.845557" lon="120.028772"><ele>378</ele><time>2025-11-23T03:07:23Z</time></trkpt>
      <trkpt lat="29.845556" lon="120.029196"><ele>382</ele><time>2025-11-23T03:07:50Z</time></trkpt>
      <trkpt lat="29.845623" lon="120.029402"><ele>374</ele><time>2025-11-23T03:08:04Z</time></trkpt>
      <trkpt lat="29.84604" lon="120.029881"><ele>366</ele><time>2025-11-23T03:08:47Z</time></trkpt>
      <trkpt lat="29.846259" lon="120.030357"><ele>363</ele><time>2025-11-23T03:09:19Z</time></trkpt>
      <trkpt lat="29.846444" lon="120.030612"><ele>358</ele><time>2025-11-23T03:09:39Z</time></trkpt>
      <trkpt lat="29.846592" lon="120.031142"><ele>354</ele><time>2025-11-23T03:10:15Z</time></trkpt>
      <trkpt lat="29.846781" lon="120.031529"><ele>347</ele><time>2025-11-23T03:10:47Z</time></trkpt>
      <trkpt lat="29.847066" lon="120.031825"><ele>345</ele><time>2025-11-23T03:11:19Z</time></trkpt>
      <trkpt lat="29.847126" lon="120.032363"><ele>343</ele><time>2025-11-23T03:11:57Z</time></trkpt>
      <trkpt lat="29.84706" lon="120.032673"><ele>342</ele><time>2025-11-23T03:12:20Z</time></trkpt>
      <trkpt lat="29.847079" lon="120.032903"><ele>343</ele><time>2025-11-23T03:12:37Z</time></trkpt>
      <trkpt lat="29.84694" lon="120.033434"><ele>348</ele><time>2025-11-23T03:13:19Z</time></trkpt>
      <trkpt lat="29.84661" lon="120.033976"><ele>345</ele><time>2025-11-23T03:14:22Z</time></trkpt>
      <trkpt lat="29.846383" lon="120.034581"><ele>334</ele><time>2025-11-23T03:15:11Z</time></trkpt>
      <trkpt lat="29.846387" lon="120.034691"><ele>333</ele><time>2025-11-23T03:15:20Z</time></trkpt>
      <trkpt lat="29.846646" lon="120.035031"><ele>325</ele><time>2025-11-23T03:15:54Z</time></trkpt>
      <trkpt lat="29.846602" lon="120.035251"><ele>323</ele><time>2025-11-23T03:16:08Z</time></trkpt>
      <trkpt lat="29.846455" lon="120.035425"><ele>325</ele><time>2025-11-23T03:16:18Z</time></trkpt>
      <trkpt lat="29.846642" lon="120.035919"><ele>316</ele><time>2025-11-23T03:17:23Z</time></trkpt>
      <trkpt lat="29.846668" lon="120.036256"><ele>307</ele><time>2025-11-23T03:17:44Z</time></trkpt>
      <trkpt lat="29.846853" lon="120.036505"><ele>294</ele><time>2025-11-23T03:18:07Z</time></trkpt>
      <trkpt lat="29.847143" lon="120.036484"><ele>287</ele><time>2025-11-23T03:18:27Z</time></trkpt>
      <trkpt lat="29.847399" lon="120.036601"><ele>286</ele><time>2025-11-23T03:19:04Z</time></trkpt>
      <trkpt lat="29.847765" lon="120.036512"><ele>282</ele><time>2025-11-23T03:19:32Z</time></trkpt>
      <trkpt lat="29.848558" lon="120.035893"><ele>259</ele><time>2025-11-23T03:21:14Z</time></trkpt>
      <trkpt lat="29.848796" lon="120.035545"><ele>263</ele><time>2025-11-23T03:21:46Z</time></trkpt>
      <trkpt lat="29.849166" lon="120.035202"><ele>264</ele><time>2025-11-23T03:22:28Z</time></trkpt>
    </trkseg>
  </trk>
</gpx>
