<?xml version="1.0" encoding="UTF-8"?>
<gpx version="1.1" creator="MyWorld" xmlns="http://www.topografix.com/GPX/1/1">
  <metadata><name>深圳大南山</name></metadata>
  <trk>
    <name>深圳大南山</name>
    <trkseg>
      <trkpt lat="22.919686" lon="114.858305"><ele>136</ele><time>2025-04-05T02:47:37Z</time></trkpt>
      <trkpt lat="22.919718" lon="114.858599"><ele>139</ele><time>2025-04-05T02:48:00Z</time></trkpt>
      <trkpt lat="22.919855" lon="114.858869"><ele>139</ele><time>2025-04-05T02:48:24Z</time></trkpt>
      <trkpt lat="22.919991" lon="114.859011"><ele>138</ele><time>2025-04-05T02:48:40Z</time></trkpt>
      <trkpt lat="22.920264" lon="114.859099"><ele>139</ele><time>2025-04-05T02:49:40Z</time></trkpt>
      <trkpt lat="22.920548" lon="114.859486"><ele>139</ele><time>2025-04-05T02:52:11Z</time></trkpt>
      <trkpt lat="22.920445" lon="114.859759"><ele>157</ele><time>2025-04-05T02:53:54Z</time></trkpt>
      <trkpt lat="22.920447" lon="114.860477"><ele>167</ele><time>2025-04-05T02:55:28Z</time></trkpt>
      <trkpt lat="22.919927" lon="114.860904"><ele>184</ele><time>2025-04-05T02:57:40Z</time></trkpt>
      <trkpt lat="22.919686" lon="114.861554"><ele>187</ele><time>2025-04-05T02:59:35Z</time></trkpt>
      <trkpt lat="22.919504" lon="114.861594"><ele>196</ele><time>2025-04-05T03:00:09Z</time></trkpt>
      <trkpt lat="22.919337" lon="114.861833"><ele>196</ele><time>2025-04-05T03:01:10Z</time></trkpt>
      <trkpt lat="22.91909" lon="114.861918"><ele>205</ele><time>2025-04-05T03:01:50Z</time></trkpt>
      <trkpt lat="22.919001" lon="114.862424"><ele>207</ele><time>2025-04-05T03:03:51Z</time></trkpt>
      <trkpt lat="22.918627" lon="114.86243"><ele>221</ele><time>2025-04-05T03:04:46Z</time></trkpt>
      <trkpt lat="22.918256" lon="114.86337"><ele>244</ele><time>2025-04-05T03:06:53Z</time></trkpt>
      <trkpt lat="22.917897" lon="114.863504"><ele>245</ele><time>2025-04-05T03:08:22Z</time></trkpt>
      <trkpt lat="22.917762" lon="114.863646"><ele>245</ele><time>2025-04-05T03:09:25Z</time></trkpt>
      <trkpt lat="22.917483" lon="114.863687"><ele>258</ele><time>2025-04-05T03:12:45Z</time></trkpt>
      <trkpt lat="22.917191" lon="114.864077"><ele>272</ele><time>2025-04-05T03:14:47Z</time></trkpt>
      <trkpt lat="22.917099" lon="114.864463"><ele>282</ele><time>2025-04-05T03:15:33Z</time></trkpt>
      <trkpt lat="22.917184" lon="114.865668"><ele>297</ele><time>2025-04-05T03:21:57Z</time></trkpt>
      <trkpt lat="22.917073" lon="114.865821"><ele>304</ele><time>2025-04-05T03:22:25Z</time></trkpt>
      <trkpt lat="22.91721" lon="114.866293"><ele>313</ele><time>2025-04-05T03:23:22Z</time></trkpt>
      <trkpt lat="22.917025" lon="114.866521"><ele>314</ele><time>2025-04-05T03:23:55Z</time></trkpt>
      <trkpt lat="22.916741" lon="114.866529"><ele>315</ele><time>2025-04-05T03:24:26Z</time></trkpt>
      <trkpt lat="22.916656" lon="114.866589"><ele>316</ele><time>2025-04-05T03:24:35Z</time></trkpt>
      <trkpt lat="22.916734" lon="114.86698"><ele>317</ele><time>2025-04-05T03:26:24Z</time></trkpt>
      <trkpt lat="22.916703" lon="114.867361"><ele>322</ele><time>2025-04-05T03:27:14Z</time></trkpt>
      <trkpt lat="22.916754" lon="114.867671"><ele>320</ele><time>2025-04-05T03:27:47Z</time></trkpt>
      <trkpt lat="22.916691" lon="114.868163"><ele>328</ele><time>2025-04-05T03:29:01Z</time></trkpt>
      <trkpt lat="22.916631" lon="114.868239"><ele>330</ele><time>2025-04-05T03:29:13Z</time></trkpt>
      <trkpt lat="22.916724" lon="114.868419"><ele>332</ele><time>2025-04-05T03:31:07Z</time></trkpt>
      <trkpt lat="22.916991" lon="114.868521"><ele>339</ele><time>2025-04-05T03:31:45Z</time></trkpt>
      <trkpt lat="22.916929" lon="114.868826"><ele>343</ele><time>2025-04-05T03:33:27Z</time></trkpt>
      <trkpt lat="22.916862" lon="114.868892"><ele>351</ele><time>2025-04-05T03:33:38Z</time></trkpt>
      <trkpt lat="22.916851" lon="114.869198"><ele>345</ele><time>2025-04-05T03:34:24Z</time></trkpt>
      <trkpt lat="22.917262" lon="114.869594"><ele>363</ele><time>2025-04-05T03:36:45Z</time></trkpt>
      <trkpt lat="22.91748" lon="114.870281"><ele>372</ele><time>2025-04-05T03:38:53Z</time></trkpt>
      <trkpt lat="22.91735" lon="114.870968"><ele>381</ele><time>2025-04-05T03:40:30Z</time></trkpt>
      <trkpt lat="22.91736" lon="114.871168"><ele>383</ele><time>2025-04-05T03:40:57Z</time></trkpt>
      <trkpt lat="22.917593" lon="114.871522"><ele>391</ele><time>2025-04-05T03:42:18Z</time></trkpt>
      <trkpt lat="22.917755" lon="114.871879"><ele>394</ele><time>2025-04-05T03:43:58Z</time></trkpt>
      <trkpt lat="22.917737" lon="114.871987"><ele>393</ele><time>2025-04-05T03:44:11Z</time></trkpt>
      <trkpt lat="22.917812" lon="114.872174"><ele>392</ele><time>2025-04-05T03:45:08Z</time></trkpt>
      <trkpt lat="22.918006" lon="114.872519"><ele>396</ele><time>2025-04-05T03:45:52Z</time></trkpt>
      <trkpt lat="22.917914" lon="114.872906"><ele>401</ele><time>2025-04-05T03:46:34Z</time></trkpt>
      <trkpt lat="22.91811" lon="114.873261"><ele>409</ele><time>2025-04-05T03:47:18Z</time></trkpt>
      <trkpt lat="22.918104" lon="114.87356"><ele>414</ele><time>2025-04-05T03:50:08Z</time></trkpt>
      <trkpt lat="22.918184" lon="114.87374"><ele>415</ele><time>2025-04-05T03:50:45Z</time></trkpt>
      <trkpt lat="22.918191" lon="114.874041"><ele>425</ele><time>2025-04-05T03:51:26Z</time></trkpt>
      <trkpt lat="22.918375" lon="114.874398"><ele>437</ele><time>2025-04-05T03:52:48Z</time></trkpt>
      <trkpt lat="22.918534" lon="114.874509"><ele>438</ele><time>2025-04-05T03:54:02Z</time></trkpt>
      <trkpt lat="22.9185" lon="114.874706"><ele>445</ele><time>2025-04-05T03:55:30Z</time></trkpt>
      <trkpt lat="22.918586" lon="114.875118"><ele>452</ele><time>2025-04-05T03:56:23Z</time></trkpt>
      <trkpt lat="22.91886" lon="114.875522"><ele>468</ele><time>2025-04-05T03:57:29Z</time></trkpt>
      <trkpt lat="22.918612" lon="114.875688"><ele>470</ele><time>2025-04-05T03:59:30Z</time></trkpt>
      <trkpt lat="22.91863" lon="114.875986"><ele>477</ele><time>2025-04-05T04:00:02Z</time></trkpt>
      <trkpt lat="22.918519" lon="114.876151"><ele>485</ele><time>2025-04-05T04:00:25Z</time></trkpt>
      <trkpt lat="22.91855" lon="114.876257"><ele>490</ele><time>2025-04-05T04:00:38Z</time></trkpt>
      <trkpt lat="22.918633" lon="114.876295"><ele>487</ele><time>2025-04-05T04:03:48Z</time></trkpt>
      <trkpt lat="22.918887" lon="114.876007"><ele>487</ele><time>2025-04-05T04:07:30Z</time></trkpt>
      <trkpt lat="22.919248" lon="114.875913"><ele>497</ele><time>2025-04-05T04:08:26Z</time></trkpt>
      <trkpt lat="22.919428" lon="114.875977"><ele>501</ele><time>2025-04-05T04:08:46Z</time></trkpt>
      <trkpt lat="22.91954" lon="114.875816"><ele>501</ele><time>2025-04-05T04:09:03Z</time></trkpt>
      <trkpt lat="22.919657" lon="114.875975"><ele>502</ele><time>2025-04-05T04:09:40Z</time></trkpt>
      <trkpt lat="22.919513" lon="114.876099"><ele>509</ele><time>2025-04-05T04:10:01Z</time></trkpt>
      <trkpt lat="22.919323" lon="114.876137"><ele>513</ele><time>2025-04-05T04:10:19Z</time></trkpt>
      <trkpt lat="22.919098" lon="114.876351"><ele>517</ele><time>2025-04-05T04:10:45Z</time></trkpt>
      <trkpt lat="22.919006" lon="114.876848"><ele>523</ele><time>2025-04-05T04:11:57Z</time></trkpt>
      <trkpt lat="22.918888" lon="114.877121"><ele>527</ele><time>2025-04-05T04:12:26Z</time></trkpt>
      <trkpt lat="22.918946" lon="114.877431"><ele>530</ele><time>2025-04-05T04:13:13Z</time></trkpt>
      <trkpt lat="22.918486" lon="114.877569"><ele>539</ele><time>2025-04-05T04:21:52Z</time></trkpt>
      <trkpt lat="22.918254" lon="114.877757"><ele>544</ele><time>2025-04-05T04:22:24Z</time></trkpt>
      <trkpt lat="22.917984" lon="114.877841"><ele>550</ele><time>2025-04-05T04:23:03Z</time></trkpt>
      <trkpt lat="22.917864" lon="114.878001"><ele>558</ele><time>2025-04-05T04:23:36Z</time></trkpt>
      <trkpt lat="22.917835" lon="114.878199"><ele>561</ele><time>2025-04-05T04:25:36Z</time></trkpt>
      <trkpt lat="22.917614" lon="114.87851"><ele>572</ele><time>2025-04-05T04:26:52Z</time></trkpt>
      <trkpt lat="22.917442" lon="114.878603"><ele>578</ele><time>2025-04-05T04:28:34Z</time></trkpt>
      <trkpt lat="22.917102" lon="114.87908"><ele>590</ele><time>2025-04-05T04:30:00Z</time></trkpt>
      <trkpt lat="22.91689" lon="114.879251"><ele>600</ele><time>2025-04-05T04:30:35Z</time></trkpt>
      <trkpt lat="22.916752" lon="114.879519"><ele>612</ele><time>2025-04-05T04:32:42Z</time></trkpt>
      <trkpt lat="22.916756" lon="114.879715"><ele>624</ele><time>2025-04-05T04:33:53Z</time></trkpt>
      <trkpt lat="22.916681" lon="114.879771"><ele>628</ele><time>2025-04-05T04:34:11Z</time></trkpt>
      <trkpt lat="22.916719" lon="114.879863"><ele>627</ele><time>2025-04-05T04:34:22Z</time></trkpt>
      <trkpt lat="22.916526" lon="114.880349"><ele>633</ele><time>2025-04-05T04:38:14Z</time></trkpt>
      <trkpt lat="22.91643" lon="114.880522"><ele>634</ele><time>2025-04-05T04:38:37Z</time></trkpt>
      <trkpt lat="22.91627" lon="114.880648"><ele>638</ele><time>2025-04-05T04:38:55Z</time></trkpt>
      <trkpt lat="22.916115" lon="114.881002"><ele>650</ele><time>2025-04-05T04:39:49Z</time></trkpt>
      <trkpt lat="22.91602" lon="114.881042"><ele>653</ele><time>2025-04-05T04:40:02Z</time></trkpt>
      <trkpt lat="22.91598" lon="114.881242"><ele>658</ele><time>2025-04-05T04:43:15Z</time></trkpt>
      <trkpt lat="22.915777" lon="114.881468"><ele>658</ele><time>2025-04-05T04:44:37Z</time></trkpt>
      <trkpt lat="22.915335" lon="114.881599"><ele>671</ele><time>2025-04-05T04:45:58Z</time></trkpt>
      <trkpt lat="22.915124" lon="114.881789"><ele>681</ele><time>2025-04-05T04:47:23Z</time></trkpt>
      <trkpt lat="22.914854" lon="114.881835"><ele>705</ele><time>2025-04-05T04:50:13Z</time></trkpt>
      <trkpt lat="22.914787" lon="114.881899"><ele>714</ele><time>2025-04-05T04:50:39Z</time></trkpt>
      <trkpt lat="22.914695" lon="114.881913"><ele>715</ele><time>2025-04-05T04:51:00Z</time></trkpt>
      <trkpt lat="22.914538" lon="114.88181"><ele>730</ele><time>2025-04-05T04:51:50Z</time></trkpt>
      <trkpt lat="22.914446" lon="114.881846"><ele>733</ele><time>2025-04-05T04:52:15Z</time></trkpt>
      <trkpt lat="22.914024" lon="114.882233"><ele>756</ele><time>2025-04-05T05:02:32Z</time></trkpt>
      <trkpt lat="22.913373" lon="114.882226"><ele>778</ele><time>2025-04-05T05:06:33Z</time></trkpt>
      <trkpt lat="22.913202" lon="114.882308"><ele>787</ele><time>2025-04-05T05:07:49Z</time></trkpt>
      <trkpt lat="22.913111" lon="114.882316"><ele>793</ele><time>2025-04-05T05:08:05Z</time></trkpt>
      <trkpt lat="22.912885" lon="114.881983"><ele>798</ele><time>2025-04-05T05:13:49Z</time></trkpt>
      <trkpt lat="22.912806" lon="114.881701"><ele>813</ele><time>2025-04-05T05:15:20Z</time></trkpt>
      <trkpt lat="22.912679" lon="114.881563"><ele>824</ele><time>2025-04-05T05:15:56Z</time></trkpt>
      <trkpt lat="22.912314" lon="114.881613"><ele>823</ele><time>2025-04-05T05:22:16Z</time></trkpt>
      <trkpt lat="22.912243" lon="114.881911"><ele>822</ele><time>2025-04-05T05:22:50Z</time></trkpt>
      <trkpt lat="22.912067" lon="114.881965"><ele>823</ele><time>2025-04-05T05:23:17Z</time></trkpt>
      <trkpt lat="22.911912" lon="114.881843"><ele>824</ele><time>2025-04-05T05:23:40Z</time></trkpt>
      <trkpt lat="22.91154" lon="114.881848"><ele>831</ele><time>2025-04-05T05:24:25Z</time></trkpt>
      <trkpt lat="22.911043" lon="114.882119"><ele>845</ele><time>2025-04-05T05:27:43Z</time></trkpt>
      <trkpt lat="22.910947" lon="114.882109"><ele>844</ele><time>2025-04-05T05:28:05Z</time></trkpt>
      <trkpt lat="22.910808" lon="114.882242"><ele>841</ele><time>2025-04-05T05:28:59Z</time></trkpt>
      <trkpt lat="22.910522" lon="114.882325"><ele>851</ele><time>2025-04-05T05:29:32Z</time></trkpt>
      <trkpt lat="22.910456" lon="114.882612"><ele>860</ele><time>2025-04-05T05:31:07Z</time></trkpt>
      <trkpt lat="22.910185" lon="114.88316"><ele>881</ele><time>2025-04-05T05:34:59Z</time></trkpt>
      <trkpt lat="22.909666" lon="114.883359"><ele>891</ele><time>2025-04-05T05:38:56Z</time></trkpt>
      <trkpt lat="22.909305" lon="114.883923"><ele>903</ele><time>2025-04-05T05:42:09Z</time></trkpt>
      <trkpt lat="22.909046" lon="114.883991"><ele>916</ele><time>2025-04-05T05:42:54Z</time></trkpt>
      <trkpt lat="22.908926" lon="114.88415"><ele>918</ele><time>2025-04-05T05:46:07Z</time></trkpt>
      <trkpt lat="22.908483" lon="114.884349"><ele>924</ele><time>2025-04-05T05:48:12Z</time></trkpt>
      <trkpt lat="22.908464" lon="114.88456"><ele>934</ele><time>2025-04-05T05:50:28Z</time></trkpt>
      <trkpt lat="22.908369" lon="114.884575"><ele>938</ele><time>2025-04-05T05:50:50Z</time></trkpt>
      <trkpt lat="22.90801" lon="114.884923"><ele>954</ele><time>2025-04-05T05:54:55Z</time></trkpt>
      <trkpt lat="22.907915" lon="114.884934"><ele>955</ele><time>2025-04-05T05:55:23Z</time></trkpt>
      <trkpt lat="22.907853" lon="114.885009"><ele>955</ele><time>2025-04-05T05:56:06Z</time></trkpt>
      <trkpt lat="22.907863" lon="114.885112"><ele>968</ele><time>2025-04-05T05:56:40Z</time></trkpt>
      <trkpt lat="22.907495" lon="114.885405"><ele>979</ele><time>2025-04-05T06:01:21Z</time></trkpt>
      <trkpt lat="22.906833" lon="114.88623"><ele>1018</ele><time>2025-04-05T06:04:18Z</time></trkpt>
      <trkpt lat="22.906455" lon="114.88738"><ele>1017</ele><time>2025-04-05T06:16:20Z</time></trkpt>
      <trkpt lat="22.906462" lon="114.887894"><ele>1016</ele><time>2025-04-05T06:17:08Z</time></trkpt>
      <trkpt lat="22.90631" lon="114.888387"><ele>1023</ele><time>2025-04-05T06:17:59Z</time></trkpt>
      <trkpt lat="22.905767" lon="114.88922"><ele>1026</ele><time>2025-04-05T06:20:24Z</time></trkpt>
      <trkpt lat="22.905587" lon="114.889299"><ele>1020</ele><time>2025-04-05T06:20:39Z</time></trkpt>
      <trkpt lat="22.905612" lon="114.889401"><ele>1025</ele><time>2025-04-05T06:21:27Z</time></trkpt>
      <trkpt lat="22.905512" lon="114.889704"><ele>1038</ele><time>2025-04-05T06:21:58Z</time></trkpt>
      <trkpt lat="22.905175" lon="114.890025"><ele>1040</ele><time>2025-04-05T06:22:41Z</time></trkpt>
      <trkpt lat="22.905103" lon="114.890208"><ele>1044</ele><time>2025-04-05T06:23:30Z</time></trkpt>
      <trkpt lat="22.904862" lon="114.890511"><ele>1050</ele><time>2025-04-05T06:24:06Z</time></trkpt>
      <trkpt lat="22.904823" lon="114.890703"><ele>1050</ele><time>2025-04-05T06:24:23Z</time></trkpt>
      <trkpt lat="22.904922" lon="114.890422"><ele>1037</ele><time>2025-04-05T06:25:51Z</time></trkpt>
      <trkpt lat="22.905269" lon="114.889953"><ele>1030</ele><time>2025-04-05T06:27:24Z</time></trkpt>
      <trkpt lat="22.905558" lon="114.889697"><ele>1037</ele><time>2025-04-05T06:28:06Z</time></trkpt>
      <trkpt lat="22.9057" lon="114.889321"><ele>1027</ele><time>2025-04-05T06:28:49Z</time></trkpt>
      <trkpt lat="22.906367" lon="114.888334"><ele>1021</ele><time>2025-04-05T06:30:53Z</time></trkpt>
      <trkpt lat="22.906343" lon="114.888231"><ele>1016</ele><time>2025-04-05T06:31:03Z</time></trkpt>
      <trkpt lat="22.906458" lon="114.887859"><ele>1010</ele><time>2025-04-05T06:31:49Z</time></trkpt>
      <trkpt lat="22.906475" lon="114.887348"><ele>1008</ele><time>2025-04-05T06:32:36Z</time></trkpt>
      <trkpt lat="22.906602" lon="114.887062"><ele>1013</ele><time>2025-04-05T06:33:10Z</time></trkpt>
      <trkpt lat="22.906577" lon="114.88685"><ele>1005</ele><time>2025-04-05T06:33:36Z</time></trkpt>
      <trkpt lat="22.906665" lon="114.886555"><ele>1011</ele><time>2025-04-05T06:34:22Z</time></trkpt>
      <trkpt lat="22.906609" lon="114.886038"><ele>995</ele><time>2025-04-05T06:35:30Z</time></trkpt>
      <trkpt lat="22.906839" lon="114.885712"><ele>991</ele><time>2025-04-05T06:36:08Z</time></trkpt>
      <trkpt lat="22.907359" lon="114.885487"><ele>975</ele><time>2025-04-05T06:37:35Z</time></trkpt>
      <trkpt lat="22.907549" lon="114.88527"><ele>975</ele><time>2025-04-05T06:38:21Z</time></trkpt>
      <trkpt lat="22.907571" lon="114.885071"><ele>967</ele><time>2025-04-05T06:39:04Z</time></trkpt>
      <trkpt lat="22.907726" lon="114.884962"><ele>964</ele><time>2025-04-05T06:39:26Z</time></trkpt>
      <trkpt lat="22.90792" lon="114.884936"><ele>957</ele><time>2025-04-05T06:39:52Z</time></trkpt>
      <trkpt lat="22.908088" lon="114.885023"><ele>958</ele><time>2025-04-05T06:41:45Z</time></trkpt>
      <trkpt lat="22.90824" lon="114.885291"><ele>953</ele><time>2025-04-05T06:42:14Z</time></trkpt>
      <trkpt lat="22.908098" lon="114.885665"><ele>948</ele><time>2025-04-05T06:43:49Z</time></trkpt>
      <trkpt lat="22.908105" lon="114.885766"><ele>944</ele><time>2025-04-05T06:43:57Z</time></trkpt>
      <trkpt lat="22.908239" lon="114.885899"><ele>940</ele><time>2025-04-05T06:44:13Z</time></trkpt>
      <trkpt lat="22.90833" lon="114.885612"><ele>931</ele><time>2025-04-05T06:45:18Z</time></trkpt>
      <trkpt lat="22.908621" lon="114.885363"><ele>924</ele><time>2025-04-05T06:46:00Z</time></trkpt>
      <trkpt lat="22.908638" lon="114.885252"><ele>922</ele><time>2025-04-05T06:46:16Z</time></trkpt>
      <trkpt lat="22.908544" lon="114.885064"><ele>916</ele><time>2025-04-05T06:46:35Z</time></trkpt>
      <trkpt lat="22.908701" lon="114.884705"><ele>922</ele><time>2025-04-05T06:47:05Z</time></trkpt>
      <trkpt lat="22.908641" lon="114.884307"><ele>920</ele><time>2025-04-05T06:47:43Z</time></trkpt>
      <trkpt lat="22.909136" lon="114.884043"><ele>909</ele><time>2025-04-05T06:48:59Z</time></trkpt>
      <trkpt lat="22.909314" lon="114.884011"><ele>898</ele><time>2025-04-05T06:50:06Z</time></trkpt>
      <trkpt lat="22.909476" lon="114.883882"><ele>901</ele><time>2025-04-05T06:50:23Z</time></trkpt>
      <trkpt lat="22.909621" lon="114.883612"><ele>891</ele><time>2025-04-05T06:51:57Z</time></trkpt>
      <trkpt lat="22.909609" lon="114.883506"><ele>888</ele><time>2025-04-05T06:52:15Z</time></trkpt>
      <trkpt lat="22.910035" lon="114.883276"><ele>872</ele><time>2025-04-05T06:54:38Z</time></trkpt>
      <trkpt lat="22.910224" lon="114.883237"><ele>872</ele><time>2025-04-05T06:54:53Z</time></trkpt>
      <trkpt lat="22.910508" lon="114.882751"><ele>849</ele><time>2025-04-05T06:58:35Z</time></trkpt>
      <trkpt lat="22.910583" lon="114.88236"><ele>843</ele><time>2025-04-05T06:59:25Z</time></trkpt>
      <trkpt lat="22.911458" lon="114.881996"><ele>835</ele><time>2025-04-05T07:03:45Z</time></trkpt>
      <trkpt lat="22.911509" lon="114.881912"><ele>832</ele><time>2025-04-05T07:04:05Z</time></trkpt>
      <trkpt lat="22.911954" lon="114.881883"><ele>824</ele><time>2025-04-05T07:05:09Z</time></trkpt>
      <trkpt lat="22.912105" lon="114.881998"><ele>821</ele><time>2025-04-05T07:05:28Z</time></trkpt>
      <trkpt lat="22.912278" lon="114.881943"><ele>820</ele><time>2025-04-05T07:07:39Z</time></trkpt>
      <trkpt lat="22.912458" lon="114.881606"><ele>816</ele><time>2025-04-05T07:08:35Z</time></trkpt>
      <trkpt lat="22.912751" lon="114.881594"><ele>814</ele><time>2025-04-05T07:09:46Z</time></trkpt>
      <trkpt lat="22.912932" lon="114.882037"><ele>798</ele><time>2025-04-05T07:14:59Z</time></trkpt>
      <trkpt lat="22.913173" lon="114.88235"><ele>791</ele><time>2025-04-05T07:19:34Z</time></trkpt>
      <trkpt lat="22.913701" lon="114.882227"><ele>758</ele><time>2025-04-05T07:22:05Z</time></trkpt>
      <trkpt lat="22.914074" lon="114.882266"><ele>750</ele><time>2025-04-05T07:23:04Z</time></trkpt>
      <trkpt lat="22.914573" lon="114.881849"><ele>722</ele><time>2025-04-05T07:29:35Z</time></trkpt>
      <trkpt lat="22.914837" lon="114.88194"><ele>697</ele><time>2025-04-05T07:31:29Z</time></trkpt>
      <trkpt lat="22.915099" lon="114.881851"><ele>679</ele><time>2025-04-05T07:34:28Z</time></trkpt>
      <trkpt lat="22.915392" lon="114.881608"><ele>654</ele><time>2025-04-05T07:37:06Z</time></trkpt>
      <trkpt lat="22.915659" lon="114.881582"><ele>652</ele><time>2025-04-05T07:42:22Z</time></trkpt>
      <trkpt lat="22.915822" lon="114.881491"><ele>648</ele><time>2025-04-05T07:48:45Z</time></trkpt>
      <trkpt lat="22.916012" lon="114.881254"><ele>650</ele><time>2025-04-05T07:49:21Z</time></trkpt>
      <trkpt lat="22.916019" lon="114.881152"><ele>648</ele><time>2025-04-05T07:49:33Z</time></trkpt>
      <trkpt lat="22.916182" lon="114.880903"><ele>632</ele><time>2025-04-05T07:51:15Z</time></trkpt>
      <trkpt lat="22.916264" lon="114.88086"><ele>630</ele><time>2025-04-05T07:51:30Z</time></trkpt>
      <trkpt lat="22.916799" lon="114.879919"><ele>610</ele><time>2025-04-05T07:53:38Z</time></trkpt>
      <trkpt lat="22.916799" lon="114.879714"><ele>602</ele><time>2025-04-05T07:54:29Z</time></trkpt>
      <trkpt lat="22.916925" lon="114.879358"><ele>590</ele><time>2025-04-05T07:56:10Z</time></trkpt>
      <trkpt lat="22.917192" lon="114.879099"><ele>579</ele><time>2025-04-05T07:57:46Z</time></trkpt>
      <trkpt lat="22.917458" lon="114.878685"><ele>565</ele><time>2025-04-05T07:58:51Z</time></trkpt>
      <trkpt lat="22.917706" lon="114.878549"><ele>559</ele><time>2025-04-05T07:59:33Z</time></trkpt>
      <trkpt lat="22.918057" lon="114.877929"><ele>541</ele><time>2025-04-05T08:01:28Z</time></trkpt>
      <trkpt lat="22.91898" lon="114.877436"><ele>514</ele><time>2025-04-05T08:04:14Z</time></trkpt>
      <trkpt lat="22.918994" lon="114.877123"><ele>520</ele><time>2025-04-05T08:18:44Z</time></trkpt>
      <trkpt lat="22.919136" lon="114.876856"><ele>510</ele><time>2025-04-05T08:19:19Z</time></trkpt>
      <trkpt lat="22.91918" lon="114.876456"><ele>509</ele><time>2025-04-05T08:20:39Z</time></trkpt>
      <trkpt lat="22.919375" lon="114.876244"><ele>503</ele><time>2025-04-05T08:21:10Z</time></trkpt>
      <trkpt lat="22.919721" lon="114.876084"><ele>499</ele><time>2025-04-05T08:21:58Z</time></trkpt>
      <trkpt lat="22.919691" lon="114.875889"><ele>495</ele><time>2025-04-05T08:22:25Z</time></trkpt>
      <trkpt lat="22.919599" lon="114.875855"><ele>491</ele><time>2025-04-05T08:22:36Z</time></trkpt>
      <trkpt lat="22.919464" lon="114.876002"><ele>491</ele><time>2025-04-05T08:22:55Z</time></trkpt>
      <trkpt lat="22.919295" lon="114.875928"><ele>485</ele><time>2025-04-05T08:23:16Z</time></trkpt>
      <trkpt lat="22.919123" lon="114.876015"><ele>477</ele><time>2025-04-05T08:23:44Z</time></trkpt>
      <trkpt lat="22.918935" lon="114.876002"><ele>486</ele><time>2025-04-05T08:24:24Z</time></trkpt>
      <trkpt lat="22.918677" lon="114.876158"><ele>490</ele><time>2025-04-05T08:24:57Z</time></trkpt>
      <trkpt lat="22.918654" lon="114.876254"><ele>479</ele><time>2025-04-05T08:25:17Z</time></trkpt>
      <trkpt lat="22.918615" lon="114.876158"><ele>473</ele><time>2025-04-05T08:25:34Z</time></trkpt>
      <trkpt lat="22.918743" lon="114.876012"><ele>469</ele><time>2025-04-05T08:26:09Z</time></trkpt>
      <trkpt lat="22.918711" lon="114.875721"><ele>460</ele><time>2025-04-05T08:27:25Z</time></trkpt>
      <trkpt lat="22.918888" lon="114.875644"><ele>456</ele><time>2025-04-05T08:27:55Z</time></trkpt>
      <trkpt lat="22.918984" lon="114.875452"><ele>451</ele><time>2025-04-05T08:28:16Z</time></trkpt>
      <trkpt lat="22.918788" lon="114.875251"><ele>439</ele><time>2025-04-05T08:29:03Z</time></trkpt>
      <trkpt lat="22.91867" lon="114.874863"><ele>428</ele><time>2025-04-05T08:30:14Z</time></trkpt>
      <trkpt lat="22.918651" lon="114.874566"><ele>435</ele><time>2025-04-05T08:31:04Z</time></trkpt>
      <trkpt lat="22.918467" lon="114.874234"><ele>418</ele><time>2025-04-05T08:32:20Z</time></trkpt>
      <trkpt lat="22.91838" lon="114.874209"><ele>420</ele><time>2025-04-05T08:32:34Z</time></trkpt>
      <trkpt lat="22.918249" lon="114.873398"><ele>404</ele><time>2025-04-05T08:34:28Z</time></trkpt>
      <trkpt lat="22.918281" lon="114.873303"><ele>402</ele><time>2025-04-05T08:34:43Z</time></trkpt>
      <trkpt lat="22.918072" lon="114.872964"><ele>382</ele><time>2025-04-05T08:35:41Z</time></trkpt>
      <trkpt lat="22.918156" lon="114.872559"><ele>388</ele><time>2025-04-05T08:36:49Z</time></trkpt>
      <trkpt lat="22.917976" lon="114.872207"><ele>388</ele><time>2025-04-05T08:37:49Z</time></trkpt>
      <trkpt lat="22.917783" lon="114.87152"><ele>365</ele><time>2025-04-05T08:39:09Z</time></trkpt>
      <trkpt lat="22.917622" lon="114.8714"><ele>358</ele><time>2025-04-05T08:39:30Z</time></trkpt>
      <trkpt lat="22.917469" lon="114.871153"><ele>367</ele><time>2025-04-05T08:39:58Z</time></trkpt>
      <trkpt lat="22.917504" lon="114.870643"><ele>368</ele><time>2025-04-05T08:40:58Z</time></trkpt>
      <trkpt lat="22.917605" lon="114.870476"><ele>368</ele><time>2025-04-05T08:41:26Z</time></trkpt>
      <trkpt lat="22.917527" lon="114.869989"><ele>365</ele><time>2025-04-05T08:42:25Z</time></trkpt>
      <trkpt lat="22.917377" lon="114.869618"><ele>357</ele><time>2025-04-05T08:43:21Z</time></trkpt>
      <trkpt lat="22.916992" lon="114.869305"><ele>341</ele><time>2025-04-05T08:44:37Z</time></trkpt>
      <trkpt lat="22.916957" lon="114.869207"><ele>342</ele><time>2025-04-05T08:44:51Z</time></trkpt>
      <trkpt lat="22.917062" lon="114.868698"><ele>345</ele><time>2025-04-05T08:45:57Z</time></trkpt>
      <trkpt lat="22.917138" lon="114.868643"><ele>345</ele><time>2025-04-05T08:46:10Z</time></trkpt>
      <trkpt lat="22.917123" lon="114.868544"><ele>336</ele><time>2025-04-05T08:46:28Z</time></trkpt>
      <trkpt lat="22.91686" lon="114.868458"><ele>324</ele><time>2025-04-05T08:47:03Z</time></trkpt>
      <trkpt lat="22.916735" lon="114.868309"><ele>321</ele><time>2025-04-05T08:47:33Z</time></trkpt>
      <trkpt lat="22.916883" lon="114.867741"><ele>324</ele><time>2025-04-05T08:48:47Z</time></trkpt>
      <trkpt lat="22.916834" lon="114.867449"><ele>320</ele><time>2025-04-05T08:49:19Z</time></trkpt>
      <trkpt lat="22.916858" lon="114.866954"><ele>319</ele><time>2025-04-05T08:50:06Z</time></trkpt>
      <trkpt lat="22.916798" lon="114.866654"><ele>318</ele><time>2025-04-05T08:50:35Z</time></trkpt>
      <trkpt lat="22.916861" lon="114.866579"><ele>315</ele><time>2025-04-05T08:50:45Z</time></trkpt>
      <trkpt lat="22.917147" lon="114.866561"><ele>305</ele><time>2025-04-05T08:51:21Z</time></trkpt>
      <trkpt lat="22.917317" lon="114.866198"><ele>303</ele><time>2025-04-05T08:52:12Z</time></trkpt>
      <trkpt lat="22.917188" lon="114.865934"><ele>296</ele><time>2025-04-05T08:52:56Z</time></trkpt>
      <trkpt lat="22.917325" lon="114.865666"><ele>295</ele><time>2025-04-05T08:53:38Z</time></trkpt>
      <trkpt lat="22.917333" lon="114.865461"><ele>293</ele><time>2025-04-05T08:54:04Z</time></trkpt>
      <trkpt lat="22.91719" lon="114.864475"><ele>271</ele><time>2025-04-05T08:57:04Z</time></trkpt>
      <trkpt lat="22.917268" lon="114.864183"><ele>273</ele><time>2025-04-05T08:57:42Z</time></trkpt>
      <trkpt lat="22.917523" lon="114.86366"><ele>262</ele><time>2025-04-05T08:59:16Z</time></trkpt>
      <trkpt lat="22.917698" lon="114.863716"><ele>248</ele><time>2025-04-05T09:00:49Z</time></trkpt>
      <trkpt lat="22.918377" lon="114.863408"><ele>238</ele><time>2025-04-05T09:03:11Z</time></trkpt>
      <trkpt lat="22.918757" lon="114.862499"><ele>217</ele><time>2025-04-05T09:05:37Z</time></trkpt>
      <trkpt lat="22.919114" lon="114.862417"><ele>205</ele><time>2025-04-05T09:07:11Z</time></trkpt>
      <trkpt lat="22.919254" lon="114.86194"><ele>194</ele><time>2025-04-05T09:08:04Z</time></trkpt>
      <trkpt lat="22.919517" lon="114.861823"><ele>190</ele><time>2025-04-05T09:08:52Z</time></trkpt>
      <trkpt lat="22.91959" lon="114.861644"><ele>194</ele><time>2025-04-05T09:09:10Z</time></trkpt>
      <trkpt lat="22.919766" lon="114.861561"><ele>185</ele><time>2025-04-05T09:09:42Z</time></trkpt>
      <trkpt lat="22.919785" lon="114.861458"><ele>179</ele><time>2025-04-05T09:09:52Z</time></trkpt>
      <trkpt lat="22.919877" lon="114.861448"><ele>174</ele><time>2025-04-05T09:10:02Z</time></trkpt>
      <trkpt lat="22.920082" lon="114.860989"><ele>161</ele><time>2025-04-05T09:10:58Z</time></trkpt>
      <trkpt lat="22.920519" lon="114.860449"><ele>159</ele><time>2025-04-05T09:12:24Z</time></trkpt>
      <trkpt lat="22.920591" lon="114.860154"><ele>157</ele><time>2025-04-05T09:12:59Z</time></trkpt>
      <trkpt lat="22.920598" lon="114.859741"><ele>154</ele><time>2025-04-05T09:13:45Z</time></trkpt>
      <trkpt lat="22.92071" lon="114.85958"><ele>148</ele><time>2025-04-05T09:14:10Z</time></trkpt>
      <trkpt lat="22.920713" lon="114.85948"><ele>150</ele><time>2025-04-05T09:15:22Z</time></trkpt>
      <trkpt lat="22.920464" lon="114.859202"><ele>136</ele><time>2025-04-05T09:16:29Z</time></trkpt>
    </trkseg>
  </trk>
</gpx>
