<?xml version="1.0" encoding="UTF-8"?>
<gpx version="1.1" creator="MyWorld" xmlns="http://www.topografix.com/GPX/1/1">
  <metadata><name>黄山跨年徒步</name></metadata>
  <trk>
    <name>黄山跨年徒步</name>
    <trkseg>
      <trkpt lat="30.120785" lon="118.187978"><ele>903</ele><time>2025-12-31T06:08:48Z</time></trkpt>
      <trkpt lat="30.12135" lon="118.18772"><ele>896</ele><time>2025-12-31T06:09:37Z</time></trkpt>
      <trkpt lat="30.121556" lon="118.187734"><ele>896</ele><time>2025-12-31T06:09:53Z</time></trkpt>
      <trkpt lat="30.121938" lon="118.187929"><ele>893</ele><time>2025-12-31T06:10:24Z</time></trkpt>
      <trkpt lat="30.122027" lon="118.187899"><ele>894</ele><time>2025-12-31T06:10:32Z</time></trkpt>
      <trkpt lat="30.122257" lon="118.187131"><ele>907</ele><time>2025-12-31T06:12:16Z</time></trkpt>
      <trkpt lat="30.122422" lon="118.18693"><ele>916</ele><time>2025-12-31T06:12:40Z</time></trkpt>
      <trkpt lat="30.122543" lon="118.186578"><ele>916</ele><time>2025-12-31T06:13:08Z</time></trkpt>
      <trkpt lat="30.122839" lon="118.186112"><ele>931</ele><time>2025-12-31T06:14:56Z</time></trkpt>
      <trkpt lat="30.123073" lon="118.185475"><ele>937</ele><time>2025-12-31T06:16:04Z</time></trkpt>
      <trkpt lat="30.123389" lon="118.185329"><ele>941</ele><time>2025-12-31T06:16:31Z</time></trkpt>
      <trkpt lat="30.124214" lon="118.184598"><ele>958</ele><time>2025-12-31T06:18:33Z</time></trkpt>
      <trkpt lat="30.12453" lon="118.184527"><ele>965</ele><time>2025-12-31T06:19:28Z</time></trkpt>
      <trkpt lat="30.124738" lon="118.184212"><ele>971</ele><time>2025-12-31T06:20:11Z</time></trkpt>
      <trkpt lat="30.124996" lon="118.183546"><ele>983</ele><time>2025-12-31T06:21:27Z</time></trkpt>
      <trkpt lat="30.12551" lon="118.183161"><ele>999</ele><time>2025-12-31T06:23:08Z</time></trkpt>
      <trkpt lat="30.125763" lon="118.182712"><ele>1007</ele><time>2025-12-31T06:24:24Z</time></trkpt>
      <trkpt lat="30.125983" lon="118.182495"><ele>1015</ele><time>2025-12-31T06:25:07Z</time></trkpt>
      <trkpt lat="30.126181" lon="118.182048"><ele>1021</ele><time>2025-12-31T06:26:06Z</time></trkpt>
      <trkpt lat="30.126438" lon="118.181808"><ele>1025</ele><time>2025-12-31T06:26:47Z</time></trkpt>
      <trkpt lat="30.12657" lon="118.181566"><ele>1032</ele><time>2025-12-31T06:27:20Z</time></trkpt>
      <trkpt lat="30.126587" lon="118.181176"><ele>1044</ele><time>2025-12-31T06:28:12Z</time></trkpt>
      <trkpt lat="30.126693" lon="118.181073"><ele>1050</ele><time>2025-12-31T06:28:46Z</time></trkpt>
      <trkpt lat="30.126747" lon="118.180793"><ele>1053</ele><time>2025-12-31T06:29:36Z</time></trkpt>
      <trkpt lat="30.126907" lon="118.180663"><ele>1065</ele><time>2025-12-31T06:30:22Z</time></trkpt>
      <trkpt lat="30.127097" lon="118.180619"><ele>1069</ele><time>2025-12-31T06:30:53Z</time></trkpt>
      <trkpt lat="30.127174" lon="118.180367"><ele>1074</ele><time>2025-12-31T06:31:32Z</time></trkpt>
      <trkpt lat="30.127502" lon="118.18009"><ele>1080</ele><time>2025-12-31T06:32:26Z</time></trkpt>
      <trkpt lat="30.127578" lon="118.179878"><ele>1082</ele><time>2025-12-31T06:33:01Z</time></trkpt>
      <trkpt lat="30.127627" lon="118.179852"><ele>1082</ele><time>2025-12-31T06:33:09Z</time></trkpt>
      <trkpt lat="30.127764" lon="118.179984"><ele>1092</ele><time>2025-12-31T06:35:12Z</time></trkpt>
      <trkpt lat="30.127973" lon="118.179779"><ele>1106</ele><time>2025-12-31T06:36:16Z</time></trkpt>
      <trkpt lat="30.128063" lon="118.179751"><ele>1110</ele><time>2025-12-31T06:36:49Z</time></trkpt>
      <trkpt lat="30.128117" lon="118.179826"><ele>1112</ele><time>2025-12-31T06:37:06Z</time></trkpt>
      <trkpt lat="30.128083" lon="118.179789"><ele>1115</ele><time>2025-12-31T06:37:34Z</time></trkpt>
      <trkpt lat="30.128256" lon="118.179712"><ele>1121</ele><time>2025-12-31T06:38:40Z</time></trkpt>
      <trkpt lat="30.128285" lon="118.179612"><ele>1124</ele><time>2025-12-31T06:39:04Z</time></trkpt>
      <trkpt lat="30.128405" lon="118.179638"><ele>1134</ele><time>2025-12-31T06:39:49Z</time></trkpt>
      <trkpt lat="30.12852" lon="118.179232"><ele>1146</ele><time>2025-12-31T06:40:51Z</time></trkpt>
      <trkpt lat="30.128761" lon="118.179099"><ele>1159</ele><time>2025-12-31T06:41:35Z</time></trkpt>
      <trkpt lat="30.128743" lon="118.178922"><ele>1161</ele><time>2025-12-31T06:41:51Z</time></trkpt>
      <trkpt lat="30.128921" lon="118.178921"><ele>1180</ele><time>2025-12-31T06:43:05Z</time></trkpt>
      <trkpt lat="30.128958" lon="118.178602"><ele>1186</ele><time>2025-12-31T06:44:16Z</time></trkpt>
      <trkpt lat="30.12908" lon="118.178426"><ele>1190</ele><time>2025-12-31T06:44:54Z</time></trkpt>
      <trkpt lat="30.129292" lon="118.178334"><ele>1210</ele><time>2025-12-31T06:48:18Z</time></trkpt>
      <trkpt lat="30.129306" lon="118.178218"><ele>1208</ele><time>2025-12-31T06:48:33Z</time></trkpt>
      <trkpt lat="30.129457" lon="118.178005"><ele>1205</ele><time>2025-12-31T06:50:30Z</time></trkpt>
      <trkpt lat="30.129457" lon="118.17772"><ele>1217</ele><time>2025-12-31T06:51:12Z</time></trkpt>
      <trkpt lat="30.129621" lon="118.177332"><ele>1234</ele><time>2025-12-31T06:53:06Z</time></trkpt>
      <trkpt lat="30.129592" lon="118.17723"><ele>1242</ele><time>2025-12-31T06:53:40Z</time></trkpt>
      <trkpt lat="30.129984" lon="118.176845"><ele>1262</ele><time>2025-12-31T06:56:37Z</time></trkpt>
      <trkpt lat="30.130085" lon="118.176607"><ele>1273</ele><time>2025-12-31T06:57:38Z</time></trkpt>
      <trkpt lat="30.130288" lon="118.176628"><ele>1273</ele><time>2025-12-31T07:02:40Z</time></trkpt>
      <trkpt lat="30.130391" lon="118.176517"><ele>1264</ele><time>2025-12-31T07:03:06Z</time></trkpt>
      <trkpt lat="30.13049" lon="118.176515"><ele>1265</ele><time>2025-12-31T07:03:18Z</time></trkpt>
      <trkpt lat="30.130567" lon="118.176576"><ele>1263</ele><time>2025-12-31T07:03:29Z</time></trkpt>
      <trkpt lat="30.13064" lon="118.176862"><ele>1263</ele><time>2025-12-31T07:03:50Z</time></trkpt>
      <trkpt lat="30.130925" lon="118.176619"><ele>1257</ele><time>2025-12-31T07:04:22Z</time></trkpt>
      <trkpt lat="30.131078" lon="118.176614"><ele>1253</ele><time>2025-12-31T07:04:38Z</time></trkpt>
      <trkpt lat="30.131143" lon="118.17619"><ele>1250</ele><time>2025-12-31T07:05:24Z</time></trkpt>
      <trkpt lat="30.131246" lon="118.175988"><ele>1253</ele><time>2025-12-31T07:05:42Z</time></trkpt>
      <trkpt lat="30.131399" lon="118.175981"><ele>1255</ele><time>2025-12-31T07:05:57Z</time></trkpt>
      <trkpt lat="30.13151" lon="118.17588"><ele>1261</ele><time>2025-12-31T07:06:20Z</time></trkpt>
      <trkpt lat="30.131743" lon="118.175812"><ele>1271</ele><time>2025-12-31T07:07:05Z</time></trkpt>
      <trkpt lat="30.131797" lon="118.175604"><ele>1278</ele><time>2025-12-31T07:07:49Z</time></trkpt>
      <trkpt lat="30.131902" lon="118.175497"><ele>1285</ele><time>2025-12-31T07:08:21Z</time></trkpt>
      <trkpt lat="30.131969" lon="118.17563"><ele>1285</ele><time>2025-12-31T07:08:53Z</time></trkpt>
      <trkpt lat="30.132011" lon="118.175611"><ele>1287</ele><time>2025-12-31T07:09:05Z</time></trkpt>
      <trkpt lat="30.132068" lon="118.175462"><ele>1291</ele><time>2025-12-31T07:09:38Z</time></trkpt>
      <trkpt lat="30.132309" lon="118.175202"><ele>1304</ele><time>2025-12-31T07:10:48Z</time></trkpt>
      <trkpt lat="30.132367" lon="118.174878"><ele>1305</ele><time>2025-12-31T07:11:32Z</time></trkpt>
      <trkpt lat="30.132539" lon="118.174752"><ele>1308</ele><time>2025-12-31T07:12:01Z</time></trkpt>
      <trkpt lat="30.132581" lon="118.174485"><ele>1297</ele><time>2025-12-31T07:12:46Z</time></trkpt>
      <trkpt lat="30.132697" lon="118.174295"><ele>1307</ele><time>2025-12-31T07:13:04Z</time></trkpt>
      <trkpt lat="30.133336" lon="118.173654"><ele>1307</ele><time>2025-12-31T07:14:34Z</time></trkpt>
      <trkpt lat="30.133442" lon="118.173655"><ele>1309</ele><time>2025-12-31T07:14:44Z</time></trkpt>
      <trkpt lat="30.133523" lon="118.173785"><ele>1314</ele><time>2025-12-31T07:15:08Z</time></trkpt>
      <trkpt lat="30.133936" lon="118.173323"><ele>1338</ele><time>2025-12-31T07:17:08Z</time></trkpt>
      <trkpt lat="30.133906" lon="118.173233"><ele>1384</ele><time>2025-12-31T07:17:42Z</time></trkpt>
      <trkpt lat="30.134017" lon="118.172988"><ele>1392</ele><time>2025-12-31T07:18:20Z</time></trkpt>
      <trkpt lat="30.134214" lon="118.172749"><ele>1393</ele><time>2025-12-31T07:19:02Z</time></trkpt>
      <trkpt lat="30.134622" lon="118.172545"><ele>1386</ele><time>2025-12-31T07:20:23Z</time></trkpt>
      <trkpt lat="30.134924" lon="118.172277"><ele>1399</ele><time>2025-12-31T07:21:57Z</time></trkpt>
      <trkpt lat="30.134965" lon="118.172133"><ele>1402</ele><time>2025-12-31T07:22:29Z</time></trkpt>
      <trkpt lat="30.135048" lon="118.17207"><ele>1403</ele><time>2025-12-31T07:22:54Z</time></trkpt>
      <trkpt lat="30.13518" lon="118.172091"><ele>1416</ele><time>2025-12-31T07:23:32Z</time></trkpt>
      <trkpt lat="30.135176" lon="118.171987"><ele>1416</ele><time>2025-12-31T07:23:55Z</time></trkpt>
      <trkpt lat="30.13526" lon="118.171937"><ele>1423</ele><time>2025-12-31T07:24:20Z</time></trkpt>
      <trkpt lat="30.13538" lon="118.171702"><ele>1421</ele><time>2025-12-31T07:27:08Z</time></trkpt>
      <trkpt lat="30.135654" lon="118.171634"><ele>1444</ele><time>2025-12-31T07:28:33Z</time></trkpt>
      <trkpt lat="30.13576" lon="118.171541"><ele>1452</ele><time>2025-12-31T07:29:05Z</time></trkpt>
      <trkpt lat="30.135827" lon="118.171267"><ele>1453</ele><time>2025-12-31T07:30:45Z</time></trkpt>
      <trkpt lat="30.13609" lon="118.170794"><ele>1465</ele><time>2025-12-31T07:31:53Z</time></trkpt>
      <trkpt lat="30.136217" lon="118.170708"><ele>1469</ele><time>2025-12-31T07:32:20Z</time></trkpt>
      <trkpt lat="30.136269" lon="118.170552"><ele>1471</ele><time>2025-12-31T07:32:51Z</time></trkpt>
      <trkpt lat="30.136527" lon="118.170402"><ele>1484</ele><time>2025-12-31T07:33:57Z</time></trkpt>
      <trkpt lat="30.13682" lon="118.170066"><ele>1500</ele><time>2025-12-31T07:36:11Z</time></trkpt>
      <trkpt lat="30.136855" lon="118.170149"><ele>1504</ele><time>2025-12-31T07:36:29Z</time></trkpt>
      <trkpt lat="30.136896" lon="118.170123"><ele>1509</ele><time>2025-12-31T07:37:15Z</time></trkpt>
      <trkpt lat="30.136981" lon="118.169934"><ele>1514</ele><time>2025-12-31T07:38:08Z</time></trkpt>
      <trkpt lat="30.137023" lon="118.169958"><ele>1514</ele><time>2025-12-31T07:38:22Z</time></trkpt>
      <trkpt lat="30.137461" lon="118.169653"><ele>1555</ele><time>2025-12-31T07:41:06Z</time></trkpt>
      <trkpt lat="30.137522" lon="118.169733"><ele>1549</ele><time>2025-12-31T07:42:43Z</time></trkpt>
      <trkpt lat="30.137633" lon="118.169649"><ele>1566</ele><time>2025-12-31T07:43:21Z</time></trkpt>
      <trkpt lat="30.137649" lon="118.169698"><ele>1567</ele><time>2025-12-31T07:44:05Z</time></trkpt>
      <trkpt lat="30.137962" lon="118.169602"><ele>1586</ele><time>2025-12-31T07:45:30Z</time></trkpt>
      <trkpt lat="30.138098" lon="118.16964"><ele>1591</ele><time>2025-12-31T07:46:08Z</time></trkpt>
      <trkpt lat="30.138227" lon="118.169346"><ele>1606</ele><time>2025-12-31T07:47:25Z</time></trkpt>
      <trkpt lat="30.138508" lon="118.169039"><ele>1624</ele><time>2025-12-31T07:48:50Z</time></trkpt>
      <trkpt lat="30.138537" lon="118.168716"><ele>1625</ele><time>2025-12-31T07:49:33Z</time></trkpt>
      <trkpt lat="30.138694" lon="118.168602"><ele>1629</ele><time>2025-12-31T07:50:04Z</time></trkpt>
      <trkpt lat="30.13886" lon="118.168669"><ele>1642</ele><time>2025-12-31T07:50:49Z</time></trkpt>
      <trkpt lat="30.13907" lon="118.16839"><ele>1662</ele><time>2025-12-31T07:52:18Z</time></trkpt>
      <trkpt lat="30.139221" lon="118.168117"><ele>1672</ele><time>2025-12-31T07:53:42Z</time></trkpt>
      <trkpt lat="30.13927" lon="118.167643"><ele>1684</ele><time>2025-12-31T07:55:01Z</time></trkpt>
      <trkpt lat="30.139405" lon="118.167577"><ele>1694</ele><time>2025-12-31T07:56:53Z</time></trkpt>
      <trkpt lat="30.139456" lon="118.167596"><ele>1694</ele><time>2025-12-31T07:56:59Z</time></trkpt>
      <trkpt lat="30.139396" lon="118.167687"><ele>1694</ele><time>2025-12-31T07:57:11Z</time></trkpt>
      <trkpt lat="30.139525" lon="118.167681"><ele>1682</ele><time>2025-12-31T07:59:19Z</time></trkpt>
      <trkpt lat="30.139388" lon="118.167662"><ele>1688</ele><time>2025-12-31T08:00:30Z</time></trkpt>
      <trkpt lat="30.139412" lon="118.167608"><ele>1684</ele><time>2025-12-31T08:01:56Z</time></trkpt>
      <trkpt lat="30.139656" lon="118.167417"><ele>1682</ele><time>2025-12-31T08:02:26Z</time></trkpt>
      <trkpt lat="30.139872" lon="118.167665"><ele>1682</ele><time>2025-12-31T08:02:56Z</time></trkpt>
      <trkpt lat="30.140314" lon="118.167592"><ele>1670</ele><time>2025-12-31T08:03:50Z</time></trkpt>
      <trkpt lat="30.140457" lon="118.167656"><ele>1669</ele><time>2025-12-31T08:04:04Z</time></trkpt>
      <trkpt lat="30.140906" lon="118.167599"><ele>1660</ele><time>2025-12-31T08:04:52Z</time></trkpt>
      <trkpt lat="30.141107" lon="118.167659"><ele>1655</ele><time>2025-12-31T08:05:12Z</time></trkpt>
      <trkpt lat="30.141497" lon="118.167519"><ele>1650</ele><time>2025-12-31T08:05:48Z</time></trkpt>
      <trkpt lat="30.142002" lon="118.167658"><ele>1646</ele><time>2025-12-31T08:06:34Z</time></trkpt>
      <trkpt lat="30.142338" lon="118.167905"><ele>1643</ele><time>2025-12-31T08:07:08Z</time></trkpt>
      <trkpt lat="30.142496" lon="118.167906"><ele>1641</ele><time>2025-12-31T08:07:25Z</time></trkpt>
      <trkpt lat="30.142596" lon="118.167867"><ele>1640</ele><time>2025-12-31T08:07:43Z</time></trkpt>
      <trkpt lat="30.142738" lon="118.167455"><ele>1627</ele><time>2025-12-31T08:08:26Z</time></trkpt>
      <trkpt lat="30.142882" lon="118.167363"><ele>1624</ele><time>2025-12-31T08:08:40Z</time></trkpt>
      <trkpt lat="30.143238" lon="118.167286"><ele>1620</ele><time>2025-12-31T08:09:09Z</time></trkpt>
      <trkpt lat="30.143779" lon="118.166703"><ele>1611</ele><time>2025-12-31T08:10:09Z</time></trkpt>
      <trkpt lat="30.14399" lon="118.166669"><ele>1609</ele><time>2025-12-31T08:10:25Z</time></trkpt>
      <trkpt lat="30.144143" lon="118.166787"><ele>1604</ele><time>2025-12-31T08:10:54Z</time></trkpt>
      <trkpt lat="30.144145" lon="118.166635"><ele>1603</ele><time>2025-12-31T08:13:08Z</time></trkpt>
      <trkpt lat="30.144604" lon="118.166324"><ele>1598</ele><time>2025-12-31T08:14:32Z</time></trkpt>
      <trkpt lat="30.144719" lon="118.165707"><ele>1597</ele><time>2025-12-31T08:15:28Z</time></trkpt>
      <trkpt lat="30.144637" lon="118.165557"><ele>1596</ele><time>2025-12-31T08:16:38Z</time></trkpt>
      <trkpt lat="30.144635" lon="118.165383"><ele>1595</ele><time>2025-12-31T08:16:53Z</time></trkpt>
      <trkpt lat="30.144512" lon="118.165288"><ele>1596</ele><time>2025-12-31T08:17:12Z</time></trkpt>
      <trkpt lat="30.144455" lon="118.165121"><ele>1598</ele><time>2025-12-31T08:17:27Z</time></trkpt>
      <trkpt lat="30.144044" lon="118.164749"><ele>1608</ele><time>2025-12-31T08:18:40Z</time></trkpt>
      <trkpt lat="30.143875" lon="118.164429"><ele>1613</ele><time>2025-12-31T08:19:29Z</time></trkpt>
      <trkpt lat="30.14385" lon="118.164205"><ele>1620</ele><time>2025-12-31T08:19:53Z</time></trkpt>
      <trkpt lat="30.143945" lon="118.164089"><ele>1621</ele><time>2025-12-31T08:20:11Z</time></trkpt>
      <trkpt lat="30.143988" lon="118.16366"><ele>1620</ele><time>2025-12-31T08:20:48Z</time></trkpt>
      <trkpt lat="30.14387" lon="118.163412"><ele>1621</ele><time>2025-12-31T08:21:11Z</time></trkpt>
      <trkpt lat="30.143875" lon="118.162881"><ele>1614</ele><time>2025-12-31T08:21:57Z</time></trkpt>
      <trkpt lat="30.143537" lon="118.161444"><ele>1591</ele><time>2025-12-31T08:24:23Z</time></trkpt>
      <trkpt lat="30.143404" lon="118.161401"><ele>1583</ele><time>2025-12-31T08:24:37Z</time></trkpt>
      <trkpt lat="30.143365" lon="118.161117"><ele>1577</ele><time>2025-12-31T08:25:09Z</time></trkpt>
      <trkpt lat="30.143158" lon="118.161135"><ele>1569</ele><time>2025-12-31T08:25:33Z</time></trkpt>
      <trkpt lat="30.143116" lon="118.160659"><ele>1565</ele><time>2025-12-31T08:26:10Z</time></trkpt>
      <trkpt lat="30.142708" lon="118.159928"><ele>1566</ele><time>2025-12-31T08:27:36Z</time></trkpt>
      <trkpt lat="30.14263" lon="118.159861"><ele>1566</ele><time>2025-12-31T08:27:44Z</time></trkpt>
      <trkpt lat="30.142435" lon="118.159883"><ele>1571</ele><time>2025-12-31T08:28:03Z</time></trkpt>
      <trkpt lat="30.142315" lon="118.159746"><ele>1569</ele><time>2025-12-31T08:28:17Z</time></trkpt>
      <trkpt lat="30.142309" lon="118.159625"><ele>1568</ele><time>2025-12-31T08:28:26Z</time></trkpt>
      <trkpt lat="30.142514" lon="118.159365"><ele>1575</ele><time>2025-12-31T08:28:58Z</time></trkpt>
      <trkpt lat="30.142468" lon="118.159144"><ele>1579</ele><time>2025-12-31T08:29:21Z</time></trkpt>
      <trkpt lat="30.142229" lon="118.158786"><ele>1583</ele><time>2025-12-31T08:30:02Z</time></trkpt>
      <trkpt lat="30.142306" lon="118.158169"><ele>1592</ele><time>2025-12-31T08:30:51Z</time></trkpt>
      <trkpt lat="30.142269" lon="118.15793"><ele>1594</ele><time>2025-12-31T08:31:07Z</time></trkpt>
      <trkpt lat="30.142361" lon="118.157869"><ele>1597</ele><time>2025-12-31T08:31:20Z</time></trkpt>
      <trkpt lat="30.142166" lon="118.158247"><ele>1630</ele><time>2025-12-31T08:32:01Z</time></trkpt>
      <trkpt lat="30.142208" lon="118.158259"><ele>1630</ele><time>2025-12-31T08:33:01Z</time></trkpt>
      <trkpt lat="30.142519" lon="118.157886"><ele>1630</ele><time>2025-12-31T08:33:20Z</time></trkpt>
      <trkpt lat="30.142481" lon="118.157821"><ele>1632</ele><time>2025-12-31T08:33:44Z</time></trkpt>
      <trkpt lat="30.142607" lon="118.157925"><ele>1636</ele><time>2025-12-31T08:34:11Z</time></trkpt>
      <trkpt lat="30.142864" lon="118.157805"><ele>1614</ele><time>2025-12-31T08:34:25Z</time></trkpt>
      <trkpt lat="30.142651" lon="118.157763"><ele>1612</ele><time>2025-12-31T08:34:28Z</time></trkpt>
      <trkpt lat="30.142464" lon="118.157845"><ele>1608</ele><time>2025-12-31T08:34:47Z</time></trkpt>
      <trkpt lat="30.142887" lon="118.157933"><ele>1612</ele><time>2025-12-31T08:35:12Z</time></trkpt>
      <trkpt lat="30.142916" lon="118.157754"><ele>1613</ele><time>2025-12-31T08:35:20Z</time></trkpt>
      <trkpt lat="30.142965" lon="118.157832"><ele>1611</ele><time>2025-12-31T08:35:54Z</time></trkpt>
      <trkpt lat="30.142938" lon="118.157973"><ele>1613</ele><time>2025-12-31T08:36:10Z</time></trkpt>
      <trkpt lat="30.142812" lon="118.157996"><ele>1613</ele><time>2025-12-31T08:36:12Z</time></trkpt>
      <trkpt lat="30.142814" lon="118.157941"><ele>1613</ele><time>2025-12-31T08:36:21Z</time></trkpt>
      <trkpt lat="30.14292" lon="118.157966"><ele>1612</ele><time>2025-12-31T08:36:33Z</time></trkpt>
      <trkpt lat="30.143101" lon="118.157809"><ele>1614</ele><time>2025-12-31T08:36:41Z</time></trkpt>
      <trkpt lat="30.142929" lon="118.157691"><ele>1616</ele><time>2025-12-31T08:36:52Z</time></trkpt>
      <trkpt lat="30.142838" lon="118.157906"><ele>1617</ele><time>2025-12-31T08:48:30Z</time></trkpt>
      <trkpt lat="30.142779" lon="118.157878"><ele>1619</ele><time>2025-12-31T08:54:45Z</time></trkpt>
      <trkpt lat="30.142885" lon="118.157821"><ele>1618</ele><time>2025-12-31T08:54:53Z</time></trkpt>
      <trkpt lat="30.142154" lon="118.157238"><ele>1597</ele><time>2026-01-01T01:12:06Z</time></trkpt>
      <trkpt lat="30.141754" lon="118.157273"><ele>1593</ele><time>2026-01-01T01:12:46Z</time></trkpt>
      <trkpt lat="30.140615" lon="118.157944"><ele>1631</ele><time>2026-01-01T01:16:39Z</time></trkpt>
      <trkpt lat="30.140546" lon="118.158157"><ele>1635</ele><time>2026-01-01T01:17:54Z</time></trkpt>
      <trkpt lat="30.14067" lon="118.158639"><ele>1626</ele><time>2026-01-01T01:19:15Z</time></trkpt>
      <trkpt lat="30.140529" lon="118.159029"><ele>1623</ele><time>2026-01-01T01:19:46Z</time></trkpt>
      <trkpt lat="30.140413" lon="118.159118"><ele>1626</ele><time>2026-01-01T01:20:01Z</time></trkpt>
      <trkpt lat="30.140218" lon="118.159125"><ele>1629</ele><time>2026-01-01T01:20:45Z</time></trkpt>
      <trkpt lat="30.140011" lon="118.158999"><ele>1640</ele><time>2026-01-01T01:21:41Z</time></trkpt>
      <trkpt lat="30.139783" lon="118.159193"><ele>1657</ele><time>2026-01-01T01:22:41Z</time></trkpt>
      <trkpt lat="30.139674" lon="118.159005"><ele>1663</ele><time>2026-01-01T01:23:23Z</time></trkpt>
      <trkpt lat="30.139416" lon="118.158915"><ele>1676</ele><time>2026-01-01T01:24:42Z</time></trkpt>
      <trkpt lat="30.139085" lon="118.15856"><ele>1697</ele><time>2026-01-01T01:26:47Z</time></trkpt>
      <trkpt lat="30.13889" lon="118.158605"><ele>1699</ele><time>2026-01-01T01:27:56Z</time></trkpt>
      <trkpt lat="30.13874" lon="118.158794"><ele>1699</ele><time>2026-01-01T01:28:18Z</time></trkpt>
      <trkpt lat="30.138607" lon="118.158858"><ele>1697</ele><time>2026-01-01T01:28:36Z</time></trkpt>
      <trkpt lat="30.138192" lon="118.158754"><ele>1698</ele><time>2026-01-01T01:29:35Z</time></trkpt>
      <trkpt lat="30.137935" lon="118.158818"><ele>1719</ele><time>2026-01-01T01:31:03Z</time></trkpt>
      <trkpt lat="30.137855" lon="118.158634"><ele>1714</ele><time>2026-01-01T01:32:12Z</time></trkpt>
      <trkpt lat="30.137845" lon="118.158783"><ele>1714</ele><time>2026-01-01T01:32:49Z</time></trkpt>
      <trkpt lat="30.137631" lon="118.158941"><ele>1714</ele><time>2026-01-01T01:33:31Z</time></trkpt>
      <trkpt lat="30.137243" lon="118.159002"><ele>1720</ele><time>2026-01-01T01:34:18Z</time></trkpt>
      <trkpt lat="30.137025" lon="118.159209"><ele>1723</ele><time>2026-01-01T01:35:17Z</time></trkpt>
      <trkpt lat="30.136686" lon="118.159183"><ele>1735</ele><time>2026-01-01T01:36:27Z</time></trkpt>
      <trkpt lat="30.136588" lon="118.158997"><ele>1743</ele><time>2026-01-01T01:37:21Z</time></trkpt>
      <trkpt lat="30.136277" lon="118.159009"><ele>1752</ele><time>2026-01-01T01:38:28Z</time></trkpt>
      <trkpt lat="30.135987" lon="118.159591"><ele>1758</ele><time>2026-01-01T01:40:11Z</time></trkpt>
      <trkpt lat="30.135574" lon="118.159978"><ele>1771</ele><time>2026-01-01T01:41:48Z</time></trkpt>
      <trkpt lat="30.135414" lon="118.160592"><ele>1787</ele><time>2026-01-01T01:43:42Z</time></trkpt>
      <trkpt lat="30.135557" lon="118.160622"><ele>1789</ele><time>2026-01-01T01:44:04Z</time></trkpt>
      <trkpt lat="30.135526" lon="118.160843"><ele>1794</ele><time>2026-01-01T01:44:44Z</time></trkpt>
      <trkpt lat="30.135367" lon="118.161196"><ele>1801</ele><time>2026-01-01T01:45:48Z</time></trkpt>
      <trkpt lat="30.135333" lon="118.161415"><ele>1801</ele><time>2026-01-01T01:46:13Z</time></trkpt>
      <trkpt lat="30.135065" lon="118.161789"><ele>1796</ele><time>2026-01-01T01:46:59Z</time></trkpt>
      <trkpt lat="30.134869" lon="118.162306"><ele>1804</ele><time>2026-01-01T01:48:01Z</time></trkpt>
      <trkpt lat="30.134749" lon="118.162398"><ele>1805</ele><time>2026-01-01T01:48:23Z</time></trkpt>
      <trkpt lat="30.134655" lon="118.162585"><ele>1810</ele><time>2026-01-01T01:48:52Z</time></trkpt>
      <trkpt lat="30.134495" lon="118.163177"><ele>1816</ele><time>2026-01-01T01:50:07Z</time></trkpt>
      <trkpt lat="30.134407" lon="118.163194"><ele>1818</ele><time>2026-01-01T01:50:43Z</time></trkpt>
      <trkpt lat="30.134394" lon="118.163136"><ele>1819</ele><time>2026-01-01T01:50:53Z</time></trkpt>
      <trkpt lat="30.134483" lon="118.163243"><ele>1816</ele><time>2026-01-01T01:52:46Z</time></trkpt>
      <trkpt lat="30.134053" lon="118.163703"><ele>1810</ele><time>2026-01-01T01:55:06Z</time></trkpt>
      <trkpt lat="30.133791" lon="118.164105"><ele>1791</ele><time>2026-01-01T01:56:09Z</time></trkpt>
      <trkpt lat="30.133626" lon="118.164215"><ele>1783</ele><time>2026-01-01T01:56:36Z</time></trkpt>
      <trkpt lat="30.133377" lon="118.164138"><ele>1777</ele><time>2026-01-01T01:57:18Z</time></trkpt>
      <trkpt lat="30.133027" lon="118.163748"><ele>1761</ele><time>2026-01-01T01:58:43Z</time></trkpt>
      <trkpt lat="30.132625" lon="118.163538"><ele>1740</ele><time>2026-01-01T02:00:20Z</time></trkpt>
      <trkpt lat="30.132157" lon="118.163073"><ele>1727</ele><time>2026-01-01T02:01:49Z</time></trkpt>
      <trkpt lat="30.132106" lon="118.162888"><ele>1729</ele><time>2026-01-01T02:02:06Z</time></trkpt>
      <trkpt lat="30.131803" lon="118.162429"><ele>1735</ele><time>2026-01-01T02:03:48Z</time></trkpt>
      <trkpt lat="30.131761" lon="118.161848"><ele>1740</ele><time>2026-01-01T02:04:51Z</time></trkpt>
      <trkpt lat="30.131655" lon="118.16167"><ele>1744</ele><time>2026-01-01T02:05:38Z</time></trkpt>
      <trkpt lat="30.131477" lon="118.161578"><ele>1753</ele><time>2026-01-01T02:06:18Z</time></trkpt>
      <trkpt lat="30.131234" lon="118.161711"><ele>1758</ele><time>2026-01-01T02:07:16Z</time></trkpt>
      <trkpt lat="30.130754" lon="118.161692"><ele>1766</ele><time>2026-01-01T02:08:22Z</time></trkpt>
      <trkpt lat="30.130666" lon="118.161382"><ele>1760</ele><time>2026-01-01T02:10:04Z</time></trkpt>
      <trkpt lat="30.130545" lon="118.161206"><ele>1758</ele><time>2026-01-01T02:10:35Z</time></trkpt>
      <trkpt lat="30.130532" lon="118.161023"><ele>1757</ele><time>2026-01-01T02:10:56Z</time></trkpt>
      <trkpt lat="30.130294" lon="118.160611"><ele>1755</ele><time>2026-01-01T02:11:59Z</time></trkpt>
      <trkpt lat="30.130287" lon="118.160666"><ele>1755</ele><time>2026-01-01T02:13:16Z</time></trkpt>
      <trkpt lat="30.129927" lon="118.16084"><ele>1739</ele><time>2026-01-01T02:14:33Z</time></trkpt>
      <trkpt lat="30.129576" lon="118.160709"><ele>1730</ele><time>2026-01-01T02:15:49Z</time></trkpt>
      <trkpt lat="30.129393" lon="118.160895"><ele>1729</ele><time>2026-01-01T02:16:43Z</time></trkpt>
      <trkpt lat="30.129351" lon="118.16115"><ele>1720</ele><time>2026-01-01T02:17:29Z</time></trkpt>
      <trkpt lat="30.129219" lon="118.161135"><ele>1716</ele><time>2026-01-01T02:17:46Z</time></trkpt>
      <trkpt lat="30.129255" lon="118.161252"><ele>1714</ele><time>2026-01-01T02:18:05Z</time></trkpt>
      <trkpt lat="30.129123" lon="118.161765"><ele>1703</ele><time>2026-01-01T02:19:08Z</time></trkpt>
      <trkpt lat="30.12896" lon="118.161955"><ele>1699</ele><time>2026-01-01T02:19:53Z</time></trkpt>
      <trkpt lat="30.128988" lon="118.162092"><ele>1700</ele><time>2026-01-01T02:19:56Z</time></trkpt>
      <trkpt lat="30.128937" lon="118.162256"><ele>1698</ele><time>2026-01-01T02:20:10Z</time></trkpt>
      <trkpt lat="30.128681" lon="118.162765"><ele>1703</ele><time>2026-01-01T02:21:35Z</time></trkpt>
      <trkpt lat="30.12879" lon="118.163084"><ele>1702</ele><time>2026-01-01T02:22:12Z</time></trkpt>
      <trkpt lat="30.12869" lon="118.163644"><ele>1696</ele><time>2026-01-01T02:23:21Z</time></trkpt>
      <trkpt lat="30.128572" lon="118.163926"><ele>1700</ele><time>2026-01-01T02:24:02Z</time></trkpt>
      <trkpt lat="30.128435" lon="118.164014"><ele>1700</ele><time>2026-01-01T02:24:17Z</time></trkpt>
      <trkpt lat="30.128189" lon="118.164038"><ele>1696</ele><time>2026-01-01T02:24:52Z</time></trkpt>
      <trkpt lat="30.127951" lon="118.163775"><ele>1685</ele><time>2026-01-01T02:25:52Z</time></trkpt>
      <trkpt lat="30.127722" lon="118.163668"><ele>1676</ele><time>2026-01-01T02:26:40Z</time></trkpt>
      <trkpt lat="30.127432" lon="118.163643"><ele>1666</ele><time>2026-01-01T02:27:33Z</time></trkpt>
      <trkpt lat="30.127112" lon="118.163705"><ele>1668</ele><time>2026-01-01T02:28:20Z</time></trkpt>
      <trkpt lat="30.127236" lon="118.163462"><ele>1673</ele><time>2026-01-01T02:29:19Z</time></trkpt>
      <trkpt lat="30.127178" lon="118.163336"><ele>1677</ele><time>2026-01-01T02:29:57Z</time></trkpt>
      <trkpt lat="30.126996" lon="118.163506"><ele>1684</ele><time>2026-01-01T02:31:13Z</time></trkpt>
      <trkpt lat="30.126712" lon="118.163984"><ele>1715</ele><time>2026-01-01T02:34:50Z</time></trkpt>
      <trkpt lat="30.126422" lon="118.164028"><ele>1703</ele><time>2026-01-01T02:36:14Z</time></trkpt>
      <trkpt lat="30.126249" lon="118.164211"><ele>1703</ele><time>2026-01-01T02:37:13Z</time></trkpt>
      <trkpt lat="30.12585" lon="118.164727"><ele>1706</ele><time>2026-01-01T02:38:31Z</time></trkpt>
      <trkpt lat="30.125622" lon="118.165148"><ele>1705</ele><time>2026-01-01T02:39:20Z</time></trkpt>
      <trkpt lat="30.12556" lon="118.16542"><ele>1702</ele><time>2026-01-01T02:39:52Z</time></trkpt>
      <trkpt lat="30.125473" lon="118.165541"><ele>1702</ele><time>2026-01-01T02:40:21Z</time></trkpt>
      <trkpt lat="30.125569" lon="118.165581"><ele>1703</ele><time>2026-01-01T02:40:47Z</time></trkpt>
      <trkpt lat="30.125665" lon="118.165847"><ele>1706</ele><time>2026-01-01T02:41:14Z</time></trkpt>
      <trkpt lat="30.125593" lon="118.166294"><ele>1698</ele><time>2026-01-01T02:42:10Z</time></trkpt>
      <trkpt lat="30.125604" lon="118.166662"><ele>1688</ele><time>2026-01-01T02:43:10Z</time></trkpt>
      <trkpt lat="30.125662" lon="118.166814"><ele>1679</ele><time>2026-01-01T02:44:30Z</time></trkpt>
      <trkpt lat="30.125809" lon="118.166937"><ele>1667</ele><time>2026-01-01T02:45:40Z</time></trkpt>
      <trkpt lat="30.12628" lon="118.167157"><ele>1660</ele><time>2026-01-01T02:47:13Z</time></trkpt>
      <trkpt lat="30.126505" lon="118.167619"><ele>1667</ele><time>2026-01-01T02:48:19Z</time></trkpt>
      <trkpt lat="30.126405" lon="118.167845"><ele>1678</ele><time>2026-01-01T02:49:24Z</time></trkpt>
      <trkpt lat="30.126399" lon="118.168061"><ele>1675</ele><time>2026-01-01T02:50:09Z</time></trkpt>
      <trkpt lat="30.126218" lon="118.168235"><ele>1674</ele><time>2026-01-01T02:50:49Z</time></trkpt>
      <trkpt lat="30.125872" lon="118.168964"><ele>1674</ele><time>2026-01-01T02:52:28Z</time></trkpt>
      <trkpt lat="30.125646" lon="118.16905"><ele>1680</ele><time>2026-01-01T02:53:13Z</time></trkpt>
      <trkpt lat="30.125251" lon="118.169423"><ele>1673</ele><time>2026-01-01T02:59:16Z</time></trkpt>
      <trkpt lat="30.124729" lon="118.170264"><ele>1681</ele><time>2026-01-01T03:02:13Z</time></trkpt>
      <trkpt lat="30.124613" lon="118.170196"><ele>1677</ele><time>2026-01-01T03:02:41Z</time></trkpt>
      <trkpt lat="30.124622" lon="118.169975"><ele>1657</ele><time>2026-01-01T03:04:19Z</time></trkpt>
      <trkpt lat="30.124529" lon="118.170012"><ele>1667</ele><time>2026-01-01T03:04:38Z</time></trkpt>
      <trkpt lat="30.124501" lon="118.170112"><ele>1669</ele><time>2026-01-01T03:04:55Z</time></trkpt>
      <trkpt lat="30.124366" lon="118.170162"><ele>1673</ele><time>2026-01-01T03:05:06Z</time></trkpt>
      <trkpt lat="30.124175" lon="118.170599"><ele>1636</ele><time>2026-01-01T03:06:48Z</time></trkpt>
      <trkpt lat="30.123901" lon="118.170797"><ele>1627</ele><time>2026-01-01T03:08:56Z</time></trkpt>
      <trkpt lat="30.123923" lon="118.17091"><ele>1598</ele><time>2026-01-01T03:09:36Z</time></trkpt>
      <trkpt lat="30.123867" lon="118.170822"><ele>1598</ele><time>2026-01-01T03:09:40Z</time></trkpt>
      <trkpt lat="30.123889" lon="118.170884"><ele>1599</ele><time>2026-01-01T03:09:41Z</time></trkpt>
      <trkpt lat="30.123461" lon="118.171086"><ele>1596</ele><time>2026-01-01T03:11:36Z</time></trkpt>
      <trkpt lat="30.123446" lon="118.170984"><ele>1594</ele><time>2026-01-01T03:12:02Z</time></trkpt>
      <trkpt lat="30.123397" lon="118.170987"><ele>1589</ele><time>2026-01-01T03:12:24Z</time></trkpt>
      <trkpt lat="30.123154" lon="118.171298"><ele>1570</ele><time>2026-01-01T03:13:59Z</time></trkpt>
      <trkpt lat="30.123014" lon="118.17133"><ele>1557</ele><time>2026-01-01T03:14:19Z</time></trkpt>
      <trkpt lat="30.122997" lon="118.171223"><ele>1551</ele><time>2026-01-01T03:14:41Z</time></trkpt>
      <trkpt lat="30.122953" lon="118.17124"><ele>1548</ele><time>2026-01-01T03:14:48Z</time></trkpt>
      <trkpt lat="30.122997" lon="118.171206"><ele>1549</ele><time>2026-01-01T03:15:00Z</time></trkpt>
      <trkpt lat="30.122921" lon="118.171147"><ele>1542</ele><time>2026-01-01T03:15:26Z</time></trkpt>
      <trkpt lat="30.123066" lon="118.171004"><ele>1538</ele><time>2026-01-01T03:16:03Z</time></trkpt>
      <trkpt lat="30.12296" lon="118.170898"><ele>1533</ele><time>2026-01-01T03:16:37Z</time></trkpt>
      <trkpt lat="30.123063" lon="118.17063"><ele>1521</ele><time>2026-01-01T03:17:39Z</time></trkpt>
      <trkpt lat="30.123037" lon="118.170531"><ele>1521</ele><time>2026-01-01T03:18:00Z</time></trkpt>
      <trkpt lat="30.122869" lon="118.170436"><ele>1516</ele><time>2026-01-01T03:18:40Z</time></trkpt>
      <trkpt lat="30.122769" lon="118.170469"><ele>1515</ele><time>2026-01-01T03:18:50Z</time></trkpt>
      <trkpt lat="30.122628" lon="118.170326"><ele>1503</ele><time>2026-01-01T03:19:22Z</time></trkpt>
      <trkpt lat="30.122258" lon="118.170362"><ele>1499</ele><time>2026-01-01T03:20:20Z</time></trkpt>
      <trkpt lat="30.122101" lon="118.170251"><ele>1507</ele><time>2026-01-01T03:20:45Z</time></trkpt>
      <trkpt lat="30.121881" lon="118.170523"><ele>1509</ele><time>2026-01-01T03:21:32Z</time></trkpt>
      <trkpt lat="30.12164" lon="118.170564"><ele>1511</ele><time>2026-01-01T03:22:13Z</time></trkpt>
      <trkpt lat="30.121477" lon="118.170673"><ele>1515</ele><time>2026-01-01T03:22:55Z</time></trkpt>
      <trkpt lat="30.121284" lon="118.17066"><ele>1525</ele><time>2026-01-01T03:23:32Z</time></trkpt>
      <trkpt lat="30.121062" lon="118.170864"><ele>1518</ele><time>2026-01-01T03:24:37Z</time></trkpt>
      <trkpt lat="30.120855" lon="118.170675"><ele>1503</ele><time>2026-01-01T03:25:34Z</time></trkpt>
      <trkpt lat="30.12075" lon="118.170468"><ele>1494</ele><time>2026-01-01T03:26:12Z</time></trkpt>
      <trkpt lat="30.120706" lon="118.170484"><ele>1492</ele><time>2026-01-01T03:26:32Z</time></trkpt>
      <trkpt lat="30.120597" lon="118.170582"><ele>1484</ele><time>2026-01-01T03:27:25Z</time></trkpt>
      <trkpt lat="30.120555" lon="118.170898"><ele>1475</ele><time>2026-01-01T03:29:20Z</time></trkpt>
      <trkpt lat="30.119929" lon="118.171079"><ele>1428</ele><time>2026-01-01T03:33:02Z</time></trkpt>
      <trkpt lat="30.119753" lon="118.171263"><ele>1413</ele><time>2026-01-01T03:33:48Z</time></trkpt>
      <trkpt lat="30.119576" lon="118.171342"><ele>1401</ele><time>2026-01-01T03:34:28Z</time></trkpt>
      <trkpt lat="30.119432" lon="118.171319"><ele>1395</ele><time>2026-01-01T03:35:07Z</time></trkpt>
      <trkpt lat="30.119427" lon="118.171376"><ele>1397</ele><time>2026-01-01T03:35:24Z</time></trkpt>
      <trkpt lat="30.119328" lon="118.171247"><ele>1376</ele><time>2026-01-01T03:44:00Z</time></trkpt>
      <trkpt lat="30.119016" lon="118.17122"><ele>1370</ele><time>2026-01-01T03:45:32Z</time></trkpt>
      <trkpt lat="30.118855" lon="118.17109"><ele>1354</ele><time>2026-01-01T03:47:16Z</time></trkpt>
      <trkpt lat="30.118894" lon="118.171002"><ele>1341</ele><time>2026-01-01T03:48:14Z</time></trkpt>
      <trkpt lat="30.118803" lon="118.170973"><ele>1348</ele><time>2026-01-01T03:48:43Z</time></trkpt>
      <trkpt lat="30.118583" lon="118.171075"><ele>1344</ele><time>2026-01-01T03:49:29Z</time></trkpt>
      <trkpt lat="30.118375" lon="118.171388"><ele>1335</ele><time>2026-01-01T03:50:17Z</time></trkpt>
      <trkpt lat="30.118169" lon="118.171519"><ele>1323</ele><time>2026-01-01T03:50:58Z</time></trkpt>
      <trkpt lat="30.118016" lon="118.171531"><ele>1320</ele><time>2026-01-01T03:51:23Z</time></trkpt>
      <trkpt lat="30.117962" lon="118.171449"><ele>1305</ele><time>2026-01-01T03:52:09Z</time></trkpt>
      <trkpt lat="30.117804" lon="118.171562"><ele>1303</ele><time>2026-01-01T03:52:38Z</time></trkpt>
      <trkpt lat="30.117765" lon="118.17143"><ele>1283</ele><time>2026-01-01T03:53:29Z</time></trkpt>
      <trkpt lat="30.117572" lon="118.171454"><ele>1276</ele><time>2026-01-01T03:54:19Z</time></trkpt>
      <trkpt lat="30.117505" lon="118.171261"><ele>1251</ele><time>2026-01-01T03:55:22Z</time></trkpt>
      <trkpt lat="30.117413" lon="118.171236"><ele>1258</ele><time>2026-01-01T03:55:35Z</time></trkpt>
      <trkpt lat="30.117317" lon="118.171351"><ele>1253</ele><time>2026-01-01T03:55:54Z</time></trkpt>
      <trkpt lat="30.117085" lon="118.171398"><ele>1249</ele><time>2026-01-01T03:56:34Z</time></trkpt>
      <trkpt lat="30.116921" lon="118.171294"><ele>1241</ele><time>2026-01-01T03:57:08Z</time></trkpt>
      <trkpt lat="30.11693" lon="118.171349"><ele>1237</ele><time>2026-01-01T03:57:23Z</time></trkpt>
      <trkpt lat="30.11687" lon="118.171146"><ele>1232</ele><time>2026-01-01T04:01:08Z</time></trkpt>
      <trkpt lat="30.116736" lon="118.171086"><ele>1229</ele><time>2026-01-01T04:01:50Z</time></trkpt>
      <trkpt lat="30.116675" lon="118.170849"><ele>1227</ele><time>2026-01-01T04:03:02Z</time></trkpt>
      <trkpt lat="30.116663" lon="118.170902"><ele>1225</ele><time>2026-01-01T04:03:49Z</time></trkpt>
      <trkpt lat="30.116595" lon="118.170801"><ele>1220</ele><time>2026-01-01T04:04:12Z</time></trkpt>
      <trkpt lat="30.116454" lon="118.170781"><ele>1213</ele><time>2026-01-01T04:04:39Z</time></trkpt>
      <trkpt lat="30.116325" lon="118.170628"><ele>1205</ele><time>2026-01-01T04:05:13Z</time></trkpt>
      <trkpt lat="30.116349" lon="118.170521"><ele>1198</ele><time>2026-01-01T04:05:39Z</time></trkpt>
      <trkpt lat="30.116281" lon="118.170442"><ele>1198</ele><time>2026-01-01T04:05:48Z</time></trkpt>
      <trkpt lat="30.116085" lon="118.17042"><ele>1198</ele><time>2026-01-01T04:06:18Z</time></trkpt>
      <trkpt lat="30.115981" lon="118.170503"><ele>1188</ele><time>2026-01-01T04:06:49Z</time></trkpt>
      <trkpt lat="30.115928" lon="118.170651"><ele>1183</ele><time>2026-01-01T04:07:26Z</time></trkpt>
      <trkpt lat="30.115735" lon="118.170614"><ele>1176</ele><time>2026-01-01T04:07:57Z</time></trkpt>
      <trkpt lat="30.115697" lon="118.170717"><ele>1172</ele><time>2026-01-01T04:08:06Z</time></trkpt>
      <trkpt lat="30.115422" lon="118.170652"><ele>1158</ele><time>2026-01-01T04:09:07Z</time></trkpt>
      <trkpt lat="30.115107" lon="118.170525"><ele>1144</ele><time>2026-01-01T04:10:27Z</time></trkpt>
      <trkpt lat="30.115131" lon="118.170477"><ele>1138</ele><time>2026-01-01T04:10:47Z</time></trkpt>
      <trkpt lat="30.11501" lon="118.170406"><ele>1131</ele><time>2026-01-01T04:11:13Z</time></trkpt>
      <trkpt lat="30.115075" lon="118.170176"><ele>1132</ele><time>2026-01-01T04:11:32Z</time></trkpt>
      <trkpt lat="30.114782" lon="118.169843"><ele>1118</ele><time>2026-01-01T04:12:22Z</time></trkpt>
      <trkpt lat="30.114646" lon="118.169772"><ele>1113</ele><time>2026-01-01T04:12:51Z</time></trkpt>
      <trkpt lat="30.114401" lon="118.169776"><ele>1097</ele><time>2026-01-01T04:13:34Z</time></trkpt>
      <trkpt lat="30.114286" lon="118.169688"><ele>1084</ele><time>2026-01-01T04:14:02Z</time></trkpt>
      <trkpt lat="30.114153" lon="118.169739"><ele>1078</ele><time>2026-01-01T04:14:31Z</time></trkpt>
      <trkpt lat="30.114109" lon="118.169645"><ele>1070</ele><time>2026-01-01T04:14:51Z</time></trkpt>
      <trkpt lat="30.113982" lon="118.169717"><ele>1061</ele><time>2026-01-01T04:15:12Z</time></trkpt>
      <trkpt lat="30.113754" lon="118.169609"><ele>1048</ele><time>2026-01-01T04:15:55Z</time></trkpt>
      <trkpt lat="30.113683" lon="118.169679"><ele>1039</ele><time>2026-01-01T04:16:12Z</time></trkpt>
      <trkpt lat="30.113554" lon="118.169609"><ele>1029</ele><time>2026-01-01T04:16:57Z</time></trkpt>
      <trkpt lat="30.113494" lon="118.169704"><ele>1028</ele><time>2026-01-01T04:19:31Z</time></trkpt>
      <trkpt lat="30.11348" lon="118.169614"><ele>1026</ele><time>2026-01-01T04:19:44Z</time></trkpt>
      <trkpt lat="30.113352" lon="118.169672"><ele>1018</ele><time>2026-01-01T04:20:31Z</time></trkpt>
      <trkpt lat="30.1131" lon="118.169439"><ele>998</ele><time>2026-01-01T04:21:35Z</time></trkpt>
      <trkpt lat="30.112632" lon="118.169163"><ele>983</ele><time>2026-01-01T04:22:47Z</time></trkpt>
      <trkpt lat="30.112327" lon="118.16911"><ele>975</ele><time>2026-01-01T04:23:25Z</time></trkpt>
      <trkpt lat="30.112306" lon="118.169051"><ele>972</ele><time>2026-01-01T04:23:32Z</time></trkpt>
      <trkpt lat="30.112139" lon="118.169149"><ele>969</ele><time>2026-01-01T04:23:56Z</time></trkpt>
      <trkpt lat="30.112003" lon="118.168993"><ele>965</ele><time>2026-01-01T04:24:19Z</time></trkpt>
      <trkpt lat="30.111901" lon="118.169019"><ele>963</ele><time>2026-01-01T04:24:30Z</time></trkpt>
      <trkpt lat="30.111675" lon="118.168938"><ele>954</ele><time>2026-01-01T04:25:00Z</time></trkpt>
      <trkpt lat="30.111406" lon="118.168753"><ele>949</ele><time>2026-01-01T04:25:31Z</time></trkpt>
      <trkpt lat="30.111284" lon="118.168834"><ele>943</ele><time>2026-01-01T04:25:53Z</time></trkpt>
      <trkpt lat="30.111029" lon="118.16867"><ele>932</ele><time>2026-01-01T04:26:31Z</time></trkpt>
      <trkpt lat="30.110849" lon="118.168751"><ele>925</ele><time>2026-01-01T04:27:01Z</time></trkpt>
      <trkpt lat="30.110695" lon="118.168627"><ele>919</ele><time>2026-01-01T04:27:24Z</time></trkpt>
      <trkpt lat="30.110623" lon="118.168682"><ele>915</ele><time>2026-01-01T04:27:33Z</time></trkpt>
      <trkpt lat="30.110467" lon="118.168461"><ele>908</ele><time>2026-01-01T04:28:47Z</time></trkpt>
      <trkpt lat="30.110279" lon="118.168441"><ele>906</ele><time>2026-01-01T04:29:05Z</time></trkpt>
      <trkpt lat="30.110085" lon="118.168526"><ele>904</ele><time>2026-01-01T04:29:19Z</time></trkpt>
      <trkpt lat="30.110061" lon="118.168408"><ele>897</ele><time>2026-01-01T04:29:34Z</time></trkpt>
      <trkpt lat="30.109975" lon="118.168335"><ele>892</ele><time>2026-01-01T04:29:46Z</time></trkpt>
      <trkpt lat="30.109728" lon="118.168333"><ele>889</ele><time>2026-01-01T04:30:10Z</time></trkpt>
      <trkpt lat="30.109445" lon="118.168146"><ele>876</ele><time>2026-01-01T04:30:55Z</time></trkpt>
      <trkpt lat="30.108867" lon="118.168074"><ele>869</ele><time>2026-01-01T04:32:09Z</time></trkpt>
      <trkpt lat="30.108843" lon="118.167801"><ele>856</ele><time>2026-01-01T04:32:51Z</time></trkpt>
      <trkpt lat="30.108772" lon="118.167732"><ele>855</ele><time>2026-01-01T04:33:01Z</time></trkpt>
      <trkpt lat="30.108339" lon="118.16759"><ele>843</ele><time>2026-01-01T04:33:47Z</time></trkpt>
      <trkpt lat="30.108107" lon="118.167702"><ele>840</ele><time>2026-01-01T04:34:08Z</time></trkpt>
      <trkpt lat="30.108036" lon="118.167571"><ele>834</ele><time>2026-01-01T04:34:21Z</time></trkpt>
      <trkpt lat="30.1077" lon="118.16767"><ele>828</ele><time>2026-01-01T04:34:54Z</time></trkpt>
      <trkpt lat="30.107631" lon="118.167392"><ele>824</ele><time>2026-01-01T04:35:16Z</time></trkpt>
      <trkpt lat="30.107297" lon="118.167418"><ele>826</ele><time>2026-01-01T04:35:47Z</time></trkpt>
      <trkpt lat="30.107192" lon="118.167174"><ele>825</ele><time>2026-01-01T04:36:25Z</time></trkpt>
      <trkpt lat="30.10724" lon="118.167221"><ele>826</ele><time>2026-01-01T04:36:36Z</time></trkpt>
      <trkpt lat="30.107239" lon="118.167168"><ele>827</ele><time>2026-01-01T04:36:41Z</time></trkpt>
      <trkpt lat="30.10722" lon="118.167283"><ele>819</ele><time>2026-01-01T04:37:35Z</time></trkpt>
      <trkpt lat="30.10715" lon="118.167307"><ele>820</ele><time>2026-01-01T04:38:07Z</time></trkpt>
    </trkseg>
  </trk>
</gpx>
