<?xml version="1.0" encoding="UTF-8"?>
<gpx version="1.1" creator="MyWorld" xmlns="http://www.topografix.com/GPX/1/1">
  <metadata><name>绍兴走马岗</name></metadata>
  <trk>
    <name>绍兴走马岗</name>
    <trkseg>
      <trkpt lat="29.686881" lon="120.507957"><ele>317</ele><time>2025-04-26T01:40:56Z</time></trkpt>
      <trkpt lat="29.686513" lon="120.507945"><ele>325</ele><time>2025-04-26T01:41:30Z</time></trkpt>
      <trkpt lat="29.6862" lon="120.508193"><ele>325</ele><time>2025-04-26T01:42:06Z</time></trkpt>
      <trkpt lat="29.685491" lon="120.508985"><ele>326</ele><time>2025-04-26T01:43:22Z</time></trkpt>
      <trkpt lat="29.684843" lon="120.509405"><ele>335</ele><time>2025-04-26T01:44:17Z</time></trkpt>
      <trkpt lat="29.684554" lon="120.509366"><ele>334</ele><time>2025-04-26T01:44:37Z</time></trkpt>
      <trkpt lat="29.684416" lon="120.509207"><ele>334</ele><time>2025-04-26T01:44:51Z</time></trkpt>
      <trkpt lat="29.684047" lon="120.509057"><ele>335</ele><time>2025-04-26T01:45:21Z</time></trkpt>
      <trkpt lat="29.683984" lon="120.508978"><ele>334</ele><time>2025-04-26T01:45:30Z</time></trkpt>
      <trkpt lat="29.683986" lon="120.508851"><ele>336</ele><time>2025-04-26T01:45:42Z</time></trkpt>
      <trkpt lat="29.683928" lon="120.50895"><ele>347</ele><time>2025-04-26T01:46:47Z</time></trkpt>
      <trkpt lat="29.684005" lon="120.50889"><ele>346</ele><time>2025-04-26T01:47:17Z</time></trkpt>
      <trkpt lat="29.683904" lon="120.508904"><ele>343</ele><time>2025-04-26T01:52:02Z</time></trkpt>
      <trkpt lat="29.683766" lon="120.50908"><ele>345</ele><time>2025-04-26T01:52:25Z</time></trkpt>
      <trkpt lat="29.683866" lon="120.509074"><ele>344</ele><time>2025-04-26T01:52:41Z</time></trkpt>
      <trkpt lat="29.683926" lon="120.508961"><ele>343</ele><time>2025-04-26T01:52:52Z</time></trkpt>
      <trkpt lat="29.683263" lon="120.508808"><ele>348</ele><time>2025-04-26T01:53:47Z</time></trkpt>
      <trkpt lat="29.683139" lon="120.508979"><ele>344</ele><time>2025-04-26T01:54:09Z</time></trkpt>
      <trkpt lat="29.682668" lon="120.509327"><ele>346</ele><time>2025-04-26T01:54:59Z</time></trkpt>
      <trkpt lat="29.682398" lon="120.509302"><ele>349</ele><time>2025-04-26T01:55:26Z</time></trkpt>
      <trkpt lat="29.682482" lon="120.509369"><ele>346</ele><time>2025-04-26T01:55:43Z</time></trkpt>
      <trkpt lat="29.682447" lon="120.509475"><ele>345</ele><time>2025-04-26T01:55:55Z</time></trkpt>
      <trkpt lat="29.682175" lon="120.509789"><ele>353</ele><time>2025-04-26T01:56:41Z</time></trkpt>
      <trkpt lat="29.681626" lon="120.509964"><ele>364</ele><time>2025-04-26T01:57:54Z</time></trkpt>
      <trkpt lat="29.681154" lon="120.509785"><ele>372</ele><time>2025-04-26T01:58:36Z</time></trkpt>
      <trkpt lat="29.680694" lon="120.509396"><ele>386</ele><time>2025-04-26T01:59:46Z</time></trkpt>
      <trkpt lat="29.680424" lon="120.509477"><ele>388</ele><time>2025-04-26T02:00:16Z</time></trkpt>
      <trkpt lat="29.680209" lon="120.509278"><ele>402</ele><time>2025-04-26T02:01:07Z</time></trkpt>
      <trkpt lat="29.680135" lon="120.508953"><ele>409</ele><time>2025-04-26T02:02:00Z</time></trkpt>
      <trkpt lat="29.680013" lon="120.508788"><ele>413</ele><time>2025-04-26T02:02:17Z</time></trkpt>
      <trkpt lat="29.679565" lon="120.508567"><ele>423</ele><time>2025-04-26T02:02:57Z</time></trkpt>
      <trkpt lat="29.679422" lon="120.508432"><ele>428</ele><time>2025-04-26T02:03:17Z</time></trkpt>
      <trkpt lat="29.678965" lon="120.508526"><ele>434</ele><time>2025-04-26T02:04:03Z</time></trkpt>
      <trkpt lat="29.678993" lon="120.508422"><ele>435</ele><time>2025-04-26T02:04:13Z</time></trkpt>
      <trkpt lat="29.678908" lon="120.508378"><ele>437</ele><time>2025-04-26T02:04:34Z</time></trkpt>
      <trkpt lat="29.678148" lon="120.50882"><ele>454</ele><time>2025-04-26T02:06:15Z</time></trkpt>
      <trkpt lat="29.677875" lon="120.508779"><ele>460</ele><time>2025-04-26T02:06:48Z</time></trkpt>
      <trkpt lat="29.677727" lon="120.508496"><ele>472</ele><time>2025-04-26T02:07:28Z</time></trkpt>
      <trkpt lat="29.677383" lon="120.508318"><ele>478</ele><time>2025-04-26T02:08:09Z</time></trkpt>
      <trkpt lat="29.677199" lon="120.508332"><ele>483</ele><time>2025-04-26T02:08:34Z</time></trkpt>
      <trkpt lat="29.676963" lon="120.508151"><ele>486</ele><time>2025-04-26T02:09:03Z</time></trkpt>
      <trkpt lat="29.676776" lon="120.508151"><ele>491</ele><time>2025-04-26T02:09:23Z</time></trkpt>
      <trkpt lat="29.676725" lon="120.508052"><ele>495</ele><time>2025-04-26T02:09:35Z</time></trkpt>
      <trkpt lat="29.676649" lon="120.508112"><ele>496</ele><time>2025-04-26T02:09:48Z</time></trkpt>
      <trkpt lat="29.676725" lon="120.508312"><ele>497</ele><time>2025-04-26T02:10:06Z</time></trkpt>
      <trkpt lat="29.676634" lon="120.508331"><ele>501</ele><time>2025-04-26T02:10:27Z</time></trkpt>
      <trkpt lat="29.676475" lon="120.508074"><ele>509</ele><time>2025-04-26T02:11:00Z</time></trkpt>
      <trkpt lat="29.676438" lon="120.50764"><ele>514</ele><time>2025-04-26T02:11:48Z</time></trkpt>
      <trkpt lat="29.67598" lon="120.507477"><ele>529</ele><time>2025-04-26T02:12:52Z</time></trkpt>
      <trkpt lat="29.675324" lon="120.507448"><ele>536</ele><time>2025-04-26T02:14:04Z</time></trkpt>
      <trkpt lat="29.675064" lon="120.50732"><ele>540</ele><time>2025-04-26T02:14:32Z</time></trkpt>
      <trkpt lat="29.674779" lon="120.507281"><ele>542</ele><time>2025-04-26T02:15:03Z</time></trkpt>
      <trkpt lat="29.673926" lon="120.506801"><ele>546</ele><time>2025-04-26T02:16:23Z</time></trkpt>
      <trkpt lat="29.67358" lon="120.506988"><ele>548</ele><time>2025-04-26T02:17:09Z</time></trkpt>
      <trkpt lat="29.672631" lon="120.507015"><ele>554</ele><time>2025-04-26T02:18:41Z</time></trkpt>
      <trkpt lat="29.672055" lon="120.507384"><ele>560</ele><time>2025-04-26T02:19:53Z</time></trkpt>
      <trkpt lat="29.671678" lon="120.507511"><ele>564</ele><time>2025-04-26T02:20:28Z</time></trkpt>
      <trkpt lat="29.671501" lon="120.507439"><ele>565</ele><time>2025-04-26T02:20:44Z</time></trkpt>
      <trkpt lat="29.671142" lon="120.507549"><ele>574</ele><time>2025-04-26T02:21:29Z</time></trkpt>
      <trkpt lat="29.670859" lon="120.50749"><ele>580</ele><time>2025-04-26T02:21:59Z</time></trkpt>
      <trkpt lat="29.670488" lon="120.507497"><ele>588</ele><time>2025-04-26T02:22:45Z</time></trkpt>
      <trkpt lat="29.670403" lon="120.507557"><ele>588</ele><time>2025-04-26T02:23:03Z</time></trkpt>
      <trkpt lat="29.670238" lon="120.507441"><ele>586</ele><time>2025-04-26T02:24:24Z</time></trkpt>
      <trkpt lat="29.669943" lon="120.507708"><ele>599</ele><time>2025-04-26T02:25:09Z</time></trkpt>
      <trkpt lat="29.669943" lon="120.507815"><ele>602</ele><time>2025-04-26T02:25:21Z</time></trkpt>
      <trkpt lat="29.669863" lon="120.50788"><ele>603</ele><time>2025-04-26T02:25:40Z</time></trkpt>
      <trkpt lat="29.66993" lon="120.507957"><ele>601</ele><time>2025-04-26T02:26:05Z</time></trkpt>
      <trkpt lat="29.669738" lon="120.50798"><ele>605</ele><time>2025-04-26T02:27:43Z</time></trkpt>
      <trkpt lat="29.6696" lon="120.50826"><ele>620</ele><time>2025-04-26T02:28:33Z</time></trkpt>
      <trkpt lat="29.669435" lon="120.508359"><ele>629</ele><time>2025-04-26T02:29:01Z</time></trkpt>
      <trkpt lat="29.668313" lon="120.509808"><ele>668</ele><time>2025-04-26T02:33:26Z</time></trkpt>
      <trkpt lat="29.668044" lon="120.509918"><ele>678</ele><time>2025-04-26T02:34:22Z</time></trkpt>
      <trkpt lat="29.667724" lon="120.510165"><ele>687</ele><time>2025-04-26T02:35:02Z</time></trkpt>
      <trkpt lat="29.667455" lon="120.510108"><ele>697</ele><time>2025-04-26T02:35:33Z</time></trkpt>
      <trkpt lat="29.666713" lon="120.510532"><ele>722</ele><time>2025-04-26T02:37:37Z</time></trkpt>
      <trkpt lat="29.666628" lon="120.510483"><ele>724</ele><time>2025-04-26T02:37:59Z</time></trkpt>
      <trkpt lat="29.666406" lon="120.510019"><ele>738</ele><time>2025-04-26T02:39:21Z</time></trkpt>
      <trkpt lat="29.666117" lon="120.509744"><ele>747</ele><time>2025-04-26T02:40:19Z</time></trkpt>
      <trkpt lat="29.666089" lon="120.509645"><ele>747</ele><time>2025-04-26T02:40:28Z</time></trkpt>
      <trkpt lat="29.666192" lon="120.509216"><ele>742</ele><time>2025-04-26T02:41:08Z</time></trkpt>
      <trkpt lat="29.666396" lon="120.508991"><ele>738</ele><time>2025-04-26T02:41:33Z</time></trkpt>
      <trkpt lat="29.666454" lon="120.50878"><ele>734</ele><time>2025-04-26T02:41:49Z</time></trkpt>
      <trkpt lat="29.66644" lon="120.507926"><ele>716</ele><time>2025-04-26T02:43:44Z</time></trkpt>
      <trkpt lat="29.666488" lon="120.507613"><ele>712</ele><time>2025-04-26T02:44:23Z</time></trkpt>
      <trkpt lat="29.666646" lon="120.507332"><ele>709</ele><time>2025-04-26T02:44:47Z</time></trkpt>
      <trkpt lat="29.666687" lon="120.507125"><ele>704</ele><time>2025-04-26T02:45:00Z</time></trkpt>
      <trkpt lat="29.666585" lon="120.506701"><ele>709</ele><time>2025-04-26T02:45:39Z</time></trkpt>
      <trkpt lat="29.666596" lon="120.506486"><ele>715</ele><time>2025-04-26T02:46:16Z</time></trkpt>
      <trkpt lat="29.666929" lon="120.506112"><ele>715</ele><time>2025-04-26T02:47:11Z</time></trkpt>
      <trkpt lat="29.667168" lon="120.505658"><ele>733</ele><time>2025-04-26T02:48:33Z</time></trkpt>
      <trkpt lat="29.66721" lon="120.504791"><ele>747</ele><time>2025-04-26T02:51:25Z</time></trkpt>
      <trkpt lat="29.667314" lon="120.50449"><ele>750</ele><time>2025-04-26T02:51:51Z</time></trkpt>
      <trkpt lat="29.667625" lon="120.504076"><ele>740</ele><time>2025-04-26T02:52:36Z</time></trkpt>
      <trkpt lat="29.668105" lon="120.503697"><ele>736</ele><time>2025-04-26T02:53:27Z</time></trkpt>
      <trkpt lat="29.668458" lon="120.50332"><ele>753</ele><time>2025-04-26T02:54:56Z</time></trkpt>
      <trkpt lat="29.668593" lon="120.502939"><ele>768</ele><time>2025-04-26T02:56:14Z</time></trkpt>
      <trkpt lat="29.669093" lon="120.502696"><ele>784</ele><time>2025-04-26T02:59:16Z</time></trkpt>
      <trkpt lat="29.669362" lon="120.502782"><ele>802</ele><time>2025-04-26T03:01:13Z</time></trkpt>
      <trkpt lat="29.669448" lon="120.502586"><ele>810</ele><time>2025-04-26T03:02:39Z</time></trkpt>
      <trkpt lat="29.669668" lon="120.502378"><ele>812</ele><time>2025-04-26T03:03:25Z</time></trkpt>
      <trkpt lat="29.66972" lon="120.501955"><ele>806</ele><time>2025-04-26T03:09:45Z</time></trkpt>
      <trkpt lat="29.669931" lon="120.501244"><ele>808</ele><time>2025-04-26T03:11:59Z</time></trkpt>
      <trkpt lat="29.66988" lon="120.501157"><ele>815</ele><time>2025-04-26T03:12:27Z</time></trkpt>
      <trkpt lat="29.670381" lon="120.500254"><ele>815</ele><time>2025-04-26T03:24:59Z</time></trkpt>
      <trkpt lat="29.670436" lon="120.499833"><ele>806</ele><time>2025-04-26T03:25:48Z</time></trkpt>
      <trkpt lat="29.671124" lon="120.498376"><ele>810</ele><time>2025-04-26T03:45:40Z</time></trkpt>
      <trkpt lat="29.671264" lon="120.498226"><ele>818</ele><time>2025-04-26T03:46:01Z</time></trkpt>
      <trkpt lat="29.67145" lon="120.49821"><ele>822</ele><time>2025-04-26T03:46:32Z</time></trkpt>
      <trkpt lat="29.671518" lon="120.498141"><ele>824</ele><time>2025-04-26T03:46:45Z</time></trkpt>
      <trkpt lat="29.671719" lon="120.497549"><ele>825</ele><time>2025-04-26T03:47:55Z</time></trkpt>
      <trkpt lat="29.671951" lon="120.497201"><ele>837</ele><time>2025-04-26T03:48:50Z</time></trkpt>
      <trkpt lat="29.671964" lon="120.496993"><ele>842</ele><time>2025-04-26T03:49:20Z</time></trkpt>
      <trkpt lat="29.672123" lon="120.496923"><ele>835</ele><time>2025-04-26T03:49:57Z</time></trkpt>
      <trkpt lat="29.672155" lon="120.496708"><ele>822</ele><time>2025-04-26T03:51:10Z</time></trkpt>
      <trkpt lat="29.672091" lon="120.49628"><ele>812</ele><time>2025-04-26T03:52:07Z</time></trkpt>
      <trkpt lat="29.671947" lon="120.495766"><ele>801</ele><time>2025-04-26T03:53:28Z</time></trkpt>
      <trkpt lat="29.672203" lon="120.495465"><ele>780</ele><time>2025-04-26T03:56:36Z</time></trkpt>
      <trkpt lat="29.672253" lon="120.495045"><ele>757</ele><time>2025-04-26T03:58:50Z</time></trkpt>
      <trkpt lat="29.6718" lon="120.49502"><ele>746</ele><time>2025-04-26T03:59:53Z</time></trkpt>
      <trkpt lat="29.671529" lon="120.494892"><ele>741</ele><time>2025-04-26T04:00:30Z</time></trkpt>
      <trkpt lat="29.671256" lon="120.494885"><ele>732</ele><time>2025-04-26T04:01:20Z</time></trkpt>
      <trkpt lat="29.671118" lon="120.494601"><ele>722</ele><time>2025-04-26T04:01:59Z</time></trkpt>
      <trkpt lat="29.67086" lon="120.494276"><ele>713</ele><time>2025-04-26T04:02:41Z</time></trkpt>
      <trkpt lat="29.670822" lon="120.493947"><ele>707</ele><time>2025-04-26T04:03:09Z</time></trkpt>
      <trkpt lat="29.670733" lon="120.493749"><ele>702</ele><time>2025-04-26T04:03:25Z</time></trkpt>
      <trkpt lat="29.670365" lon="120.493696"><ele>688</ele><time>2025-04-26T04:04:28Z</time></trkpt>
      <trkpt lat="29.670253" lon="120.493524"><ele>678</ele><time>2025-04-26T04:05:01Z</time></trkpt>
      <trkpt lat="29.670348" lon="120.493223"><ele>678</ele><time>2025-04-26T04:05:24Z</time></trkpt>
      <trkpt lat="29.67052" lon="120.493126"><ele>680</ele><time>2025-04-26T04:05:36Z</time></trkpt>
      <trkpt lat="29.67061" lon="120.492484"><ele>681</ele><time>2025-04-26T04:06:21Z</time></trkpt>
      <trkpt lat="29.670697" lon="120.49229"><ele>680</ele><time>2025-04-26T04:06:38Z</time></trkpt>
      <trkpt lat="29.670896" lon="120.492228"><ele>680</ele><time>2025-04-26T04:06:56Z</time></trkpt>
      <trkpt lat="29.671846" lon="120.492375"><ele>667</ele><time>2025-04-26T04:08:10Z</time></trkpt>
      <trkpt lat="29.671597" lon="120.491758"><ele>658</ele><time>2025-04-26T04:08:52Z</time></trkpt>
      <trkpt lat="29.672182" lon="120.491029"><ele>650</ele><time>2025-04-26T04:09:58Z</time></trkpt>
      <trkpt lat="29.67275" lon="120.490587"><ele>652</ele><time>2025-04-26T04:10:55Z</time></trkpt>
      <trkpt lat="29.673021" lon="120.491056"><ele>645</ele><time>2025-04-26T04:11:35Z</time></trkpt>
      <trkpt lat="29.672917" lon="120.491353"><ele>645</ele><time>2025-04-26T04:11:58Z</time></trkpt>
      <trkpt lat="29.672914" lon="120.491465"><ele>645</ele><time>2025-04-26T04:12:06Z</time></trkpt>
      <trkpt lat="29.673055" lon="120.491621"><ele>639</ele><time>2025-04-26T04:12:22Z</time></trkpt>
      <trkpt lat="29.673073" lon="120.491733"><ele>638</ele><time>2025-04-26T04:12:30Z</time></trkpt>
      <trkpt lat="29.672986" lon="120.492033"><ele>634</ele><time>2025-04-26T04:12:53Z</time></trkpt>
      <trkpt lat="29.673037" lon="120.49212"><ele>634</ele><time>2025-04-26T04:13:00Z</time></trkpt>
      <trkpt lat="29.673383" lon="120.492325"><ele>626</ele><time>2025-04-26T04:13:31Z</time></trkpt>
      <trkpt lat="29.673448" lon="120.492534"><ele>625</ele><time>2025-04-26T04:13:47Z</time></trkpt>
      <trkpt lat="29.673436" lon="120.492761"><ele>623</ele><time>2025-04-26T04:14:03Z</time></trkpt>
      <trkpt lat="29.673581" lon="120.493041"><ele>615</ele><time>2025-04-26T04:14:38Z</time></trkpt>
      <trkpt lat="29.673973" lon="120.493061"><ele>602</ele><time>2025-04-26T04:15:18Z</time></trkpt>
      <trkpt lat="29.674883" lon="120.492727"><ele>584</ele><time>2025-04-26T04:16:56Z</time></trkpt>
      <trkpt lat="29.675351" lon="120.492254"><ele>569</ele><time>2025-04-26T04:17:44Z</time></trkpt>
      <trkpt lat="29.675598" lon="120.491888"><ele>557</ele><time>2025-04-26T04:18:25Z</time></trkpt>
      <trkpt lat="29.675915" lon="120.491645"><ele>546</ele><time>2025-04-26T04:19:20Z</time></trkpt>
      <trkpt lat="29.676185" lon="120.491551"><ele>537</ele><time>2025-04-26T04:19:58Z</time></trkpt>
      <trkpt lat="29.676217" lon="120.491452"><ele>535</ele><time>2025-04-26T04:20:07Z</time></trkpt>
      <trkpt lat="29.676575" lon="120.491344"><ele>524</ele><time>2025-04-26T04:20:42Z</time></trkpt>
      <trkpt lat="29.676756" lon="120.491369"><ele>513</ele><time>2025-04-26T04:21:02Z</time></trkpt>
      <trkpt lat="29.676804" lon="120.49128"><ele>514</ele><time>2025-04-26T04:21:26Z</time></trkpt>
      <trkpt lat="29.677263" lon="120.491133"><ele>500</ele><time>2025-04-26T04:23:54Z</time></trkpt>
      <trkpt lat="29.677428" lon="120.491026"><ele>497</ele><time>2025-04-26T04:24:16Z</time></trkpt>
      <trkpt lat="29.677587" lon="120.490762"><ele>492</ele><time>2025-04-26T04:24:43Z</time></trkpt>
      <trkpt lat="29.677862" lon="120.490625"><ele>483</ele><time>2025-04-26T04:25:17Z</time></trkpt>
      <trkpt lat="29.677979" lon="120.490455"><ele>480</ele><time>2025-04-26T04:25:32Z</time></trkpt>
      <trkpt lat="29.678242" lon="120.490337"><ele>470</ele><time>2025-04-26T04:26:01Z</time></trkpt>
      <trkpt lat="29.6783" lon="120.490248"><ele>470</ele><time>2025-04-26T04:26:09Z</time></trkpt>
      <trkpt lat="29.67849" lon="120.490198"><ele>465</ele><time>2025-04-26T04:26:30Z</time></trkpt>
      <trkpt lat="29.678617" lon="120.490052"><ele>467</ele><time>2025-04-26T04:26:54Z</time></trkpt>
      <trkpt lat="29.678805" lon="120.490082"><ele>471</ele><time>2025-04-26T04:27:12Z</time></trkpt>
      <trkpt lat="29.678849" lon="120.490173"><ele>470</ele><time>2025-04-26T04:27:20Z</time></trkpt>
      <trkpt lat="29.679032" lon="120.490223"><ele>464</ele><time>2025-04-26T04:27:40Z</time></trkpt>
      <trkpt lat="29.679307" lon="120.490171"><ele>459</ele><time>2025-04-26T04:28:12Z</time></trkpt>
      <trkpt lat="29.680062" lon="120.490258"><ele>453</ele><time>2025-04-26T04:29:21Z</time></trkpt>
      <trkpt lat="29.680881" lon="120.49016"><ele>447</ele><time>2025-04-26T04:30:37Z</time></trkpt>
      <trkpt lat="29.681352" lon="120.490249"><ele>446</ele><time>2025-04-26T04:31:16Z</time></trkpt>
      <trkpt lat="29.681591" lon="120.490415"><ele>443</ele><time>2025-04-26T04:31:43Z</time></trkpt>
      <trkpt lat="29.681771" lon="120.490424"><ele>444</ele><time>2025-04-26T04:32:01Z</time></trkpt>
      <trkpt lat="29.682025" lon="120.490272"><ele>443</ele><time>2025-04-26T04:32:25Z</time></trkpt>
      <trkpt lat="29.682418" lon="120.490277"><ele>444</ele><time>2025-04-26T04:33:01Z</time></trkpt>
      <trkpt lat="29.682624" lon="120.489911"><ele>441</ele><time>2025-04-26T04:33:36Z</time></trkpt>
      <trkpt lat="29.682849" lon="120.489702"><ele>442</ele><time>2025-04-26T04:34:00Z</time></trkpt>
      <trkpt lat="29.683114" lon="120.489566"><ele>441</ele><time>2025-04-26T04:34:24Z</time></trkpt>
      <trkpt lat="29.683324" lon="120.489352"><ele>439</ele><time>2025-04-26T04:34:48Z</time></trkpt>
      <trkpt lat="29.684136" lon="120.488969"><ele>441</ele><time>2025-04-26T04:36:01Z</time></trkpt>
      <trkpt lat="29.684332" lon="120.489022"><ele>440</ele><time>2025-04-26T04:36:17Z</time></trkpt>
      <trkpt lat="29.684824" lon="120.489355"><ele>438</ele><time>2025-04-26T04:37:01Z</time></trkpt>
      <trkpt lat="29.685566" lon="120.489569"><ele>432</ele><time>2025-04-26T04:38:04Z</time></trkpt>
      <trkpt lat="29.685661" lon="120.489876"><ele>430</ele><time>2025-04-26T04:38:28Z</time></trkpt>
      <trkpt lat="29.686156" lon="120.490181"><ele>425</ele><time>2025-04-26T04:39:18Z</time></trkpt>
      <trkpt lat="29.686193" lon="120.490276"><ele>424</ele><time>2025-04-26T04:39:26Z</time></trkpt>
      <trkpt lat="29.686137" lon="120.49047"><ele>424</ele><time>2025-04-26T04:39:45Z</time></trkpt>
      <trkpt lat="29.686167" lon="120.490578"><ele>427</ele><time>2025-04-26T04:40:07Z</time></trkpt>
      <trkpt lat="29.685894" lon="120.491138"><ele>457</ele><time>2025-04-26T04:42:14Z</time></trkpt>
      <trkpt lat="29.685774" lon="120.491296"><ele>462</ele><time>2025-04-26T04:42:53Z</time></trkpt>
      <trkpt lat="29.685517" lon="120.491421"><ele>461</ele><time>2025-04-26T04:43:33Z</time></trkpt>
      <trkpt lat="29.685173" lon="120.491794"><ele>464</ele><time>2025-04-26T04:44:17Z</time></trkpt>
      <trkpt lat="29.684802" lon="120.491978"><ele>463</ele><time>2025-04-26T04:45:02Z</time></trkpt>
      <trkpt lat="29.684486" lon="120.492383"><ele>464</ele><time>2025-04-26T04:45:47Z</time></trkpt>
      <trkpt lat="29.684169" lon="120.492625"><ele>471</ele><time>2025-04-26T04:46:30Z</time></trkpt>
      <trkpt lat="29.683256" lon="120.493025"><ele>489</ele><time>2025-04-26T04:48:01Z</time></trkpt>
      <trkpt lat="29.682954" lon="120.493272"><ele>495</ele><time>2025-04-26T04:48:42Z</time></trkpt>
      <trkpt lat="29.682757" lon="120.493319"><ele>504</ele><time>2025-04-26T04:48:58Z</time></trkpt>
      <trkpt lat="29.682585" lon="120.493447"><ele>507</ele><time>2025-04-26T04:49:19Z</time></trkpt>
      <trkpt lat="29.682404" lon="120.493514"><ele>511</ele><time>2025-04-26T04:49:42Z</time></trkpt>
      <trkpt lat="29.682311" lon="120.493485"><ele>513</ele><time>2025-04-26T04:49:52Z</time></trkpt>
      <trkpt lat="29.681967" lon="120.493658"><ele>524</ele><time>2025-04-26T04:50:38Z</time></trkpt>
      <trkpt lat="29.682013" lon="120.49376"><ele>526</ele><time>2025-04-26T04:51:00Z</time></trkpt>
      <trkpt lat="29.682258" lon="120.49392"><ele>538</ele><time>2025-04-26T04:51:41Z</time></trkpt>
      <trkpt lat="29.682621" lon="120.493992"><ele>548</ele><time>2025-04-26T04:52:25Z</time></trkpt>
      <trkpt lat="29.682095" lon="120.494611"><ele>558</ele><time>2025-04-26T04:53:46Z</time></trkpt>
      <trkpt lat="29.681952" lon="120.49501"><ele>561</ele><time>2025-04-26T04:54:29Z</time></trkpt>
      <trkpt lat="29.681782" lon="120.495096"><ele>566</ele><time>2025-04-26T04:54:54Z</time></trkpt>
      <trkpt lat="29.681597" lon="120.495071"><ele>569</ele><time>2025-04-26T04:55:11Z</time></trkpt>
      <trkpt lat="29.681527" lon="120.495149"><ele>569</ele><time>2025-04-26T04:55:19Z</time></trkpt>
      <trkpt lat="29.681449" lon="120.495347"><ele>569</ele><time>2025-04-26T04:55:36Z</time></trkpt>
      <trkpt lat="29.681226" lon="120.49555"><ele>566</ele><time>2025-04-26T04:56:02Z</time></trkpt>
      <trkpt lat="29.681199" lon="120.495781"><ele>566</ele><time>2025-04-26T04:56:18Z</time></trkpt>
      <trkpt lat="29.681517" lon="120.496158"><ele>568</ele><time>2025-04-26T04:57:00Z</time></trkpt>
      <trkpt lat="29.681907" lon="120.496133"><ele>573</ele><time>2025-04-26T04:57:33Z</time></trkpt>
      <trkpt lat="29.681978" lon="120.496206"><ele>577</ele><time>2025-04-26T04:57:41Z</time></trkpt>
      <trkpt lat="29.682057" lon="120.496626"><ele>581</ele><time>2025-04-26T04:58:16Z</time></trkpt>
      <trkpt lat="29.682126" lon="120.496698"><ele>579</ele><time>2025-04-26T04:58:25Z</time></trkpt>
      <trkpt lat="29.682296" lon="120.496608"><ele>583</ele><time>2025-04-26T04:58:43Z</time></trkpt>
      <trkpt lat="29.68236" lon="120.496809"><ele>585</ele><time>2025-04-26T04:59:24Z</time></trkpt>
      <trkpt lat="29.682665" lon="120.49706"><ele>585</ele><time>2025-04-26T05:00:07Z</time></trkpt>
      <trkpt lat="29.682632" lon="120.497485"><ele>585</ele><time>2025-04-26T05:00:48Z</time></trkpt>
      <trkpt lat="29.68276" lon="120.497656"><ele>582</ele><time>2025-04-26T05:01:09Z</time></trkpt>
      <trkpt lat="29.682945" lon="120.4977"><ele>581</ele><time>2025-04-26T05:01:30Z</time></trkpt>
      <trkpt lat="29.682875" lon="120.4979"><ele>576</ele><time>2025-04-26T05:01:54Z</time></trkpt>
      <trkpt lat="29.683332" lon="120.498036"><ele>566</ele><time>2025-04-26T05:02:50Z</time></trkpt>
      <trkpt lat="29.683471" lon="120.498303"><ele>549</ele><time>2025-04-26T05:04:16Z</time></trkpt>
      <trkpt lat="29.683722" lon="120.498406"><ele>535</ele><time>2025-04-26T05:05:23Z</time></trkpt>
      <trkpt lat="29.683772" lon="120.498716"><ele>523</ele><time>2025-04-26T05:06:11Z</time></trkpt>
      <trkpt lat="29.683837" lon="120.498797"><ele>518</ele><time>2025-04-26T05:06:34Z</time></trkpt>
      <trkpt lat="29.684" lon="120.49891"><ele>510</ele><time>2025-04-26T05:07:23Z</time></trkpt>
      <trkpt lat="29.684089" lon="120.498882"><ele>505</ele><time>2025-04-26T05:07:48Z</time></trkpt>
      <trkpt lat="29.684497" lon="120.499843"><ele>470</ele><time>2025-04-26T05:10:38Z</time></trkpt>
      <trkpt lat="29.684532" lon="120.50016"><ele>462</ele><time>2025-04-26T05:11:12Z</time></trkpt>
      <trkpt lat="29.68504" lon="120.500618"><ele>447</ele><time>2025-04-26T05:12:50Z</time></trkpt>
      <trkpt lat="29.685586" lon="120.501853"><ele>415</ele><time>2025-04-26T05:16:00Z</time></trkpt>
      <trkpt lat="29.685675" lon="120.501916"><ele>412</ele><time>2025-04-26T05:16:13Z</time></trkpt>
      <trkpt lat="29.685912" lon="120.502385"><ele>403</ele><time>2025-04-26T05:17:16Z</time></trkpt>
      <trkpt lat="29.686298" lon="120.502842"><ele>389</ele><time>2025-04-26T05:18:40Z</time></trkpt>
      <trkpt lat="29.686306" lon="120.502946"><ele>390</ele><time>2025-04-26T05:18:54Z</time></trkpt>
      <trkpt lat="29.686493" lon="120.50318"><ele>380</ele><time>2025-04-26T05:20:04Z</time></trkpt>
      <trkpt lat="29.686797" lon="120.504511"><ele>351</ele><time>2025-04-26T05:23:04Z</time></trkpt>
      <trkpt lat="29.687095" lon="120.50492"><ele>345</ele><time>2025-04-26T05:24:10Z</time></trkpt>
      <trkpt lat="29.687319" lon="120.505096"><ele>341</ele><time>2025-04-26T05:24:49Z</time></trkpt>
      <trkpt lat="29.687662" lon="120.505592"><ele>333</ele><time>2025-04-26T05:26:08Z</time></trkpt>
      <trkpt lat="29.687855" lon="120.506089"><ele>332</ele><time>2025-04-26T05:27:00Z</time></trkpt>
      <trkpt lat="29.687879" lon="120.506301"><ele>331</ele><time>2025-04-26T05:27:20Z</time></trkpt>
      <trkpt lat="29.688023" lon="120.506427"><ele>327</ele><time>2025-04-26T05:27:43Z</time></trkpt>
      <trkpt lat="29.688029" lon="120.506535"><ele>326</ele><time>2025-04-26T05:27:59Z</time></trkpt>
      <trkpt lat="29.687506" lon="120.507322"><ele>317</ele><time>2025-04-26T05:29:36Z</time></trkpt>
    </trkseg>
  </trk>
</gpx>
