<?xml version="1.0" encoding="UTF-8"?>
<gpx version="1.1" creator="MyWorld" xmlns="http://www.topografix.com/GPX/1/1">
  <metadata><name>杭州东明山</name></metadata>
  <trk>
    <name>杭州东明山</name>
    <trkseg>
      <trkpt lat="30.446129" lon="119.999167"><ele>379</ele><time>2025-03-09T02:12:49Z</time></trkpt>
      <trkpt lat="30.446596" lon="119.99864"><ele>388</ele><time>2025-03-09T02:14:03Z</time></trkpt>
      <trkpt lat="30.447235" lon="119.998435"><ele>414</ele><time>2025-03-09T02:16:16Z</time></trkpt>
      <trkpt lat="30.447365" lon="119.998285"><ele>414</ele><time>2025-03-09T02:16:43Z</time></trkpt>
      <trkpt lat="30.447662" lon="119.997366"><ele>432</ele><time>2025-03-09T02:18:43Z</time></trkpt>
      <trkpt lat="30.448181" lon="119.996336"><ele>450</ele><time>2025-03-09T02:20:47Z</time></trkpt>
      <trkpt lat="30.448233" lon="119.996008"><ele>455</ele><time>2025-03-09T02:21:25Z</time></trkpt>
      <trkpt lat="30.448037" lon="119.995621"><ele>449</ele><time>2025-03-09T02:22:08Z</time></trkpt>
      <trkpt lat="30.447924" lon="119.995094"><ele>439</ele><time>2025-03-09T02:23:02Z</time></trkpt>
      <trkpt lat="30.447801" lon="119.994931"><ele>434</ele><time>2025-03-09T02:23:25Z</time></trkpt>
      <trkpt lat="30.447257" lon="119.994494"><ele>432</ele><time>2025-03-09T02:24:38Z</time></trkpt>
      <trkpt lat="30.446395" lon="119.994046"><ele>435</ele><time>2025-03-09T02:26:26Z</time></trkpt>
      <trkpt lat="30.446215" lon="119.993808"><ele>436</ele><time>2025-03-09T02:26:56Z</time></trkpt>
      <trkpt lat="30.446223" lon="119.993694"><ele>432</ele><time>2025-03-09T02:27:09Z</time></trkpt>
      <trkpt lat="30.446683" lon="119.993168"><ele>413</ele><time>2025-03-09T02:28:43Z</time></trkpt>
      <trkpt lat="30.447077" lon="119.992893"><ele>403</ele><time>2025-03-09T02:30:04Z</time></trkpt>
      <trkpt lat="30.447109" lon="119.992787"><ele>403</ele><time>2025-03-09T02:30:15Z</time></trkpt>
      <trkpt lat="30.447105" lon="119.992144"><ele>415</ele><time>2025-03-09T02:32:13Z</time></trkpt>
      <trkpt lat="30.447039" lon="119.991836"><ele>421</ele><time>2025-03-09T02:32:53Z</time></trkpt>
      <trkpt lat="30.447111" lon="119.991077"><ele>434</ele><time>2025-03-09T02:34:11Z</time></trkpt>
      <trkpt lat="30.446938" lon="119.99022"><ele>433</ele><time>2025-03-09T02:35:22Z</time></trkpt>
      <trkpt lat="30.44666" lon="119.990198"><ele>429</ele><time>2025-03-09T02:36:03Z</time></trkpt>
      <trkpt lat="30.446297" lon="119.990064"><ele>430</ele><time>2025-03-09T02:36:39Z</time></trkpt>
      <trkpt lat="30.446201" lon="119.989762"><ele>425</ele><time>2025-03-09T02:37:13Z</time></trkpt>
      <trkpt lat="30.446261" lon="119.989444"><ele>421</ele><time>2025-03-09T02:38:16Z</time></trkpt>
      <trkpt lat="30.445767" lon="119.989183"><ele>414</ele><time>2025-03-09T02:39:29Z</time></trkpt>
      <trkpt lat="30.445698" lon="119.988877"><ele>405</ele><time>2025-03-09T02:40:03Z</time></trkpt>
      <trkpt lat="30.445545" lon="119.9886"><ele>396</ele><time>2025-03-09T02:40:42Z</time></trkpt>
      <trkpt lat="30.445199" lon="119.988415"><ele>379</ele><time>2025-03-09T02:41:52Z</time></trkpt>
      <trkpt lat="30.445063" lon="119.988271"><ele>373</ele><time>2025-03-09T02:42:35Z</time></trkpt>
      <trkpt lat="30.445008" lon="119.987964"><ele>365</ele><time>2025-03-09T02:43:29Z</time></trkpt>
      <trkpt lat="30.444022" lon="119.987352"><ele>325</ele><time>2025-03-09T02:46:29Z</time></trkpt>
      <trkpt lat="30.443743" lon="119.987328"><ele>316</ele><time>2025-03-09T02:47:10Z</time></trkpt>
      <trkpt lat="30.443694" lon="119.987422"><ele>315</ele><time>2025-03-09T02:47:38Z</time></trkpt>
      <trkpt lat="30.44373" lon="119.987862"><ele>315</ele><time>2025-03-09T02:48:14Z</time></trkpt>
      <trkpt lat="30.443417" lon="119.988779"><ele>304</ele><time>2025-03-09T02:49:39Z</time></trkpt>
      <trkpt lat="30.443058" lon="119.989117"><ele>294</ele><time>2025-03-09T02:50:23Z</time></trkpt>
      <trkpt lat="30.442867" lon="119.989497"><ele>289</ele><time>2025-03-09T02:50:57Z</time></trkpt>
      <trkpt lat="30.442114" lon="119.990182"><ele>277</ele><time>2025-03-09T02:52:22Z</time></trkpt>
      <trkpt lat="30.44174" lon="119.990117"><ele>273</ele><time>2025-03-09T02:53:22Z</time></trkpt>
      <trkpt lat="30.441047" lon="119.989512"><ele>277</ele><time>2025-03-09T02:54:43Z</time></trkpt>
      <trkpt lat="30.44041" lon="119.98927"><ele>275</ele><time>2025-03-09T02:55:45Z</time></trkpt>
      <trkpt lat="30.439854" lon="119.989204"><ele>270</ele><time>2025-03-09T02:56:36Z</time></trkpt>
      <trkpt lat="30.439615" lon="119.989378"><ele>270</ele><time>2025-03-09T02:56:58Z</time></trkpt>
      <trkpt lat="30.43934" lon="119.989451"><ele>266</ele><time>2025-03-09T02:57:20Z</time></trkpt>
      <trkpt lat="30.438951" lon="119.989459"><ele>262</ele><time>2025-03-09T02:57:52Z</time></trkpt>
      <trkpt lat="30.438466" lon="119.989354"><ele>253</ele><time>2025-03-09T02:58:34Z</time></trkpt>
      <trkpt lat="30.438382" lon="119.989401"><ele>253</ele><time>2025-03-09T02:58:42Z</time></trkpt>
      <trkpt lat="30.438455" lon="119.989611"><ele>255</ele><time>2025-03-09T02:58:58Z</time></trkpt>
      <trkpt lat="30.438384" lon="119.989951"><ele>245</ele><time>2025-03-09T02:59:24Z</time></trkpt>
      <trkpt lat="30.438511" lon="119.990363"><ele>241</ele><time>2025-03-09T02:59:58Z</time></trkpt>
      <trkpt lat="30.438393" lon="119.990683"><ele>233</ele><time>2025-03-09T03:00:25Z</time></trkpt>
      <trkpt lat="30.438383" lon="119.991129"><ele>226</ele><time>2025-03-09T03:01:05Z</time></trkpt>
      <trkpt lat="30.43826" lon="119.99082"><ele>226</ele><time>2025-03-09T03:01:30Z</time></trkpt>
      <trkpt lat="30.438008" lon="119.990487"><ele>223</ele><time>2025-03-09T03:02:06Z</time></trkpt>
      <trkpt lat="30.437988" lon="119.990278"><ele>230</ele><time>2025-03-09T03:02:45Z</time></trkpt>
      <trkpt lat="30.437678" lon="119.990055"><ele>230</ele><time>2025-03-09T03:04:11Z</time></trkpt>
      <trkpt lat="30.437807" lon="119.990208"><ele>229</ele><time>2025-03-09T03:04:35Z</time></trkpt>
      <trkpt lat="30.437984" lon="119.990264"><ele>228</ele><time>2025-03-09T03:04:54Z</time></trkpt>
      <trkpt lat="30.437991" lon="119.990472"><ele>226</ele><time>2025-03-09T03:05:12Z</time></trkpt>
      <trkpt lat="30.438446" lon="119.991165"><ele>228</ele><time>2025-03-09T03:06:24Z</time></trkpt>
      <trkpt lat="30.438452" lon="119.991367"><ele>225</ele><time>2025-03-09T03:06:51Z</time></trkpt>
      <trkpt lat="30.438284" lon="119.991321"><ele>219</ele><time>2025-03-09T03:07:21Z</time></trkpt>
      <trkpt lat="30.438042" lon="119.990985"><ele>213</ele><time>2025-03-09T03:08:01Z</time></trkpt>
      <trkpt lat="30.437803" lon="119.991139"><ele>201</ele><time>2025-03-09T03:08:42Z</time></trkpt>
      <trkpt lat="30.437713" lon="119.990957"><ele>199</ele><time>2025-03-09T03:09:02Z</time></trkpt>
      <trkpt lat="30.437627" lon="119.990912"><ele>197</ele><time>2025-03-09T03:09:17Z</time></trkpt>
      <trkpt lat="30.437457" lon="119.990965"><ele>194</ele><time>2025-03-09T03:09:41Z</time></trkpt>
      <trkpt lat="30.437298" lon="119.991233"><ele>187</ele><time>2025-03-09T03:10:07Z</time></trkpt>
      <trkpt lat="30.437346" lon="119.991441"><ele>182</ele><time>2025-03-09T03:10:30Z</time></trkpt>
      <trkpt lat="30.437283" lon="119.991522"><ele>180</ele><time>2025-03-09T03:10:39Z</time></trkpt>
      <trkpt lat="30.437268" lon="119.99185"><ele>172</ele><time>2025-03-09T03:11:15Z</time></trkpt>
      <trkpt lat="30.436885" lon="119.992844"><ele>145</ele><time>2025-03-09T03:13:35Z</time></trkpt>
      <trkpt lat="30.43586" lon="119.993471"><ele>123</ele><time>2025-03-09T03:15:24Z</time></trkpt>
      <trkpt lat="30.435378" lon="119.993997"><ele>117</ele><time>2025-03-09T03:16:38Z</time></trkpt>
      <trkpt lat="30.435036" lon="119.994562"><ele>107</ele><time>2025-03-09T03:17:30Z</time></trkpt>
      <trkpt lat="30.434574" lon="119.995148"><ele>102</ele><time>2025-03-09T03:18:30Z</time></trkpt>
      <trkpt lat="30.433935" lon="119.99654"><ele>89</ele><time>2025-03-09T03:20:23Z</time></trkpt>
      <trkpt lat="30.433104" lon="119.997586"><ele>80</ele><time>2025-03-09T03:22:12Z</time></trkpt>
      <trkpt lat="30.432692" lon="119.998585"><ele>73</ele><time>2025-03-09T03:23:33Z</time></trkpt>
      <trkpt lat="30.432666" lon="119.998913"><ele>69</ele><time>2025-03-09T03:23:56Z</time></trkpt>
      <trkpt lat="30.432767" lon="119.999336"><ele>68</ele><time>2025-03-09T03:24:27Z</time></trkpt>
      <trkpt lat="30.432591" lon="119.99974"><ele>65</ele><time>2025-03-09T03:25:04Z</time></trkpt>
      <trkpt lat="30.43276" lon="119.999831"><ele>67</ele><time>2025-03-09T03:25:17Z</time></trkpt>
      <trkpt lat="30.433315" lon="119.999695"><ele>70</ele><time>2025-03-09T03:26:03Z</time></trkpt>
      <trkpt lat="30.433844" lon="120.000153"><ele>75</ele><time>2025-03-09T03:26:55Z</time></trkpt>
    </trkseg>
  </trk>
</gpx>
