<?xml version="1.0" encoding="UTF-8"?>
<gpx version="1.1" creator="MyWorld" xmlns="http://www.topografix.com/GPX/1/1">
  <metadata><name>杭州标毅线（中途下撤）</name></metadata>
  <trk>
    <name>杭州标毅线（中途下撤）</name>
    <trkseg>
      <trkpt lat="30.273427" lon="120.114887"><ele>23</ele><time>2025-06-22T00:45:09Z</time></trkpt>
      <trkpt lat="30.273325" lon="120.114876"><ele>24</ele><time>2025-06-22T00:45:20Z</time></trkpt>
      <trkpt lat="30.27317" lon="120.114988"><ele>34</ele><time>2025-06-22T00:45:52Z</time></trkpt>
      <trkpt lat="30.272993" lon="120.114924"><ele>39</ele><time>2025-06-22T00:46:29Z</time></trkpt>
      <trkpt lat="30.272334" lon="120.114097"><ele>49</ele><time>2025-06-22T00:47:59Z</time></trkpt>
      <trkpt lat="30.272144" lon="120.114102"><ele>55</ele><time>2025-06-22T00:48:31Z</time></trkpt>
      <trkpt lat="30.272064" lon="120.114358"><ele>66</ele><time>2025-06-22T00:49:58Z</time></trkpt>
      <trkpt lat="30.271927" lon="120.114513"><ele>75</ele><time>2025-06-22T00:50:39Z</time></trkpt>
      <trkpt lat="30.271767" lon="120.114582"><ele>84</ele><time>2025-06-22T00:51:41Z</time></trkpt>
      <trkpt lat="30.271773" lon="120.114687"><ele>88</ele><time>2025-06-22T00:52:02Z</time></trkpt>
      <trkpt lat="30.27168" lon="120.114693"><ele>92</ele><time>2025-06-22T00:52:25Z</time></trkpt>
      <trkpt lat="30.271678" lon="120.114813"><ele>95</ele><time>2025-06-22T00:52:47Z</time></trkpt>
      <trkpt lat="30.271582" lon="120.114805"><ele>100</ele><time>2025-06-22T00:53:05Z</time></trkpt>
      <trkpt lat="30.271635" lon="120.115221"><ele>109</ele><time>2025-06-22T00:55:25Z</time></trkpt>
      <trkpt lat="30.271553" lon="120.115273"><ele>112</ele><time>2025-06-22T00:55:48Z</time></trkpt>
      <trkpt lat="30.271138" lon="120.114949"><ele>128</ele><time>2025-06-22T00:56:33Z</time></trkpt>
      <trkpt lat="30.270776" lon="120.114785"><ele>137</ele><time>2025-06-22T00:57:19Z</time></trkpt>
      <trkpt lat="30.270745" lon="120.11494"><ele>139</ele><time>2025-06-22T01:03:27Z</time></trkpt>
      <trkpt lat="30.270647" lon="120.114926"><ele>142</ele><time>2025-06-22T01:25:03Z</time></trkpt>
      <trkpt lat="30.270184" lon="120.114537"><ele>152</ele><time>2025-06-22T01:26:18Z</time></trkpt>
      <trkpt lat="30.270068" lon="120.114343"><ele>155</ele><time>2025-06-22T01:26:37Z</time></trkpt>
      <trkpt lat="30.269953" lon="120.11393"><ele>160</ele><time>2025-06-22T01:27:22Z</time></trkpt>
      <trkpt lat="30.269704" lon="120.11361"><ele>152</ele><time>2025-06-22T01:28:02Z</time></trkpt>
      <trkpt lat="30.269166" lon="120.113149"><ele>144</ele><time>2025-06-22T01:29:06Z</time></trkpt>
      <trkpt lat="30.269024" lon="120.112869"><ele>150</ele><time>2025-06-22T01:29:43Z</time></trkpt>
      <trkpt lat="30.26858" lon="120.112457"><ele>167</ele><time>2025-06-22T01:30:52Z</time></trkpt>
      <trkpt lat="30.26776" lon="120.111525"><ele>149</ele><time>2025-06-22T01:33:24Z</time></trkpt>
      <trkpt lat="30.267188" lon="120.1105"><ele>147</ele><time>2025-06-22T01:35:25Z</time></trkpt>
      <trkpt lat="30.266999" lon="120.109802"><ele>164</ele><time>2025-06-22T01:36:28Z</time></trkpt>
      <trkpt lat="30.266773" lon="120.109325"><ele>171</ele><time>2025-06-22T01:37:15Z</time></trkpt>
      <trkpt lat="30.266281" lon="120.109007"><ele>166</ele><time>2025-06-22T01:38:22Z</time></trkpt>
      <trkpt lat="30.265807" lon="120.108902"><ele>155</ele><time>2025-06-22T01:39:16Z</time></trkpt>
      <trkpt lat="30.2653" lon="120.108616"><ele>158</ele><time>2025-06-22T01:40:13Z</time></trkpt>
      <trkpt lat="30.265029" lon="120.108154"><ele>160</ele><time>2025-06-22T01:40:58Z</time></trkpt>
      <trkpt lat="30.264685" lon="120.107793"><ele>157</ele><time>2025-06-22T01:41:48Z</time></trkpt>
      <trkpt lat="30.264103" lon="120.107424"><ele>149</ele><time>2025-06-22T01:43:00Z</time></trkpt>
      <trkpt lat="30.263698" lon="120.10696"><ele>158</ele><time>2025-06-22T01:44:10Z</time></trkpt>
      <trkpt lat="30.26329" lon="120.106669"><ele>161</ele><time>2025-06-22T01:45:05Z</time></trkpt>
      <trkpt lat="30.263039" lon="120.106524"><ele>162</ele><time>2025-06-22T01:45:36Z</time></trkpt>
      <trkpt lat="30.26267" lon="120.106543"><ele>157</ele><time>2025-06-22T01:46:14Z</time></trkpt>
      <trkpt lat="30.262019" lon="120.106312"><ele>161</ele><time>2025-06-22T01:47:14Z</time></trkpt>
      <trkpt lat="30.261878" lon="120.106157"><ele>161</ele><time>2025-06-22T01:47:30Z</time></trkpt>
      <trkpt lat="30.261752" lon="120.105633"><ele>160</ele><time>2025-06-22T01:48:12Z</time></trkpt>
      <trkpt lat="30.261184" lon="120.105246"><ele>151</ele><time>2025-06-22T01:49:23Z</time></trkpt>
      <trkpt lat="30.260457" lon="120.104892"><ele>143</ele><time>2025-06-22T01:50:37Z</time></trkpt>
      <trkpt lat="30.259977" lon="120.104859"><ele>152</ele><time>2025-06-22T01:51:22Z</time></trkpt>
      <trkpt lat="30.259634" lon="120.104673"><ele>152</ele><time>2025-06-22T01:52:04Z</time></trkpt>
      <trkpt lat="30.259448" lon="120.104709"><ele>147</ele><time>2025-06-22T01:52:32Z</time></trkpt>
      <trkpt lat="30.259183" lon="120.104599"><ele>139</ele><time>2025-06-22T01:53:21Z</time></trkpt>
      <trkpt lat="30.258914" lon="120.10467"><ele>132</ele><time>2025-06-22T01:54:01Z</time></trkpt>
      <trkpt lat="30.258801" lon="120.104485"><ele>127</ele><time>2025-06-22T01:54:38Z</time></trkpt>
      <trkpt lat="30.258252" lon="120.10406"><ele>119</ele><time>2025-06-22T01:56:02Z</time></trkpt>
      <trkpt lat="30.258065" lon="120.104003"><ele>117</ele><time>2025-06-22T01:56:21Z</time></trkpt>
      <trkpt lat="30.257367" lon="120.10427"><ele>121</ele><time>2025-06-22T01:57:33Z</time></trkpt>
      <trkpt lat="30.256895" lon="120.104365"><ele>125</ele><time>2025-06-22T01:58:23Z</time></trkpt>
      <trkpt lat="30.256601" lon="120.104636"><ele>123</ele><time>2025-06-22T01:59:12Z</time></trkpt>
      <trkpt lat="30.256414" lon="120.104656"><ele>125</ele><time>2025-06-22T01:59:33Z</time></trkpt>
      <trkpt lat="30.256069" lon="120.104845"><ele>126</ele><time>2025-06-22T02:00:11Z</time></trkpt>
      <trkpt lat="30.255786" lon="120.104847"><ele>127</ele><time>2025-06-22T02:00:41Z</time></trkpt>
      <trkpt lat="30.255505" lon="120.104954"><ele>130</ele><time>2025-06-22T02:01:11Z</time></trkpt>
      <trkpt lat="30.255246" lon="120.10481"><ele>134</ele><time>2025-06-22T02:01:42Z</time></trkpt>
      <trkpt lat="30.255141" lon="120.104632"><ele>134</ele><time>2025-06-22T02:01:59Z</time></trkpt>
      <trkpt lat="30.255099" lon="120.104101"><ele>133</ele><time>2025-06-22T02:02:48Z</time></trkpt>
      <trkpt lat="30.254629" lon="120.103429"><ele>145</ele><time>2025-06-22T02:04:16Z</time></trkpt>
      <trkpt lat="30.254354" lon="120.103356"><ele>152</ele><time>2025-06-22T02:04:48Z</time></trkpt>
      <trkpt lat="30.254156" lon="120.103134"><ele>157</ele><time>2025-06-22T02:08:27Z</time></trkpt>
      <trkpt lat="30.253159" lon="120.102626"><ele>173</ele><time>2025-06-22T02:10:58Z</time></trkpt>
      <trkpt lat="30.252935" lon="120.102153"><ele>172</ele><time>2025-06-22T02:11:47Z</time></trkpt>
      <trkpt lat="30.252276" lon="120.101566"><ele>190</ele><time>2025-06-22T02:15:44Z</time></trkpt>
      <trkpt lat="30.252155" lon="120.101014"><ele>206</ele><time>2025-06-22T02:16:29Z</time></trkpt>
      <trkpt lat="30.252139" lon="120.100552"><ele>210</ele><time>2025-06-22T02:20:47Z</time></trkpt>
      <trkpt lat="30.25222" lon="120.099906"><ele>228</ele><time>2025-06-22T02:22:11Z</time></trkpt>
      <trkpt lat="30.252268" lon="120.099745"><ele>231</ele><time>2025-06-22T02:22:34Z</time></trkpt>
      <trkpt lat="30.252338" lon="120.09982"><ele>230</ele><time>2025-06-22T02:26:22Z</time></trkpt>
      <trkpt lat="30.251907" lon="120.099097"><ele>243</ele><time>2025-06-22T02:33:11Z</time></trkpt>
      <trkpt lat="30.251706" lon="120.098495"><ele>241</ele><time>2025-06-22T02:34:29Z</time></trkpt>
      <trkpt lat="30.251332" lon="120.098083"><ele>232</ele><time>2025-06-22T02:35:36Z</time></trkpt>
      <trkpt lat="30.251123" lon="120.097446"><ele>231</ele><time>2025-06-22T02:36:37Z</time></trkpt>
      <trkpt lat="30.25073" lon="120.096928"><ele>232</ele><time>2025-06-22T02:37:42Z</time></trkpt>
      <trkpt lat="30.250437" lon="120.096013"><ele>231</ele><time>2025-06-22T02:39:04Z</time></trkpt>
      <trkpt lat="30.250311" lon="120.095854"><ele>236</ele><time>2025-06-22T02:39:23Z</time></trkpt>
      <trkpt lat="30.250247" lon="120.09565"><ele>242</ele><time>2025-06-22T02:39:45Z</time></trkpt>
      <trkpt lat="30.250484" lon="120.094484"><ele>243</ele><time>2025-06-22T02:41:26Z</time></trkpt>
      <trkpt lat="30.250493" lon="120.094159"><ele>246</ele><time>2025-06-22T02:41:54Z</time></trkpt>
      <trkpt lat="30.250625" lon="120.093756"><ele>255</ele><time>2025-06-22T02:43:07Z</time></trkpt>
      <trkpt lat="30.250575" lon="120.09332"><ele>261</ele><time>2025-06-22T02:43:45Z</time></trkpt>
      <trkpt lat="30.250393" lon="120.093056"><ele>267</ele><time>2025-06-22T02:44:39Z</time></trkpt>
      <trkpt lat="30.250257" lon="120.092907"><ele>268</ele><time>2025-06-22T02:44:59Z</time></trkpt>
      <trkpt lat="30.249755" lon="120.092611"><ele>278</ele><time>2025-06-22T02:45:51Z</time></trkpt>
      <trkpt lat="30.249282" lon="120.092569"><ele>285</ele><time>2025-06-22T02:46:46Z</time></trkpt>
      <trkpt lat="30.248964" lon="120.09217"><ele>285</ele><time>2025-06-22T02:48:23Z</time></trkpt>
      <trkpt lat="30.248618" lon="120.09203"><ele>290</ele><time>2025-06-22T02:50:58Z</time></trkpt>
      <trkpt lat="30.248503" lon="120.091855"><ele>293</ele><time>2025-06-22T02:51:27Z</time></trkpt>
      <trkpt lat="30.248339" lon="120.091921"><ele>296</ele><time>2025-06-22T02:52:10Z</time></trkpt>
      <trkpt lat="30.247908" lon="120.091733"><ele>299</ele><time>2025-06-22T02:54:24Z</time></trkpt>
      <trkpt lat="30.247564" lon="120.091201"><ele>300</ele><time>2025-06-22T02:55:19Z</time></trkpt>
      <trkpt lat="30.247141" lon="120.090756"><ele>302</ele><time>2025-06-22T02:56:34Z</time></trkpt>
      <trkpt lat="30.247123" lon="120.089986"><ele>303</ele><time>2025-06-22T02:57:32Z</time></trkpt>
      <trkpt lat="30.247213" lon="120.089783"><ele>303</ele><time>2025-06-22T02:57:50Z</time></trkpt>
      <trkpt lat="30.247144" lon="120.089707"><ele>300</ele><time>2025-06-22T02:58:22Z</time></trkpt>
      <trkpt lat="30.246899" lon="120.08956"><ele>293</ele><time>2025-06-22T02:59:13Z</time></trkpt>
      <trkpt lat="30.246514" lon="120.089571"><ele>283</ele><time>2025-06-22T03:00:04Z</time></trkpt>
      <trkpt lat="30.245892" lon="120.089346"><ele>272</ele><time>2025-06-22T03:01:22Z</time></trkpt>
      <trkpt lat="30.245645" lon="120.089188"><ele>281</ele><time>2025-06-22T03:02:12Z</time></trkpt>
      <trkpt lat="30.245194" lon="120.089108"><ele>295</ele><time>2025-06-22T03:03:36Z</time></trkpt>
      <trkpt lat="30.244918" lon="120.088672"><ele>317</ele><time>2025-06-22T03:06:41Z</time></trkpt>
      <trkpt lat="30.244771" lon="120.088549"><ele>322</ele><time>2025-06-22T03:10:55Z</time></trkpt>
      <trkpt lat="30.244505" lon="120.087754"><ele>355</ele><time>2025-06-22T03:12:52Z</time></trkpt>
      <trkpt lat="30.243799" lon="120.087225"><ele>336</ele><time>2025-06-22T03:17:33Z</time></trkpt>
      <trkpt lat="30.242958" lon="120.087066"><ele>321</ele><time>2025-06-22T03:19:20Z</time></trkpt>
      <trkpt lat="30.242632" lon="120.08654"><ele>322</ele><time>2025-06-22T03:20:27Z</time></trkpt>
      <trkpt lat="30.242224" lon="120.0861"><ele>319</ele><time>2025-06-22T03:21:25Z</time></trkpt>
      <trkpt lat="30.241734" lon="120.085786"><ele>304</ele><time>2025-06-22T03:22:50Z</time></trkpt>
      <trkpt lat="30.241452" lon="120.085754"><ele>306</ele><time>2025-06-22T03:23:26Z</time></trkpt>
      <trkpt lat="30.240839" lon="120.084957"><ele>295</ele><time>2025-06-22T03:25:30Z</time></trkpt>
      <trkpt lat="30.240465" lon="120.084645"><ele>292</ele><time>2025-06-22T03:26:45Z</time></trkpt>
      <trkpt lat="30.240285" lon="120.083917"><ele>302</ele><time>2025-06-22T03:28:10Z</time></trkpt>
      <trkpt lat="30.240133" lon="120.083798"><ele>304</ele><time>2025-06-22T03:28:56Z</time></trkpt>
      <trkpt lat="30.239971" lon="120.083405"><ele>320</ele><time>2025-06-22T03:30:01Z</time></trkpt>
      <trkpt lat="30.23985" lon="120.083245"><ele>313</ele><time>2025-06-22T03:30:34Z</time></trkpt>
      <trkpt lat="30.239365" lon="120.082942"><ele>304</ele><time>2025-06-22T03:32:26Z</time></trkpt>
      <trkpt lat="30.239227" lon="120.082791"><ele>310</ele><time>2025-06-22T03:33:05Z</time></trkpt>
      <trkpt lat="30.23899" lon="120.08244"><ele>310</ele><time>2025-06-22T03:33:58Z</time></trkpt>
      <trkpt lat="30.238951" lon="120.082226"><ele>315</ele><time>2025-06-22T03:34:17Z</time></trkpt>
      <trkpt lat="30.238579" lon="120.081723"><ele>326</ele><time>2025-06-22T03:47:26Z</time></trkpt>
      <trkpt lat="30.237939" lon="120.081827"><ele>333</ele><time>2025-06-22T03:48:58Z</time></trkpt>
      <trkpt lat="30.23774" lon="120.081804"><ele>336</ele><time>2025-06-22T03:49:26Z</time></trkpt>
      <trkpt lat="30.23757" lon="120.081762"><ele>342</ele><time>2025-06-22T03:49:58Z</time></trkpt>
      <trkpt lat="30.237148" lon="120.081338"><ele>344</ele><time>2025-06-22T03:51:31Z</time></trkpt>
      <trkpt lat="30.236966" lon="120.081402"><ele>343</ele><time>2025-06-22T03:52:00Z</time></trkpt>
      <trkpt lat="30.236502" lon="120.081404"><ele>331</ele><time>2025-06-22T03:53:46Z</time></trkpt>
      <trkpt lat="30.236468" lon="120.081307"><ele>323</ele><time>2025-06-22T03:54:12Z</time></trkpt>
      <trkpt lat="30.236104" lon="120.081354"><ele>296</ele><time>2025-06-22T03:56:07Z</time></trkpt>
      <trkpt lat="30.236045" lon="120.081267"><ele>293</ele><time>2025-06-22T03:56:24Z</time></trkpt>
      <trkpt lat="30.235505" lon="120.08126"><ele>264</ele><time>2025-06-22T03:58:36Z</time></trkpt>
      <trkpt lat="30.23513" lon="120.080928"><ele>256</ele><time>2025-06-22T03:59:31Z</time></trkpt>
      <trkpt lat="30.234433" lon="120.080601"><ele>243</ele><time>2025-06-22T04:01:28Z</time></trkpt>
      <trkpt lat="30.23434" lon="120.080589"><ele>243</ele><time>2025-06-22T04:01:38Z</time></trkpt>
      <trkpt lat="30.234268" lon="120.080658"><ele>242</ele><time>2025-06-22T04:01:50Z</time></trkpt>
      <trkpt lat="30.234076" lon="120.080613"><ele>240</ele><time>2025-06-22T04:02:19Z</time></trkpt>
      <trkpt lat="30.233784" lon="120.080657"><ele>234</ele><time>2025-06-22T04:02:47Z</time></trkpt>
      <trkpt lat="30.233622" lon="120.08077"><ele>230</ele><time>2025-06-22T04:03:09Z</time></trkpt>
      <trkpt lat="30.233547" lon="120.080975"><ele>227</ele><time>2025-06-22T04:03:33Z</time></trkpt>
      <trkpt lat="30.233412" lon="120.081131"><ele>225</ele><time>2025-06-22T04:04:25Z</time></trkpt>
      <trkpt lat="30.233473" lon="120.081661"><ele>211</ele><time>2025-06-22T04:05:54Z</time></trkpt>
      <trkpt lat="30.233608" lon="120.081801"><ele>199</ele><time>2025-06-22T04:06:47Z</time></trkpt>
      <trkpt lat="30.233697" lon="120.081768"><ele>197</ele><time>2025-06-22T04:07:02Z</time></trkpt>
      <trkpt lat="30.233687" lon="120.081873"><ele>194</ele><time>2025-06-22T04:07:24Z</time></trkpt>
      <trkpt lat="30.23376" lon="120.081936"><ele>190</ele><time>2025-06-22T04:07:49Z</time></trkpt>
      <trkpt lat="30.233947" lon="120.081916"><ele>184</ele><time>2025-06-22T04:08:18Z</time></trkpt>
      <trkpt lat="30.234076" lon="120.08232"><ele>175</ele><time>2025-06-22T04:09:25Z</time></trkpt>
      <trkpt lat="30.233801" lon="120.083451"><ele>147</ele><time>2025-06-22T04:12:06Z</time></trkpt>
      <trkpt lat="30.233909" lon="120.084198"><ele>139</ele><time>2025-06-22T04:13:24Z</time></trkpt>
      <trkpt lat="30.233632" lon="120.085114"><ele>124</ele><time>2025-06-22T04:15:04Z</time></trkpt>
      <trkpt lat="30.233666" lon="120.085325"><ele>122</ele><time>2025-06-22T04:15:20Z</time></trkpt>
      <trkpt lat="30.233525" lon="120.085746"><ele>117</ele><time>2025-06-22T04:15:58Z</time></trkpt>
      <trkpt lat="30.233506" lon="120.086394"><ele>111</ele><time>2025-06-22T04:16:55Z</time></trkpt>
      <trkpt lat="30.23372" lon="120.087669"><ele>97</ele><time>2025-06-22T04:18:50Z</time></trkpt>
      <trkpt lat="30.233592" lon="120.088096"><ele>93</ele><time>2025-06-22T04:19:31Z</time></trkpt>
      <trkpt lat="30.233433" lon="120.088226"><ele>94</ele><time>2025-06-22T04:19:52Z</time></trkpt>
      <trkpt lat="30.2334" lon="120.08833"><ele>95</ele><time>2025-06-22T04:20:00Z</time></trkpt>
      <trkpt lat="30.233492" lon="120.088743"><ele>92</ele><time>2025-06-22T04:20:36Z</time></trkpt>
      <trkpt lat="30.233343" lon="120.089021"><ele>95</ele><time>2025-06-22T04:21:03Z</time></trkpt>
      <trkpt lat="30.233393" lon="120.08935"><ele>94</ele><time>2025-06-22T04:21:28Z</time></trkpt>
      <trkpt lat="30.233319" lon="120.089661"><ele>98</ele><time>2025-06-22T04:21:52Z</time></trkpt>
      <trkpt lat="30.233894" lon="120.090032"><ele>92</ele><time>2025-06-22T04:22:53Z</time></trkpt>
      <trkpt lat="30.234359" lon="120.090095"><ele>89</ele><time>2025-06-22T04:23:37Z</time></trkpt>
      <trkpt lat="30.234591" lon="120.090283"><ele>87</ele><time>2025-06-22T04:24:05Z</time></trkpt>
      <trkpt lat="30.235481" lon="120.091145"><ele>81</ele><time>2025-06-22T04:25:54Z</time></trkpt>
      <trkpt lat="30.235812" lon="120.09137"><ele>77</ele><time>2025-06-22T04:26:32Z</time></trkpt>
      <trkpt lat="30.23584" lon="120.091577"><ele>77</ele><time>2025-06-22T04:26:52Z</time></trkpt>
      <trkpt lat="30.236071" lon="120.091925"><ele>77</ele><time>2025-06-22T04:27:31Z</time></trkpt>
      <trkpt lat="30.236294" lon="120.092129"><ele>76</ele><time>2025-06-22T04:28:12Z</time></trkpt>
      <trkpt lat="30.236316" lon="120.092706"><ele>78</ele><time>2025-06-22T04:28:58Z</time></trkpt>
      <trkpt lat="30.236598" lon="120.093281"><ele>77</ele><time>2025-06-22T04:29:48Z</time></trkpt>
      <trkpt lat="30.236623" lon="120.093829"><ele>78</ele><time>2025-06-22T04:30:31Z</time></trkpt>
      <trkpt lat="30.236996" lon="120.094709"><ele>83</ele><time>2025-06-22T04:31:45Z</time></trkpt>
      <trkpt lat="30.237242" lon="120.095901"><ele>90</ele><time>2025-06-22T04:33:15Z</time></trkpt>
      <trkpt lat="30.237183" lon="120.096452"><ele>94</ele><time>2025-06-22T04:33:58Z</time></trkpt>
      <trkpt lat="30.237029" lon="120.097065"><ele>86</ele><time>2025-06-22T04:34:46Z</time></trkpt>
      <trkpt lat="30.237005" lon="120.097489"><ele>81</ele><time>2025-06-22T04:35:21Z</time></trkpt>
      <trkpt lat="30.237086" lon="120.098401"><ele>77</ele><time>2025-06-22T04:36:34Z</time></trkpt>
      <trkpt lat="30.23719" lon="120.098698"><ele>73</ele><time>2025-06-22T04:37:11Z</time></trkpt>
      <trkpt lat="30.237169" lon="120.099152"><ele>69</ele><time>2025-06-22T04:37:58Z</time></trkpt>
      <trkpt lat="30.237279" lon="120.099315"><ele>66</ele><time>2025-06-22T04:39:48Z</time></trkpt>
      <trkpt lat="30.237975" lon="120.099724"><ele>63</ele><time>2025-06-22T04:40:52Z</time></trkpt>
      <trkpt lat="30.238087" lon="120.099905"><ele>62</ele><time>2025-06-22T04:41:12Z</time></trkpt>
      <trkpt lat="30.238336" lon="120.100053"><ele>63</ele><time>2025-06-22T04:41:34Z</time></trkpt>
      <trkpt lat="30.238548" lon="120.100409"><ele>63</ele><time>2025-06-22T04:42:07Z</time></trkpt>
    </trkseg>
  </trk>
</gpx>
