<?xml version="1.0" encoding="UTF-8"?>
<gpx version="1.1" creator="MyWorld" xmlns="http://www.topografix.com/GPX/1/1">
  <metadata><name>宁波象山</name></metadata>
  <trk>
    <name>宁波象山</name>
    <trkseg>
      <trkpt lat="29.436673" lon="121.944962"><ele>14</ele><time>2025-02-15T05:07:09Z</time></trkpt>
      <trkpt lat="29.437117" lon="121.945686"><ele>14</ele><time>2025-02-15T05:08:11Z</time></trkpt>
      <trkpt lat="29.437442" lon="121.945905"><ele>18</ele><time>2025-02-15T05:08:42Z</time></trkpt>
      <trkpt lat="29.437624" lon="121.945826"><ele>20</ele><time>2025-02-15T05:09:00Z</time></trkpt>
      <trkpt lat="29.438084" lon="121.945433"><ele>27</ele><time>2025-02-15T05:09:42Z</time></trkpt>
      <trkpt lat="29.438258" lon="121.945377"><ele>27</ele><time>2025-02-15T05:09:57Z</time></trkpt>
      <trkpt lat="29.438503" lon="121.945544"><ele>25</ele><time>2025-02-15T05:10:23Z</time></trkpt>
      <trkpt lat="29.438572" lon="121.945747"><ele>25</ele><time>2025-02-15T05:10:42Z</time></trkpt>
      <trkpt lat="29.438541" lon="121.945649"><ele>26</ele><time>2025-02-15T05:10:56Z</time></trkpt>
      <trkpt lat="29.438631" lon="121.945666"><ele>26</ele><time>2025-02-15T05:11:11Z</time></trkpt>
      <trkpt lat="29.438979" lon="121.945846"><ele>28</ele><time>2025-02-15T05:11:44Z</time></trkpt>
      <trkpt lat="29.439023" lon="121.946052"><ele>28</ele><time>2025-02-15T05:12:01Z</time></trkpt>
      <trkpt lat="29.439504" lon="121.946076"><ele>30</ele><time>2025-02-15T05:12:45Z</time></trkpt>
      <trkpt lat="29.439545" lon="121.946284"><ele>32</ele><time>2025-02-15T05:13:01Z</time></trkpt>
      <trkpt lat="29.439517" lon="121.947029"><ele>63</ele><time>2025-02-15T05:15:54Z</time></trkpt>
      <trkpt lat="29.439618" lon="121.947224"><ele>74</ele><time>2025-02-15T05:16:27Z</time></trkpt>
      <trkpt lat="29.439606" lon="121.947436"><ele>84</ele><time>2025-02-15T05:17:11Z</time></trkpt>
      <trkpt lat="29.439706" lon="121.947602"><ele>95</ele><time>2025-02-15T05:19:37Z</time></trkpt>
      <trkpt lat="29.439631" lon="121.947813"><ele>103</ele><time>2025-02-15T05:22:43Z</time></trkpt>
      <trkpt lat="29.439708" lon="121.948335"><ele>131</ele><time>2025-02-15T05:27:01Z</time></trkpt>
      <trkpt lat="29.439599" lon="121.948855"><ele>151</ele><time>2025-02-15T05:31:09Z</time></trkpt>
      <trkpt lat="29.439643" lon="121.948945"><ele>156</ele><time>2025-02-15T05:31:31Z</time></trkpt>
      <trkpt lat="29.439611" lon="121.949389"><ele>176</ele><time>2025-02-15T05:36:55Z</time></trkpt>
      <trkpt lat="29.439673" lon="121.949469"><ele>178</ele><time>2025-02-15T05:37:15Z</time></trkpt>
      <trkpt lat="29.439648" lon="121.950104"><ele>201</ele><time>2025-02-15T05:39:24Z</time></trkpt>
      <trkpt lat="29.439665" lon="121.949576"><ele>185</ele><time>2025-02-15T05:47:56Z</time></trkpt>
      <trkpt lat="29.439743" lon="121.949517"><ele>185</ele><time>2025-02-15T05:48:24Z</time></trkpt>
      <trkpt lat="29.439933" lon="121.949519"><ele>187</ele><time>2025-02-15T05:48:50Z</time></trkpt>
      <trkpt lat="29.440107" lon="121.949587"><ele>193</ele><time>2025-02-15T05:49:16Z</time></trkpt>
      <trkpt lat="29.440407" lon="121.94999"><ele>198</ele><time>2025-02-15T05:50:42Z</time></trkpt>
      <trkpt lat="29.440655" lon="121.950133"><ele>200</ele><time>2025-02-15T05:51:17Z</time></trkpt>
      <trkpt lat="29.44096" lon="121.950529"><ele>211</ele><time>2025-02-15T05:52:43Z</time></trkpt>
      <trkpt lat="29.441579" lon="121.950849"><ele>223</ele><time>2025-02-15T05:54:10Z</time></trkpt>
      <trkpt lat="29.44192" lon="121.9512"><ele>209</ele><time>2025-02-15T05:58:14Z</time></trkpt>
      <trkpt lat="29.442574" lon="121.951621"><ele>215</ele><time>2025-02-15T06:02:23Z</time></trkpt>
      <trkpt lat="29.442621" lon="121.951724"><ele>215</ele><time>2025-02-15T06:02:35Z</time></trkpt>
      <trkpt lat="29.442785" lon="121.951824"><ele>221</ele><time>2025-02-15T06:03:28Z</time></trkpt>
      <trkpt lat="29.44297" lon="121.952182"><ele>211</ele><time>2025-02-15T06:05:49Z</time></trkpt>
      <trkpt lat="29.443047" lon="121.95224"><ele>203</ele><time>2025-02-15T06:06:04Z</time></trkpt>
      <trkpt lat="29.44351" lon="121.95227"><ele>212</ele><time>2025-02-15T06:07:06Z</time></trkpt>
      <trkpt lat="29.444069" lon="121.952645"><ele>223</ele><time>2025-02-15T06:08:37Z</time></trkpt>
      <trkpt lat="29.444773" lon="121.953942"><ele>241</ele><time>2025-02-15T06:11:21Z</time></trkpt>
      <trkpt lat="29.444997" lon="121.954122"><ele>240</ele><time>2025-02-15T06:11:51Z</time></trkpt>
      <trkpt lat="29.445169" lon="121.954384"><ele>250</ele><time>2025-02-15T06:12:21Z</time></trkpt>
      <trkpt lat="29.445471" lon="121.954618"><ele>251</ele><time>2025-02-15T06:13:05Z</time></trkpt>
      <trkpt lat="29.445772" lon="121.955022"><ele>255</ele><time>2025-02-15T06:13:50Z</time></trkpt>
      <trkpt lat="29.446226" lon="121.95543"><ele>259</ele><time>2025-02-15T06:14:47Z</time></trkpt>
      <trkpt lat="29.44651" lon="121.956123"><ele>278</ele><time>2025-02-15T06:15:51Z</time></trkpt>
      <trkpt lat="29.446739" lon="121.956308"><ele>278</ele><time>2025-02-15T06:16:38Z</time></trkpt>
      <trkpt lat="29.447034" lon="121.956283"><ele>288</ele><time>2025-02-15T06:17:09Z</time></trkpt>
      <trkpt lat="29.447249" lon="121.956479"><ele>289</ele><time>2025-02-15T06:17:46Z</time></trkpt>
      <trkpt lat="29.447509" lon="121.956596"><ele>286</ele><time>2025-02-15T06:18:13Z</time></trkpt>
      <trkpt lat="29.447613" lon="121.956771"><ele>288</ele><time>2025-02-15T06:18:31Z</time></trkpt>
      <trkpt lat="29.447655" lon="121.957198"><ele>293</ele><time>2025-02-15T06:19:07Z</time></trkpt>
      <trkpt lat="29.44777" lon="121.957504"><ele>299</ele><time>2025-02-15T06:19:39Z</time></trkpt>
      <trkpt lat="29.447809" lon="121.957816"><ele>301</ele><time>2025-02-15T06:20:18Z</time></trkpt>
      <trkpt lat="29.447659" lon="121.958204"><ele>298</ele><time>2025-02-15T06:20:56Z</time></trkpt>
      <trkpt lat="29.447626" lon="121.958739"><ele>297</ele><time>2025-02-15T06:21:44Z</time></trkpt>
      <trkpt lat="29.447681" lon="121.959429"><ele>293</ele><time>2025-02-15T06:22:40Z</time></trkpt>
      <trkpt lat="29.447831" lon="121.960154"><ele>288</ele><time>2025-02-15T06:23:47Z</time></trkpt>
      <trkpt lat="29.448135" lon="121.961096"><ele>270</ele><time>2025-02-15T06:25:19Z</time></trkpt>
      <trkpt lat="29.4484" lon="121.961374"><ele>257</ele><time>2025-02-15T06:26:55Z</time></trkpt>
      <trkpt lat="29.448416" lon="121.961477"><ele>254</ele><time>2025-02-15T06:27:22Z</time></trkpt>
      <trkpt lat="29.448878" lon="121.961818"><ele>241</ele><time>2025-02-15T06:28:50Z</time></trkpt>
      <trkpt lat="29.44901" lon="121.962558"><ele>250</ele><time>2025-02-15T06:30:00Z</time></trkpt>
      <trkpt lat="29.449136" lon="121.962858"><ele>251</ele><time>2025-02-15T06:30:35Z</time></trkpt>
      <trkpt lat="29.449194" lon="121.96404"><ele>253</ele><time>2025-02-15T06:33:06Z</time></trkpt>
      <trkpt lat="29.449289" lon="121.964225"><ele>252</ele><time>2025-02-15T06:34:04Z</time></trkpt>
      <trkpt lat="29.449373" lon="121.964628"><ele>253</ele><time>2025-02-15T06:34:41Z</time></trkpt>
      <trkpt lat="29.449605" lon="121.964981"><ele>259</ele><time>2025-02-15T06:35:20Z</time></trkpt>
      <trkpt lat="29.450089" lon="121.965301"><ele>240</ele><time>2025-02-15T06:37:00Z</time></trkpt>
      <trkpt lat="29.450271" lon="121.965303"><ele>230</ele><time>2025-02-15T06:38:29Z</time></trkpt>
      <trkpt lat="29.450502" lon="121.965469"><ele>213</ele><time>2025-02-15T06:41:00Z</time></trkpt>
      <trkpt lat="29.450578" lon="121.965414"><ele>204</ele><time>2025-02-15T06:41:56Z</time></trkpt>
      <trkpt lat="29.450948" lon="121.965427"><ele>191</ele><time>2025-02-15T06:43:29Z</time></trkpt>
      <trkpt lat="29.451108" lon="121.965529"><ele>183</ele><time>2025-02-15T06:44:04Z</time></trkpt>
      <trkpt lat="29.451294" lon="121.96553"><ele>178</ele><time>2025-02-15T06:44:30Z</time></trkpt>
      <trkpt lat="29.45132" lon="121.965634"><ele>177</ele><time>2025-02-15T06:44:45Z</time></trkpt>
      <trkpt lat="29.451658" lon="121.965816"><ele>172</ele><time>2025-02-15T06:45:28Z</time></trkpt>
      <trkpt lat="29.451889" lon="121.966144"><ele>167</ele><time>2025-02-15T06:46:09Z</time></trkpt>
      <trkpt lat="29.452042" lon="121.966541"><ele>156</ele><time>2025-02-15T06:46:58Z</time></trkpt>
      <trkpt lat="29.452404" lon="121.967188"><ele>148</ele><time>2025-02-15T06:48:06Z</time></trkpt>
      <trkpt lat="29.453171" lon="121.967592"><ele>120</ele><time>2025-02-15T06:51:35Z</time></trkpt>
      <trkpt lat="29.45357" lon="121.968175"><ele>94</ele><time>2025-02-15T06:54:09Z</time></trkpt>
      <trkpt lat="29.454435" lon="121.968938"><ele>50</ele><time>2025-02-15T06:57:51Z</time></trkpt>
      <trkpt lat="29.454355" lon="121.969003"><ele>50</ele><time>2025-02-15T06:58:19Z</time></trkpt>
      <trkpt lat="29.453888" lon="121.969014"><ele>47</ele><time>2025-02-15T06:59:09Z</time></trkpt>
      <trkpt lat="29.453737" lon="121.969147"><ele>39</ele><time>2025-02-15T06:59:27Z</time></trkpt>
      <trkpt lat="29.453762" lon="121.969253"><ele>34</ele><time>2025-02-15T06:59:36Z</time></trkpt>
      <trkpt lat="29.454348" lon="121.969603"><ele>23</ele><time>2025-02-15T07:00:46Z</time></trkpt>
      <trkpt lat="29.454811" lon="121.969649"><ele>19</ele><time>2025-02-15T07:01:47Z</time></trkpt>
      <trkpt lat="29.454243" lon="121.969711"><ele>21</ele><time>2025-02-15T07:02:44Z</time></trkpt>
      <trkpt lat="29.453981" lon="121.969863"><ele>22</ele><time>2025-02-15T07:03:07Z</time></trkpt>
      <trkpt lat="29.452731" lon="121.971091"><ele>25</ele><time>2025-02-15T07:05:40Z</time></trkpt>
      <trkpt lat="29.452243" lon="121.971174"><ele>19</ele><time>2025-02-15T07:06:20Z</time></trkpt>
      <trkpt lat="29.451526" lon="121.970894"><ele>25</ele><time>2025-02-15T07:07:21Z</time></trkpt>
      <trkpt lat="29.451145" lon="121.970891"><ele>32</ele><time>2025-02-15T07:07:50Z</time></trkpt>
      <trkpt lat="29.45097" lon="121.970955"><ele>34</ele><time>2025-02-15T07:08:07Z</time></trkpt>
      <trkpt lat="29.450383" lon="121.971371"><ele>25</ele><time>2025-02-15T07:09:05Z</time></trkpt>
      <trkpt lat="29.450129" lon="121.971844"><ele>24</ele><time>2025-02-15T07:09:43Z</time></trkpt>
      <trkpt lat="29.449575" lon="121.97257"><ele>22</ele><time>2025-02-15T07:11:10Z</time></trkpt>
      <trkpt lat="29.449554" lon="121.972469"><ele>24</ele><time>2025-02-15T07:12:39Z</time></trkpt>
      <trkpt lat="29.449264" lon="121.972432"><ele>28</ele><time>2025-02-15T07:13:06Z</time></trkpt>
      <trkpt lat="29.448921" lon="121.972192"><ele>28</ele><time>2025-02-15T07:13:41Z</time></trkpt>
      <trkpt lat="29.448184" lon="121.971452"><ele>25</ele><time>2025-02-15T07:15:28Z</time></trkpt>
      <trkpt lat="29.447183" lon="121.970984"><ele>24</ele><time>2025-02-15T07:16:55Z</time></trkpt>
      <trkpt lat="29.446955" lon="121.970499"><ele>22</ele><time>2025-02-15T07:17:35Z</time></trkpt>
      <trkpt lat="29.446809" lon="121.970346"><ele>20</ele><time>2025-02-15T07:17:51Z</time></trkpt>
      <trkpt lat="29.446518" lon="121.970305"><ele>17</ele><time>2025-02-15T07:18:15Z</time></trkpt>
      <trkpt lat="29.446132" lon="121.970369"><ele>17</ele><time>2025-02-15T07:18:48Z</time></trkpt>
      <trkpt lat="29.445861" lon="121.970476"><ele>19</ele><time>2025-02-15T07:19:12Z</time></trkpt>
      <trkpt lat="29.445676" lon="121.970711"><ele>19</ele><time>2025-02-15T07:19:37Z</time></trkpt>
      <trkpt lat="29.445637" lon="121.971601"><ele>24</ele><time>2025-02-15T07:20:54Z</time></trkpt>
      <trkpt lat="29.445093" lon="121.972023"><ele>26</ele><time>2025-02-15T07:21:52Z</time></trkpt>
      <trkpt lat="29.444735" lon="121.972665"><ele>30</ele><time>2025-02-15T07:22:48Z</time></trkpt>
      <trkpt lat="29.444545" lon="121.972726"><ele>30</ele><time>2025-02-15T07:23:06Z</time></trkpt>
      <trkpt lat="29.443381" lon="121.972783"><ele>33</ele><time>2025-02-15T07:24:38Z</time></trkpt>
      <trkpt lat="29.442118" lon="121.973018"><ele>28</ele><time>2025-02-15T07:26:20Z</time></trkpt>
      <trkpt lat="29.441946" lon="121.972943"><ele>25</ele><time>2025-02-15T07:26:36Z</time></trkpt>
      <trkpt lat="29.441824" lon="121.972776"><ele>24</ele><time>2025-02-15T07:26:52Z</time></trkpt>
      <trkpt lat="29.441334" lon="121.971318"><ele>21</ele><time>2025-02-15T07:29:29Z</time></trkpt>
      <trkpt lat="29.441214" lon="121.971151"><ele>20</ele><time>2025-02-15T07:29:45Z</time></trkpt>
      <trkpt lat="29.440687" lon="121.970948"><ele>18</ele><time>2025-02-15T07:30:33Z</time></trkpt>
      <trkpt lat="29.440138" lon="121.971166"><ele>20</ele><time>2025-02-15T07:31:42Z</time></trkpt>
      <trkpt lat="29.439852" lon="121.971182"><ele>20</ele><time>2025-02-15T07:32:08Z</time></trkpt>
      <trkpt lat="29.439684" lon="121.97109"><ele>21</ele><time>2025-02-15T07:32:24Z</time></trkpt>
      <trkpt lat="29.4395" lon="121.970838"><ele>23</ele><time>2025-02-15T07:32:49Z</time></trkpt>
      <trkpt lat="29.439451" lon="121.970194"><ele>26</ele><time>2025-02-15T07:33:39Z</time></trkpt>
      <trkpt lat="29.439254" lon="121.969694"><ele>25</ele><time>2025-02-15T07:34:21Z</time></trkpt>
      <trkpt lat="29.439311" lon="121.96938"><ele>24</ele><time>2025-02-15T07:34:47Z</time></trkpt>
      <trkpt lat="29.439445" lon="121.969216"><ele>24</ele><time>2025-02-15T07:35:04Z</time></trkpt>
      <trkpt lat="29.439572" lon="121.969208"><ele>26</ele><time>2025-02-15T07:35:59Z</time></trkpt>
      <trkpt lat="29.440055" lon="121.969476"><ele>23</ele><time>2025-02-15T07:36:05Z</time></trkpt>
      <trkpt lat="29.440215" lon="121.969498"><ele>21</ele><time>2025-02-15T07:36:07Z</time></trkpt>
      <trkpt lat="29.440545" lon="121.969377"><ele>21</ele><time>2025-02-15T07:36:11Z</time></trkpt>
      <trkpt lat="29.44066" lon="121.969269"><ele>23</ele><time>2025-02-15T07:36:13Z</time></trkpt>
      <trkpt lat="29.440701" lon="121.969094"><ele>26</ele><time>2025-02-15T07:36:15Z</time></trkpt>
      <trkpt lat="29.440568" lon="121.968519"><ele>26</ele><time>2025-02-15T07:36:21Z</time></trkpt>
      <trkpt lat="29.440696" lon="121.968183"><ele>24</ele><time>2025-02-15T07:36:25Z</time></trkpt>
    </trkseg>
  </trk>
</gpx>
