<?xml version="1.0" encoding="UTF-8"?>
<gpx version="1.1" creator="MyWorld" xmlns="http://www.topografix.com/GPX/1/1">
  <metadata><name>深圳三水线（中途下撤）</name></metadata>
  <trk>
    <name>深圳三水线（中途下撤）</name>
    <trkseg>
      <trkpt lat="22.661526" lon="114.497701"><ele>21</ele><time>2025-04-19T01:55:28Z</time></trkpt>
      <trkpt lat="22.661693" lon="114.497796"><ele>21</ele><time>2025-04-19T01:55:45Z</time></trkpt>
      <trkpt lat="22.661961" lon="114.497813"><ele>23</ele><time>2025-04-19T01:56:24Z</time></trkpt>
      <trkpt lat="22.662132" lon="114.499009"><ele>33</ele><time>2025-04-19T01:58:47Z</time></trkpt>
      <trkpt lat="22.662264" lon="114.499163"><ele>30</ele><time>2025-04-19T01:59:19Z</time></trkpt>
      <trkpt lat="22.662355" lon="114.499143"><ele>34</ele><time>2025-04-19T01:59:35Z</time></trkpt>
      <trkpt lat="22.662538" lon="114.499708"><ele>38</ele><time>2025-04-19T02:00:50Z</time></trkpt>
      <trkpt lat="22.662901" lon="114.499687"><ele>47</ele><time>2025-04-19T02:02:38Z</time></trkpt>
      <trkpt lat="22.663068" lon="114.49977"><ele>48</ele><time>2025-04-19T02:03:04Z</time></trkpt>
      <trkpt lat="22.663633" lon="114.49963"><ele>51</ele><time>2025-04-19T02:03:52Z</time></trkpt>
      <trkpt lat="22.663896" lon="114.499705"><ele>61</ele><time>2025-04-19T02:04:34Z</time></trkpt>
      <trkpt lat="22.664166" lon="114.499616"><ele>66</ele><time>2025-04-19T02:05:01Z</time></trkpt>
      <trkpt lat="22.664448" lon="114.499695"><ele>76</ele><time>2025-04-19T02:05:51Z</time></trkpt>
      <trkpt lat="22.664737" lon="114.499694"><ele>79</ele><time>2025-04-19T02:06:16Z</time></trkpt>
      <trkpt lat="22.665254" lon="114.499499"><ele>92</ele><time>2025-04-19T02:07:41Z</time></trkpt>
      <trkpt lat="22.66543" lon="114.499575"><ele>95</ele><time>2025-04-19T02:08:02Z</time></trkpt>
      <trkpt lat="22.66564" lon="114.499782"><ele>101</ele><time>2025-04-19T02:08:31Z</time></trkpt>
      <trkpt lat="22.666006" lon="114.499865"><ele>106</ele><time>2025-04-19T02:09:10Z</time></trkpt>
      <trkpt lat="22.666036" lon="114.500062"><ele>107</ele><time>2025-04-19T02:09:36Z</time></trkpt>
      <trkpt lat="22.66622" lon="114.500076"><ele>109</ele><time>2025-04-19T02:09:58Z</time></trkpt>
      <trkpt lat="22.666491" lon="114.499986"><ele>117</ele><time>2025-04-19T02:10:34Z</time></trkpt>
      <trkpt lat="22.666672" lon="114.500018"><ele>123</ele><time>2025-04-19T02:11:00Z</time></trkpt>
      <trkpt lat="22.666799" lon="114.500155"><ele>127</ele><time>2025-04-19T02:11:28Z</time></trkpt>
      <trkpt lat="22.666882" lon="114.500107"><ele>126</ele><time>2025-04-19T02:11:42Z</time></trkpt>
      <trkpt lat="22.666975" lon="114.500274"><ele>131</ele><time>2025-04-19T02:12:06Z</time></trkpt>
      <trkpt lat="22.667276" lon="114.500498"><ele>145</ele><time>2025-04-19T02:17:39Z</time></trkpt>
      <trkpt lat="22.667708" lon="114.50058"><ele>168</ele><time>2025-04-19T02:19:22Z</time></trkpt>
      <trkpt lat="22.668122" lon="114.500839"><ele>195</ele><time>2025-04-19T02:21:41Z</time></trkpt>
      <trkpt lat="22.668389" lon="114.5009"><ele>211</ele><time>2025-04-19T02:34:05Z</time></trkpt>
      <trkpt lat="22.668812" lon="114.501278"><ele>236</ele><time>2025-04-19T02:37:46Z</time></trkpt>
      <trkpt lat="22.668989" lon="114.501322"><ele>243</ele><time>2025-04-19T02:38:13Z</time></trkpt>
      <trkpt lat="22.669153" lon="114.501569"><ele>241</ele><time>2025-04-19T02:39:36Z</time></trkpt>
      <trkpt lat="22.669327" lon="114.501551"><ele>250</ele><time>2025-04-19T02:40:38Z</time></trkpt>
      <trkpt lat="22.669439" lon="114.501394"><ele>270</ele><time>2025-04-19T02:43:03Z</time></trkpt>
      <trkpt lat="22.669605" lon="114.501315"><ele>283</ele><time>2025-04-19T02:45:44Z</time></trkpt>
      <trkpt lat="22.669979" lon="114.501396"><ele>305</ele><time>2025-04-19T02:49:27Z</time></trkpt>
      <trkpt lat="22.670255" lon="114.501386"><ele>325</ele><time>2025-04-19T02:52:49Z</time></trkpt>
      <trkpt lat="22.670414" lon="114.50149"><ele>328</ele><time>2025-04-19T02:53:52Z</time></trkpt>
      <trkpt lat="22.670548" lon="114.501364"><ele>348</ele><time>2025-04-19T02:55:43Z</time></trkpt>
      <trkpt lat="22.670735" lon="114.501356"><ele>356</ele><time>2025-04-19T02:56:56Z</time></trkpt>
      <trkpt lat="22.670777" lon="114.501269"><ele>363</ele><time>2025-04-19T03:02:58Z</time></trkpt>
      <trkpt lat="22.670941" lon="114.501182"><ele>370</ele><time>2025-04-19T03:06:06Z</time></trkpt>
      <trkpt lat="22.671128" lon="114.501205"><ele>382</ele><time>2025-04-19T03:09:02Z</time></trkpt>
      <trkpt lat="22.671452" lon="114.501561"><ele>411</ele><time>2025-04-19T03:15:16Z</time></trkpt>
      <trkpt lat="22.671489" lon="114.50147"><ele>413</ele><time>2025-04-19T03:18:41Z</time></trkpt>
      <trkpt lat="22.671391" lon="114.501189"><ele>424</ele><time>2025-04-19T03:21:31Z</time></trkpt>
      <trkpt lat="22.671405" lon="114.50099"><ele>424</ele><time>2025-04-19T03:22:06Z</time></trkpt>
      <trkpt lat="22.6717" lon="114.500256"><ele>428</ele><time>2025-04-19T03:23:53Z</time></trkpt>
      <trkpt lat="22.671714" lon="114.49916"><ele>450</ele><time>2025-04-19T03:31:51Z</time></trkpt>
      <trkpt lat="22.671818" lon="114.498997"><ele>452</ele><time>2025-04-19T03:32:11Z</time></trkpt>
      <trkpt lat="22.671856" lon="114.4987"><ele>465</ele><time>2025-04-19T03:33:12Z</time></trkpt>
      <trkpt lat="22.671975" lon="114.498544"><ele>451</ele><time>2025-04-19T03:38:22Z</time></trkpt>
      <trkpt lat="22.671953" lon="114.498449"><ele>448</ele><time>2025-04-19T03:38:58Z</time></trkpt>
      <trkpt lat="22.672018" lon="114.498266"><ele>443</ele><time>2025-04-19T03:40:27Z</time></trkpt>
      <trkpt lat="22.671933" lon="114.497175"><ele>454</ele><time>2025-04-19T03:43:04Z</time></trkpt>
      <trkpt lat="22.672071" lon="114.496584"><ele>460</ele><time>2025-04-19T03:44:17Z</time></trkpt>
      <trkpt lat="22.671815" lon="114.496035"><ele>463</ele><time>2025-04-19T03:45:59Z</time></trkpt>
      <trkpt lat="22.671852" lon="114.495836"><ele>464</ele><time>2025-04-19T03:46:20Z</time></trkpt>
      <trkpt lat="22.671808" lon="114.495531"><ele>457</ele><time>2025-04-19T03:46:57Z</time></trkpt>
      <trkpt lat="22.672016" lon="114.494978"><ele>441</ele><time>2025-04-19T03:48:44Z</time></trkpt>
      <trkpt lat="22.671975" lon="114.494476"><ele>444</ele><time>2025-04-19T03:49:41Z</time></trkpt>
      <trkpt lat="22.672137" lon="114.493697"><ele>458</ele><time>2025-04-19T03:53:25Z</time></trkpt>
      <trkpt lat="22.67199" lon="114.492991"><ele>456</ele><time>2025-04-19T03:55:35Z</time></trkpt>
      <trkpt lat="22.671965" lon="114.491175"><ele>484</ele><time>2025-04-19T04:03:55Z</time></trkpt>
      <trkpt lat="22.672125" lon="114.490706"><ele>510</ele><time>2025-04-19T04:06:24Z</time></trkpt>
      <trkpt lat="22.672395" lon="114.490193"><ele>547</ele><time>2025-04-19T04:13:09Z</time></trkpt>
      <trkpt lat="22.672481" lon="114.489601"><ele>567</ele><time>2025-04-19T04:15:17Z</time></trkpt>
      <trkpt lat="22.672754" lon="114.489187"><ele>589</ele><time>2025-04-19T04:25:10Z</time></trkpt>
      <trkpt lat="22.672892" lon="114.488729"><ele>614</ele><time>2025-04-19T04:28:39Z</time></trkpt>
      <trkpt lat="22.672865" lon="114.488325"><ele>617</ele><time>2025-04-19T04:32:49Z</time></trkpt>
      <trkpt lat="22.672754" lon="114.487934"><ele>608</ele><time>2025-04-19T04:33:53Z</time></trkpt>
      <trkpt lat="22.672829" lon="114.487876"><ele>611</ele><time>2025-04-19T04:34:22Z</time></trkpt>
      <trkpt lat="22.672786" lon="114.487582"><ele>612</ele><time>2025-04-19T04:35:03Z</time></trkpt>
      <trkpt lat="22.672838" lon="114.48729"><ele>615</ele><time>2025-04-19T04:35:45Z</time></trkpt>
      <trkpt lat="22.672792" lon="114.487092"><ele>621</ele><time>2025-04-19T04:36:09Z</time></trkpt>
      <trkpt lat="22.672593" lon="114.486646"><ele>627</ele><time>2025-04-19T04:37:12Z</time></trkpt>
      <trkpt lat="22.67256" lon="114.486252"><ele>628</ele><time>2025-04-19T04:37:59Z</time></trkpt>
      <trkpt lat="22.672391" lon="114.486036"><ele>615</ele><time>2025-04-19T04:42:34Z</time></trkpt>
      <trkpt lat="22.672438" lon="114.48595"><ele>621</ele><time>2025-04-19T04:43:37Z</time></trkpt>
      <trkpt lat="22.672386" lon="114.485868"><ele>619</ele><time>2025-04-19T04:43:46Z</time></trkpt>
      <trkpt lat="22.672352" lon="114.485471"><ele>630</ele><time>2025-04-19T04:44:31Z</time></trkpt>
      <trkpt lat="22.67199" lon="114.484772"><ele>622</ele><time>2025-04-19T04:46:01Z</time></trkpt>
      <trkpt lat="22.671871" lon="114.484367"><ele>627</ele><time>2025-04-19T04:46:41Z</time></trkpt>
      <trkpt lat="22.672228" lon="114.483327"><ele>638</ele><time>2025-04-19T04:48:31Z</time></trkpt>
      <trkpt lat="22.672184" lon="114.482637"><ele>651</ele><time>2025-04-19T04:51:00Z</time></trkpt>
      <trkpt lat="22.671961" lon="114.48198"><ele>668</ele><time>2025-04-19T04:53:35Z</time></trkpt>
      <trkpt lat="22.671579" lon="114.481396"><ele>655</ele><time>2025-04-19T04:57:01Z</time></trkpt>
      <trkpt lat="22.671518" lon="114.480806"><ele>638</ele><time>2025-04-19T04:59:47Z</time></trkpt>
      <trkpt lat="22.671451" lon="114.480735"><ele>636</ele><time>2025-04-19T04:59:55Z</time></trkpt>
      <trkpt lat="22.671431" lon="114.480434"><ele>638</ele><time>2025-04-19T05:00:57Z</time></trkpt>
      <trkpt lat="22.67119" lon="114.479561"><ele>652</ele><time>2025-04-19T05:02:41Z</time></trkpt>
      <trkpt lat="22.671067" lon="114.478666"><ele>679</ele><time>2025-04-19T05:06:12Z</time></trkpt>
      <trkpt lat="22.671099" lon="114.478348"><ele>683</ele><time>2025-04-19T05:06:43Z</time></trkpt>
      <trkpt lat="22.671039" lon="114.477951"><ele>691</ele><time>2025-04-19T05:07:31Z</time></trkpt>
      <trkpt lat="22.671141" lon="114.477552"><ele>706</ele><time>2025-04-19T05:08:32Z</time></trkpt>
      <trkpt lat="22.6711" lon="114.477362"><ele>705</ele><time>2025-04-19T05:11:30Z</time></trkpt>
      <trkpt lat="22.671033" lon="114.477538"><ele>706</ele><time>2025-04-19T05:45:32Z</time></trkpt>
      <trkpt lat="22.671058" lon="114.477254"><ele>702</ele><time>2025-04-19T05:48:34Z</time></trkpt>
      <trkpt lat="22.670904" lon="114.477148"><ele>688</ele><time>2025-04-19T05:49:52Z</time></trkpt>
      <trkpt lat="22.66991" lon="114.476898"><ele>653</ele><time>2025-04-19T05:53:54Z</time></trkpt>
      <trkpt lat="22.669847" lon="114.47682"><ele>647</ele><time>2025-04-19T05:54:24Z</time></trkpt>
      <trkpt lat="22.669654" lon="114.476808"><ele>639</ele><time>2025-04-19T05:55:22Z</time></trkpt>
      <trkpt lat="22.66819" lon="114.476178"><ele>562</ele><time>2025-04-19T06:03:06Z</time></trkpt>
      <trkpt lat="22.667709" lon="114.476153"><ele>550</ele><time>2025-04-19T06:04:39Z</time></trkpt>
      <trkpt lat="22.667278" lon="114.475928"><ele>542</ele><time>2025-04-19T06:07:31Z</time></trkpt>
      <trkpt lat="22.667101" lon="114.475709"><ele>528</ele><time>2025-04-19T06:09:16Z</time></trkpt>
      <trkpt lat="22.666748" lon="114.475616"><ele>523</ele><time>2025-04-19T06:10:45Z</time></trkpt>
      <trkpt lat="22.666603" lon="114.475493"><ele>525</ele><time>2025-04-19T06:11:53Z</time></trkpt>
      <trkpt lat="22.665747" lon="114.475362"><ele>542</ele><time>2025-04-19T06:14:01Z</time></trkpt>
      <trkpt lat="22.665587" lon="114.475231"><ele>539</ele><time>2025-04-19T06:14:31Z</time></trkpt>
      <trkpt lat="22.665513" lon="114.474938"><ele>556</ele><time>2025-04-19T06:15:12Z</time></trkpt>
      <trkpt lat="22.665405" lon="114.474773"><ele>556</ele><time>2025-04-19T06:16:58Z</time></trkpt>
      <trkpt lat="22.665387" lon="114.474472"><ele>568</ele><time>2025-04-19T06:19:43Z</time></trkpt>
      <trkpt lat="22.665292" lon="114.474184"><ele>594</ele><time>2025-04-19T06:20:44Z</time></trkpt>
      <trkpt lat="22.665093" lon="114.473846"><ele>604</ele><time>2025-04-19T06:29:52Z</time></trkpt>
      <trkpt lat="22.664812" lon="114.473601"><ele>608</ele><time>2025-04-19T06:31:16Z</time></trkpt>
      <trkpt lat="22.66475" lon="114.473305"><ele>618</ele><time>2025-04-19T06:32:13Z</time></trkpt>
      <trkpt lat="22.664796" lon="114.47312"><ele>622</ele><time>2025-04-19T06:32:52Z</time></trkpt>
      <trkpt lat="22.665046" lon="114.472833"><ele>619</ele><time>2025-04-19T06:33:40Z</time></trkpt>
      <trkpt lat="22.665129" lon="114.472543"><ele>606</ele><time>2025-04-19T06:35:00Z</time></trkpt>
      <trkpt lat="22.665383" lon="114.472253"><ele>604</ele><time>2025-04-19T06:35:56Z</time></trkpt>
      <trkpt lat="22.66545" lon="114.472069"><ele>591</ele><time>2025-04-19T06:36:20Z</time></trkpt>
      <trkpt lat="22.665403" lon="114.47157"><ele>560</ele><time>2025-04-19T06:38:18Z</time></trkpt>
      <trkpt lat="22.665461" lon="114.471157"><ele>554</ele><time>2025-04-19T06:43:10Z</time></trkpt>
      <trkpt lat="22.665535" lon="114.471087"><ele>544</ele><time>2025-04-19T06:43:43Z</time></trkpt>
      <trkpt lat="22.665654" lon="114.470716"><ele>524</ele><time>2025-04-19T06:45:06Z</time></trkpt>
      <trkpt lat="22.66609" lon="114.470322"><ele>519</ele><time>2025-04-19T06:47:34Z</time></trkpt>
      <trkpt lat="22.666384" lon="114.469914"><ele>512</ele><time>2025-04-19T06:49:59Z</time></trkpt>
      <trkpt lat="22.666561" lon="114.46926"><ele>484</ele><time>2025-04-19T06:52:56Z</time></trkpt>
      <trkpt lat="22.667145" lon="114.468736"><ele>474</ele><time>2025-04-19T06:54:23Z</time></trkpt>
      <trkpt lat="22.667428" lon="114.46773"><ele>470</ele><time>2025-04-19T06:56:10Z</time></trkpt>
      <trkpt lat="22.667769" lon="114.4674"><ele>455</ele><time>2025-04-19T06:58:09Z</time></trkpt>
      <trkpt lat="22.668133" lon="114.467298"><ele>442</ele><time>2025-04-19T06:59:38Z</time></trkpt>
      <trkpt lat="22.668604" lon="114.467267"><ele>424</ele><time>2025-04-19T07:01:28Z</time></trkpt>
      <trkpt lat="22.668757" lon="114.467171"><ele>415</ele><time>2025-04-19T07:02:14Z</time></trkpt>
      <trkpt lat="22.668848" lon="114.467188"><ele>411</ele><time>2025-04-19T07:02:39Z</time></trkpt>
      <trkpt lat="22.669304" lon="114.467018"><ele>405</ele><time>2025-04-19T07:03:58Z</time></trkpt>
      <trkpt lat="22.669366" lon="114.466823"><ele>402</ele><time>2025-04-19T07:04:28Z</time></trkpt>
      <trkpt lat="22.669152" lon="114.466502"><ele>399</ele><time>2025-04-19T07:05:13Z</time></trkpt>
      <trkpt lat="22.669121" lon="114.466195"><ele>392</ele><time>2025-04-19T07:05:58Z</time></trkpt>
      <trkpt lat="22.66922" lon="114.465913"><ele>386</ele><time>2025-04-19T07:06:32Z</time></trkpt>
      <trkpt lat="22.669356" lon="114.465784"><ele>386</ele><time>2025-04-19T07:06:56Z</time></trkpt>
      <trkpt lat="22.669547" lon="114.46489"><ele>366</ele><time>2025-04-19T07:09:27Z</time></trkpt>
      <trkpt lat="22.670028" lon="114.464591"><ele>357</ele><time>2025-04-19T07:10:28Z</time></trkpt>
      <trkpt lat="22.670075" lon="114.464498"><ele>355</ele><time>2025-04-19T07:10:38Z</time></trkpt>
      <trkpt lat="22.669999" lon="114.463582"><ele>346</ele><time>2025-04-19T07:12:04Z</time></trkpt>
      <trkpt lat="22.670128" lon="114.463318"><ele>353</ele><time>2025-04-19T07:12:45Z</time></trkpt>
      <trkpt lat="22.670093" lon="114.462923"><ele>354</ele><time>2025-04-19T07:13:48Z</time></trkpt>
      <trkpt lat="22.670271" lon="114.462457"><ele>349</ele><time>2025-04-19T07:14:50Z</time></trkpt>
      <trkpt lat="22.670502" lon="114.462142"><ele>345</ele><time>2025-04-19T07:15:57Z</time></trkpt>
      <trkpt lat="22.67059" lon="114.461742"><ele>343</ele><time>2025-04-19T07:16:38Z</time></trkpt>
      <trkpt lat="22.670437" lon="114.461395"><ele>354</ele><time>2025-04-19T07:20:29Z</time></trkpt>
      <trkpt lat="22.670392" lon="114.460983"><ele>344</ele><time>2025-04-19T07:21:10Z</time></trkpt>
      <trkpt lat="22.670468" lon="114.460575"><ele>347</ele><time>2025-04-19T07:21:47Z</time></trkpt>
      <trkpt lat="22.670442" lon="114.460369"><ele>345</ele><time>2025-04-19T07:22:10Z</time></trkpt>
      <trkpt lat="22.670622" lon="114.459802"><ele>322</ele><time>2025-04-19T07:24:07Z</time></trkpt>
      <trkpt lat="22.670356" lon="114.458838"><ele>316</ele><time>2025-04-19T07:28:06Z</time></trkpt>
      <trkpt lat="22.670685" lon="114.458422"><ele>305</ele><time>2025-04-19T07:29:33Z</time></trkpt>
      <trkpt lat="22.670853" lon="114.458076"><ele>297</ele><time>2025-04-19T07:30:50Z</time></trkpt>
      <trkpt lat="22.671074" lon="114.457884"><ele>296</ele><time>2025-04-19T07:31:22Z</time></trkpt>
      <trkpt lat="22.671061" lon="114.457685"><ele>286</ele><time>2025-04-19T07:31:43Z</time></trkpt>
      <trkpt lat="22.67111" lon="114.457599"><ele>281</ele><time>2025-04-19T07:31:53Z</time></trkpt>
      <trkpt lat="22.671965" lon="114.457503"><ele>273</ele><time>2025-04-19T07:40:01Z</time></trkpt>
      <trkpt lat="22.672505" lon="114.45767"><ele>265</ele><time>2025-04-19T07:41:17Z</time></trkpt>
      <trkpt lat="22.67274" lon="114.457849"><ele>262</ele><time>2025-04-19T07:42:33Z</time></trkpt>
      <trkpt lat="22.673102" lon="114.457962"><ele>248</ele><time>2025-04-19T07:44:12Z</time></trkpt>
      <trkpt lat="22.673385" lon="114.457932"><ele>242</ele><time>2025-04-19T07:45:24Z</time></trkpt>
      <trkpt lat="22.673715" lon="114.457769"><ele>224</ele><time>2025-04-19T07:47:18Z</time></trkpt>
      <trkpt lat="22.673905" lon="114.457792"><ele>215</ele><time>2025-04-19T07:47:54Z</time></trkpt>
      <trkpt lat="22.674059" lon="114.457896"><ele>209</ele><time>2025-04-19T07:48:23Z</time></trkpt>
      <trkpt lat="22.674248" lon="114.45791"><ele>207</ele><time>2025-04-19T07:48:47Z</time></trkpt>
      <trkpt lat="22.674321" lon="114.457851"><ele>205</ele><time>2025-04-19T07:49:00Z</time></trkpt>
      <trkpt lat="22.674579" lon="114.45799"><ele>198</ele><time>2025-04-19T07:49:36Z</time></trkpt>
      <trkpt lat="22.67484" lon="114.458295"><ele>193</ele><time>2025-04-19T07:50:39Z</time></trkpt>
      <trkpt lat="22.675011" lon="114.458363"><ele>191</ele><time>2025-04-19T07:51:25Z</time></trkpt>
      <trkpt lat="22.675539" lon="114.458138"><ele>183</ele><time>2025-04-19T07:52:44Z</time></trkpt>
      <trkpt lat="22.675717" lon="114.457808"><ele>180</ele><time>2025-04-19T07:53:41Z</time></trkpt>
      <trkpt lat="22.6761" lon="114.45777"><ele>173</ele><time>2025-04-19T07:54:41Z</time></trkpt>
      <trkpt lat="22.676361" lon="114.457894"><ele>162</ele><time>2025-04-19T07:55:24Z</time></trkpt>
      <trkpt lat="22.677012" lon="114.457831"><ele>154</ele><time>2025-04-19T07:57:11Z</time></trkpt>
      <trkpt lat="22.677076" lon="114.457756"><ele>155</ele><time>2025-04-19T07:57:46Z</time></trkpt>
      <trkpt lat="22.677005" lon="114.457562"><ele>151</ele><time>2025-04-19T07:58:16Z</time></trkpt>
      <trkpt lat="22.677145" lon="114.457411"><ele>150</ele><time>2025-04-19T07:58:50Z</time></trkpt>
      <trkpt lat="22.67732" lon="114.457338"><ele>145</ele><time>2025-04-19T07:59:14Z</time></trkpt>
      <trkpt lat="22.677884" lon="114.457293"><ele>139</ele><time>2025-04-19T08:00:42Z</time></trkpt>
      <trkpt lat="22.678341" lon="114.457149"><ele>131</ele><time>2025-04-19T08:01:55Z</time></trkpt>
      <trkpt lat="22.678503" lon="114.457248"><ele>127</ele><time>2025-04-19T08:03:06Z</time></trkpt>
      <trkpt lat="22.678685" lon="114.45723"><ele>125</ele><time>2025-04-19T08:03:43Z</time></trkpt>
      <trkpt lat="22.679209" lon="114.457468"><ele>124</ele><time>2025-04-19T08:06:13Z</time></trkpt>
      <trkpt lat="22.679698" lon="114.457449"><ele>125</ele><time>2025-04-19T08:06:57Z</time></trkpt>
      <trkpt lat="22.68012" lon="114.457234"><ele>123</ele><time>2025-04-19T08:07:42Z</time></trkpt>
      <trkpt lat="22.680625" lon="114.456633"><ele>120</ele><time>2025-04-19T08:08:48Z</time></trkpt>
      <trkpt lat="22.680993" lon="114.456594"><ele>125</ele><time>2025-04-19T08:09:23Z</time></trkpt>
      <trkpt lat="22.681223" lon="114.456397"><ele>129</ele><time>2025-04-19T08:10:13Z</time></trkpt>
      <trkpt lat="22.681414" lon="114.456332"><ele>129</ele><time>2025-04-19T08:10:21Z</time></trkpt>
      <trkpt lat="22.68161" lon="114.455963"><ele>127</ele><time>2025-04-19T08:10:48Z</time></trkpt>
      <trkpt lat="22.681934" lon="114.455736"><ele>122</ele><time>2025-04-19T08:11:24Z</time></trkpt>
      <trkpt lat="22.681999" lon="114.455322"><ele>120</ele><time>2025-04-19T08:11:53Z</time></trkpt>
      <trkpt lat="22.68209" lon="114.455135"><ele>119</ele><time>2025-04-19T08:12:07Z</time></trkpt>
      <trkpt lat="22.682567" lon="114.454812"><ele>125</ele><time>2025-04-19T08:12:58Z</time></trkpt>
      <trkpt lat="22.683093" lon="114.45433"><ele>128</ele><time>2025-04-19T08:14:08Z</time></trkpt>
      <trkpt lat="22.684134" lon="114.45405"><ele>125</ele><time>2025-04-19T08:15:42Z</time></trkpt>
      <trkpt lat="22.685742" lon="114.453474"><ele>121</ele><time>2025-04-19T08:18:44Z</time></trkpt>
      <trkpt lat="22.685914" lon="114.453403"><ele>122</ele><time>2025-04-19T08:19:01Z</time></trkpt>
      <trkpt lat="22.686029" lon="114.453239"><ele>123</ele><time>2025-04-19T08:19:19Z</time></trkpt>
      <trkpt lat="22.686351" lon="114.452998"><ele>118</ele><time>2025-04-19T08:19:56Z</time></trkpt>
      <trkpt lat="22.686547" lon="114.453002"><ele>114</ele><time>2025-04-19T08:20:17Z</time></trkpt>
      <trkpt lat="22.686633" lon="114.453063"><ele>114</ele><time>2025-04-19T08:20:28Z</time></trkpt>
      <trkpt lat="22.686689" lon="114.453271"><ele>107</ele><time>2025-04-19T08:20:54Z</time></trkpt>
      <trkpt lat="22.68684" lon="114.453396"><ele>108</ele><time>2025-04-19T08:21:18Z</time></trkpt>
      <trkpt lat="22.687374" lon="114.453552"><ele>91</ele><time>2025-04-19T08:23:01Z</time></trkpt>
      <trkpt lat="22.688096" lon="114.454049"><ele>79</ele><time>2025-04-19T08:24:34Z</time></trkpt>
      <trkpt lat="22.688805" lon="114.454375"><ele>79</ele><time>2025-04-19T08:30:24Z</time></trkpt>
      <trkpt lat="22.688982" lon="114.454322"><ele>79</ele><time>2025-04-19T08:30:39Z</time></trkpt>
      <trkpt lat="22.689265" lon="114.454063"><ele>74</ele><time>2025-04-19T08:31:18Z</time></trkpt>
      <trkpt lat="22.689444" lon="114.454041"><ele>71</ele><time>2025-04-19T08:31:37Z</time></trkpt>
      <trkpt lat="22.689886" lon="114.454246"><ele>76</ele><time>2025-04-19T08:32:24Z</time></trkpt>
      <trkpt lat="22.690171" lon="114.454255"><ele>74</ele><time>2025-04-19T08:32:48Z</time></trkpt>
      <trkpt lat="22.690656" lon="114.454192"><ele>72</ele><time>2025-04-19T08:33:36Z</time></trkpt>
      <trkpt lat="22.691026" lon="114.454028"><ele>73</ele><time>2025-04-19T08:34:15Z</time></trkpt>
      <trkpt lat="22.691408" lon="114.453961"><ele>73</ele><time>2025-04-19T08:34:53Z</time></trkpt>
      <trkpt lat="22.691688" lon="114.454041"><ele>68</ele><time>2025-04-19T08:35:19Z</time></trkpt>
      <trkpt lat="22.691706" lon="114.454141"><ele>66</ele><time>2025-04-19T08:35:33Z</time></trkpt>
      <trkpt lat="22.691785" lon="114.454195"><ele>65</ele><time>2025-04-19T08:36:09Z</time></trkpt>
      <trkpt lat="22.692339" lon="114.454063"><ele>63</ele><time>2025-04-19T08:37:15Z</time></trkpt>
      <trkpt lat="22.692537" lon="114.453855"><ele>65</ele><time>2025-04-19T08:37:46Z</time></trkpt>
      <trkpt lat="22.692717" lon="114.453815"><ele>65</ele><time>2025-04-19T08:39:20Z</time></trkpt>
      <trkpt lat="22.692784" lon="114.45374"><ele>66</ele><time>2025-04-19T08:39:30Z</time></trkpt>
      <trkpt lat="22.693089" lon="114.453222"><ele>61</ele><time>2025-04-19T08:40:29Z</time></trkpt>
      <trkpt lat="22.693577" lon="114.452599"><ele>75</ele><time>2025-04-19T08:41:50Z</time></trkpt>
      <trkpt lat="22.6941" lon="114.452124"><ele>73</ele><time>2025-04-19T08:42:56Z</time></trkpt>
      <trkpt lat="22.694367" lon="114.452004"><ele>71</ele><time>2025-04-19T08:43:26Z</time></trkpt>
      <trkpt lat="22.694656" lon="114.452081"><ele>68</ele><time>2025-04-19T08:43:52Z</time></trkpt>
      <trkpt lat="22.694784" lon="114.452222"><ele>67</ele><time>2025-04-19T08:44:08Z</time></trkpt>
      <trkpt lat="22.694876" lon="114.452625"><ele>71</ele><time>2025-04-19T08:44:44Z</time></trkpt>
      <trkpt lat="22.695015" lon="114.452889"><ele>68</ele><time>2025-04-19T08:45:08Z</time></trkpt>
      <trkpt lat="22.695219" lon="114.453105"><ele>70</ele><time>2025-04-19T08:45:35Z</time></trkpt>
      <trkpt lat="22.695686" lon="114.453438"><ele>75</ele><time>2025-04-19T08:46:27Z</time></trkpt>
      <trkpt lat="22.69634" lon="114.45335"><ele>71</ele><time>2025-04-19T08:47:32Z</time></trkpt>
      <trkpt lat="22.697496" lon="114.452859"><ele>68</ele><time>2025-04-19T08:57:08Z</time></trkpt>
      <trkpt lat="22.69802" lon="114.4526"><ele>65</ele><time>2025-04-19T08:58:05Z</time></trkpt>
      <trkpt lat="22.698275" lon="114.452293"><ele>64</ele><time>2025-04-19T08:58:38Z</time></trkpt>
      <trkpt lat="22.698463" lon="114.452207"><ele>63</ele><time>2025-04-19T08:58:59Z</time></trkpt>
      <trkpt lat="22.699126" lon="114.4524"><ele>60</ele><time>2025-04-19T08:59:59Z</time></trkpt>
      <trkpt lat="22.699526" lon="114.452667"><ele>58</ele><time>2025-04-19T09:00:39Z</time></trkpt>
      <trkpt lat="22.700196" lon="114.452739"><ele>58</ele><time>2025-04-19T09:01:37Z</time></trkpt>
      <trkpt lat="22.700333" lon="114.45287"><ele>57</ele><time>2025-04-19T09:01:54Z</time></trkpt>
      <trkpt lat="22.700339" lon="114.452968"><ele>57</ele><time>2025-04-19T09:02:01Z</time></trkpt>
      <trkpt lat="22.70071" lon="114.453023"><ele>51</ele><time>2025-04-19T09:02:34Z</time></trkpt>
      <trkpt lat="22.701882" lon="114.453475"><ele>56</ele><time>2025-04-19T09:04:20Z</time></trkpt>
    </trkseg>
  </trk>
</gpx>
