<?xml version="1.0" encoding="UTF-8"?>
<gpx version="1.1" creator="MyWorld" xmlns="http://www.topografix.com/GPX/1/1">
  <metadata><name>湖州章里古道</name></metadata>
  <trk>
    <name>湖州章里古道</name>
    <trkseg>
      <trkpt lat="30.488177" lon="119.387815"><ele>138</ele><time>2025-09-13T00:31:50Z</time></trkpt>
      <trkpt lat="30.488135" lon="119.387721"><ele>137</ele><time>2025-09-13T00:32:18Z</time></trkpt>
      <trkpt lat="30.488206" lon="119.387637"><ele>138</ele><time>2025-09-13T00:32:51Z</time></trkpt>
      <trkpt lat="30.488679" lon="119.387707"><ele>140</ele><time>2025-09-13T00:33:30Z</time></trkpt>
      <trkpt lat="30.488765" lon="119.387644"><ele>140</ele><time>2025-09-13T00:33:40Z</time></trkpt>
      <trkpt lat="30.488807" lon="119.387089"><ele>142</ele><time>2025-09-13T00:34:18Z</time></trkpt>
      <trkpt lat="30.488893" lon="119.38704"><ele>145</ele><time>2025-09-13T00:34:30Z</time></trkpt>
      <trkpt lat="30.489286" lon="119.387056"><ele>144</ele><time>2025-09-13T00:35:01Z</time></trkpt>
      <trkpt lat="30.489076" lon="119.386447"><ele>141</ele><time>2025-09-13T00:35:49Z</time></trkpt>
      <trkpt lat="30.48886" lon="119.386067"><ele>141</ele><time>2025-09-13T00:36:27Z</time></trkpt>
      <trkpt lat="30.488758" lon="119.38507"><ele>142</ele><time>2025-09-13T00:37:38Z</time></trkpt>
      <trkpt lat="30.488885" lon="119.384647"><ele>143</ele><time>2025-09-13T00:38:10Z</time></trkpt>
      <trkpt lat="30.488846" lon="119.384219"><ele>144</ele><time>2025-09-13T00:38:40Z</time></trkpt>
      <trkpt lat="30.488963" lon="119.383545"><ele>146</ele><time>2025-09-13T00:39:28Z</time></trkpt>
      <trkpt lat="30.488951" lon="119.382992"><ele>145</ele><time>2025-09-13T00:40:09Z</time></trkpt>
      <trkpt lat="30.489028" lon="119.382538"><ele>149</ele><time>2025-09-13T00:40:40Z</time></trkpt>
      <trkpt lat="30.488965" lon="119.381983"><ele>152</ele><time>2025-09-13T00:41:20Z</time></trkpt>
      <trkpt lat="30.489332" lon="119.381609"><ele>153</ele><time>2025-09-13T00:41:58Z</time></trkpt>
      <trkpt lat="30.489583" lon="119.381154"><ele>157</ele><time>2025-09-13T00:42:37Z</time></trkpt>
      <trkpt lat="30.489384" lon="119.38066"><ele>162</ele><time>2025-09-13T00:43:19Z</time></trkpt>
      <trkpt lat="30.488967" lon="119.380066"><ele>163</ele><time>2025-09-13T00:44:14Z</time></trkpt>
      <trkpt lat="30.488662" lon="119.379816"><ele>163</ele><time>2025-09-13T00:44:45Z</time></trkpt>
      <trkpt lat="30.488604" lon="119.379606"><ele>162</ele><time>2025-09-13T00:45:01Z</time></trkpt>
      <trkpt lat="30.488721" lon="119.379174"><ele>168</ele><time>2025-09-13T00:45:34Z</time></trkpt>
      <trkpt lat="30.488658" lon="119.378851"><ele>171</ele><time>2025-09-13T00:45:58Z</time></trkpt>
      <trkpt lat="30.488541" lon="119.378685"><ele>169</ele><time>2025-09-13T00:46:15Z</time></trkpt>
      <trkpt lat="30.487917" lon="119.378426"><ele>169</ele><time>2025-09-13T00:47:24Z</time></trkpt>
      <trkpt lat="30.487821" lon="119.378226"><ele>169</ele><time>2025-09-13T00:47:46Z</time></trkpt>
      <trkpt lat="30.487666" lon="119.377378"><ele>181</ele><time>2025-09-13T00:48:55Z</time></trkpt>
      <trkpt lat="30.487494" lon="119.376984"><ele>189</ele><time>2025-09-13T00:49:36Z</time></trkpt>
      <trkpt lat="30.487877" lon="119.375749"><ele>206</ele><time>2025-09-13T00:51:38Z</time></trkpt>
      <trkpt lat="30.487828" lon="119.375418"><ele>210</ele><time>2025-09-13T00:52:07Z</time></trkpt>
      <trkpt lat="30.487694" lon="119.375123"><ele>216</ele><time>2025-09-13T00:52:40Z</time></trkpt>
      <trkpt lat="30.487754" lon="119.374809"><ele>220</ele><time>2025-09-13T00:55:58Z</time></trkpt>
      <trkpt lat="30.487737" lon="119.374382"><ele>237</ele><time>2025-09-13T00:57:08Z</time></trkpt>
      <trkpt lat="30.487646" lon="119.374073"><ele>248</ele><time>2025-09-13T00:58:09Z</time></trkpt>
      <trkpt lat="30.48747" lon="119.37406"><ele>252</ele><time>2025-09-13T00:58:47Z</time></trkpt>
      <trkpt lat="30.487239" lon="119.373885"><ele>267</ele><time>2025-09-13T01:00:23Z</time></trkpt>
      <trkpt lat="30.487272" lon="119.373774"><ele>270</ele><time>2025-09-13T01:00:39Z</time></trkpt>
      <trkpt lat="30.487869" lon="119.373446"><ele>274</ele><time>2025-09-13T01:01:48Z</time></trkpt>
      <trkpt lat="30.488108" lon="119.373"><ele>285</ele><time>2025-09-13T01:03:17Z</time></trkpt>
      <trkpt lat="30.488292" lon="119.373015"><ele>308</ele><time>2025-09-13T01:04:40Z</time></trkpt>
      <trkpt lat="30.488301" lon="119.373221"><ele>305</ele><time>2025-09-13T01:06:18Z</time></trkpt>
      <trkpt lat="30.488371" lon="119.373155"><ele>307</ele><time>2025-09-13T01:06:44Z</time></trkpt>
      <trkpt lat="30.48855" lon="119.373198"><ele>322</ele><time>2025-09-13T01:09:56Z</time></trkpt>
      <trkpt lat="30.488637" lon="119.373158"><ele>330</ele><time>2025-09-13T01:10:19Z</time></trkpt>
      <trkpt lat="30.488735" lon="119.372967"><ele>336</ele><time>2025-09-13T01:11:00Z</time></trkpt>
      <trkpt lat="30.488773" lon="119.372759"><ele>342</ele><time>2025-09-13T01:11:34Z</time></trkpt>
      <trkpt lat="30.488855" lon="119.372708"><ele>344</ele><time>2025-09-13T01:11:51Z</time></trkpt>
      <trkpt lat="30.489133" lon="119.372757"><ele>341</ele><time>2025-09-13T01:12:21Z</time></trkpt>
      <trkpt lat="30.489273" lon="119.372126"><ele>351</ele><time>2025-09-13T01:13:31Z</time></trkpt>
      <trkpt lat="30.489415" lon="119.371846"><ele>353</ele><time>2025-09-13T01:14:11Z</time></trkpt>
      <trkpt lat="30.490214" lon="119.372138"><ele>358</ele><time>2025-09-13T01:16:00Z</time></trkpt>
      <trkpt lat="30.490282" lon="119.372207"><ele>356</ele><time>2025-09-13T01:16:16Z</time></trkpt>
      <trkpt lat="30.490331" lon="119.372528"><ele>360</ele><time>2025-09-13T01:16:54Z</time></trkpt>
      <trkpt lat="30.490421" lon="119.372526"><ele>365</ele><time>2025-09-13T01:17:23Z</time></trkpt>
      <trkpt lat="30.490422" lon="119.371969"><ele>377</ele><time>2025-09-13T01:18:38Z</time></trkpt>
      <trkpt lat="30.490563" lon="119.3717"><ele>381</ele><time>2025-09-13T01:19:31Z</time></trkpt>
      <trkpt lat="30.490481" lon="119.371648"><ele>386</ele><time>2025-09-13T01:20:15Z</time></trkpt>
      <trkpt lat="30.490383" lon="119.371852"><ele>386</ele><time>2025-09-13T01:20:28Z</time></trkpt>
      <trkpt lat="30.490464" lon="119.37179"><ele>386</ele><time>2025-09-13T01:20:47Z</time></trkpt>
      <trkpt lat="30.490631" lon="119.371879"><ele>394</ele><time>2025-09-13T01:21:36Z</time></trkpt>
      <trkpt lat="30.490612" lon="119.371553"><ele>395</ele><time>2025-09-13T01:22:39Z</time></trkpt>
      <trkpt lat="30.49069" lon="119.371125"><ele>401</ele><time>2025-09-13T01:23:19Z</time></trkpt>
      <trkpt lat="30.490893" lon="119.370629"><ele>402</ele><time>2025-09-13T01:24:13Z</time></trkpt>
      <trkpt lat="30.491259" lon="119.370559"><ele>408</ele><time>2025-09-13T01:24:56Z</time></trkpt>
      <trkpt lat="30.491359" lon="119.370381"><ele>402</ele><time>2025-09-13T01:25:29Z</time></trkpt>
      <trkpt lat="30.491845" lon="119.368811"><ele>415</ele><time>2025-09-13T01:27:26Z</time></trkpt>
      <trkpt lat="30.492079" lon="119.368647"><ele>423</ele><time>2025-09-13T01:28:00Z</time></trkpt>
      <trkpt lat="30.492315" lon="119.368194"><ele>434</ele><time>2025-09-13T01:29:16Z</time></trkpt>
      <trkpt lat="30.492258" lon="119.367988"><ele>440</ele><time>2025-09-13T01:30:16Z</time></trkpt>
      <trkpt lat="30.492176" lon="119.368072"><ele>461</ele><time>2025-09-13T01:30:44Z</time></trkpt>
      <trkpt lat="30.492257" lon="119.368436"><ele>463</ele><time>2025-09-13T01:31:17Z</time></trkpt>
      <trkpt lat="30.492233" lon="119.368252"><ele>454</ele><time>2025-09-13T01:31:37Z</time></trkpt>
      <trkpt lat="30.492217" lon="119.368546"><ele>458</ele><time>2025-09-13T01:33:58Z</time></trkpt>
      <trkpt lat="30.492393" lon="119.368182"><ele>466</ele><time>2025-09-13T01:34:06Z</time></trkpt>
      <trkpt lat="30.492375" lon="119.368303"><ele>470</ele><time>2025-09-13T01:34:13Z</time></trkpt>
      <trkpt lat="30.492263" lon="119.368088"><ele>472</ele><time>2025-09-13T01:34:26Z</time></trkpt>
      <trkpt lat="30.492333" lon="119.368159"><ele>472</ele><time>2025-09-13T01:34:31Z</time></trkpt>
      <trkpt lat="30.492611" lon="119.36816"><ele>459</ele><time>2025-09-13T01:35:10Z</time></trkpt>
      <trkpt lat="30.492668" lon="119.368077"><ele>467</ele><time>2025-09-13T01:35:34Z</time></trkpt>
      <trkpt lat="30.492634" lon="119.367979"><ele>469</ele><time>2025-09-13T01:35:51Z</time></trkpt>
      <trkpt lat="30.492446" lon="119.367968"><ele>472</ele><time>2025-09-13T01:36:29Z</time></trkpt>
      <trkpt lat="30.492612" lon="119.367363"><ele>489</ele><time>2025-09-13T01:38:05Z</time></trkpt>
      <trkpt lat="30.492554" lon="119.367281"><ele>492</ele><time>2025-09-13T01:38:25Z</time></trkpt>
      <trkpt lat="30.492582" lon="119.36707"><ele>499</ele><time>2025-09-13T01:39:00Z</time></trkpt>
      <trkpt lat="30.493019" lon="119.366689"><ele>508</ele><time>2025-09-13T01:40:20Z</time></trkpt>
      <trkpt lat="30.492929" lon="119.366658"><ele>508</ele><time>2025-09-13T01:40:36Z</time></trkpt>
      <trkpt lat="30.492801" lon="119.366223"><ele>505</ele><time>2025-09-13T01:41:21Z</time></trkpt>
      <trkpt lat="30.49254" lon="119.36592"><ele>507</ele><time>2025-09-13T01:41:53Z</time></trkpt>
      <trkpt lat="30.492647" lon="119.365734"><ele>508</ele><time>2025-09-13T01:42:09Z</time></trkpt>
      <trkpt lat="30.492883" lon="119.365535"><ele>508</ele><time>2025-09-13T01:42:37Z</time></trkpt>
      <trkpt lat="30.493254" lon="119.365497"><ele>510</ele><time>2025-09-13T01:43:15Z</time></trkpt>
      <trkpt lat="30.49352" lon="119.365621"><ele>515</ele><time>2025-09-13T01:43:42Z</time></trkpt>
      <trkpt lat="30.493615" lon="119.365604"><ele>515</ele><time>2025-09-13T01:43:50Z</time></trkpt>
      <trkpt lat="30.49434" lon="119.366133"><ele>513</ele><time>2025-09-13T01:45:58Z</time></trkpt>
      <trkpt lat="30.49462" lon="119.366435"><ele>510</ele><time>2025-09-13T01:46:31Z</time></trkpt>
      <trkpt lat="30.495043" lon="119.36669"><ele>506</ele><time>2025-09-13T01:47:13Z</time></trkpt>
      <trkpt lat="30.495334" lon="119.366767"><ele>506</ele><time>2025-09-13T01:47:39Z</time></trkpt>
      <trkpt lat="30.495579" lon="119.366943"><ele>506</ele><time>2025-09-13T01:48:03Z</time></trkpt>
      <trkpt lat="30.495868" lon="119.367233"><ele>506</ele><time>2025-09-13T01:48:39Z</time></trkpt>
      <trkpt lat="30.496264" lon="119.367833"><ele>496</ele><time>2025-09-13T01:49:56Z</time></trkpt>
      <trkpt lat="30.496441" lon="119.367897"><ele>492</ele><time>2025-09-13T01:50:27Z</time></trkpt>
      <trkpt lat="30.496624" lon="119.367869"><ele>486</ele><time>2025-09-13T01:51:00Z</time></trkpt>
      <trkpt lat="30.497436" lon="119.368908"><ele>468</ele><time>2025-09-13T01:53:33Z</time></trkpt>
      <trkpt lat="30.497417" lon="119.369334"><ele>455</ele><time>2025-09-13T01:54:31Z</time></trkpt>
      <trkpt lat="30.497686" lon="119.37014"><ele>435</ele><time>2025-09-13T01:56:58Z</time></trkpt>
      <trkpt lat="30.497305" lon="119.370748"><ele>412</ele><time>2025-09-13T01:59:44Z</time></trkpt>
      <trkpt lat="30.497075" lon="119.370946"><ele>408</ele><time>2025-09-13T02:00:29Z</time></trkpt>
      <trkpt lat="30.496503" lon="119.371696"><ele>396</ele><time>2025-09-13T02:02:06Z</time></trkpt>
      <trkpt lat="30.496036" lon="119.372059"><ele>391</ele><time>2025-09-13T02:03:09Z</time></trkpt>
      <trkpt lat="30.495616" lon="119.372647"><ele>380</ele><time>2025-09-13T02:04:41Z</time></trkpt>
      <trkpt lat="30.495309" lon="119.373687"><ele>377</ele><time>2025-09-13T02:06:24Z</time></trkpt>
      <trkpt lat="30.495311" lon="119.374135"><ele>375</ele><time>2025-09-13T02:07:47Z</time></trkpt>
      <trkpt lat="30.495595" lon="119.373309"><ele>367</ele><time>2025-09-13T02:08:59Z</time></trkpt>
      <trkpt lat="30.495863" lon="119.372738"><ele>365</ele><time>2025-09-13T02:10:06Z</time></trkpt>
      <trkpt lat="30.496825" lon="119.371855"><ele>372</ele><time>2025-09-13T02:12:18Z</time></trkpt>
      <trkpt lat="30.496922" lon="119.37185"><ele>376</ele><time>2025-09-13T02:12:27Z</time></trkpt>
      <trkpt lat="30.497304" lon="119.373103"><ele>383</ele><time>2025-09-13T02:14:12Z</time></trkpt>
      <trkpt lat="30.497679" lon="119.373739"><ele>384</ele><time>2025-09-13T02:15:25Z</time></trkpt>
      <trkpt lat="30.497673" lon="119.374193"><ele>390</ele><time>2025-09-13T02:16:02Z</time></trkpt>
      <trkpt lat="30.497794" lon="119.374355"><ele>392</ele><time>2025-09-13T02:16:18Z</time></trkpt>
      <trkpt lat="30.497712" lon="119.374294"><ele>391</ele><time>2025-09-13T02:16:38Z</time></trkpt>
      <trkpt lat="30.497615" lon="119.373996"><ele>400</ele><time>2025-09-13T02:18:20Z</time></trkpt>
      <trkpt lat="30.49788" lon="119.374534"><ele>388</ele><time>2025-09-13T02:18:49Z</time></trkpt>
      <trkpt lat="30.497826" lon="119.374836"><ele>382</ele><time>2025-09-13T02:19:29Z</time></trkpt>
      <trkpt lat="30.498008" lon="119.375204"><ele>367</ele><time>2025-09-13T02:20:29Z</time></trkpt>
      <trkpt lat="30.497735" lon="119.375159"><ele>360</ele><time>2025-09-13T02:21:06Z</time></trkpt>
      <trkpt lat="30.497378" lon="119.374987"><ele>356</ele><time>2025-09-13T02:21:45Z</time></trkpt>
      <trkpt lat="30.497017" lon="119.375051"><ele>348</ele><time>2025-09-13T02:22:47Z</time></trkpt>
      <trkpt lat="30.496439" lon="119.375579"><ele>321</ele><time>2025-09-13T02:25:00Z</time></trkpt>
      <trkpt lat="30.496252" lon="119.375543"><ele>314</ele><time>2025-09-13T02:25:37Z</time></trkpt>
      <trkpt lat="30.496019" lon="119.375724"><ele>313</ele><time>2025-09-13T02:26:05Z</time></trkpt>
      <trkpt lat="30.495714" lon="119.376296"><ele>313</ele><time>2025-09-13T02:27:08Z</time></trkpt>
      <trkpt lat="30.495617" lon="119.376719"><ele>313</ele><time>2025-09-13T02:27:58Z</time></trkpt>
      <trkpt lat="30.495442" lon="119.376788"><ele>312</ele><time>2025-09-13T02:28:18Z</time></trkpt>
      <trkpt lat="30.495142" lon="119.37735"><ele>311</ele><time>2025-09-13T02:29:18Z</time></trkpt>
      <trkpt lat="30.494061" lon="119.377975"><ele>298</ele><time>2025-09-13T02:31:44Z</time></trkpt>
      <trkpt lat="30.492954" lon="119.378199"><ele>276</ele><time>2025-09-13T02:34:03Z</time></trkpt>
      <trkpt lat="30.492797" lon="119.378458"><ele>266</ele><time>2025-09-13T02:34:53Z</time></trkpt>
      <trkpt lat="30.492842" lon="119.379205"><ele>248</ele><time>2025-09-13T02:37:45Z</time></trkpt>
      <trkpt lat="30.492449" lon="119.379832"><ele>242</ele><time>2025-09-13T02:38:58Z</time></trkpt>
      <trkpt lat="30.492562" lon="119.380471"><ele>234</ele><time>2025-09-13T02:39:52Z</time></trkpt>
      <trkpt lat="30.49253" lon="119.380688"><ele>231</ele><time>2025-09-13T02:40:09Z</time></trkpt>
      <trkpt lat="30.492264" lon="119.380977"><ele>221</ele><time>2025-09-13T02:41:00Z</time></trkpt>
      <trkpt lat="30.492079" lon="119.381598"><ele>206</ele><time>2025-09-13T02:42:17Z</time></trkpt>
      <trkpt lat="30.491554" lon="119.382041"><ele>186</ele><time>2025-09-13T02:43:57Z</time></trkpt>
      <trkpt lat="30.491377" lon="119.382293"><ele>177</ele><time>2025-09-13T02:44:36Z</time></trkpt>
      <trkpt lat="30.491486" lon="119.382468"><ele>172</ele><time>2025-09-13T02:45:05Z</time></trkpt>
      <trkpt lat="30.491399" lon="119.382782"><ele>166</ele><time>2025-09-13T02:45:41Z</time></trkpt>
      <trkpt lat="30.49137" lon="119.383666"><ele>152</ele><time>2025-09-13T02:47:16Z</time></trkpt>
      <trkpt lat="30.491528" lon="119.384298"><ele>148</ele><time>2025-09-13T02:48:09Z</time></trkpt>
      <trkpt lat="30.49127" lon="119.384761"><ele>143</ele><time>2025-09-13T02:49:13Z</time></trkpt>
      <trkpt lat="30.491255" lon="119.384976"><ele>142</ele><time>2025-09-13T02:49:42Z</time></trkpt>
      <trkpt lat="30.491031" lon="119.385475"><ele>142</ele><time>2025-09-13T02:50:25Z</time></trkpt>
      <trkpt lat="30.490925" lon="119.385893"><ele>142</ele><time>2025-09-13T02:50:59Z</time></trkpt>
      <trkpt lat="30.490483" lon="119.386293"><ele>141</ele><time>2025-09-13T02:52:05Z</time></trkpt>
      <trkpt lat="30.490217" lon="119.386756"><ele>141</ele><time>2025-09-13T02:52:49Z</time></trkpt>
      <trkpt lat="30.490175" lon="119.387081"><ele>141</ele><time>2025-09-13T02:53:15Z</time></trkpt>
      <trkpt lat="30.490346" lon="119.387841"><ele>141</ele><time>2025-09-13T02:54:13Z</time></trkpt>
      <trkpt lat="30.490272" lon="119.387899"><ele>140</ele><time>2025-09-13T02:54:27Z</time></trkpt>
      <trkpt lat="30.489987" lon="119.387879"><ele>139</ele><time>2025-09-13T02:54:53Z</time></trkpt>
      <trkpt lat="30.489573" lon="119.388131"><ele>140</ele><time>2025-09-13T02:55:38Z</time></trkpt>
      <trkpt lat="30.488557" lon="119.387836"><ele>141</ele><time>2025-09-13T02:57:08Z</time></trkpt>
      <trkpt lat="30.488293" lon="119.387956"><ele>143</ele><time>2025-09-13T02:57:38Z</time></trkpt>
    </trkseg>
  </trk>
</gpx>
