<?xml version="1.0" encoding="UTF-8"?>
<gpx version="1.1" creator="MyWorld" xmlns="http://www.topografix.com/GPX/1/1">
  <metadata><name>杭州戴村</name></metadata>
  <trk>
    <name>杭州戴村</name>
    <trkseg>
      <trkpt lat="29.972762" lon="120.12837"><ele>103</ele><time>2025-02-04T02:03:51Z</time></trkpt>
      <trkpt lat="29.972504" lon="120.128673"><ele>114</ele><time>2025-02-04T02:04:46Z</time></trkpt>
      <trkpt lat="29.972105" lon="120.130439"><ele>171</ele><time>2025-02-04T02:08:54Z</time></trkpt>
      <trkpt lat="29.97182" lon="120.130714"><ele>190</ele><time>2025-02-04T02:10:14Z</time></trkpt>
      <trkpt lat="29.971568" lon="120.131176"><ele>215</ele><time>2025-02-04T02:11:46Z</time></trkpt>
      <trkpt lat="29.971514" lon="120.131389"><ele>221</ele><time>2025-02-04T02:12:22Z</time></trkpt>
      <trkpt lat="29.971245" lon="120.131461"><ele>231</ele><time>2025-02-04T02:18:00Z</time></trkpt>
      <trkpt lat="29.971114" lon="120.131613"><ele>240</ele><time>2025-02-04T02:18:34Z</time></trkpt>
      <trkpt lat="29.971023" lon="120.131628"><ele>244</ele><time>2025-02-04T02:18:55Z</time></trkpt>
      <trkpt lat="29.970624" lon="120.132211"><ele>276</ele><time>2025-02-04T02:21:22Z</time></trkpt>
      <trkpt lat="29.970314" lon="120.132438"><ele>291</ele><time>2025-02-04T02:23:15Z</time></trkpt>
      <trkpt lat="29.97021" lon="120.132614"><ele>300</ele><time>2025-02-04T02:24:01Z</time></trkpt>
      <trkpt lat="29.97012" lon="120.132599"><ele>306</ele><time>2025-02-04T02:25:53Z</time></trkpt>
      <trkpt lat="29.969976" lon="120.133092"><ele>326</ele><time>2025-02-04T02:28:21Z</time></trkpt>
      <trkpt lat="29.969581" lon="120.133345"><ele>349</ele><time>2025-02-04T02:30:52Z</time></trkpt>
      <trkpt lat="29.969372" lon="120.133694"><ele>363</ele><time>2025-02-04T02:32:31Z</time></trkpt>
      <trkpt lat="29.968948" lon="120.133298"><ele>383</ele><time>2025-02-04T02:35:56Z</time></trkpt>
      <trkpt lat="29.968827" lon="120.133575"><ele>391</ele><time>2025-02-04T02:36:39Z</time></trkpt>
      <trkpt lat="29.968853" lon="120.133781"><ele>398</ele><time>2025-02-04T02:37:10Z</time></trkpt>
      <trkpt lat="29.96851" lon="120.133615"><ele>413</ele><time>2025-02-04T02:38:23Z</time></trkpt>
      <trkpt lat="29.968422" lon="120.13364"><ele>420</ele><time>2025-02-04T02:38:53Z</time></trkpt>
      <trkpt lat="29.968265" lon="120.13352"><ele>428</ele><time>2025-02-04T02:39:37Z</time></trkpt>
      <trkpt lat="29.968188" lon="120.133709"><ele>433</ele><time>2025-02-04T02:40:38Z</time></trkpt>
      <trkpt lat="29.968311" lon="120.134107"><ele>446</ele><time>2025-02-04T02:41:36Z</time></trkpt>
      <trkpt lat="29.968038" lon="120.134022"><ele>456</ele><time>2025-02-04T02:42:39Z</time></trkpt>
      <trkpt lat="29.967523" lon="120.133538"><ele>471</ele><time>2025-02-04T02:44:11Z</time></trkpt>
      <trkpt lat="29.967464" lon="120.133617"><ele>481</ele><time>2025-02-04T02:44:49Z</time></trkpt>
      <trkpt lat="29.967106" lon="120.133594"><ele>501</ele><time>2025-02-04T02:46:35Z</time></trkpt>
      <trkpt lat="29.966749" lon="120.133894"><ele>521</ele><time>2025-02-04T02:48:32Z</time></trkpt>
      <trkpt lat="29.966509" lon="120.133728"><ele>527</ele><time>2025-02-04T02:50:00Z</time></trkpt>
      <trkpt lat="29.96658" lon="120.1338"><ele>526</ele><time>2025-02-04T02:50:14Z</time></trkpt>
      <trkpt lat="29.966211" lon="120.133898"><ele>520</ele><time>2025-02-04T02:51:14Z</time></trkpt>
      <trkpt lat="29.965964" lon="120.133757"><ele>507</ele><time>2025-02-04T02:52:04Z</time></trkpt>
      <trkpt lat="29.965686" lon="120.133746"><ele>504</ele><time>2025-02-04T02:52:34Z</time></trkpt>
      <trkpt lat="29.965173" lon="120.133487"><ele>504</ele><time>2025-02-04T02:54:04Z</time></trkpt>
      <trkpt lat="29.964886" lon="120.133469"><ele>506</ele><time>2025-02-04T02:54:28Z</time></trkpt>
      <trkpt lat="29.964695" lon="120.133537"><ele>504</ele><time>2025-02-04T02:54:44Z</time></trkpt>
      <trkpt lat="29.964555" lon="120.133678"><ele>504</ele><time>2025-02-04T02:55:11Z</time></trkpt>
      <trkpt lat="29.964367" lon="120.133703"><ele>503</ele><time>2025-02-04T02:55:37Z</time></trkpt>
      <trkpt lat="29.964188" lon="120.13364"><ele>508</ele><time>2025-02-04T02:55:57Z</time></trkpt>
      <trkpt lat="29.96397" lon="120.133432"><ele>519</ele><time>2025-02-04T02:56:35Z</time></trkpt>
      <trkpt lat="29.963603" lon="120.133469"><ele>534</ele><time>2025-02-04T02:57:52Z</time></trkpt>
      <trkpt lat="29.963348" lon="120.133304"><ele>541</ele><time>2025-02-04T02:58:45Z</time></trkpt>
      <trkpt lat="29.963053" lon="120.132742"><ele>551</ele><time>2025-02-04T02:59:58Z</time></trkpt>
      <trkpt lat="29.962404" lon="120.131796"><ele>576</ele><time>2025-02-04T03:01:54Z</time></trkpt>
      <trkpt lat="29.961776" lon="120.131565"><ele>592</ele><time>2025-02-04T03:03:52Z</time></trkpt>
      <trkpt lat="29.961531" lon="120.131109"><ele>587</ele><time>2025-02-04T03:04:56Z</time></trkpt>
      <trkpt lat="29.96129" lon="120.13095"><ele>575</ele><time>2025-02-04T03:06:13Z</time></trkpt>
      <trkpt lat="29.960859" lon="120.130215"><ele>582</ele><time>2025-02-04T03:07:29Z</time></trkpt>
      <trkpt lat="29.960536" lon="120.129975"><ele>591</ele><time>2025-02-04T03:08:11Z</time></trkpt>
      <trkpt lat="29.96046" lon="120.129454"><ele>567</ele><time>2025-02-04T03:09:56Z</time></trkpt>
      <trkpt lat="29.960317" lon="120.129175"><ele>553</ele><time>2025-02-04T03:11:06Z</time></trkpt>
      <trkpt lat="29.960166" lon="120.128096"><ele>528</ele><time>2025-02-04T03:13:10Z</time></trkpt>
      <trkpt lat="29.960035" lon="120.127817"><ele>512</ele><time>2025-02-04T03:14:58Z</time></trkpt>
      <trkpt lat="29.960023" lon="120.127387"><ele>491</ele><time>2025-02-04T03:16:16Z</time></trkpt>
      <trkpt lat="29.960138" lon="120.126968"><ele>498</ele><time>2025-02-04T03:17:47Z</time></trkpt>
      <trkpt lat="29.960098" lon="120.126648"><ele>521</ele><time>2025-02-04T03:20:03Z</time></trkpt>
      <trkpt lat="29.960389" lon="120.126"><ele>563</ele><time>2025-02-04T03:24:14Z</time></trkpt>
      <trkpt lat="29.960369" lon="120.125897"><ele>565</ele><time>2025-02-04T03:24:31Z</time></trkpt>
      <trkpt lat="29.960036" lon="120.12524"><ele>563</ele><time>2025-02-04T03:25:48Z</time></trkpt>
      <trkpt lat="29.959642" lon="120.124746"><ele>565</ele><time>2025-02-04T03:26:52Z</time></trkpt>
      <trkpt lat="29.959487" lon="120.124344"><ele>556</ele><time>2025-02-04T03:27:47Z</time></trkpt>
      <trkpt lat="29.959217" lon="120.124233"><ele>550</ele><time>2025-02-04T03:28:34Z</time></trkpt>
      <trkpt lat="29.958988" lon="120.124036"><ele>550</ele><time>2025-02-04T03:29:02Z</time></trkpt>
      <trkpt lat="29.958811" lon="120.123525"><ele>532</ele><time>2025-02-04T03:30:26Z</time></trkpt>
      <trkpt lat="29.958057" lon="120.122305"><ele>507</ele><time>2025-02-04T03:33:51Z</time></trkpt>
      <trkpt lat="29.958032" lon="120.122203"><ele>511</ele><time>2025-02-04T03:34:29Z</time></trkpt>
      <trkpt lat="29.958092" lon="120.121998"><ele>522</ele><time>2025-02-04T03:35:27Z</time></trkpt>
      <trkpt lat="29.957903" lon="120.121633"><ele>544</ele><time>2025-02-04T03:37:05Z</time></trkpt>
      <trkpt lat="29.95788" lon="120.121419"><ele>553</ele><time>2025-02-04T03:38:00Z</time></trkpt>
      <trkpt lat="29.957539" lon="120.121063"><ele>585</ele><time>2025-02-04T03:41:30Z</time></trkpt>
      <trkpt lat="29.95738" lon="120.120489"><ele>611</ele><time>2025-02-04T03:46:08Z</time></trkpt>
      <trkpt lat="29.956718" lon="120.119917"><ele>642</ele><time>2025-02-04T03:49:27Z</time></trkpt>
      <trkpt lat="29.95653" lon="120.119684"><ele>657</ele><time>2025-02-04T03:53:08Z</time></trkpt>
      <trkpt lat="29.956708" lon="120.118983"><ele>644</ele><time>2025-02-04T03:54:57Z</time></trkpt>
      <trkpt lat="29.956644" lon="120.118434"><ele>636</ele><time>2025-02-04T03:55:52Z</time></trkpt>
      <trkpt lat="29.956142" lon="120.117408"><ele>625</ele><time>2025-02-04T03:57:35Z</time></trkpt>
      <trkpt lat="29.956363" lon="120.116141"><ele>616</ele><time>2025-02-04T04:00:04Z</time></trkpt>
      <trkpt lat="29.956342" lon="120.115919"><ele>615</ele><time>2025-02-04T04:00:25Z</time></trkpt>
      <trkpt lat="29.956436" lon="120.115379"><ele>616</ele><time>2025-02-04T04:01:22Z</time></trkpt>
      <trkpt lat="29.957151" lon="120.116216"><ele>556</ele><time>2025-02-04T04:08:30Z</time></trkpt>
      <trkpt lat="29.958093" lon="120.116909"><ele>506</ele><time>2025-02-04T04:11:44Z</time></trkpt>
      <trkpt lat="29.958552" lon="120.116951"><ele>492</ele><time>2025-02-04T04:14:25Z</time></trkpt>
      <trkpt lat="29.958697" lon="120.117108"><ele>486</ele><time>2025-02-04T04:14:50Z</time></trkpt>
      <trkpt lat="29.958971" lon="120.117119"><ele>480</ele><time>2025-02-04T04:15:40Z</time></trkpt>
      <trkpt lat="29.959783" lon="120.117663"><ele>461</ele><time>2025-02-04T04:17:37Z</time></trkpt>
      <trkpt lat="29.959713" lon="120.117748"><ele>456</ele><time>2025-02-04T04:17:57Z</time></trkpt>
      <trkpt lat="29.959783" lon="120.117815"><ele>452</ele><time>2025-02-04T04:18:10Z</time></trkpt>
      <trkpt lat="29.959739" lon="120.117906"><ele>445</ele><time>2025-02-04T04:18:45Z</time></trkpt>
      <trkpt lat="29.959886" lon="120.118172"><ele>430</ele><time>2025-02-04T04:20:10Z</time></trkpt>
      <trkpt lat="29.959835" lon="120.118267"><ele>426</ele><time>2025-02-04T04:20:38Z</time></trkpt>
      <trkpt lat="29.960197" lon="120.118892"><ele>395</ele><time>2025-02-04T04:23:07Z</time></trkpt>
      <trkpt lat="29.960356" lon="120.119022"><ele>386</ele><time>2025-02-04T04:23:37Z</time></trkpt>
      <trkpt lat="29.960726" lon="120.119138"><ele>371</ele><time>2025-02-04T04:24:58Z</time></trkpt>
      <trkpt lat="29.960829" lon="120.119309"><ele>360</ele><time>2025-02-04T04:25:59Z</time></trkpt>
      <trkpt lat="29.961156" lon="120.119502"><ele>344</ele><time>2025-02-04T04:27:04Z</time></trkpt>
      <trkpt lat="29.961454" lon="120.119891"><ele>320</ele><time>2025-02-04T04:29:05Z</time></trkpt>
      <trkpt lat="29.961493" lon="120.120101"><ele>309</ele><time>2025-02-04T04:29:39Z</time></trkpt>
      <trkpt lat="29.961586" lon="120.120128"><ele>306</ele><time>2025-02-04T04:29:58Z</time></trkpt>
      <trkpt lat="29.962689" lon="120.120117"><ele>260</ele><time>2025-02-04T04:34:21Z</time></trkpt>
      <trkpt lat="29.962925" lon="120.119939"><ele>248</ele><time>2025-02-04T04:35:03Z</time></trkpt>
      <trkpt lat="29.963474" lon="120.120026"><ele>235</ele><time>2025-02-04T04:37:20Z</time></trkpt>
      <trkpt lat="29.963926" lon="120.119869"><ele>217</ele><time>2025-02-04T04:39:05Z</time></trkpt>
      <trkpt lat="29.964216" lon="120.119605"><ele>208</ele><time>2025-02-04T04:39:55Z</time></trkpt>
      <trkpt lat="29.964398" lon="120.119576"><ele>203</ele><time>2025-02-04T04:40:32Z</time></trkpt>
      <trkpt lat="29.965329" lon="120.11903"><ele>183</ele><time>2025-02-04T04:42:58Z</time></trkpt>
      <trkpt lat="29.965683" lon="120.118682"><ele>171</ele><time>2025-02-04T04:44:07Z</time></trkpt>
      <trkpt lat="29.96603" lon="120.118521"><ele>157</ele><time>2025-02-04T04:45:09Z</time></trkpt>
      <trkpt lat="29.966398" lon="120.118454"><ele>144</ele><time>2025-02-04T04:46:21Z</time></trkpt>
      <trkpt lat="29.966607" lon="120.11809"><ele>134</ele><time>2025-02-04T04:47:02Z</time></trkpt>
      <trkpt lat="29.966726" lon="120.117678"><ele>129</ele><time>2025-02-04T04:47:39Z</time></trkpt>
      <trkpt lat="29.966817" lon="120.11766"><ele>129</ele><time>2025-02-04T04:47:49Z</time></trkpt>
      <trkpt lat="29.96698" lon="120.11777"><ele>127</ele><time>2025-02-04T04:48:06Z</time></trkpt>
      <trkpt lat="29.967092" lon="120.11795"><ele>126</ele><time>2025-02-04T04:48:25Z</time></trkpt>
      <trkpt lat="29.967465" lon="120.118301"><ele>122</ele><time>2025-02-04T04:49:09Z</time></trkpt>
      <trkpt lat="29.967556" lon="120.118493"><ele>121</ele><time>2025-02-04T04:49:27Z</time></trkpt>
      <trkpt lat="29.96755" lon="120.119067"><ele>120</ele><time>2025-02-04T04:50:11Z</time></trkpt>
      <trkpt lat="29.967433" lon="120.119351"><ele>119</ele><time>2025-02-04T04:50:37Z</time></trkpt>
      <trkpt lat="29.967569" lon="120.119868"><ele>114</ele><time>2025-02-04T04:51:18Z</time></trkpt>
      <trkpt lat="29.967778" lon="120.120076"><ele>112</ele><time>2025-02-04T04:51:42Z</time></trkpt>
      <trkpt lat="29.968437" lon="120.1205"><ele>111</ele><time>2025-02-04T04:52:48Z</time></trkpt>
      <trkpt lat="29.968575" lon="120.12125"><ele>113</ele><time>2025-02-04T04:53:47Z</time></trkpt>
      <trkpt lat="29.968622" lon="120.122025"><ele>108</ele><time>2025-02-04T04:54:45Z</time></trkpt>
      <trkpt lat="29.968575" lon="120.122239"><ele>107</ele><time>2025-02-04T04:55:01Z</time></trkpt>
      <trkpt lat="29.968643" lon="120.122558"><ele>105</ele><time>2025-02-04T04:55:27Z</time></trkpt>
      <trkpt lat="29.96887" lon="120.122748"><ele>108</ele><time>2025-02-04T04:55:52Z</time></trkpt>
      <trkpt lat="29.969061" lon="120.122784"><ele>109</ele><time>2025-02-04T04:56:14Z</time></trkpt>
      <trkpt lat="29.969126" lon="120.122561"><ele>110</ele><time>2025-02-04T04:56:52Z</time></trkpt>
      <trkpt lat="29.969393" lon="120.122682"><ele>110</ele><time>2025-02-04T04:57:20Z</time></trkpt>
      <trkpt lat="29.969685" lon="120.122662"><ele>108</ele><time>2025-02-04T04:57:51Z</time></trkpt>
      <trkpt lat="29.969835" lon="120.122791"><ele>104</ele><time>2025-02-04T04:58:08Z</time></trkpt>
      <trkpt lat="29.969844" lon="120.123111"><ele>105</ele><time>2025-02-04T04:58:32Z</time></trkpt>
      <trkpt lat="29.969616" lon="120.124265"><ele>99</ele><time>2025-02-04T05:00:00Z</time></trkpt>
      <trkpt lat="29.96967" lon="120.124603"><ele>102</ele><time>2025-02-04T05:00:24Z</time></trkpt>
      <trkpt lat="29.969968" lon="120.125156"><ele>104</ele><time>2025-02-04T05:01:12Z</time></trkpt>
      <trkpt lat="29.970221" lon="120.125496"><ele>107</ele><time>2025-02-04T05:01:45Z</time></trkpt>
      <trkpt lat="29.97074" lon="120.125801"><ele>101</ele><time>2025-02-04T05:02:31Z</time></trkpt>
      <trkpt lat="29.9716" lon="120.125955"><ele>100</ele><time>2025-02-04T05:03:42Z</time></trkpt>
      <trkpt lat="29.971939" lon="120.126476"><ele>103</ele><time>2025-02-04T05:04:27Z</time></trkpt>
      <trkpt lat="29.972222" lon="120.127296"><ele>99</ele><time>2025-02-04T05:05:29Z</time></trkpt>
      <trkpt lat="29.972339" lon="120.127482"><ele>97</ele><time>2025-02-04T05:05:45Z</time></trkpt>
      <trkpt lat="29.972584" lon="120.127651"><ele>95</ele><time>2025-02-04T05:06:08Z</time></trkpt>
      <trkpt lat="29.973034" lon="120.127814"><ele>96</ele><time>2025-02-04T05:06:47Z</time></trkpt>
      <trkpt lat="29.973098" lon="120.127902"><ele>93</ele><time>2025-02-04T05:07:01Z</time></trkpt>
    </trkseg>
  </trk>
</gpx>
