<?xml version="1.0" encoding="UTF-8"?>
<gpx version="1.1" creator="MyWorld" xmlns="http://www.topografix.com/GPX/1/1">
  <metadata><name>杭州超山公园</name></metadata>
  <trk>
    <name>杭州超山公园</name>
    <trkseg>
      <trkpt lat="30.432178" lon="120.202075"><ele>11</ele><time>2025-02-09T01:49:13Z</time></trkpt>
      <trkpt lat="30.432702" lon="120.201283"><ele>11</ele><time>2025-02-09T01:50:23Z</time></trkpt>
      <trkpt lat="30.433053" lon="120.200897"><ele>9</ele><time>2025-02-09T01:51:00Z</time></trkpt>
      <trkpt lat="30.433287" lon="120.200711"><ele>9</ele><time>2025-02-09T01:51:24Z</time></trkpt>
      <trkpt lat="30.43388" lon="120.200552"><ele>7</ele><time>2025-02-09T01:52:06Z</time></trkpt>
      <trkpt lat="30.433946" lon="120.200629"><ele>8</ele><time>2025-02-09T01:52:16Z</time></trkpt>
      <trkpt lat="30.433883" lon="120.201271"><ele>17</ele><time>2025-02-09T01:53:25Z</time></trkpt>
      <trkpt lat="30.434026" lon="120.201405"><ele>18</ele><time>2025-02-09T01:53:56Z</time></trkpt>
      <trkpt lat="30.435155" lon="120.202012"><ele>48</ele><time>2025-02-09T01:56:56Z</time></trkpt>
      <trkpt lat="30.435255" lon="120.201829"><ele>47</ele><time>2025-02-09T01:57:25Z</time></trkpt>
      <trkpt lat="30.435408" lon="120.201973"><ele>53</ele><time>2025-02-09T01:57:58Z</time></trkpt>
      <trkpt lat="30.435418" lon="120.202084"><ele>59</ele><time>2025-02-09T01:58:17Z</time></trkpt>
      <trkpt lat="30.435401" lon="120.202299"><ele>61</ele><time>2025-02-09T01:58:58Z</time></trkpt>
      <trkpt lat="30.435291" lon="120.20247"><ele>62</ele><time>2025-02-09T01:59:28Z</time></trkpt>
      <trkpt lat="30.435098" lon="120.202479"><ele>61</ele><time>2025-02-09T01:59:58Z</time></trkpt>
      <trkpt lat="30.434504" lon="120.203037"><ele>58</ele><time>2025-02-09T02:01:26Z</time></trkpt>
      <trkpt lat="30.434126" lon="120.203024"><ele>52</ele><time>2025-02-09T02:02:02Z</time></trkpt>
      <trkpt lat="30.433969" lon="120.203161"><ele>51</ele><time>2025-02-09T02:02:16Z</time></trkpt>
      <trkpt lat="30.434029" lon="120.203366"><ele>54</ele><time>2025-02-09T02:02:33Z</time></trkpt>
      <trkpt lat="30.434245" lon="120.203564"><ele>60</ele><time>2025-02-09T02:03:04Z</time></trkpt>
      <trkpt lat="30.43451" lon="120.20368"><ele>69</ele><time>2025-02-09T02:03:42Z</time></trkpt>
      <trkpt lat="30.434719" lon="120.203453"><ele>70</ele><time>2025-02-09T02:04:05Z</time></trkpt>
      <trkpt lat="30.434382" lon="120.205078"><ele>78</ele><time>2025-02-09T02:06:14Z</time></trkpt>
      <trkpt lat="30.434413" lon="120.205401"><ele>84</ele><time>2025-02-09T02:06:49Z</time></trkpt>
      <trkpt lat="30.434338" lon="120.206733"><ele>94</ele><time>2025-02-09T02:08:42Z</time></trkpt>
      <trkpt lat="30.43463" lon="120.207638"><ele>104</ele><time>2025-02-09T02:10:11Z</time></trkpt>
      <trkpt lat="30.435168" lon="120.208127"><ele>119</ele><time>2025-02-09T02:11:26Z</time></trkpt>
      <trkpt lat="30.435269" lon="120.208321"><ele>120</ele><time>2025-02-09T02:11:46Z</time></trkpt>
      <trkpt lat="30.435281" lon="120.208862"><ele>122</ele><time>2025-02-09T02:12:33Z</time></trkpt>
      <trkpt lat="30.43513" lon="120.209381"><ele>124</ele><time>2025-02-09T02:13:18Z</time></trkpt>
      <trkpt lat="30.435236" lon="120.209684"><ele>135</ele><time>2025-02-09T02:13:59Z</time></trkpt>
      <trkpt lat="30.435157" lon="120.20988"><ele>139</ele><time>2025-02-09T02:14:27Z</time></trkpt>
      <trkpt lat="30.434985" lon="120.209961"><ele>144</ele><time>2025-02-09T02:14:55Z</time></trkpt>
      <trkpt lat="30.435063" lon="120.210027"><ele>150</ele><time>2025-02-09T02:15:39Z</time></trkpt>
      <trkpt lat="30.434789" lon="120.209957"><ele>143</ele><time>2025-02-09T02:16:38Z</time></trkpt>
      <trkpt lat="30.434508" lon="120.209985"><ele>137</ele><time>2025-02-09T02:17:03Z</time></trkpt>
      <trkpt lat="30.434347" lon="120.210102"><ele>135</ele><time>2025-02-09T02:17:16Z</time></trkpt>
      <trkpt lat="30.434319" lon="120.210307"><ele>134</ele><time>2025-02-09T02:17:31Z</time></trkpt>
      <trkpt lat="30.434546" lon="120.211135"><ele>139</ele><time>2025-02-09T02:18:35Z</time></trkpt>
      <trkpt lat="30.435375" lon="120.212199"><ele>148</ele><time>2025-02-09T02:20:25Z</time></trkpt>
      <trkpt lat="30.435532" lon="120.212863"><ele>153</ele><time>2025-02-09T02:21:15Z</time></trkpt>
      <trkpt lat="30.435446" lon="120.213741"><ele>159</ele><time>2025-02-09T02:22:18Z</time></trkpt>
      <trkpt lat="30.435334" lon="120.214042"><ele>163</ele><time>2025-02-09T02:22:44Z</time></trkpt>
      <trkpt lat="30.435167" lon="120.21415"><ele>166</ele><time>2025-02-09T02:23:02Z</time></trkpt>
      <trkpt lat="30.434886" lon="120.214211"><ele>170</ele><time>2025-02-09T02:23:29Z</time></trkpt>
      <trkpt lat="30.434503" lon="120.214178"><ele>173</ele><time>2025-02-09T02:24:05Z</time></trkpt>
      <trkpt lat="30.434342" lon="120.214303"><ele>173</ele><time>2025-02-09T02:24:19Z</time></trkpt>
      <trkpt lat="30.434297" lon="120.214397"><ele>174</ele><time>2025-02-09T02:24:27Z</time></trkpt>
      <trkpt lat="30.434394" lon="120.214579"><ele>175</ele><time>2025-02-09T02:24:41Z</time></trkpt>
      <trkpt lat="30.434831" lon="120.214795"><ele>178</ele><time>2025-02-09T02:25:25Z</time></trkpt>
      <trkpt lat="30.434654" lon="120.214675"><ele>178</ele><time>2025-02-09T02:25:52Z</time></trkpt>
      <trkpt lat="30.434756" lon="120.214867"><ele>173</ele><time>2025-02-09T02:26:24Z</time></trkpt>
      <trkpt lat="30.434734" lon="120.215078"><ele>167</ele><time>2025-02-09T02:26:59Z</time></trkpt>
      <trkpt lat="30.434519" lon="120.215653"><ele>148</ele><time>2025-02-09T02:28:23Z</time></trkpt>
      <trkpt lat="30.434441" lon="120.216226"><ele>138</ele><time>2025-02-09T02:29:24Z</time></trkpt>
      <trkpt lat="30.434039" lon="120.217182"><ele>116</ele><time>2025-02-09T02:31:41Z</time></trkpt>
      <trkpt lat="30.434104" lon="120.217714"><ele>113</ele><time>2025-02-09T02:32:30Z</time></trkpt>
      <trkpt lat="30.433862" lon="120.217581"><ele>111</ele><time>2025-02-09T02:33:14Z</time></trkpt>
      <trkpt lat="30.433669" lon="120.217612"><ele>112</ele><time>2025-02-09T02:33:33Z</time></trkpt>
      <trkpt lat="30.433505" lon="120.21772"><ele>110</ele><time>2025-02-09T02:33:49Z</time></trkpt>
      <trkpt lat="30.434338" lon="120.217493"><ele>116</ele><time>2025-02-09T02:35:22Z</time></trkpt>
      <trkpt lat="30.434535" lon="120.217706"><ele>114</ele><time>2025-02-09T02:35:49Z</time></trkpt>
      <trkpt lat="30.434668" lon="120.218123"><ele>116</ele><time>2025-02-09T02:36:26Z</time></trkpt>
      <trkpt lat="30.434741" lon="120.218186"><ele>119</ele><time>2025-02-09T02:36:39Z</time></trkpt>
      <trkpt lat="30.434712" lon="120.218085"><ele>116</ele><time>2025-02-09T02:42:21Z</time></trkpt>
      <trkpt lat="30.434898" lon="120.218105"><ele>118</ele><time>2025-02-09T02:42:39Z</time></trkpt>
      <trkpt lat="30.435051" lon="120.218194"><ele>118</ele><time>2025-02-09T02:43:01Z</time></trkpt>
      <trkpt lat="30.435048" lon="120.218303"><ele>115</ele><time>2025-02-09T02:43:11Z</time></trkpt>
      <trkpt lat="30.435117" lon="120.218382"><ele>113</ele><time>2025-02-09T02:43:20Z</time></trkpt>
      <trkpt lat="30.435073" lon="120.218474"><ele>114</ele><time>2025-02-09T02:43:28Z</time></trkpt>
      <trkpt lat="30.434903" lon="120.21855"><ele>115</ele><time>2025-02-09T02:43:45Z</time></trkpt>
      <trkpt lat="30.435175" lon="120.218469"><ele>112</ele><time>2025-02-09T02:44:17Z</time></trkpt>
      <trkpt lat="30.435834" lon="120.218598"><ele>106</ele><time>2025-02-09T02:45:21Z</time></trkpt>
      <trkpt lat="30.436388" lon="120.218345"><ele>100</ele><time>2025-02-09T02:46:13Z</time></trkpt>
      <trkpt lat="30.436928" lon="120.217719"><ele>95</ele><time>2025-02-09T02:47:25Z</time></trkpt>
      <trkpt lat="30.437104" lon="120.217641"><ele>93</ele><time>2025-02-09T02:47:44Z</time></trkpt>
      <trkpt lat="30.437222" lon="120.217798"><ele>86</ele><time>2025-02-09T02:48:35Z</time></trkpt>
      <trkpt lat="30.437156" lon="120.217599"><ele>92</ele><time>2025-02-09T02:49:42Z</time></trkpt>
      <trkpt lat="30.437248" lon="120.217172"><ele>88</ele><time>2025-02-09T02:50:21Z</time></trkpt>
      <trkpt lat="30.437287" lon="120.216523"><ele>85</ele><time>2025-02-09T02:51:13Z</time></trkpt>
      <trkpt lat="30.437336" lon="120.216314"><ele>83</ele><time>2025-02-09T02:51:29Z</time></trkpt>
      <trkpt lat="30.437529" lon="120.216057"><ele>79</ele><time>2025-02-09T02:51:57Z</time></trkpt>
      <trkpt lat="30.43762" lon="120.216011"><ele>77</ele><time>2025-02-09T02:52:06Z</time></trkpt>
      <trkpt lat="30.438288" lon="120.216097"><ele>67</ele><time>2025-02-09T02:53:06Z</time></trkpt>
      <trkpt lat="30.43832" lon="120.215999"><ele>68</ele><time>2025-02-09T02:53:39Z</time></trkpt>
      <trkpt lat="30.438416" lon="120.215993"><ele>67</ele><time>2025-02-09T02:53:48Z</time></trkpt>
      <trkpt lat="30.438548" lon="120.215815"><ele>65</ele><time>2025-02-09T02:54:08Z</time></trkpt>
      <trkpt lat="30.438702" lon="120.215303"><ele>65</ele><time>2025-02-09T02:54:49Z</time></trkpt>
      <trkpt lat="30.43901" lon="120.215041"><ele>65</ele><time>2025-02-09T02:55:22Z</time></trkpt>
      <trkpt lat="30.439202" lon="120.215035"><ele>66</ele><time>2025-02-09T02:55:39Z</time></trkpt>
      <trkpt lat="30.440228" lon="120.215294"><ele>55</ele><time>2025-02-09T02:57:13Z</time></trkpt>
      <trkpt lat="30.440797" lon="120.214733"><ele>50</ele><time>2025-02-09T02:58:19Z</time></trkpt>
      <trkpt lat="30.44082" lon="120.214418"><ele>49</ele><time>2025-02-09T02:58:44Z</time></trkpt>
      <trkpt lat="30.440663" lon="120.213878"><ele>54</ele><time>2025-02-09T02:59:22Z</time></trkpt>
      <trkpt lat="30.440735" lon="120.21356"><ele>54</ele><time>2025-02-09T02:59:46Z</time></trkpt>
      <trkpt lat="30.440759" lon="120.212912"><ele>52</ele><time>2025-02-09T03:00:32Z</time></trkpt>
      <trkpt lat="30.440583" lon="120.212174"><ele>49</ele><time>2025-02-09T03:01:28Z</time></trkpt>
      <trkpt lat="30.440656" lon="120.211969"><ele>48</ele><time>2025-02-09T03:01:45Z</time></trkpt>
      <trkpt lat="30.440836" lon="120.212033"><ele>44</ele><time>2025-02-09T03:02:31Z</time></trkpt>
      <trkpt lat="30.440718" lon="120.211881"><ele>47</ele><time>2025-02-09T03:02:51Z</time></trkpt>
      <trkpt lat="30.440865" lon="120.21147"><ele>47</ele><time>2025-02-09T03:03:24Z</time></trkpt>
      <trkpt lat="30.440596" lon="120.210865"><ele>48</ele><time>2025-02-09T03:04:13Z</time></trkpt>
      <trkpt lat="30.440681" lon="120.210692"><ele>49</ele><time>2025-02-09T03:04:28Z</time></trkpt>
      <trkpt lat="30.441212" lon="120.210469"><ele>52</ele><time>2025-02-09T03:05:15Z</time></trkpt>
      <trkpt lat="30.441394" lon="120.209725"><ele>55</ele><time>2025-02-09T03:06:17Z</time></trkpt>
      <trkpt lat="30.441575" lon="120.210332"><ele>40</ele><time>2025-02-09T03:07:30Z</time></trkpt>
      <trkpt lat="30.441638" lon="120.210411"><ele>36</ele><time>2025-02-09T03:07:43Z</time></trkpt>
      <trkpt lat="30.4418" lon="120.210319"><ele>34</ele><time>2025-02-09T03:08:02Z</time></trkpt>
      <trkpt lat="30.44187" lon="120.210389"><ele>32</ele><time>2025-02-09T03:08:13Z</time></trkpt>
      <trkpt lat="30.44176" lon="120.210801"><ele>30</ele><time>2025-02-09T03:08:48Z</time></trkpt>
      <trkpt lat="30.441799" lon="120.210902"><ele>30</ele><time>2025-02-09T03:08:57Z</time></trkpt>
      <trkpt lat="30.441759" lon="120.210996"><ele>30</ele><time>2025-02-09T03:09:07Z</time></trkpt>
      <trkpt lat="30.441665" lon="120.211008"><ele>31</ele><time>2025-02-09T03:09:17Z</time></trkpt>
      <trkpt lat="30.441642" lon="120.211109"><ele>30</ele><time>2025-02-09T03:09:27Z</time></trkpt>
      <trkpt lat="30.441716" lon="120.21118"><ele>29</ele><time>2025-02-09T03:09:36Z</time></trkpt>
      <trkpt lat="30.442356" lon="120.211411"><ele>22</ele><time>2025-02-09T03:10:35Z</time></trkpt>
      <trkpt lat="30.442569" lon="120.211631"><ele>20</ele><time>2025-02-09T03:11:12Z</time></trkpt>
      <trkpt lat="30.442949" lon="120.21165"><ele>17</ele><time>2025-02-09T03:11:46Z</time></trkpt>
      <trkpt lat="30.443316" lon="120.211592"><ele>13</ele><time>2025-02-09T03:12:21Z</time></trkpt>
      <trkpt lat="30.443397" lon="120.211391"><ele>14</ele><time>2025-02-09T03:12:37Z</time></trkpt>
      <trkpt lat="30.443401" lon="120.211068"><ele>15</ele><time>2025-02-09T03:13:04Z</time></trkpt>
      <trkpt lat="30.442994" lon="120.210636"><ele>16</ele><time>2025-02-09T03:13:48Z</time></trkpt>
      <trkpt lat="30.443005" lon="120.210303"><ele>16</ele><time>2025-02-09T03:14:27Z</time></trkpt>
      <trkpt lat="30.442882" lon="120.210151"><ele>16</ele><time>2025-02-09T03:14:46Z</time></trkpt>
      <trkpt lat="30.442924" lon="120.20994"><ele>16</ele><time>2025-02-09T03:15:14Z</time></trkpt>
      <trkpt lat="30.442888" lon="120.209841"><ele>16</ele><time>2025-02-09T03:15:22Z</time></trkpt>
      <trkpt lat="30.44282" lon="120.209765"><ele>18</ele><time>2025-02-09T03:15:32Z</time></trkpt>
      <trkpt lat="30.442533" lon="120.209709"><ele>22</ele><time>2025-02-09T03:15:55Z</time></trkpt>
      <trkpt lat="30.442456" lon="120.20952"><ele>26</ele><time>2025-02-09T03:16:13Z</time></trkpt>
      <trkpt lat="30.442133" lon="120.209252"><ele>34</ele><time>2025-02-09T03:16:45Z</time></trkpt>
      <trkpt lat="30.44231" lon="120.209341"><ele>29</ele><time>2025-02-09T03:17:41Z</time></trkpt>
      <trkpt lat="30.442418" lon="120.209516"><ele>25</ele><time>2025-02-09T03:18:07Z</time></trkpt>
      <trkpt lat="30.442374" lon="120.209724"><ele>28</ele><time>2025-02-09T03:18:26Z</time></trkpt>
      <trkpt lat="30.442491" lon="120.210007"><ele>20</ele><time>2025-02-09T03:19:09Z</time></trkpt>
      <trkpt lat="30.442423" lon="120.210212"><ele>23</ele><time>2025-02-09T03:19:38Z</time></trkpt>
      <trkpt lat="30.442246" lon="120.210193"><ele>22</ele><time>2025-02-09T03:20:06Z</time></trkpt>
      <trkpt lat="30.44219" lon="120.210284"><ele>23</ele><time>2025-02-09T03:20:14Z</time></trkpt>
      <trkpt lat="30.442208" lon="120.210504"><ele>30</ele><time>2025-02-09T03:20:34Z</time></trkpt>
      <trkpt lat="30.442027" lon="120.210464"><ele>31</ele><time>2025-02-09T03:21:02Z</time></trkpt>
      <trkpt lat="30.441988" lon="120.210355"><ele>32</ele><time>2025-02-09T03:21:15Z</time></trkpt>
      <trkpt lat="30.441806" lon="120.210319"><ele>34</ele><time>2025-02-09T03:21:40Z</time></trkpt>
      <trkpt lat="30.44162" lon="120.210385"><ele>37</ele><time>2025-02-09T03:21:58Z</time></trkpt>
      <trkpt lat="30.4414" lon="120.20969"><ele>54</ele><time>2025-02-09T03:23:26Z</time></trkpt>
      <trkpt lat="30.441641" lon="120.208966"><ele>53</ele><time>2025-02-09T03:24:28Z</time></trkpt>
      <trkpt lat="30.441766" lon="120.208433"><ele>52</ele><time>2025-02-09T03:25:07Z</time></trkpt>
      <trkpt lat="30.441749" lon="120.208223"><ele>50</ele><time>2025-02-09T03:25:22Z</time></trkpt>
      <trkpt lat="30.44165" lon="120.20802"><ele>51</ele><time>2025-02-09T03:25:40Z</time></trkpt>
      <trkpt lat="30.441438" lon="120.207791"><ele>54</ele><time>2025-02-09T03:26:02Z</time></trkpt>
      <trkpt lat="30.441256" lon="120.207717"><ele>57</ele><time>2025-02-09T03:26:17Z</time></trkpt>
      <trkpt lat="30.441039" lon="120.207496"><ele>59</ele><time>2025-02-09T03:26:38Z</time></trkpt>
      <trkpt lat="30.440751" lon="120.207474"><ele>60</ele><time>2025-02-09T03:27:00Z</time></trkpt>
      <trkpt lat="30.440581" lon="120.20738"><ele>60</ele><time>2025-02-09T03:27:15Z</time></trkpt>
      <trkpt lat="30.440314" lon="120.207062"><ele>59</ele><time>2025-02-09T03:27:48Z</time></trkpt>
      <trkpt lat="30.440075" lon="120.207253"><ele>66</ele><time>2025-02-09T03:28:27Z</time></trkpt>
      <trkpt lat="30.439895" lon="120.207238"><ele>71</ele><time>2025-02-09T03:28:45Z</time></trkpt>
      <trkpt lat="30.439807" lon="120.207301"><ele>72</ele><time>2025-02-09T03:28:54Z</time></trkpt>
      <trkpt lat="30.439098" lon="120.207066"><ele>95</ele><time>2025-02-09T03:30:36Z</time></trkpt>
      <trkpt lat="30.438677" lon="120.207308"><ele>113</ele><time>2025-02-09T03:31:55Z</time></trkpt>
      <trkpt lat="30.438407" lon="120.207362"><ele>130</ele><time>2025-02-09T03:33:14Z</time></trkpt>
      <trkpt lat="30.438129" lon="120.207099"><ele>140</ele><time>2025-02-09T03:34:25Z</time></trkpt>
      <trkpt lat="30.437823" lon="120.207325"><ele>159</ele><time>2025-02-09T03:35:48Z</time></trkpt>
      <trkpt lat="30.437686" lon="120.207208"><ele>167</ele><time>2025-02-09T03:36:25Z</time></trkpt>
      <trkpt lat="30.43763" lon="120.207292"><ele>170</ele><time>2025-02-09T03:36:39Z</time></trkpt>
      <trkpt lat="30.437548" lon="120.207241"><ele>175</ele><time>2025-02-09T03:37:08Z</time></trkpt>
      <trkpt lat="30.437461" lon="120.207279"><ele>178</ele><time>2025-02-09T03:37:32Z</time></trkpt>
      <trkpt lat="30.437338" lon="120.207437"><ele>190</ele><time>2025-02-09T03:38:21Z</time></trkpt>
      <trkpt lat="30.437172" lon="120.207347"><ele>194</ele><time>2025-02-09T03:38:54Z</time></trkpt>
      <trkpt lat="30.437122" lon="120.207664"><ele>207</ele><time>2025-02-09T03:39:54Z</time></trkpt>
      <trkpt lat="30.436713" lon="120.207417"><ele>224</ele><time>2025-02-09T03:41:15Z</time></trkpt>
      <trkpt lat="30.436629" lon="120.207229"><ele>228</ele><time>2025-02-09T03:41:42Z</time></trkpt>
      <trkpt lat="30.436493" lon="120.207367"><ele>230</ele><time>2025-02-09T03:42:41Z</time></trkpt>
      <trkpt lat="30.436431" lon="120.207284"><ele>233</ele><time>2025-02-09T03:43:35Z</time></trkpt>
      <trkpt lat="30.436522" lon="120.207102"><ele>235</ele><time>2025-02-09T03:43:59Z</time></trkpt>
      <trkpt lat="30.436424" lon="120.207124"><ele>240</ele><time>2025-02-09T03:44:20Z</time></trkpt>
      <trkpt lat="30.436413" lon="120.207008"><ele>243</ele><time>2025-02-09T03:44:41Z</time></trkpt>
      <trkpt lat="30.436437" lon="120.20679"><ele>249</ele><time>2025-02-09T03:45:08Z</time></trkpt>
      <trkpt lat="30.436523" lon="120.206753"><ele>250</ele><time>2025-02-09T03:45:25Z</time></trkpt>
      <trkpt lat="30.436434" lon="120.206708"><ele>250</ele><time>2025-02-09T03:45:42Z</time></trkpt>
      <trkpt lat="30.436423" lon="120.206603"><ele>255</ele><time>2025-02-09T03:46:14Z</time></trkpt>
      <trkpt lat="30.43651" lon="120.206567"><ele>252</ele><time>2025-02-09T03:47:34Z</time></trkpt>
      <trkpt lat="30.436596" lon="120.206149"><ele>258</ele><time>2025-02-09T03:48:29Z</time></trkpt>
      <trkpt lat="30.436751" lon="120.206025"><ele>251</ele><time>2025-02-09T03:48:59Z</time></trkpt>
      <trkpt lat="30.436696" lon="120.20582"><ele>244</ele><time>2025-02-09T03:49:36Z</time></trkpt>
      <trkpt lat="30.436561" lon="120.20567"><ele>239</ele><time>2025-02-09T03:50:06Z</time></trkpt>
      <trkpt lat="30.436506" lon="120.205351"><ele>224</ele><time>2025-02-09T03:51:21Z</time></trkpt>
      <trkpt lat="30.436338" lon="120.205271"><ele>217</ele><time>2025-02-09T03:51:47Z</time></trkpt>
      <trkpt lat="30.43634" lon="120.205158"><ele>211</ele><time>2025-02-09T03:52:05Z</time></trkpt>
      <trkpt lat="30.43658" lon="120.204831"><ele>202</ele><time>2025-02-09T03:52:45Z</time></trkpt>
      <trkpt lat="30.436548" lon="120.204394"><ele>187</ele><time>2025-02-09T03:54:00Z</time></trkpt>
      <trkpt lat="30.436805" lon="120.204097"><ele>170</ele><time>2025-02-09T03:55:19Z</time></trkpt>
      <trkpt lat="30.436803" lon="120.20378"><ele>159</ele><time>2025-02-09T03:56:07Z</time></trkpt>
      <trkpt lat="30.436718" lon="120.203593"><ele>152</ele><time>2025-02-09T03:56:44Z</time></trkpt>
      <trkpt lat="30.436444" lon="120.203708"><ele>150</ele><time>2025-02-09T03:57:19Z</time></trkpt>
      <trkpt lat="30.435878" lon="120.203675"><ele>122</ele><time>2025-02-09T03:59:08Z</time></trkpt>
      <trkpt lat="30.435505" lon="120.203758"><ele>108</ele><time>2025-02-09T04:00:18Z</time></trkpt>
      <trkpt lat="30.435398" lon="120.203485"><ele>97</ele><time>2025-02-09T04:00:57Z</time></trkpt>
      <trkpt lat="30.435311" lon="120.203521"><ele>94</ele><time>2025-02-09T04:01:13Z</time></trkpt>
      <trkpt lat="30.435108" lon="120.203309"><ele>81</ele><time>2025-02-09T04:01:52Z</time></trkpt>
      <trkpt lat="30.435109" lon="120.203091"><ele>76</ele><time>2025-02-09T04:02:14Z</time></trkpt>
      <trkpt lat="30.435168" lon="120.203005"><ele>75</ele><time>2025-02-09T04:02:23Z</time></trkpt>
      <trkpt lat="30.435635" lon="120.202596"><ele>74</ele><time>2025-02-09T04:03:33Z</time></trkpt>
      <trkpt lat="30.436009" lon="120.202055"><ele>68</ele><time>2025-02-09T04:04:21Z</time></trkpt>
      <trkpt lat="30.436016" lon="120.201742"><ele>58</ele><time>2025-02-09T04:05:03Z</time></trkpt>
      <trkpt lat="30.435965" lon="120.201655"><ele>58</ele><time>2025-02-09T04:05:13Z</time></trkpt>
      <trkpt lat="30.435689" lon="120.201546"><ele>49</ele><time>2025-02-09T04:06:06Z</time></trkpt>
      <trkpt lat="30.435124" lon="120.201941"><ele>46</ele><time>2025-02-09T04:07:08Z</time></trkpt>
      <trkpt lat="30.434355" lon="120.201547"><ele>28</ele><time>2025-02-09T04:08:37Z</time></trkpt>
      <trkpt lat="30.434095" lon="120.201248"><ele>21</ele><time>2025-02-09T04:09:17Z</time></trkpt>
      <trkpt lat="30.434027" lon="120.201325"><ele>21</ele><time>2025-02-09T04:09:25Z</time></trkpt>
      <trkpt lat="30.433935" lon="120.201308"><ele>17</ele><time>2025-02-09T04:09:37Z</time></trkpt>
      <trkpt lat="30.43397" lon="120.200572"><ele>7</ele><time>2025-02-09T04:10:49Z</time></trkpt>
      <trkpt lat="30.433897" lon="120.200499"><ele>8</ele><time>2025-02-09T04:10:56Z</time></trkpt>
      <trkpt lat="30.433601" lon="120.200532"><ele>7</ele><time>2025-02-09T04:11:20Z</time></trkpt>
      <trkpt lat="30.433241" lon="120.200686"><ele>9</ele><time>2025-02-09T04:11:52Z</time></trkpt>
      <trkpt lat="30.432917" lon="120.200957"><ele>9</ele><time>2025-02-09T04:12:24Z</time></trkpt>
      <trkpt lat="30.432333" lon="120.201729"><ele>9</ele><time>2025-02-09T04:13:31Z</time></trkpt>
      <trkpt lat="30.431988" lon="120.201923"><ele>9</ele><time>2025-02-09T04:14:02Z</time></trkpt>
      <trkpt lat="30.431599" lon="120.202521"><ele>9</ele><time>2025-02-09T04:14:53Z</time></trkpt>
    </trkseg>
  </trk>
</gpx>
