<?xml version="1.0" encoding="UTF-8"?>
<gpx version="1.1" creator="MyWorld" xmlns="http://www.topografix.com/GPX/1/1">
  <metadata><name>忻州五台山顺朝 · 第一天</name></metadata>
  <trk>
    <name>忻州五台山顺朝 · 第一天</name>
    <trkseg>
      <trkpt lat="39.054672" lon="113.657342"><ele>2540</ele><time>2025-09-28T20:44:44Z</time></trkpt>
      <trkpt lat="39.054372" lon="113.657648"><ele>2539</ele><time>2025-09-28T20:45:15Z</time></trkpt>
      <trkpt lat="39.05332" lon="113.658282"><ele>2542</ele><time>2025-09-28T20:46:52Z</time></trkpt>
      <trkpt lat="39.052281" lon="113.658848"><ele>2562</ele><time>2025-09-28T20:48:56Z</time></trkpt>
      <trkpt lat="39.051554" lon="113.659133"><ele>2571</ele><time>2025-09-28T20:50:20Z</time></trkpt>
      <trkpt lat="39.05132" lon="113.65934"><ele>2577</ele><time>2025-09-28T20:50:56Z</time></trkpt>
      <trkpt lat="39.050596" lon="113.660267"><ele>2594</ele><time>2025-09-28T20:53:51Z</time></trkpt>
      <trkpt lat="39.050131" lon="113.661324"><ele>2605</ele><time>2025-09-28T20:55:44Z</time></trkpt>
      <trkpt lat="39.049702" lon="113.662667"><ele>2621</ele><time>2025-09-28T20:57:44Z</time></trkpt>
      <trkpt lat="39.04961" lon="113.662658"><ele>2623</ele><time>2025-09-28T20:58:02Z</time></trkpt>
      <trkpt lat="39.049523" lon="113.661585"><ele>2631</ele><time>2025-09-28T20:59:31Z</time></trkpt>
      <trkpt lat="39.04941" lon="113.660997"><ele>2635</ele><time>2025-09-28T21:00:19Z</time></trkpt>
      <trkpt lat="39.048737" lon="113.659398"><ele>2650</ele><time>2025-09-28T21:02:53Z</time></trkpt>
      <trkpt lat="39.048639" lon="113.659375"><ele>2651</ele><time>2025-09-28T21:03:03Z</time></trkpt>
      <trkpt lat="39.048625" lon="113.659495"><ele>2651</ele><time>2025-09-28T21:03:12Z</time></trkpt>
      <trkpt lat="39.048816" lon="113.660662"><ele>2657</ele><time>2025-09-28T21:04:39Z</time></trkpt>
      <trkpt lat="39.04866" lon="113.661762"><ele>2662</ele><time>2025-09-28T21:05:58Z</time></trkpt>
      <trkpt lat="39.048575" lon="113.661971"><ele>2663</ele><time>2025-09-28T21:06:14Z</time></trkpt>
      <trkpt lat="39.048498" lon="113.661899"><ele>2665</ele><time>2025-09-28T21:06:28Z</time></trkpt>
      <trkpt lat="39.048557" lon="113.661543"><ele>2668</ele><time>2025-09-28T21:06:58Z</time></trkpt>
      <trkpt lat="39.048508" lon="113.661182"><ele>2671</ele><time>2025-09-28T21:07:28Z</time></trkpt>
      <trkpt lat="39.048187" lon="113.660182"><ele>2678</ele><time>2025-09-28T21:08:55Z</time></trkpt>
      <trkpt lat="39.04763" lon="113.65937"><ele>2682</ele><time>2025-09-28T21:10:18Z</time></trkpt>
      <trkpt lat="39.047203" lon="113.659122"><ele>2686</ele><time>2025-09-28T21:11:03Z</time></trkpt>
      <trkpt lat="39.047025" lon="113.659045"><ele>2688</ele><time>2025-09-28T21:11:21Z</time></trkpt>
      <trkpt lat="39.046945" lon="113.659116"><ele>2688</ele><time>2025-09-28T21:11:33Z</time></trkpt>
      <trkpt lat="39.047257" lon="113.659563"><ele>2696</ele><time>2025-09-28T21:12:31Z</time></trkpt>
      <trkpt lat="39.047452" lon="113.660106"><ele>2697</ele><time>2025-09-28T21:13:21Z</time></trkpt>
      <trkpt lat="39.047484" lon="113.660833"><ele>2700</ele><time>2025-09-28T21:14:16Z</time></trkpt>
      <trkpt lat="39.047425" lon="113.661057"><ele>2701</ele><time>2025-09-28T21:14:33Z</time></trkpt>
      <trkpt lat="39.047344" lon="113.661111"><ele>2702</ele><time>2025-09-28T21:14:42Z</time></trkpt>
      <trkpt lat="39.047261" lon="113.661046"><ele>2703</ele><time>2025-09-28T21:14:52Z</time></trkpt>
      <trkpt lat="39.047241" lon="113.660806"><ele>2707</ele><time>2025-09-28T21:15:18Z</time></trkpt>
      <trkpt lat="39.04715" lon="113.660592"><ele>2707</ele><time>2025-09-28T21:15:38Z</time></trkpt>
      <trkpt lat="39.046567" lon="113.659977"><ele>2716</ele><time>2025-09-28T21:16:55Z</time></trkpt>
      <trkpt lat="39.044486" lon="113.660206"><ele>2742</ele><time>2025-09-28T21:21:40Z</time></trkpt>
      <trkpt lat="39.043449" lon="113.660394"><ele>2750</ele><time>2025-09-28T21:23:51Z</time></trkpt>
      <trkpt lat="39.043314" lon="113.660527"><ele>2753</ele><time>2025-09-28T21:24:27Z</time></trkpt>
      <trkpt lat="39.043167" lon="113.660387"><ele>2759</ele><time>2025-09-28T22:23:26Z</time></trkpt>
      <trkpt lat="39.042798" lon="113.660325"><ele>2764</ele><time>2025-09-28T22:24:10Z</time></trkpt>
      <trkpt lat="39.042738" lon="113.660104"><ele>2763</ele><time>2025-09-28T22:24:51Z</time></trkpt>
      <trkpt lat="39.041704" lon="113.659963"><ele>2761</ele><time>2025-09-28T22:27:19Z</time></trkpt>
      <trkpt lat="39.041421" lon="113.659668"><ele>2751</ele><time>2025-09-28T22:29:53Z</time></trkpt>
      <trkpt lat="39.040165" lon="113.659187"><ele>2748</ele><time>2025-09-28T22:32:06Z</time></trkpt>
      <trkpt lat="39.039746" lon="113.658695"><ele>2735</ele><time>2025-09-28T22:33:05Z</time></trkpt>
      <trkpt lat="39.0393" lon="113.657918"><ele>2718</ele><time>2025-09-28T22:34:53Z</time></trkpt>
      <trkpt lat="39.039099" lon="113.657676"><ele>2711</ele><time>2025-09-28T22:35:22Z</time></trkpt>
      <trkpt lat="39.038972" lon="113.657836"><ele>2708</ele><time>2025-09-28T22:35:43Z</time></trkpt>
      <trkpt lat="39.038942" lon="113.658205"><ele>2708</ele><time>2025-09-28T22:36:11Z</time></trkpt>
      <trkpt lat="39.039041" lon="113.659546"><ele>2704</ele><time>2025-09-28T22:38:12Z</time></trkpt>
      <trkpt lat="39.039157" lon="113.66026"><ele>2703</ele><time>2025-09-28T22:39:10Z</time></trkpt>
      <trkpt lat="39.039087" lon="113.66099"><ele>2694</ele><time>2025-09-28T22:40:30Z</time></trkpt>
      <trkpt lat="39.03908" lon="113.66196"><ele>2688</ele><time>2025-09-28T22:42:02Z</time></trkpt>
      <trkpt lat="39.038878" lon="113.663262"><ele>2679</ele><time>2025-09-28T22:43:40Z</time></trkpt>
      <trkpt lat="39.038595" lon="113.663745"><ele>2668</ele><time>2025-09-28T22:44:28Z</time></trkpt>
      <trkpt lat="39.037719" lon="113.664157"><ele>2646</ele><time>2025-09-28T22:46:08Z</time></trkpt>
      <trkpt lat="39.037354" lon="113.664227"><ele>2640</ele><time>2025-09-28T22:46:41Z</time></trkpt>
      <trkpt lat="39.037094" lon="113.664372"><ele>2641</ele><time>2025-09-28T22:47:07Z</time></trkpt>
      <trkpt lat="39.036634" lon="113.664448"><ele>2627</ele><time>2025-09-28T22:49:06Z</time></trkpt>
      <trkpt lat="39.035744" lon="113.664774"><ele>2598</ele><time>2025-09-28T22:51:07Z</time></trkpt>
      <trkpt lat="39.033791" lon="113.665088"><ele>2559</ele><time>2025-09-28T22:54:55Z</time></trkpt>
      <trkpt lat="39.033616" lon="113.665181"><ele>2558</ele><time>2025-09-28T22:55:12Z</time></trkpt>
      <trkpt lat="39.033336" lon="113.665133"><ele>2557</ele><time>2025-09-28T22:55:37Z</time></trkpt>
      <trkpt lat="39.032406" lon="113.665233"><ele>2554</ele><time>2025-09-28T22:57:18Z</time></trkpt>
      <trkpt lat="39.031942" lon="113.665201"><ele>2545</ele><time>2025-09-28T22:58:23Z</time></trkpt>
      <trkpt lat="39.03112" lon="113.665403"><ele>2527</ele><time>2025-09-28T23:00:49Z</time></trkpt>
      <trkpt lat="39.0298" lon="113.665457"><ele>2523</ele><time>2025-09-28T23:10:41Z</time></trkpt>
      <trkpt lat="39.029626" lon="113.665385"><ele>2524</ele><time>2025-09-28T23:11:00Z</time></trkpt>
      <trkpt lat="39.028607" lon="113.665331"><ele>2528</ele><time>2025-09-28T23:12:46Z</time></trkpt>
      <trkpt lat="39.028259" lon="113.665161"><ele>2534</ele><time>2025-09-28T23:13:27Z</time></trkpt>
      <trkpt lat="39.027895" lon="113.665094"><ele>2542</ele><time>2025-09-28T23:14:16Z</time></trkpt>
      <trkpt lat="39.027385" lon="113.664839"><ele>2544</ele><time>2025-09-28T23:15:32Z</time></trkpt>
      <trkpt lat="39.026905" lon="113.664859"><ele>2547</ele><time>2025-09-28T23:16:33Z</time></trkpt>
      <trkpt lat="39.026519" lon="113.665375"><ele>2529</ele><time>2025-09-28T23:18:37Z</time></trkpt>
      <trkpt lat="39.026229" lon="113.666227"><ele>2500</ele><time>2025-09-28T23:23:21Z</time></trkpt>
      <trkpt lat="39.026035" lon="113.666483"><ele>2491</ele><time>2025-09-28T23:24:10Z</time></trkpt>
      <trkpt lat="39.026017" lon="113.666725"><ele>2480</ele><time>2025-09-28T23:24:51Z</time></trkpt>
      <trkpt lat="39.02576" lon="113.667213"><ele>2462</ele><time>2025-09-28T23:26:07Z</time></trkpt>
      <trkpt lat="39.02542" lon="113.667639"><ele>2449</ele><time>2025-09-28T23:27:00Z</time></trkpt>
      <trkpt lat="39.024872" lon="113.669284"><ele>2412</ele><time>2025-09-28T23:30:16Z</time></trkpt>
      <trkpt lat="39.024266" lon="113.6707"><ele>2408</ele><time>2025-09-28T23:31:59Z</time></trkpt>
      <trkpt lat="39.024098" lon="113.670999"><ele>2409</ele><time>2025-09-28T23:32:32Z</time></trkpt>
      <trkpt lat="39.023852" lon="113.671193"><ele>2408</ele><time>2025-09-28T23:34:52Z</time></trkpt>
      <trkpt lat="39.023497" lon="113.672035"><ele>2415</ele><time>2025-09-28T23:36:20Z</time></trkpt>
      <trkpt lat="39.022941" lon="113.67275"><ele>2415</ele><time>2025-09-28T23:37:27Z</time></trkpt>
      <trkpt lat="39.022528" lon="113.673098"><ele>2418</ele><time>2025-09-28T23:40:23Z</time></trkpt>
      <trkpt lat="39.022019" lon="113.673385"><ele>2421</ele><time>2025-09-28T23:41:56Z</time></trkpt>
      <trkpt lat="39.02117" lon="113.673371"><ele>2427</ele><time>2025-09-28T23:43:13Z</time></trkpt>
      <trkpt lat="39.019778" lon="113.673831"><ele>2451</ele><time>2025-09-28T23:46:08Z</time></trkpt>
      <trkpt lat="39.019129" lon="113.673915"><ele>2467</ele><time>2025-09-28T23:49:35Z</time></trkpt>
      <trkpt lat="39.018496" lon="113.674109"><ele>2484</ele><time>2025-09-28T23:51:15Z</time></trkpt>
      <trkpt lat="39.016527" lon="113.675424"><ele>2559</ele><time>2025-09-29T00:00:46Z</time></trkpt>
      <trkpt lat="39.015589" lon="113.676444"><ele>2586</ele><time>2025-09-29T00:03:54Z</time></trkpt>
      <trkpt lat="39.015336" lon="113.676957"><ele>2591</ele><time>2025-09-29T00:04:46Z</time></trkpt>
      <trkpt lat="39.015069" lon="113.677323"><ele>2599</ele><time>2025-09-29T00:08:27Z</time></trkpt>
      <trkpt lat="39.0147" lon="113.67746"><ele>2593</ele><time>2025-09-29T00:09:09Z</time></trkpt>
      <trkpt lat="39.014023" lon="113.677901"><ele>2578</ele><time>2025-09-29T00:10:34Z</time></trkpt>
      <trkpt lat="39.013471" lon="113.678434"><ele>2569</ele><time>2025-09-29T00:11:40Z</time></trkpt>
      <trkpt lat="39.011317" lon="113.680029"><ele>2525</ele><time>2025-09-29T00:15:58Z</time></trkpt>
      <trkpt lat="39.010974" lon="113.680461"><ele>2520</ele><time>2025-09-29T00:16:37Z</time></trkpt>
      <trkpt lat="39.01047" lon="113.680793"><ele>2519</ele><time>2025-09-29T00:17:22Z</time></trkpt>
      <trkpt lat="39.010098" lon="113.680919"><ele>2518</ele><time>2025-09-29T00:17:53Z</time></trkpt>
      <trkpt lat="39.009495" lon="113.681309"><ele>2518</ele><time>2025-09-29T00:18:49Z</time></trkpt>
      <trkpt lat="39.009127" lon="113.681439"><ele>2518</ele><time>2025-09-29T00:19:19Z</time></trkpt>
      <trkpt lat="39.008662" lon="113.681339"><ele>2519</ele><time>2025-09-29T00:20:00Z</time></trkpt>
      <trkpt lat="39.008094" lon="113.680893"><ele>2517</ele><time>2025-09-29T00:20:56Z</time></trkpt>
      <trkpt lat="39.007829" lon="113.680563"><ele>2515</ele><time>2025-09-29T00:21:38Z</time></trkpt>
      <trkpt lat="39.006953" lon="113.679796"><ele>2508</ele><time>2025-09-29T00:23:19Z</time></trkpt>
      <trkpt lat="39.00683" lon="113.679605"><ele>2504</ele><time>2025-09-29T00:23:42Z</time></trkpt>
      <trkpt lat="39.006583" lon="113.67943"><ele>2501</ele><time>2025-09-29T00:24:47Z</time></trkpt>
      <trkpt lat="39.006393" lon="113.679399"><ele>2503</ele><time>2025-09-29T00:25:06Z</time></trkpt>
      <trkpt lat="39.005921" lon="113.678994"><ele>2501</ele><time>2025-09-29T00:25:59Z</time></trkpt>
      <trkpt lat="39.00539" lon="113.678673"><ele>2498</ele><time>2025-09-29T00:26:48Z</time></trkpt>
      <trkpt lat="39.005013" lon="113.678678"><ele>2498</ele><time>2025-09-29T00:27:21Z</time></trkpt>
      <trkpt lat="39.004646" lon="113.678782"><ele>2498</ele><time>2025-09-29T00:27:56Z</time></trkpt>
      <trkpt lat="39.00432" lon="113.67901"><ele>2495</ele><time>2025-09-29T00:28:52Z</time></trkpt>
      <trkpt lat="39.003942" lon="113.67914"><ele>2492</ele><time>2025-09-29T00:29:27Z</time></trkpt>
      <trkpt lat="39.003295" lon="113.679506"><ele>2490</ele><time>2025-09-29T00:30:24Z</time></trkpt>
      <trkpt lat="39.002733" lon="113.679644"><ele>2479</ele><time>2025-09-29T00:31:24Z</time></trkpt>
      <trkpt lat="39.002592" lon="113.679786"><ele>2477</ele><time>2025-09-29T00:31:40Z</time></trkpt>
      <trkpt lat="39.00259" lon="113.679914"><ele>2478</ele><time>2025-09-29T00:31:55Z</time></trkpt>
      <trkpt lat="39.002545" lon="113.679808"><ele>2477</ele><time>2025-09-29T00:32:54Z</time></trkpt>
      <trkpt lat="39.002351" lon="113.679799"><ele>2474</ele><time>2025-09-29T00:33:20Z</time></trkpt>
      <trkpt lat="39.001235" lon="113.679967"><ele>2457</ele><time>2025-09-29T00:35:53Z</time></trkpt>
      <trkpt lat="39.000771" lon="113.679817"><ele>2451</ele><time>2025-09-29T00:36:39Z</time></trkpt>
      <trkpt lat="38.999991" lon="113.679768"><ele>2446</ele><time>2025-09-29T00:37:53Z</time></trkpt>
      <trkpt lat="38.999712" lon="113.67968"><ele>2442</ele><time>2025-09-29T00:38:19Z</time></trkpt>
      <trkpt lat="38.999484" lon="113.679482"><ele>2437</ele><time>2025-09-29T00:38:49Z</time></trkpt>
      <trkpt lat="38.998884" lon="113.67857"><ele>2412</ele><time>2025-09-29T00:40:54Z</time></trkpt>
      <trkpt lat="38.998128" lon="113.678071"><ele>2395</ele><time>2025-09-29T00:42:28Z</time></trkpt>
      <trkpt lat="38.997486" lon="113.677384"><ele>2368</ele><time>2025-09-29T00:44:21Z</time></trkpt>
      <trkpt lat="38.997393" lon="113.677181"><ele>2362</ele><time>2025-09-29T00:44:49Z</time></trkpt>
      <trkpt lat="38.997186" lon="113.676956"><ele>2355</ele><time>2025-09-29T00:45:32Z</time></trkpt>
      <trkpt lat="38.99701" lon="113.676883"><ele>2354</ele><time>2025-09-29T00:46:32Z</time></trkpt>
      <trkpt lat="38.996555" lon="113.676483"><ele>2370</ele><time>2025-09-29T00:48:29Z</time></trkpt>
      <trkpt lat="38.996278" lon="113.676394"><ele>2376</ele><time>2025-09-29T00:49:01Z</time></trkpt>
      <trkpt lat="38.996078" lon="113.676139"><ele>2381</ele><time>2025-09-29T00:50:38Z</time></trkpt>
      <trkpt lat="38.995574" lon="113.675834"><ele>2392</ele><time>2025-09-29T00:51:44Z</time></trkpt>
      <trkpt lat="38.995387" lon="113.675573"><ele>2398</ele><time>2025-09-29T00:52:45Z</time></trkpt>
      <trkpt lat="38.994365" lon="113.674733"><ele>2437</ele><time>2025-09-29T01:01:02Z</time></trkpt>
      <trkpt lat="38.99413" lon="113.674348"><ele>2444</ele><time>2025-09-29T01:02:12Z</time></trkpt>
      <trkpt lat="38.99384" lon="113.674069"><ele>2457</ele><time>2025-09-29T01:03:18Z</time></trkpt>
      <trkpt lat="38.993486" lon="113.673381"><ele>2465</ele><time>2025-09-29T01:04:58Z</time></trkpt>
      <trkpt lat="38.993346" lon="113.67323"><ele>2470</ele><time>2025-09-29T01:05:21Z</time></trkpt>
      <trkpt lat="38.993389" lon="113.672992"><ele>2469</ele><time>2025-09-29T01:05:54Z</time></trkpt>
      <trkpt lat="38.993249" lon="113.672826"><ele>2472</ele><time>2025-09-29T01:12:40Z</time></trkpt>
      <trkpt lat="38.993064" lon="113.671757"><ele>2483</ele><time>2025-09-29T01:14:09Z</time></trkpt>
      <trkpt lat="38.992915" lon="113.671454"><ele>2484</ele><time>2025-09-29T01:14:36Z</time></trkpt>
      <trkpt lat="38.992225" lon="113.671002"><ele>2488</ele><time>2025-09-29T01:15:44Z</time></trkpt>
      <trkpt lat="38.991852" lon="113.670629"><ele>2488</ele><time>2025-09-29T01:16:29Z</time></trkpt>
      <trkpt lat="38.991671" lon="113.670349"><ele>2486</ele><time>2025-09-29T01:17:20Z</time></trkpt>
      <trkpt lat="38.991121" lon="113.670148"><ele>2481</ele><time>2025-09-29T01:18:10Z</time></trkpt>
      <trkpt lat="38.990817" lon="113.669847"><ele>2475</ele><time>2025-09-29T01:18:43Z</time></trkpt>
      <trkpt lat="38.990501" lon="113.66908"><ele>2466</ele><time>2025-09-29T01:19:48Z</time></trkpt>
      <trkpt lat="38.990119" lon="113.668697"><ele>2465</ele><time>2025-09-29T01:20:31Z</time></trkpt>
      <trkpt lat="38.990134" lon="113.668457"><ele>2465</ele><time>2025-09-29T01:20:47Z</time></trkpt>
      <trkpt lat="38.990065" lon="113.66811"><ele>2463</ele><time>2025-09-29T01:21:10Z</time></trkpt>
      <trkpt lat="38.989695" lon="113.667548"><ele>2458</ele><time>2025-09-29T01:21:58Z</time></trkpt>
      <trkpt lat="38.989047" lon="113.667068"><ele>2458</ele><time>2025-09-29T01:23:03Z</time></trkpt>
      <trkpt lat="38.988815" lon="113.666679"><ele>2463</ele><time>2025-09-29T01:23:40Z</time></trkpt>
      <trkpt lat="38.988658" lon="113.666544"><ele>2463</ele><time>2025-09-29T01:23:56Z</time></trkpt>
      <trkpt lat="38.988512" lon="113.666237"><ele>2463</ele><time>2025-09-29T01:24:21Z</time></trkpt>
      <trkpt lat="38.988149" lon="113.665856"><ele>2476</ele><time>2025-09-29T01:25:17Z</time></trkpt>
      <trkpt lat="38.987895" lon="113.665717"><ele>2480</ele><time>2025-09-29T01:25:58Z</time></trkpt>
      <trkpt lat="38.987804" lon="113.665503"><ele>2480</ele><time>2025-09-29T01:26:22Z</time></trkpt>
      <trkpt lat="38.987764" lon="113.665156"><ele>2485</ele><time>2025-09-29T01:26:57Z</time></trkpt>
      <trkpt lat="38.987793" lon="113.664691"><ele>2474</ele><time>2025-09-29T01:27:52Z</time></trkpt>
      <trkpt lat="38.987871" lon="113.664355"><ele>2462</ele><time>2025-09-29T01:28:48Z</time></trkpt>
      <trkpt lat="38.988042" lon="113.664075"><ele>2452</ele><time>2025-09-29T01:29:30Z</time></trkpt>
      <trkpt lat="38.98826" lon="113.663416"><ele>2426</ele><time>2025-09-29T01:31:07Z</time></trkpt>
      <trkpt lat="38.988304" lon="113.662942"><ele>2411</ele><time>2025-09-29T01:32:20Z</time></trkpt>
      <trkpt lat="38.988541" lon="113.662427"><ele>2395</ele><time>2025-09-29T01:36:27Z</time></trkpt>
      <trkpt lat="38.988588" lon="113.66196"><ele>2379</ele><time>2025-09-29T01:37:35Z</time></trkpt>
      <trkpt lat="38.98886" lon="113.661463"><ele>2359</ele><time>2025-09-29T01:39:11Z</time></trkpt>
      <trkpt lat="38.988949" lon="113.660766"><ele>2334</ele><time>2025-09-29T01:40:32Z</time></trkpt>
      <trkpt lat="38.989151" lon="113.660067"><ele>2322</ele><time>2025-09-29T01:41:35Z</time></trkpt>
      <trkpt lat="38.989197" lon="113.659568"><ele>2323</ele><time>2025-09-29T01:42:20Z</time></trkpt>
      <trkpt lat="38.989255" lon="113.659343"><ele>2323</ele><time>2025-09-29T01:42:38Z</time></trkpt>
      <trkpt lat="38.989384" lon="113.659163"><ele>2322</ele><time>2025-09-29T01:42:56Z</time></trkpt>
      <trkpt lat="38.989396" lon="113.658925"><ele>2321</ele><time>2025-09-29T01:43:15Z</time></trkpt>
      <trkpt lat="38.989114" lon="113.657897"><ele>2314</ele><time>2025-09-29T01:44:34Z</time></trkpt>
      <trkpt lat="38.988689" lon="113.656957"><ele>2301</ele><time>2025-09-29T01:46:12Z</time></trkpt>
      <trkpt lat="38.988477" lon="113.655865"><ele>2295</ele><time>2025-09-29T01:47:27Z</time></trkpt>
      <trkpt lat="38.98829" lon="113.655593"><ele>2291</ele><time>2025-09-29T01:47:52Z</time></trkpt>
      <trkpt lat="38.988218" lon="113.654883"><ele>2287</ele><time>2025-09-29T01:48:45Z</time></trkpt>
      <trkpt lat="38.987725" lon="113.654129"><ele>2282</ele><time>2025-09-29T01:49:55Z</time></trkpt>
      <trkpt lat="38.987434" lon="113.653349"><ele>2287</ele><time>2025-09-29T01:51:04Z</time></trkpt>
      <trkpt lat="38.987449" lon="113.653221"><ele>2286</ele><time>2025-09-29T01:51:14Z</time></trkpt>
      <trkpt lat="38.987718" lon="113.652718"><ele>2286</ele><time>2025-09-29T01:52:00Z</time></trkpt>
      <trkpt lat="38.987854" lon="113.652259"><ele>2287</ele><time>2025-09-29T01:52:36Z</time></trkpt>
      <trkpt lat="38.987828" lon="113.651886"><ele>2285</ele><time>2025-09-29T01:53:04Z</time></trkpt>
      <trkpt lat="38.98792" lon="113.651557"><ele>2284</ele><time>2025-09-29T01:53:26Z</time></trkpt>
      <trkpt lat="38.987906" lon="113.651436"><ele>2282</ele><time>2025-09-29T01:53:33Z</time></trkpt>
      <trkpt lat="38.987764" lon="113.651275"><ele>2282</ele><time>2025-09-29T01:53:51Z</time></trkpt>
      <trkpt lat="38.98745" lon="113.65065"><ele>2278</ele><time>2025-09-29T01:54:45Z</time></trkpt>
      <trkpt lat="38.987454" lon="113.649905"><ele>2269</ele><time>2025-09-29T01:55:44Z</time></trkpt>
      <trkpt lat="38.987178" lon="113.648993"><ele>2269</ele><time>2025-09-29T01:56:49Z</time></trkpt>
      <trkpt lat="38.987095" lon="113.648151"><ele>2265</ele><time>2025-09-29T01:57:45Z</time></trkpt>
      <trkpt lat="38.986892" lon="113.647482"><ele>2271</ele><time>2025-09-29T01:58:37Z</time></trkpt>
      <trkpt lat="38.986863" lon="113.647006"><ele>2276</ele><time>2025-09-29T01:59:14Z</time></trkpt>
      <trkpt lat="38.986784" lon="113.646783"><ele>2279</ele><time>2025-09-29T01:59:33Z</time></trkpt>
      <trkpt lat="38.986923" lon="113.645023"><ele>2304</ele><time>2025-09-29T02:03:27Z</time></trkpt>
      <trkpt lat="38.986774" lon="113.64444"><ele>2309</ele><time>2025-09-29T02:04:24Z</time></trkpt>
      <trkpt lat="38.986778" lon="113.642966"><ele>2316</ele><time>2025-09-29T02:06:11Z</time></trkpt>
      <trkpt lat="38.986711" lon="113.642368"><ele>2324</ele><time>2025-09-29T02:07:06Z</time></trkpt>
      <trkpt lat="38.986584" lon="113.642043"><ele>2328</ele><time>2025-09-29T02:08:38Z</time></trkpt>
      <trkpt lat="38.986554" lon="113.641563"><ele>2332</ele><time>2025-09-29T02:09:15Z</time></trkpt>
      <trkpt lat="38.985869" lon="113.639542"><ele>2333</ele><time>2025-09-29T02:12:32Z</time></trkpt>
      <trkpt lat="38.985688" lon="113.639116"><ele>2344</ele><time>2025-09-29T02:15:37Z</time></trkpt>
      <trkpt lat="38.985387" lon="113.638663"><ele>2354</ele><time>2025-09-29T02:16:49Z</time></trkpt>
      <trkpt lat="38.985241" lon="113.637975"><ele>2374</ele><time>2025-09-29T02:18:57Z</time></trkpt>
      <trkpt lat="38.98499" lon="113.63786"><ele>2387</ele><time>2025-09-29T02:19:53Z</time></trkpt>
      <trkpt lat="38.984802" lon="113.637607"><ele>2395</ele><time>2025-09-29T02:21:59Z</time></trkpt>
      <trkpt lat="38.984618" lon="113.63764"><ele>2399</ele><time>2025-09-29T02:22:24Z</time></trkpt>
      <trkpt lat="38.984549" lon="113.637559"><ele>2401</ele><time>2025-09-29T02:22:34Z</time></trkpt>
      <trkpt lat="38.984206" lon="113.636699"><ele>2382</ele><time>2025-09-29T02:26:23Z</time></trkpt>
      <trkpt lat="38.984183" lon="113.636335"><ele>2373</ele><time>2025-09-29T02:26:55Z</time></trkpt>
      <trkpt lat="38.984265" lon="113.63612"><ele>2367</ele><time>2025-09-29T02:27:31Z</time></trkpt>
      <trkpt lat="38.983935" lon="113.635112"><ele>2357</ele><time>2025-09-29T02:29:17Z</time></trkpt>
      <trkpt lat="38.983729" lon="113.634715"><ele>2354</ele><time>2025-09-29T02:29:53Z</time></trkpt>
      <trkpt lat="38.98358" lon="113.634136"><ele>2348</ele><time>2025-09-29T02:30:46Z</time></trkpt>
      <trkpt lat="38.983622" lon="113.63353"><ele>2340</ele><time>2025-09-29T02:31:38Z</time></trkpt>
      <trkpt lat="38.983588" lon="113.632926"><ele>2336</ele><time>2025-09-29T02:32:27Z</time></trkpt>
      <trkpt lat="38.983162" lon="113.632477"><ele>2325</ele><time>2025-09-29T02:33:45Z</time></trkpt>
      <trkpt lat="38.982951" lon="113.632074"><ele>2319</ele><time>2025-09-29T02:34:22Z</time></trkpt>
      <trkpt lat="38.982718" lon="113.630523"><ele>2309</ele><time>2025-09-29T02:36:36Z</time></trkpt>
      <trkpt lat="38.98246" lon="113.629735"><ele>2320</ele><time>2025-09-29T02:37:57Z</time></trkpt>
      <trkpt lat="38.982342" lon="113.629546"><ele>2323</ele><time>2025-09-29T02:38:20Z</time></trkpt>
      <trkpt lat="38.982214" lon="113.628948"><ele>2325</ele><time>2025-09-29T02:39:10Z</time></trkpt>
      <trkpt lat="38.982259" lon="113.62871"><ele>2326</ele><time>2025-09-29T02:39:31Z</time></trkpt>
      <trkpt lat="38.982206" lon="113.628603"><ele>2327</ele><time>2025-09-29T02:39:41Z</time></trkpt>
      <trkpt lat="38.98233" lon="113.628271"><ele>2331</ele><time>2025-09-29T02:41:41Z</time></trkpt>
      <trkpt lat="38.982485" lon="113.627308"><ele>2335</ele><time>2025-09-29T02:42:53Z</time></trkpt>
      <trkpt lat="38.982461" lon="113.627057"><ele>2336</ele><time>2025-09-29T02:43:13Z</time></trkpt>
      <trkpt lat="38.982308" lon="113.626919"><ele>2338</ele><time>2025-09-29T02:43:34Z</time></trkpt>
      <trkpt lat="38.982208" lon="113.626588"><ele>2336</ele><time>2025-09-29T02:44:07Z</time></trkpt>
      <trkpt lat="38.981868" lon="113.626179"><ele>2326</ele><time>2025-09-29T02:45:03Z</time></trkpt>
      <trkpt lat="38.981694" lon="113.626072"><ele>2321</ele><time>2025-09-29T02:45:27Z</time></trkpt>
      <trkpt lat="38.981657" lon="113.625964"><ele>2319</ele><time>2025-09-29T02:45:36Z</time></trkpt>
      <trkpt lat="38.9811" lon="113.625521"><ele>2308</ele><time>2025-09-29T02:48:00Z</time></trkpt>
      <trkpt lat="38.980826" lon="113.625416"><ele>2313</ele><time>2025-09-29T02:48:31Z</time></trkpt>
      <trkpt lat="38.980743" lon="113.625084"><ele>2322</ele><time>2025-09-29T02:49:22Z</time></trkpt>
      <trkpt lat="38.980427" lon="113.624474"><ele>2314</ele><time>2025-09-29T02:50:26Z</time></trkpt>
      <trkpt lat="38.980409" lon="113.624237"><ele>2311</ele><time>2025-09-29T02:50:45Z</time></trkpt>
      <trkpt lat="38.980232" lon="113.623654"><ele>2312</ele><time>2025-09-29T02:51:25Z</time></trkpt>
      <trkpt lat="38.980231" lon="113.623401"><ele>2314</ele><time>2025-09-29T02:51:47Z</time></trkpt>
      <trkpt lat="38.980165" lon="113.623314"><ele>2314</ele><time>2025-09-29T02:51:57Z</time></trkpt>
      <trkpt lat="38.979897" lon="113.623219"><ele>2305</ele><time>2025-09-29T02:52:43Z</time></trkpt>
      <trkpt lat="38.979526" lon="113.62289"><ele>2288</ele><time>2025-09-29T02:54:03Z</time></trkpt>
      <trkpt lat="38.979165" lon="113.622311"><ele>2282</ele><time>2025-09-29T02:56:44Z</time></trkpt>
      <trkpt lat="38.979094" lon="113.621974"><ele>2285</ele><time>2025-09-29T02:57:13Z</time></trkpt>
      <trkpt lat="38.978598" lon="113.621594"><ele>2283</ele><time>2025-09-29T02:58:12Z</time></trkpt>
      <trkpt lat="38.978525" lon="113.621374"><ele>2280</ele><time>2025-09-29T02:58:32Z</time></trkpt>
      <trkpt lat="38.97852" lon="113.621012"><ele>2274</ele><time>2025-09-29T02:59:10Z</time></trkpt>
      <trkpt lat="38.978287" lon="113.620824"><ele>2273</ele><time>2025-09-29T02:59:37Z</time></trkpt>
      <trkpt lat="38.977972" lon="113.620361"><ele>2271</ele><time>2025-09-29T03:00:34Z</time></trkpt>
      <trkpt lat="38.977789" lon="113.620281"><ele>2272</ele><time>2025-09-29T03:01:05Z</time></trkpt>
      <trkpt lat="38.977468" lon="113.619838"><ele>2277</ele><time>2025-09-29T03:02:14Z</time></trkpt>
      <trkpt lat="38.977225" lon="113.619646"><ele>2281</ele><time>2025-09-29T03:02:51Z</time></trkpt>
      <trkpt lat="38.976966" lon="113.619311"><ele>2295</ele><time>2025-09-29T03:04:18Z</time></trkpt>
      <trkpt lat="38.976844" lon="113.618974"><ele>2301</ele><time>2025-09-29T03:06:48Z</time></trkpt>
      <trkpt lat="38.976485" lon="113.618408"><ele>2305</ele><time>2025-09-29T03:08:00Z</time></trkpt>
      <trkpt lat="38.975665" lon="113.618099"><ele>2283</ele><time>2025-09-29T03:10:44Z</time></trkpt>
      <trkpt lat="38.975387" lon="113.6181"><ele>2273</ele><time>2025-09-29T03:11:24Z</time></trkpt>
      <trkpt lat="38.975244" lon="113.618272"><ele>2267</ele><time>2025-09-29T03:11:54Z</time></trkpt>
      <trkpt lat="38.974773" lon="113.618356"><ele>2262</ele><time>2025-09-29T03:12:46Z</time></trkpt>
      <trkpt lat="38.974298" lon="113.618324"><ele>2258</ele><time>2025-09-29T03:13:43Z</time></trkpt>
      <trkpt lat="38.974037" lon="113.618427"><ele>2250</ele><time>2025-09-29T03:14:31Z</time></trkpt>
      <trkpt lat="38.973891" lon="113.618582"><ele>2245</ele><time>2025-09-29T03:15:08Z</time></trkpt>
      <trkpt lat="38.973047" lon="113.618786"><ele>2240</ele><time>2025-09-29T03:16:54Z</time></trkpt>
      <trkpt lat="38.972574" lon="113.61881"><ele>2231</ele><time>2025-09-29T03:20:01Z</time></trkpt>
      <trkpt lat="38.972416" lon="113.618935"><ele>2226</ele><time>2025-09-29T03:20:32Z</time></trkpt>
      <trkpt lat="38.972191" lon="113.618562"><ele>2213</ele><time>2025-09-29T03:21:23Z</time></trkpt>
      <trkpt lat="38.971757" lon="113.618328"><ele>2200</ele><time>2025-09-29T03:22:21Z</time></trkpt>
      <trkpt lat="38.971291" lon="113.618363"><ele>2195</ele><time>2025-09-29T03:23:14Z</time></trkpt>
      <trkpt lat="38.970832" lon="113.618219"><ele>2191</ele><time>2025-09-29T03:24:09Z</time></trkpt>
      <trkpt lat="38.970458" lon="113.618274"><ele>2186</ele><time>2025-09-29T03:24:46Z</time></trkpt>
      <trkpt lat="38.970294" lon="113.618159"><ele>2181</ele><time>2025-09-29T03:25:04Z</time></trkpt>
      <trkpt lat="38.969358" lon="113.618001"><ele>2170</ele><time>2025-09-29T03:26:34Z</time></trkpt>
      <trkpt lat="38.968968" lon="113.618038"><ele>2166</ele><time>2025-09-29T03:27:11Z</time></trkpt>
      <trkpt lat="38.96823" lon="113.617807"><ele>2149</ele><time>2025-09-29T03:28:27Z</time></trkpt>
      <trkpt lat="38.967852" lon="113.617834"><ele>2142</ele><time>2025-09-29T03:29:07Z</time></trkpt>
      <trkpt lat="38.967577" lon="113.617739"><ele>2137</ele><time>2025-09-29T03:29:32Z</time></trkpt>
      <trkpt lat="38.966936" lon="113.617895"><ele>2125</ele><time>2025-09-29T03:31:01Z</time></trkpt>
      <trkpt lat="38.966665" lon="113.617825"><ele>2119</ele><time>2025-09-29T03:31:53Z</time></trkpt>
      <trkpt lat="38.966484" lon="113.617893"><ele>2115</ele><time>2025-09-29T03:33:54Z</time></trkpt>
      <trkpt lat="38.966298" lon="113.617843"><ele>2113</ele><time>2025-09-29T03:34:11Z</time></trkpt>
      <trkpt lat="38.966154" lon="113.617683"><ele>2108</ele><time>2025-09-29T03:34:28Z</time></trkpt>
      <trkpt lat="38.96607" lon="113.617476"><ele>2104</ele><time>2025-09-29T03:34:46Z</time></trkpt>
      <trkpt lat="38.965671" lon="113.616942"><ele>2093</ele><time>2025-09-29T03:35:50Z</time></trkpt>
      <trkpt lat="38.965446" lon="113.616419"><ele>2090</ele><time>2025-09-29T03:37:12Z</time></trkpt>
      <trkpt lat="38.965166" lon="113.616069"><ele>2079</ele><time>2025-09-29T03:37:51Z</time></trkpt>
      <trkpt lat="38.964518" lon="113.614747"><ele>2060</ele><time>2025-09-29T03:40:02Z</time></trkpt>
      <trkpt lat="38.964226" lon="113.613573"><ele>2042</ele><time>2025-09-29T03:41:50Z</time></trkpt>
      <trkpt lat="38.964259" lon="113.613094"><ele>2033</ele><time>2025-09-29T03:42:29Z</time></trkpt>
      <trkpt lat="38.964126" lon="113.612785"><ele>2023</ele><time>2025-09-29T03:43:15Z</time></trkpt>
      <trkpt lat="38.964179" lon="113.612435"><ele>2011</ele><time>2025-09-29T03:43:57Z</time></trkpt>
      <trkpt lat="38.963803" lon="113.611354"><ele>1989</ele><time>2025-09-29T03:46:51Z</time></trkpt>
      <trkpt lat="38.963764" lon="113.610647"><ele>1968</ele><time>2025-09-29T03:49:16Z</time></trkpt>
      <trkpt lat="38.963692" lon="113.610421"><ele>1960</ele><time>2025-09-29T03:49:52Z</time></trkpt>
      <trkpt lat="38.963746" lon="113.609725"><ele>1931</ele><time>2025-09-29T03:52:38Z</time></trkpt>
      <trkpt lat="38.963835" lon="113.609515"><ele>1922</ele><time>2025-09-29T03:53:22Z</time></trkpt>
      <trkpt lat="38.963848" lon="113.609166"><ele>1907</ele><time>2025-09-29T03:55:37Z</time></trkpt>
      <trkpt lat="38.963931" lon="113.609109"><ele>1904</ele><time>2025-09-29T03:55:55Z</time></trkpt>
      <trkpt lat="38.963932" lon="113.608986"><ele>1898</ele><time>2025-09-29T03:56:17Z</time></trkpt>
      <trkpt lat="38.96385" lon="113.608919"><ele>1897</ele><time>2025-09-29T03:56:31Z</time></trkpt>
      <trkpt lat="38.963903" lon="113.608788"><ele>1892</ele><time>2025-09-29T03:56:48Z</time></trkpt>
      <trkpt lat="38.963854" lon="113.608686"><ele>1887</ele><time>2025-09-29T03:57:06Z</time></trkpt>
      <trkpt lat="38.963986" lon="113.607873"><ele>1857</ele><time>2025-09-29T03:59:45Z</time></trkpt>
      <trkpt lat="38.964079" lon="113.607843"><ele>1853</ele><time>2025-09-29T04:00:07Z</time></trkpt>
      <trkpt lat="38.964051" lon="113.607607"><ele>1846</ele><time>2025-09-29T04:00:44Z</time></trkpt>
      <trkpt lat="38.964315" lon="113.606711"><ele>1836</ele><time>2025-09-29T04:02:28Z</time></trkpt>
      <trkpt lat="38.9643" lon="113.606353"><ele>1831</ele><time>2025-09-29T04:02:56Z</time></trkpt>
      <trkpt lat="38.964143" lon="113.606049"><ele>1828</ele><time>2025-09-29T04:03:23Z</time></trkpt>
      <trkpt lat="38.964503" lon="113.605658"><ele>1821</ele><time>2025-09-29T04:04:14Z</time></trkpt>
      <trkpt lat="38.964488" lon="113.605304"><ele>1815</ele><time>2025-09-29T04:06:18Z</time></trkpt>
      <trkpt lat="38.964357" lon="113.604979"><ele>1810</ele><time>2025-09-29T04:06:56Z</time></trkpt>
      <trkpt lat="38.964245" lon="113.604253"><ele>1803</ele><time>2025-09-29T04:07:51Z</time></trkpt>
      <trkpt lat="38.96386" lon="113.603148"><ele>1790</ele><time>2025-09-29T04:09:20Z</time></trkpt>
      <trkpt lat="38.963751" lon="113.602555"><ele>1785</ele><time>2025-09-29T04:10:10Z</time></trkpt>
      <trkpt lat="38.963845" lon="113.601702"><ele>1781</ele><time>2025-09-29T04:12:15Z</time></trkpt>
      <trkpt lat="38.964098" lon="113.601051"><ele>1771</ele><time>2025-09-29T04:13:09Z</time></trkpt>
      <trkpt lat="38.964099" lon="113.600796"><ele>1768</ele><time>2025-09-29T04:13:27Z</time></trkpt>
      <trkpt lat="38.964027" lon="113.600726"><ele>1766</ele><time>2025-09-29T04:13:40Z</time></trkpt>
      <trkpt lat="38.964127" lon="113.600736"><ele>1765</ele><time>2025-09-29T04:14:17Z</time></trkpt>
      <trkpt lat="38.964037" lon="113.600705"><ele>1767</ele><time>2025-09-29T04:15:56Z</time></trkpt>
      <trkpt lat="38.964095" lon="113.600108"><ele>1759</ele><time>2025-09-29T04:16:32Z</time></trkpt>
      <trkpt lat="38.964299" lon="113.599563"><ele>1753</ele><time>2025-09-29T04:17:10Z</time></trkpt>
      <trkpt lat="38.96441" lon="113.598973"><ele>1748</ele><time>2025-09-29T04:17:49Z</time></trkpt>
      <trkpt lat="38.964321" lon="113.597468"><ele>1732</ele><time>2025-09-29T04:19:25Z</time></trkpt>
      <trkpt lat="38.964121" lon="113.596883"><ele>1727</ele><time>2025-09-29T04:20:05Z</time></trkpt>
      <trkpt lat="38.963542" lon="113.595737"><ele>1715</ele><time>2025-09-29T04:21:32Z</time></trkpt>
      <trkpt lat="38.963347" lon="113.595463"><ele>1712</ele><time>2025-09-29T04:21:56Z</time></trkpt>
      <trkpt lat="38.962403" lon="113.594819"><ele>1699</ele><time>2025-09-29T04:23:26Z</time></trkpt>
      <trkpt lat="38.961726" lon="113.594513"><ele>1694</ele><time>2025-09-29T04:27:27Z</time></trkpt>
      <trkpt lat="38.960912" lon="113.593843"><ele>1681</ele><time>2025-09-29T04:27:39Z</time></trkpt>
      <trkpt lat="38.959426" lon="113.590627"><ele>1643</ele><time>2025-09-29T04:28:15Z</time></trkpt>
      <trkpt lat="38.959209" lon="113.590338"><ele>1638</ele><time>2025-09-29T04:28:19Z</time></trkpt>
      <trkpt lat="38.957943" lon="113.589582"><ele>1623</ele><time>2025-09-29T04:28:32Z</time></trkpt>
      <trkpt lat="38.957773" lon="113.589245"><ele>1621</ele><time>2025-09-29T04:28:36Z</time></trkpt>
      <trkpt lat="38.957682" lon="113.588851"><ele>1618</ele><time>2025-09-29T04:28:40Z</time></trkpt>
      <trkpt lat="38.957745" lon="113.587382"><ele>1605</ele><time>2025-09-29T04:28:54Z</time></trkpt>
      <trkpt lat="38.957368" lon="113.585821"><ele>1592</ele><time>2025-09-29T04:29:14Z</time></trkpt>
      <trkpt lat="38.95555" lon="113.580712"><ele>1545</ele><time>2025-09-29T04:30:26Z</time></trkpt>
      <trkpt lat="38.954238" lon="113.57762"><ele>1524</ele><time>2025-09-29T04:31:06Z</time></trkpt>
      <trkpt lat="38.953784" lon="113.576924"><ele>1522</ele><time>2025-09-29T04:31:22Z</time></trkpt>
      <trkpt lat="38.953689" lon="113.576889"><ele>1520</ele><time>2025-09-29T04:31:25Z</time></trkpt>
      <trkpt lat="38.953573" lon="113.576995"><ele>1520</ele><time>2025-09-29T04:31:28Z</time></trkpt>
      <trkpt lat="38.953243" lon="113.577718"><ele>1520</ele><time>2025-09-29T04:31:36Z</time></trkpt>
      <trkpt lat="38.952927" lon="113.578013"><ele>1519</ele><time>2025-09-29T04:31:40Z</time></trkpt>
      <trkpt lat="38.951124" lon="113.578637"><ele>1516</ele><time>2025-09-29T04:31:53Z</time></trkpt>
      <trkpt lat="38.949456" lon="113.579538"><ele>1513</ele><time>2025-09-29T04:32:06Z</time></trkpt>
      <trkpt lat="38.94896" lon="113.579614"><ele>1512</ele><time>2025-09-29T04:32:10Z</time></trkpt>
      <trkpt lat="38.947766" lon="113.579482"><ele>1511</ele><time>2025-09-29T04:32:22Z</time></trkpt>
      <trkpt lat="38.947708" lon="113.579266"><ele>1510</ele><time>2025-09-29T04:32:26Z</time></trkpt>
      <trkpt lat="38.947788" lon="113.579081"><ele>1510</ele><time>2025-09-29T04:32:28Z</time></trkpt>
      <trkpt lat="38.94955" lon="113.567443"><ele>1553</ele><time>2025-09-29T04:33:28Z</time></trkpt>
      <trkpt lat="38.949548" lon="113.567014"><ele>1555</ele><time>2025-09-29T04:33:31Z</time></trkpt>
      <trkpt lat="38.949373" lon="113.566503"><ele>1556</ele><time>2025-09-29T04:33:36Z</time></trkpt>
      <trkpt lat="38.949528" lon="113.56571"><ele>1558</ele><time>2025-09-29T04:33:43Z</time></trkpt>
      <trkpt lat="38.949797" lon="113.563648"><ele>1567</ele><time>2025-09-29T04:33:55Z</time></trkpt>
      <trkpt lat="38.94957" lon="113.560955"><ele>1580</ele><time>2025-09-29T04:34:10Z</time></trkpt>
      <trkpt lat="38.949122" lon="113.559235"><ele>1589</ele><time>2025-09-29T04:34:19Z</time></trkpt>
      <trkpt lat="38.94923" lon="113.557121"><ele>1592</ele><time>2025-09-29T04:34:36Z</time></trkpt>
      <trkpt lat="38.949519" lon="113.555492"><ele>1606</ele><time>2025-09-29T04:34:47Z</time></trkpt>
      <trkpt lat="38.949447" lon="113.554479"><ele>1611</ele><time>2025-09-29T04:34:52Z</time></trkpt>
      <trkpt lat="38.949325" lon="113.55395"><ele>1614</ele><time>2025-09-29T04:34:55Z</time></trkpt>
      <trkpt lat="38.949307" lon="113.553363"><ele>1614</ele><time>2025-09-29T04:34:59Z</time></trkpt>
      <trkpt lat="38.948658" lon="113.551451"><ele>1630</ele><time>2025-09-29T04:35:16Z</time></trkpt>
      <trkpt lat="38.948844" lon="113.549911"><ele>1637</ele><time>2025-09-29T04:35:30Z</time></trkpt>
      <trkpt lat="38.948606" lon="113.547578"><ele>1650</ele><time>2025-09-29T04:35:47Z</time></trkpt>
      <trkpt lat="38.948578" lon="113.546285"><ele>1650</ele><time>2025-09-29T04:35:55Z</time></trkpt>
      <trkpt lat="38.948146" lon="113.544455"><ele>1658</ele><time>2025-09-29T04:36:06Z</time></trkpt>
      <trkpt lat="38.947802" lon="113.543306"><ele>1662</ele><time>2025-09-29T04:36:14Z</time></trkpt>
      <trkpt lat="38.947696" lon="113.542593"><ele>1665</ele><time>2025-09-29T04:36:18Z</time></trkpt>
      <trkpt lat="38.947707" lon="113.54023"><ele>1677</ele><time>2025-09-29T04:36:33Z</time></trkpt>
      <trkpt lat="38.948189" lon="113.538102"><ele>1687</ele><time>2025-09-29T04:50:31Z</time></trkpt>
      <trkpt lat="38.948106" lon="113.53739"><ele>1688</ele><time>2025-09-29T04:51:40Z</time></trkpt>
      <trkpt lat="38.948013" lon="113.537333"><ele>1690</ele><time>2025-09-29T04:51:58Z</time></trkpt>
      <trkpt lat="38.947812" lon="113.537575"><ele>1692</ele><time>2025-09-29T04:52:58Z</time></trkpt>
      <trkpt lat="38.947439" lon="113.53764"><ele>1695</ele><time>2025-09-29T04:53:40Z</time></trkpt>
      <trkpt lat="38.947294" lon="113.537357"><ele>1699</ele><time>2025-09-29T04:54:17Z</time></trkpt>
      <trkpt lat="38.947118" lon="113.537414"><ele>1698</ele><time>2025-09-29T05:31:50Z</time></trkpt>
      <trkpt lat="38.947034" lon="113.537369"><ele>1704</ele><time>2025-09-29T05:32:37Z</time></trkpt>
      <trkpt lat="38.94671" lon="113.537591"><ele>1718</ele><time>2025-09-29T05:34:39Z</time></trkpt>
      <trkpt lat="38.946472" lon="113.537536"><ele>1728</ele><time>2025-09-29T05:35:54Z</time></trkpt>
      <trkpt lat="38.946059" lon="113.537775"><ele>1746</ele><time>2025-09-29T05:38:11Z</time></trkpt>
      <trkpt lat="38.94589" lon="113.537702"><ele>1753</ele><time>2025-09-29T05:39:12Z</time></trkpt>
      <trkpt lat="38.94518" lon="113.5379"><ele>1785</ele><time>2025-09-29T05:43:12Z</time></trkpt>
      <trkpt lat="38.944752" lon="113.53787"><ele>1802</ele><time>2025-09-29T05:45:49Z</time></trkpt>
      <trkpt lat="38.944535" lon="113.538083"><ele>1811</ele><time>2025-09-29T05:47:01Z</time></trkpt>
      <trkpt lat="38.944206" lon="113.53818"><ele>1823</ele><time>2025-09-29T05:50:17Z</time></trkpt>
      <trkpt lat="38.944093" lon="113.53837"><ele>1829</ele><time>2025-09-29T05:50:56Z</time></trkpt>
      <trkpt lat="38.943842" lon="113.538514"><ele>1839</ele><time>2025-09-29T05:52:19Z</time></trkpt>
      <trkpt lat="38.943725" lon="113.538699"><ele>1846</ele><time>2025-09-29T05:53:09Z</time></trkpt>
      <trkpt lat="38.943259" lon="113.539082"><ele>1862</ele><time>2025-09-29T05:55:46Z</time></trkpt>
      <trkpt lat="38.942769" lon="113.539375"><ele>1878</ele><time>2025-09-29T05:57:31Z</time></trkpt>
      <trkpt lat="38.942123" lon="113.539309"><ele>1895</ele><time>2025-09-29T05:59:21Z</time></trkpt>
      <trkpt lat="38.941823" lon="113.53903"><ele>1903</ele><time>2025-09-29T06:01:02Z</time></trkpt>
      <trkpt lat="38.941555" lon="113.538934"><ele>1915</ele><time>2025-09-29T06:04:08Z</time></trkpt>
      <trkpt lat="38.941354" lon="113.53868"><ele>1922</ele><time>2025-09-29T06:04:56Z</time></trkpt>
      <trkpt lat="38.940797" lon="113.538594"><ele>1930</ele><time>2025-09-29T06:06:20Z</time></trkpt>
      <trkpt lat="38.940448" lon="113.538416"><ele>1935</ele><time>2025-09-29T06:07:15Z</time></trkpt>
      <trkpt lat="38.940169" lon="113.538377"><ele>1939</ele><time>2025-09-29T06:07:53Z</time></trkpt>
      <trkpt lat="38.939621" lon="113.538461"><ele>1954</ele><time>2025-09-29T06:09:44Z</time></trkpt>
      <trkpt lat="38.939445" lon="113.538377"><ele>1957</ele><time>2025-09-29T06:10:13Z</time></trkpt>
      <trkpt lat="38.939382" lon="113.538611"><ele>1965</ele><time>2025-09-29T06:14:32Z</time></trkpt>
      <trkpt lat="38.938503" lon="113.538963"><ele>2004</ele><time>2025-09-29T06:19:40Z</time></trkpt>
      <trkpt lat="38.937953" lon="113.538839"><ele>2021</ele><time>2025-09-29T06:21:20Z</time></trkpt>
      <trkpt lat="38.937492" lon="113.538912"><ele>2040</ele><time>2025-09-29T06:24:45Z</time></trkpt>
      <trkpt lat="38.937429" lon="113.538994"><ele>2042</ele><time>2025-09-29T06:25:01Z</time></trkpt>
      <trkpt lat="38.937167" lon="113.538879"><ele>2051</ele><time>2025-09-29T06:25:48Z</time></trkpt>
      <trkpt lat="38.936894" lon="113.538943"><ele>2060</ele><time>2025-09-29T06:27:11Z</time></trkpt>
      <trkpt lat="38.936136" lon="113.538898"><ele>2086</ele><time>2025-09-29T06:40:49Z</time></trkpt>
      <trkpt lat="38.935595" lon="113.539016"><ele>2108</ele><time>2025-09-29T06:42:38Z</time></trkpt>
      <trkpt lat="38.935525" lon="113.539233"><ele>2113</ele><time>2025-09-29T06:45:25Z</time></trkpt>
      <trkpt lat="38.935536" lon="113.539117"><ele>2111</ele><time>2025-09-29T06:46:30Z</time></trkpt>
      <trkpt lat="38.935455" lon="113.539049"><ele>2114</ele><time>2025-09-29T06:47:10Z</time></trkpt>
      <trkpt lat="38.934999" lon="113.539125"><ele>2133</ele><time>2025-09-29T06:49:18Z</time></trkpt>
      <trkpt lat="38.934279" lon="113.538964"><ele>2162</ele><time>2025-09-29T06:53:16Z</time></trkpt>
      <trkpt lat="38.934" lon="113.538979"><ele>2171</ele><time>2025-09-29T06:55:17Z</time></trkpt>
      <trkpt lat="38.933027" lon="113.538697"><ele>2214</ele><time>2025-09-29T07:01:52Z</time></trkpt>
      <trkpt lat="38.932631" lon="113.538427"><ele>2232</ele><time>2025-09-29T07:05:09Z</time></trkpt>
      <trkpt lat="38.932449" lon="113.538458"><ele>2242</ele><time>2025-09-29T07:06:41Z</time></trkpt>
      <trkpt lat="38.931995" lon="113.538325"><ele>2261</ele><time>2025-09-29T07:10:23Z</time></trkpt>
      <trkpt lat="38.931816" lon="113.538355"><ele>2269</ele><time>2025-09-29T07:11:11Z</time></trkpt>
      <trkpt lat="38.931547" lon="113.538267"><ele>2278</ele><time>2025-09-29T07:12:46Z</time></trkpt>
      <trkpt lat="38.931169" lon="113.538336"><ele>2292</ele><time>2025-09-29T07:14:42Z</time></trkpt>
      <trkpt lat="38.930839" lon="113.538505"><ele>2302</ele><time>2025-09-29T07:15:49Z</time></trkpt>
      <trkpt lat="38.930377" lon="113.53845"><ele>2318</ele><time>2025-09-29T07:21:00Z</time></trkpt>
      <trkpt lat="38.929938" lon="113.538254"><ele>2323</ele><time>2025-09-29T07:22:09Z</time></trkpt>
      <trkpt lat="38.929163" lon="113.538055"><ele>2329</ele><time>2025-09-29T07:23:50Z</time></trkpt>
      <trkpt lat="38.928201" lon="113.537628"><ele>2336</ele><time>2025-09-29T07:25:46Z</time></trkpt>
      <trkpt lat="38.927295" lon="113.537448"><ele>2361</ele><time>2025-09-29T07:30:46Z</time></trkpt>
      <trkpt lat="38.926754" lon="113.537255"><ele>2375</ele><time>2025-09-29T07:32:24Z</time></trkpt>
      <trkpt lat="38.926524" lon="113.537051"><ele>2381</ele><time>2025-09-29T07:33:03Z</time></trkpt>
      <trkpt lat="38.926068" lon="113.536459"><ele>2400</ele><time>2025-09-29T07:35:49Z</time></trkpt>
      <trkpt lat="38.926011" lon="113.536112"><ele>2408</ele><time>2025-09-29T07:36:55Z</time></trkpt>
      <trkpt lat="38.925587" lon="113.535905"><ele>2422</ele><time>2025-09-29T07:38:17Z</time></trkpt>
      <trkpt lat="38.925308" lon="113.535884"><ele>2429</ele><time>2025-09-29T07:39:22Z</time></trkpt>
      <trkpt lat="38.924857" lon="113.535694"><ele>2440</ele><time>2025-09-29T07:40:52Z</time></trkpt>
      <trkpt lat="38.924358" lon="113.535154"><ele>2454</ele><time>2025-09-29T07:42:46Z</time></trkpt>
      <trkpt lat="38.923951" lon="113.53489"><ele>2458</ele><time>2025-09-29T07:43:55Z</time></trkpt>
      <trkpt lat="38.924046" lon="113.534883"><ele>2459</ele><time>2025-09-29T07:50:55Z</time></trkpt>
      <trkpt lat="38.924042" lon="113.534758"><ele>2463</ele><time>2025-09-29T07:51:05Z</time></trkpt>
      <trkpt lat="38.923794" lon="113.534538"><ele>2460</ele><time>2025-09-29T07:53:06Z</time></trkpt>
      <trkpt lat="38.923833" lon="113.534429"><ele>2464</ele><time>2025-09-29T07:53:20Z</time></trkpt>
      <trkpt lat="38.924179" lon="113.534234"><ele>2474</ele><time>2025-09-29T07:54:28Z</time></trkpt>
      <trkpt lat="38.924355" lon="113.534023"><ele>2477</ele><time>2025-09-29T07:55:11Z</time></trkpt>
      <trkpt lat="38.924451" lon="113.533976"><ele>2476</ele><time>2025-09-29T07:55:22Z</time></trkpt>
      <trkpt lat="38.924534" lon="113.534025"><ele>2472</ele><time>2025-09-29T07:55:43Z</time></trkpt>
      <trkpt lat="38.924587" lon="113.533931"><ele>2475</ele><time>2025-09-29T07:56:34Z</time></trkpt>
      <trkpt lat="38.924422" lon="113.534039"><ele>2476</ele><time>2025-09-29T07:58:34Z</time></trkpt>
      <trkpt lat="38.92453" lon="113.534036"><ele>2477</ele><time>2025-09-29T07:58:47Z</time></trkpt>
      <trkpt lat="38.924421" lon="113.534036"><ele>2474</ele><time>2025-09-29T07:59:38Z</time></trkpt>
      <trkpt lat="38.924493" lon="113.533918"><ele>2475</ele><time>2025-09-29T08:00:26Z</time></trkpt>
      <trkpt lat="38.924313" lon="113.534005"><ele>2477</ele><time>2025-09-29T08:01:17Z</time></trkpt>
      <trkpt lat="38.924175" lon="113.534221"><ele>2476</ele><time>2025-09-29T08:01:48Z</time></trkpt>
      <trkpt lat="38.923842" lon="113.534452"><ele>2465</ele><time>2025-09-29T08:02:51Z</time></trkpt>
      <trkpt lat="38.924095" lon="113.534806"><ele>2462</ele><time>2025-09-29T08:03:28Z</time></trkpt>
      <trkpt lat="38.923958" lon="113.534939"><ele>2457</ele><time>2025-09-29T08:03:54Z</time></trkpt>
      <trkpt lat="38.923563" lon="113.534641"><ele>2453</ele><time>2025-09-29T08:10:38Z</time></trkpt>
      <trkpt lat="38.923116" lon="113.534037"><ele>2443</ele><time>2025-09-29T08:11:54Z</time></trkpt>
      <trkpt lat="38.923235" lon="113.533725"><ele>2440</ele><time>2025-09-29T08:12:35Z</time></trkpt>
      <trkpt lat="38.923315" lon="113.533659"><ele>2438</ele><time>2025-09-29T08:13:26Z</time></trkpt>
      <trkpt lat="38.923364" lon="113.533427"><ele>2433</ele><time>2025-09-29T08:13:48Z</time></trkpt>
      <trkpt lat="38.923353" lon="113.53295"><ele>2422</ele><time>2025-09-29T08:14:40Z</time></trkpt>
      <trkpt lat="38.923691" lon="113.531834"><ele>2400</ele><time>2025-09-29T08:16:40Z</time></trkpt>
      <trkpt lat="38.923913" lon="113.530283"><ele>2369</ele><time>2025-09-29T08:19:39Z</time></trkpt>
      <trkpt lat="38.924089" lon="113.529743"><ele>2358</ele><time>2025-09-29T08:21:29Z</time></trkpt>
      <trkpt lat="38.924496" lon="113.52923"><ele>2355</ele><time>2025-09-29T08:22:38Z</time></trkpt>
      <trkpt lat="38.925149" lon="113.528155"><ele>2348</ele><time>2025-09-29T08:24:19Z</time></trkpt>
      <trkpt lat="38.925264" lon="113.527565"><ele>2343</ele><time>2025-09-29T08:25:08Z</time></trkpt>
      <trkpt lat="38.925503" lon="113.526898"><ele>2338</ele><time>2025-09-29T08:26:06Z</time></trkpt>
      <trkpt lat="38.927456" lon="113.524633"><ele>2287</ele><time>2025-09-29T08:31:22Z</time></trkpt>
      <trkpt lat="38.928099" lon="113.52326"><ele>2284</ele><time>2025-09-29T08:33:42Z</time></trkpt>
      <trkpt lat="38.928308" lon="113.522193"><ele>2281</ele><time>2025-09-29T08:35:29Z</time></trkpt>
      <trkpt lat="38.928639" lon="113.521317"><ele>2276</ele><time>2025-09-29T08:36:41Z</time></trkpt>
      <trkpt lat="38.92866" lon="113.521071"><ele>2275</ele><time>2025-09-29T08:36:59Z</time></trkpt>
      <trkpt lat="38.928587" lon="113.520336"><ele>2272</ele><time>2025-09-29T08:37:53Z</time></trkpt>
      <trkpt lat="38.928618" lon="113.519978"><ele>2271</ele><time>2025-09-29T08:38:20Z</time></trkpt>
      <trkpt lat="38.928496" lon="113.519246"><ele>2270</ele><time>2025-09-29T08:39:17Z</time></trkpt>
      <trkpt lat="38.927931" lon="113.518077"><ele>2265</ele><time>2025-09-29T08:40:55Z</time></trkpt>
      <trkpt lat="38.92774" lon="113.517393"><ele>2262</ele><time>2025-09-29T08:41:46Z</time></trkpt>
      <trkpt lat="38.927744" lon="113.517036"><ele>2259</ele><time>2025-09-29T08:42:11Z</time></trkpt>
      <trkpt lat="38.927837" lon="113.516701"><ele>2257</ele><time>2025-09-29T08:42:37Z</time></trkpt>
      <trkpt lat="38.928186" lon="113.516282"><ele>2255</ele><time>2025-09-29T08:43:29Z</time></trkpt>
      <trkpt lat="38.928356" lon="113.51619"><ele>2254</ele><time>2025-09-29T08:43:51Z</time></trkpt>
      <trkpt lat="38.928927" lon="113.516198"><ele>2252</ele><time>2025-09-29T08:44:53Z</time></trkpt>
      <trkpt lat="38.930193" lon="113.516717"><ele>2256</ele><time>2025-09-29T08:47:42Z</time></trkpt>
      <trkpt lat="38.931516" lon="113.516975"><ele>2256</ele><time>2025-09-29T08:49:57Z</time></trkpt>
      <trkpt lat="38.93194" lon="113.517224"><ele>2254</ele><time>2025-09-29T08:50:44Z</time></trkpt>
      <trkpt lat="38.93304" lon="113.517509"><ele>2253</ele><time>2025-09-29T08:52:35Z</time></trkpt>
      <trkpt lat="38.933424" lon="113.517532"><ele>2251</ele><time>2025-09-29T08:53:15Z</time></trkpt>
      <trkpt lat="38.934348" lon="113.517317"><ele>2243</ele><time>2025-09-29T08:55:00Z</time></trkpt>
      <trkpt lat="38.934905" lon="113.516863"><ele>2234</ele><time>2025-09-29T08:56:09Z</time></trkpt>
      <trkpt lat="38.935246" lon="113.516285"><ele>2226</ele><time>2025-09-29T08:57:35Z</time></trkpt>
      <trkpt lat="38.935802" lon="113.515642"><ele>2219</ele><time>2025-09-29T08:59:19Z</time></trkpt>
      <trkpt lat="38.936069" lon="113.515147"><ele>2211</ele><time>2025-09-29T09:00:43Z</time></trkpt>
      <trkpt lat="38.936833" lon="113.514652"><ele>2199</ele><time>2025-09-29T09:02:24Z</time></trkpt>
      <trkpt lat="38.93721" lon="113.514299"><ele>2189</ele><time>2025-09-29T09:03:25Z</time></trkpt>
      <trkpt lat="38.937663" lon="113.514218"><ele>2186</ele><time>2025-09-29T09:04:15Z</time></trkpt>
      <trkpt lat="38.939453" lon="113.513401"><ele>2182</ele><time>2025-09-29T09:07:50Z</time></trkpt>
      <trkpt lat="38.940268" lon="113.512979"><ele>2181</ele><time>2025-09-29T09:09:24Z</time></trkpt>
      <trkpt lat="38.941304" lon="113.512082"><ele>2182</ele><time>2025-09-29T09:11:20Z</time></trkpt>
      <trkpt lat="38.941863" lon="113.511904"><ele>2181</ele><time>2025-09-29T09:12:12Z</time></trkpt>
      <trkpt lat="38.942954" lon="113.511396"><ele>2179</ele><time>2025-09-29T09:13:55Z</time></trkpt>
      <trkpt lat="38.943327" lon="113.51103"><ele>2180</ele><time>2025-09-29T09:14:37Z</time></trkpt>
      <trkpt lat="38.945346" lon="113.508641"><ele>2179</ele><time>2025-09-29T09:19:21Z</time></trkpt>
      <trkpt lat="38.945622" lon="113.508142"><ele>2177</ele><time>2025-09-29T09:20:18Z</time></trkpt>
      <trkpt lat="38.945731" lon="113.507816"><ele>2179</ele><time>2025-09-29T09:20:49Z</time></trkpt>
      <trkpt lat="38.945897" lon="113.507718"><ele>2178</ele><time>2025-09-29T09:21:09Z</time></trkpt>
      <trkpt lat="38.946254" lon="113.507136"><ele>2175</ele><time>2025-09-29T09:22:05Z</time></trkpt>
      <trkpt lat="38.946598" lon="113.506727"><ele>2172</ele><time>2025-09-29T09:22:54Z</time></trkpt>
      <trkpt lat="38.946754" lon="113.506597"><ele>2172</ele><time>2025-09-29T09:23:13Z</time></trkpt>
      <trkpt lat="38.946833" lon="113.506656"><ele>2169</ele><time>2025-09-29T09:23:28Z</time></trkpt>
      <trkpt lat="38.947016" lon="113.506635"><ele>2166</ele><time>2025-09-29T09:23:47Z</time></trkpt>
      <trkpt lat="38.947577" lon="113.506191"><ele>2156</ele><time>2025-09-29T09:25:02Z</time></trkpt>
      <trkpt lat="38.947915" lon="113.505765"><ele>2149</ele><time>2025-09-29T09:25:55Z</time></trkpt>
      <trkpt lat="38.948473" lon="113.505331"><ele>2137</ele><time>2025-09-29T09:27:05Z</time></trkpt>
      <trkpt lat="38.948666" lon="113.505357"><ele>2133</ele><time>2025-09-29T09:27:52Z</time></trkpt>
      <trkpt lat="38.948895" lon="113.505552"><ele>2126</ele><time>2025-09-29T09:28:24Z</time></trkpt>
      <trkpt lat="38.949173" lon="113.505622"><ele>2123</ele><time>2025-09-29T09:29:34Z</time></trkpt>
      <trkpt lat="38.949936" lon="113.505598"><ele>2117</ele><time>2025-09-29T09:31:14Z</time></trkpt>
      <trkpt lat="38.950098" lon="113.505739"><ele>2113</ele><time>2025-09-29T09:31:35Z</time></trkpt>
      <trkpt lat="38.950349" lon="113.506382"><ele>2102</ele><time>2025-09-29T09:32:40Z</time></trkpt>
      <trkpt lat="38.950423" lon="113.506452"><ele>2100</ele><time>2025-09-29T09:32:51Z</time></trkpt>
      <trkpt lat="38.951479" lon="113.506964"><ele>2076</ele><time>2025-09-29T09:35:21Z</time></trkpt>
      <trkpt lat="38.951713" lon="113.507157"><ele>2068</ele><time>2025-09-29T09:35:57Z</time></trkpt>
      <trkpt lat="38.951806" lon="113.507345"><ele>2064</ele><time>2025-09-29T09:36:21Z</time></trkpt>
      <trkpt lat="38.95242" lon="113.507008"><ele>2054</ele><time>2025-09-29T09:37:42Z</time></trkpt>
      <trkpt lat="38.95297" lon="113.506907"><ele>2038</ele><time>2025-09-29T09:38:57Z</time></trkpt>
      <trkpt lat="38.953034" lon="113.506997"><ele>2035</ele><time>2025-09-29T09:39:11Z</time></trkpt>
      <trkpt lat="38.95331" lon="113.507049"><ele>2030</ele><time>2025-09-29T09:39:52Z</time></trkpt>
      <trkpt lat="38.953864" lon="113.506912"><ele>2017</ele><time>2025-09-29T09:41:13Z</time></trkpt>
      <trkpt lat="38.954045" lon="113.507177"><ele>2009</ele><time>2025-09-29T09:41:49Z</time></trkpt>
      <trkpt lat="38.954223" lon="113.507243"><ele>2006</ele><time>2025-09-29T09:42:26Z</time></trkpt>
      <trkpt lat="38.954685" lon="113.507126"><ele>1998</ele><time>2025-09-29T09:43:46Z</time></trkpt>
      <trkpt lat="38.95555" lon="113.506469"><ele>1979</ele><time>2025-09-29T09:45:53Z</time></trkpt>
      <trkpt lat="38.956458" lon="113.5062"><ele>1958</ele><time>2025-09-29T09:47:42Z</time></trkpt>
      <trkpt lat="38.956963" lon="113.505913"><ele>1950</ele><time>2025-09-29T09:48:50Z</time></trkpt>
      <trkpt lat="38.957095" lon="113.505741"><ele>1946</ele><time>2025-09-29T09:49:26Z</time></trkpt>
      <trkpt lat="38.95783" lon="113.505181"><ele>1939</ele><time>2025-09-29T09:51:09Z</time></trkpt>
      <trkpt lat="38.958749" lon="113.504872"><ele>1931</ele><time>2025-09-29T09:52:56Z</time></trkpt>
      <trkpt lat="38.958784" lon="113.504755"><ele>1927</ele><time>2025-09-29T09:53:28Z</time></trkpt>
      <trkpt lat="38.959125" lon="113.504545"><ele>1923</ele><time>2025-09-29T09:54:36Z</time></trkpt>
      <trkpt lat="38.959356" lon="113.504732"><ele>1922</ele><time>2025-09-29T09:55:13Z</time></trkpt>
      <trkpt lat="38.959818" lon="113.504877"><ele>1927</ele><time>2025-09-29T09:56:10Z</time></trkpt>
      <trkpt lat="38.959957" lon="113.505016"><ele>1932</ele><time>2025-09-29T09:56:31Z</time></trkpt>
      <trkpt lat="38.960047" lon="113.504975"><ele>1936</ele><time>2025-09-29T09:56:46Z</time></trkpt>
      <trkpt lat="38.960152" lon="113.504772"><ele>1941</ele><time>2025-09-29T09:57:18Z</time></trkpt>
      <trkpt lat="38.960148" lon="113.504295"><ele>1946</ele><time>2025-09-29T09:58:05Z</time></trkpt>
      <trkpt lat="38.960208" lon="113.504198"><ele>1948</ele><time>2025-09-29T09:58:16Z</time></trkpt>
      <trkpt lat="38.960399" lon="113.504193"><ele>1952</ele><time>2025-09-29T09:58:40Z</time></trkpt>
      <trkpt lat="38.960709" lon="113.504435"><ele>1958</ele><time>2025-09-29T09:59:26Z</time></trkpt>
      <trkpt lat="38.960798" lon="113.504408"><ele>1957</ele><time>2025-09-29T09:59:37Z</time></trkpt>
      <trkpt lat="38.960909" lon="113.504733"><ele>1948</ele><time>2025-09-29T10:00:22Z</time></trkpt>
      <trkpt lat="38.960855" lon="113.504837"><ele>1947</ele><time>2025-09-29T10:00:33Z</time></trkpt>
      <trkpt lat="38.960559" lon="113.504835"><ele>1947</ele><time>2025-09-29T10:00:59Z</time></trkpt>
      <trkpt lat="38.960485" lon="113.504767"><ele>1948</ele><time>2025-09-29T10:01:14Z</time></trkpt>
      <trkpt lat="38.960579" lon="113.504776"><ele>1948</ele><time>2025-09-29T10:01:30Z</time></trkpt>
      <trkpt lat="38.9606" lon="113.504663"><ele>1953</ele><time>2025-09-29T10:02:05Z</time></trkpt>
      <trkpt lat="38.960687" lon="113.504873"><ele>1950</ele><time>2025-09-29T10:04:27Z</time></trkpt>
      <trkpt lat="38.960882" lon="113.504872"><ele>1951</ele><time>2025-09-29T10:04:44Z</time></trkpt>
      <trkpt lat="38.960968" lon="113.504551"><ele>1953</ele><time>2025-09-29T10:05:56Z</time></trkpt>
      <trkpt lat="38.960903" lon="113.504638"><ele>1951</ele><time>2025-09-29T10:08:41Z</time></trkpt>
      <trkpt lat="38.960917" lon="113.504753"><ele>1950</ele><time>2025-09-29T10:08:52Z</time></trkpt>
      <trkpt lat="38.960764" lon="113.504867"><ele>1950</ele><time>2025-09-29T10:09:18Z</time></trkpt>
      <trkpt lat="38.960577" lon="113.504839"><ele>1949</ele><time>2025-09-29T10:09:39Z</time></trkpt>
      <trkpt lat="38.960638" lon="113.504618"><ele>1954</ele><time>2025-09-29T10:11:12Z</time></trkpt>
      <trkpt lat="38.960891" lon="113.504666"><ele>1952</ele><time>2025-09-29T11:43:52Z</time></trkpt>
      <trkpt lat="38.960907" lon="113.504781"><ele>1951</ele><time>2025-09-29T11:44:09Z</time></trkpt>
      <trkpt lat="38.960833" lon="113.504849"><ele>1950</ele><time>2025-09-29T11:44:26Z</time></trkpt>
      <trkpt lat="38.960651" lon="113.504864"><ele>1951</ele><time>2025-09-29T11:44:45Z</time></trkpt>
      <trkpt lat="38.960556" lon="113.504846"><ele>1952</ele><time>2025-09-29T11:45:02Z</time></trkpt>
      <trkpt lat="38.96061" lon="113.504622"><ele>1951</ele><time>2025-09-29T11:45:41Z</time></trkpt>
    </trkseg>
  </trk>
</gpx>
