<?xml version="1.0" encoding="UTF-8"?>
<gpx version="1.1" creator="MyWorld" xmlns="http://www.topografix.com/GPX/1/1">
  <metadata><name>杭州长乐林场</name></metadata>
  <trk>
    <name>杭州长乐林场</name>
    <trkseg>
      <trkpt lat="30.316909" lon="119.865272"><ele>49</ele><time>2025-10-07T00:35:17Z</time></trkpt>
      <trkpt lat="30.316567" lon="119.865053"><ele>52</ele><time>2025-10-07T00:35:54Z</time></trkpt>
      <trkpt lat="30.316707" lon="119.8652"><ele>51</ele><time>2025-10-07T00:36:23Z</time></trkpt>
      <trkpt lat="30.316464" lon="119.865519"><ele>45</ele><time>2025-10-07T00:37:06Z</time></trkpt>
      <trkpt lat="30.316079" lon="119.865192"><ele>44</ele><time>2025-10-07T00:37:53Z</time></trkpt>
      <trkpt lat="30.315896" lon="119.86495"><ele>47</ele><time>2025-10-07T00:38:23Z</time></trkpt>
      <trkpt lat="30.3159" lon="119.864842"><ele>47</ele><time>2025-10-07T00:38:36Z</time></trkpt>
      <trkpt lat="30.316072" lon="119.864555"><ele>53</ele><time>2025-10-07T00:39:06Z</time></trkpt>
      <trkpt lat="30.316041" lon="119.864337"><ele>55</ele><time>2025-10-07T00:39:23Z</time></trkpt>
      <trkpt lat="30.316262" lon="119.863736"><ele>60</ele><time>2025-10-07T00:40:26Z</time></trkpt>
      <trkpt lat="30.316404" lon="119.863591"><ele>63</ele><time>2025-10-07T00:40:53Z</time></trkpt>
      <trkpt lat="30.316581" lon="119.863537"><ele>65</ele><time>2025-10-07T00:41:18Z</time></trkpt>
      <trkpt lat="30.316617" lon="119.863738"><ele>71</ele><time>2025-10-07T00:41:54Z</time></trkpt>
      <trkpt lat="30.316755" lon="119.86387"><ele>77</ele><time>2025-10-07T00:42:20Z</time></trkpt>
      <trkpt lat="30.317364" lon="119.863588"><ele>95</ele><time>2025-10-07T00:44:21Z</time></trkpt>
      <trkpt lat="30.317984" lon="119.863399"><ele>122</ele><time>2025-10-07T00:47:03Z</time></trkpt>
      <trkpt lat="30.318214" lon="119.863236"><ele>131</ele><time>2025-10-07T00:48:24Z</time></trkpt>
      <trkpt lat="30.318512" lon="119.862823"><ele>137</ele><time>2025-10-07T00:49:29Z</time></trkpt>
      <trkpt lat="30.318879" lon="119.861959"><ele>167</ele><time>2025-10-07T00:53:18Z</time></trkpt>
      <trkpt lat="30.318751" lon="119.861559"><ele>176</ele><time>2025-10-07T00:55:17Z</time></trkpt>
      <trkpt lat="30.318816" lon="119.860811"><ele>190</ele><time>2025-10-07T00:57:19Z</time></trkpt>
      <trkpt lat="30.318591" lon="119.860354"><ele>191</ele><time>2025-10-07T00:58:22Z</time></trkpt>
      <trkpt lat="30.318517" lon="119.860052"><ele>193</ele><time>2025-10-07T00:59:16Z</time></trkpt>
      <trkpt lat="30.318642" lon="119.859643"><ele>190</ele><time>2025-10-07T01:00:43Z</time></trkpt>
      <trkpt lat="30.3186" lon="119.85921"><ele>184</ele><time>2025-10-07T01:01:28Z</time></trkpt>
      <trkpt lat="30.318773" lon="119.858376"><ele>179</ele><time>2025-10-07T01:02:56Z</time></trkpt>
      <trkpt lat="30.31919" lon="119.857413"><ele>186</ele><time>2025-10-07T01:06:07Z</time></trkpt>
      <trkpt lat="30.318883" lon="119.856086"><ele>192</ele><time>2025-10-07T01:09:10Z</time></trkpt>
      <trkpt lat="30.318925" lon="119.855334"><ele>193</ele><time>2025-10-07T01:10:39Z</time></trkpt>
      <trkpt lat="30.319042" lon="119.854692"><ele>181</ele><time>2025-10-07T01:11:47Z</time></trkpt>
      <trkpt lat="30.319728" lon="119.854374"><ele>149</ele><time>2025-10-07T01:17:19Z</time></trkpt>
      <trkpt lat="30.320235" lon="119.853917"><ele>124</ele><time>2025-10-07T01:21:29Z</time></trkpt>
      <trkpt lat="30.320478" lon="119.853462"><ele>112</ele><time>2025-10-07T01:22:34Z</time></trkpt>
      <trkpt lat="30.320583" lon="119.853045"><ele>111</ele><time>2025-10-07T01:23:29Z</time></trkpt>
      <trkpt lat="30.321249" lon="119.852128"><ele>136</ele><time>2025-10-07T01:27:00Z</time></trkpt>
      <trkpt lat="30.32065" lon="119.851783"><ele>141</ele><time>2025-10-07T01:28:29Z</time></trkpt>
      <trkpt lat="30.320129" lon="119.85133"><ele>157</ele><time>2025-10-07T01:29:54Z</time></trkpt>
      <trkpt lat="30.320064" lon="119.851004"><ele>161</ele><time>2025-10-07T01:31:23Z</time></trkpt>
      <trkpt lat="30.31954" lon="119.850381"><ele>161</ele><time>2025-10-07T01:32:58Z</time></trkpt>
      <trkpt lat="30.31952" lon="119.850068"><ele>163</ele><time>2025-10-07T01:33:50Z</time></trkpt>
      <trkpt lat="30.319402" lon="119.849772"><ele>163</ele><time>2025-10-07T01:34:27Z</time></trkpt>
      <trkpt lat="30.318767" lon="119.848849"><ele>158</ele><time>2025-10-07T01:36:48Z</time></trkpt>
      <trkpt lat="30.318701" lon="119.848541"><ele>165</ele><time>2025-10-07T01:37:44Z</time></trkpt>
      <trkpt lat="30.318704" lon="119.848124"><ele>179</ele><time>2025-10-07T01:38:44Z</time></trkpt>
      <trkpt lat="30.318404" lon="119.847559"><ele>198</ele><time>2025-10-07T01:41:53Z</time></trkpt>
      <trkpt lat="30.318508" lon="119.847153"><ele>214</ele><time>2025-10-07T01:45:18Z</time></trkpt>
      <trkpt lat="30.318447" lon="119.846949"><ele>215</ele><time>2025-10-07T01:45:46Z</time></trkpt>
      <trkpt lat="30.318036" lon="119.846511"><ele>226</ele><time>2025-10-07T01:47:11Z</time></trkpt>
      <trkpt lat="30.317886" lon="119.846237"><ele>236</ele><time>2025-10-07T01:47:59Z</time></trkpt>
      <trkpt lat="30.317618" lon="119.846189"><ele>236</ele><time>2025-10-07T01:52:54Z</time></trkpt>
      <trkpt lat="30.317193" lon="119.84577"><ele>235</ele><time>2025-10-07T01:55:02Z</time></trkpt>
      <trkpt lat="30.31705" lon="119.84549"><ele>240</ele><time>2025-10-07T01:55:43Z</time></trkpt>
      <trkpt lat="30.316334" lon="119.844804"><ele>255</ele><time>2025-10-07T01:57:35Z</time></trkpt>
      <trkpt lat="30.316276" lon="119.844372"><ele>259</ele><time>2025-10-07T01:59:07Z</time></trkpt>
      <trkpt lat="30.316182" lon="119.844187"><ele>263</ele><time>2025-10-07T01:59:30Z</time></trkpt>
      <trkpt lat="30.31569" lon="119.843863"><ele>279</ele><time>2025-10-07T02:02:47Z</time></trkpt>
      <trkpt lat="30.315176" lon="119.843415"><ele>322</ele><time>2025-10-07T02:10:55Z</time></trkpt>
      <trkpt lat="30.314738" lon="119.843279"><ele>352</ele><time>2025-10-07T02:15:34Z</time></trkpt>
      <trkpt lat="30.314569" lon="119.843338"><ele>365</ele><time>2025-10-07T02:20:47Z</time></trkpt>
      <trkpt lat="30.314395" lon="119.84327"><ele>376</ele><time>2025-10-07T02:22:17Z</time></trkpt>
      <trkpt lat="30.314121" lon="119.842984"><ele>382</ele><time>2025-10-07T02:24:17Z</time></trkpt>
      <trkpt lat="30.314143" lon="119.842768"><ele>381</ele><time>2025-10-07T02:25:00Z</time></trkpt>
      <trkpt lat="30.31403" lon="119.842351"><ele>377</ele><time>2025-10-07T02:27:17Z</time></trkpt>
      <trkpt lat="30.313961" lon="119.842424"><ele>372</ele><time>2025-10-07T02:28:45Z</time></trkpt>
      <trkpt lat="30.313774" lon="119.842406"><ele>371</ele><time>2025-10-07T02:31:45Z</time></trkpt>
      <trkpt lat="30.313624" lon="119.842516"><ele>366</ele><time>2025-10-07T02:35:08Z</time></trkpt>
      <trkpt lat="30.313552" lon="119.842442"><ele>371</ele><time>2025-10-07T02:36:34Z</time></trkpt>
      <trkpt lat="30.313419" lon="119.842559"><ele>357</ele><time>2025-10-07T02:39:18Z</time></trkpt>
      <trkpt lat="30.312605" lon="119.842401"><ele>300</ele><time>2025-10-07T02:48:57Z</time></trkpt>
      <trkpt lat="30.311964" lon="119.842486"><ele>275</ele><time>2025-10-07T02:54:07Z</time></trkpt>
      <trkpt lat="30.312414" lon="119.842866"><ele>278</ele><time>2025-10-07T02:55:41Z</time></trkpt>
      <trkpt lat="30.312545" lon="119.843163"><ele>276</ele><time>2025-10-07T02:56:17Z</time></trkpt>
      <trkpt lat="30.312926" lon="119.843611"><ele>279</ele><time>2025-10-07T02:57:19Z</time></trkpt>
      <trkpt lat="30.312961" lon="119.84382"><ele>279</ele><time>2025-10-07T02:57:46Z</time></trkpt>
      <trkpt lat="30.312664" lon="119.844613"><ele>268</ele><time>2025-10-07T02:59:31Z</time></trkpt>
      <trkpt lat="30.312605" lon="119.844698"><ele>268</ele><time>2025-10-07T02:59:41Z</time></trkpt>
      <trkpt lat="30.312266" lon="119.844844"><ele>254</ele><time>2025-10-07T03:01:50Z</time></trkpt>
      <trkpt lat="30.312138" lon="119.845126"><ele>242</ele><time>2025-10-07T03:05:03Z</time></trkpt>
      <trkpt lat="30.312174" lon="119.845443"><ele>229</ele><time>2025-10-07T03:06:50Z</time></trkpt>
      <trkpt lat="30.311882" lon="119.845856"><ele>218</ele><time>2025-10-07T03:08:04Z</time></trkpt>
      <trkpt lat="30.311773" lon="119.846377"><ele>202</ele><time>2025-10-07T03:09:32Z</time></trkpt>
      <trkpt lat="30.311641" lon="119.846661"><ele>192</ele><time>2025-10-07T03:10:50Z</time></trkpt>
      <trkpt lat="30.311237" lon="119.846943"><ele>183</ele><time>2025-10-07T03:12:16Z</time></trkpt>
      <trkpt lat="30.311135" lon="119.847124"><ele>180</ele><time>2025-10-07T03:12:37Z</time></trkpt>
      <trkpt lat="30.311108" lon="119.847654"><ele>171</ele><time>2025-10-07T03:13:48Z</time></trkpt>
      <trkpt lat="30.311163" lon="119.847985"><ele>158</ele><time>2025-10-07T03:15:04Z</time></trkpt>
      <trkpt lat="30.311113" lon="119.848958"><ele>143</ele><time>2025-10-07T03:17:56Z</time></trkpt>
      <trkpt lat="30.310788" lon="119.849474"><ele>123</ele><time>2025-10-07T03:22:16Z</time></trkpt>
      <trkpt lat="30.310255" lon="119.85096"><ele>124</ele><time>2025-10-07T03:27:35Z</time></trkpt>
      <trkpt lat="30.310283" lon="119.851288"><ele>125</ele><time>2025-10-07T03:28:05Z</time></trkpt>
      <trkpt lat="30.310395" lon="119.851462"><ele>128</ele><time>2025-10-07T03:28:28Z</time></trkpt>
      <trkpt lat="30.310514" lon="119.851865"><ele>129</ele><time>2025-10-07T03:29:06Z</time></trkpt>
      <trkpt lat="30.31056" lon="119.852623"><ele>147</ele><time>2025-10-07T03:30:41Z</time></trkpt>
      <trkpt lat="30.310419" lon="119.852756"><ele>145</ele><time>2025-10-07T03:31:42Z</time></trkpt>
      <trkpt lat="30.310328" lon="119.852732"><ele>145</ele><time>2025-10-07T03:31:58Z</time></trkpt>
      <trkpt lat="30.310113" lon="119.852934"><ele>137</ele><time>2025-10-07T03:33:03Z</time></trkpt>
      <trkpt lat="30.309818" lon="119.853852"><ele>122</ele><time>2025-10-07T03:35:18Z</time></trkpt>
      <trkpt lat="30.309592" lon="119.854189"><ele>115</ele><time>2025-10-07T03:36:16Z</time></trkpt>
      <trkpt lat="30.309382" lon="119.854804"><ele>118</ele><time>2025-10-07T03:37:22Z</time></trkpt>
      <trkpt lat="30.308694" lon="119.855364"><ele>104</ele><time>2025-10-07T03:39:12Z</time></trkpt>
      <trkpt lat="30.30847" lon="119.855718"><ele>108</ele><time>2025-10-07T03:39:53Z</time></trkpt>
      <trkpt lat="30.308104" lon="119.856078"><ele>108</ele><time>2025-10-07T03:40:41Z</time></trkpt>
      <trkpt lat="30.307996" lon="119.856391"><ele>107</ele><time>2025-10-07T03:41:12Z</time></trkpt>
      <trkpt lat="30.308081" lon="119.857149"><ele>107</ele><time>2025-10-07T03:42:22Z</time></trkpt>
      <trkpt lat="30.308377" lon="119.857686"><ele>110</ele><time>2025-10-07T03:43:25Z</time></trkpt>
      <trkpt lat="30.308419" lon="119.858111"><ele>107</ele><time>2025-10-07T03:44:02Z</time></trkpt>
      <trkpt lat="30.308296" lon="119.858654"><ele>103</ele><time>2025-10-07T03:44:53Z</time></trkpt>
      <trkpt lat="30.308303" lon="119.859192"><ele>94</ele><time>2025-10-07T03:46:01Z</time></trkpt>
      <trkpt lat="30.308456" lon="119.859452"><ele>86</ele><time>2025-10-07T03:46:50Z</time></trkpt>
      <trkpt lat="30.30867" lon="119.860172"><ele>80</ele><time>2025-10-07T03:48:13Z</time></trkpt>
      <trkpt lat="30.309004" lon="119.860545"><ele>62</ele><time>2025-10-07T03:49:48Z</time></trkpt>
      <trkpt lat="30.308854" lon="119.860662"><ele>60</ele><time>2025-10-07T03:52:21Z</time></trkpt>
      <trkpt lat="30.308908" lon="119.860749"><ele>57</ele><time>2025-10-07T03:54:23Z</time></trkpt>
      <trkpt lat="30.309007" lon="119.860759"><ele>54</ele><time>2025-10-07T03:54:59Z</time></trkpt>
      <trkpt lat="30.309319" lon="119.86116"><ele>52</ele><time>2025-10-07T03:56:19Z</time></trkpt>
      <trkpt lat="30.309803" lon="119.862091"><ele>61</ele><time>2025-10-07T03:59:25Z</time></trkpt>
      <trkpt lat="30.310209" lon="119.862339"><ele>70</ele><time>2025-10-07T04:01:19Z</time></trkpt>
      <trkpt lat="30.310668" lon="119.862426"><ele>65</ele><time>2025-10-07T04:02:51Z</time></trkpt>
      <trkpt lat="30.310819" lon="119.862549"><ele>66</ele><time>2025-10-07T04:03:11Z</time></trkpt>
      <trkpt lat="30.310841" lon="119.862442"><ele>63</ele><time>2025-10-07T04:03:24Z</time></trkpt>
      <trkpt lat="30.310509" lon="119.861662"><ele>59</ele><time>2025-10-07T04:04:35Z</time></trkpt>
      <trkpt lat="30.310528" lon="119.861445"><ele>56</ele><time>2025-10-07T04:04:54Z</time></trkpt>
      <trkpt lat="30.310915" lon="119.861115"><ele>57</ele><time>2025-10-07T04:05:39Z</time></trkpt>
      <trkpt lat="30.311104" lon="119.861114"><ele>58</ele><time>2025-10-07T04:06:00Z</time></trkpt>
      <trkpt lat="30.311225" lon="119.860959"><ele>58</ele><time>2025-10-07T04:06:16Z</time></trkpt>
      <trkpt lat="30.311472" lon="119.860805"><ele>58</ele><time>2025-10-07T04:06:43Z</time></trkpt>
      <trkpt lat="30.312" lon="119.860607"><ele>57</ele><time>2025-10-07T04:07:39Z</time></trkpt>
      <trkpt lat="30.312174" lon="119.860676"><ele>56</ele><time>2025-10-07T04:08:00Z</time></trkpt>
      <trkpt lat="30.312375" lon="119.861159"><ele>57</ele><time>2025-10-07T04:08:47Z</time></trkpt>
      <trkpt lat="30.312531" lon="119.861291"><ele>60</ele><time>2025-10-07T04:09:05Z</time></trkpt>
      <trkpt lat="30.312906" lon="119.86136"><ele>64</ele><time>2025-10-07T04:09:41Z</time></trkpt>
      <trkpt lat="30.313236" lon="119.861573"><ele>64</ele><time>2025-10-07T04:10:22Z</time></trkpt>
      <trkpt lat="30.314093" lon="119.861654"><ele>69</ele><time>2025-10-07T04:11:49Z</time></trkpt>
      <trkpt lat="30.314851" lon="119.862098"><ele>60</ele><time>2025-10-07T04:13:06Z</time></trkpt>
      <trkpt lat="30.31506" lon="119.862315"><ele>58</ele><time>2025-10-07T04:13:34Z</time></trkpt>
      <trkpt lat="30.31517" lon="119.862618"><ele>55</ele><time>2025-10-07T04:14:03Z</time></trkpt>
      <trkpt lat="30.315653" lon="119.863406"><ele>55</ele><time>2025-10-07T04:15:23Z</time></trkpt>
      <trkpt lat="30.315817" lon="119.863808"><ele>52</ele><time>2025-10-07T04:16:00Z</time></trkpt>
      <trkpt lat="30.316054" lon="119.864519"><ele>53</ele><time>2025-10-07T04:17:05Z</time></trkpt>
      <trkpt lat="30.315853" lon="119.864891"><ele>45</ele><time>2025-10-07T04:17:43Z</time></trkpt>
      <trkpt lat="30.31588" lon="119.864998"><ele>44</ele><time>2025-10-07T04:17:53Z</time></trkpt>
      <trkpt lat="30.316366" lon="119.865491"><ele>43</ele><time>2025-10-07T04:18:56Z</time></trkpt>
      <trkpt lat="30.316533" lon="119.865748"><ele>43</ele><time>2025-10-07T04:19:27Z</time></trkpt>
      <trkpt lat="30.316899" lon="119.86561"><ele>45</ele><time>2025-10-07T04:20:05Z</time></trkpt>
      <trkpt lat="30.316991" lon="119.865646"><ele>43</ele><time>2025-10-07T04:20:17Z</time></trkpt>
      <trkpt lat="30.316936" lon="119.865561"><ele>42</ele><time>2025-10-07T04:21:36Z</time></trkpt>
      <trkpt lat="30.316524" lon="119.8658"><ele>40</ele><time>2025-10-07T04:21:46Z</time></trkpt>
      <trkpt lat="30.316426" lon="119.865787"><ele>40</ele><time>2025-10-07T04:21:52Z</time></trkpt>
    </trkseg>
  </trk>
</gpx>
