<?xml version="1.0" encoding="UTF-8"?>
<gpx version="1.1" creator="MyWorld" xmlns="http://www.topografix.com/GPX/1/1">
  <metadata><name>香港卫奕信径</name></metadata>
  <trk>
    <name>香港卫奕信径</name>
    <trkseg>
      <trkpt lat="22.257093" lon="114.193667"><ele>209</ele><time>2025-08-24T01:58:22Z</time></trkpt>
      <trkpt lat="22.256983" lon="114.194403"><ele>220</ele><time>2025-08-24T01:59:29Z</time></trkpt>
      <trkpt lat="22.257438" lon="114.195666"><ele>235</ele><time>2025-08-24T02:01:52Z</time></trkpt>
      <trkpt lat="22.257928" lon="114.196272"><ele>248</ele><time>2025-08-24T02:03:11Z</time></trkpt>
      <trkpt lat="22.25808" lon="114.196646"><ele>256</ele><time>2025-08-24T02:03:43Z</time></trkpt>
      <trkpt lat="22.258087" lon="114.196956"><ele>260</ele><time>2025-08-24T02:04:15Z</time></trkpt>
      <trkpt lat="22.257854" lon="114.197284"><ele>266</ele><time>2025-08-24T02:04:54Z</time></trkpt>
      <trkpt lat="22.257699" lon="114.197662"><ele>277</ele><time>2025-08-24T02:07:41Z</time></trkpt>
      <trkpt lat="22.257726" lon="114.198054"><ele>293</ele><time>2025-08-24T02:09:01Z</time></trkpt>
      <trkpt lat="22.257676" lon="114.198139"><ele>302</ele><time>2025-08-24T02:09:45Z</time></trkpt>
      <trkpt lat="22.257359" lon="114.198308"><ele>301</ele><time>2025-08-24T02:10:26Z</time></trkpt>
      <trkpt lat="22.256488" lon="114.197923"><ele>305</ele><time>2025-08-24T02:12:01Z</time></trkpt>
      <trkpt lat="22.255735" lon="114.198505"><ele>329</ele><time>2025-08-24T02:14:35Z</time></trkpt>
      <trkpt lat="22.255248" lon="114.198513"><ele>329</ele><time>2025-08-24T02:15:23Z</time></trkpt>
      <trkpt lat="22.254975" lon="114.198606"><ele>324</ele><time>2025-08-24T02:15:56Z</time></trkpt>
      <trkpt lat="22.254741" lon="114.198774"><ele>327</ele><time>2025-08-24T02:16:26Z</time></trkpt>
      <trkpt lat="22.254404" lon="114.199236"><ele>348</ele><time>2025-08-24T02:18:41Z</time></trkpt>
      <trkpt lat="22.253412" lon="114.199817"><ele>336</ele><time>2025-08-24T02:21:52Z</time></trkpt>
      <trkpt lat="22.253122" lon="114.19986"><ele>338</ele><time>2025-08-24T02:22:22Z</time></trkpt>
      <trkpt lat="22.252642" lon="114.199827"><ele>343</ele><time>2025-08-24T02:23:18Z</time></trkpt>
      <trkpt lat="22.252135" lon="114.199578"><ele>358</ele><time>2025-08-24T02:28:47Z</time></trkpt>
      <trkpt lat="22.251295" lon="114.199472"><ele>390</ele><time>2025-08-24T02:31:15Z</time></trkpt>
      <trkpt lat="22.250759" lon="114.199638"><ele>403</ele><time>2025-08-24T02:32:51Z</time></trkpt>
      <trkpt lat="22.250208" lon="114.199678"><ele>409</ele><time>2025-08-24T02:36:44Z</time></trkpt>
      <trkpt lat="22.250058" lon="114.199805"><ele>411</ele><time>2025-08-24T02:37:08Z</time></trkpt>
      <trkpt lat="22.249173" lon="114.200102"><ele>431</ele><time>2025-08-24T02:39:25Z</time></trkpt>
      <trkpt lat="22.248711" lon="114.200007"><ele>433</ele><time>2025-08-24T02:40:42Z</time></trkpt>
      <trkpt lat="22.248467" lon="114.199852"><ele>428</ele><time>2025-08-24T02:41:12Z</time></trkpt>
      <trkpt lat="22.248118" lon="114.199738"><ele>420</ele><time>2025-08-24T02:42:15Z</time></trkpt>
      <trkpt lat="22.247915" lon="114.199286"><ele>397</ele><time>2025-08-24T02:44:00Z</time></trkpt>
      <trkpt lat="22.248091" lon="114.199231"><ele>400</ele><time>2025-08-24T02:44:52Z</time></trkpt>
      <trkpt lat="22.2479" lon="114.199255"><ele>393</ele><time>2025-08-24T02:47:09Z</time></trkpt>
      <trkpt lat="22.247835" lon="114.199174"><ele>394</ele><time>2025-08-24T02:47:19Z</time></trkpt>
      <trkpt lat="22.247741" lon="114.199166"><ele>392</ele><time>2025-08-24T02:47:37Z</time></trkpt>
      <trkpt lat="22.247267" lon="114.199215"><ele>390</ele><time>2025-08-24T02:48:38Z</time></trkpt>
      <trkpt lat="22.246635" lon="114.199066"><ele>385</ele><time>2025-08-24T02:50:00Z</time></trkpt>
      <trkpt lat="22.24645" lon="114.199105"><ele>386</ele><time>2025-08-24T02:50:22Z</time></trkpt>
      <trkpt lat="22.24608" lon="114.199049"><ele>377</ele><time>2025-08-24T02:51:13Z</time></trkpt>
      <trkpt lat="22.245709" lon="114.198966"><ele>368</ele><time>2025-08-24T02:53:04Z</time></trkpt>
      <trkpt lat="22.245191" lon="114.198729"><ele>356</ele><time>2025-08-24T02:54:14Z</time></trkpt>
      <trkpt lat="22.244625" lon="114.198654"><ele>335</ele><time>2025-08-24T02:55:57Z</time></trkpt>
      <trkpt lat="22.244047" lon="114.198778"><ele>328</ele><time>2025-08-24T02:56:58Z</time></trkpt>
      <trkpt lat="22.243666" lon="114.198761"><ele>328</ele><time>2025-08-24T02:57:34Z</time></trkpt>
      <trkpt lat="22.243245" lon="114.199012"><ele>327</ele><time>2025-08-24T02:58:21Z</time></trkpt>
      <trkpt lat="22.243137" lon="114.199306"><ele>323</ele><time>2025-08-24T02:58:53Z</time></trkpt>
      <trkpt lat="22.242784" lon="114.199457"><ele>316</ele><time>2025-08-24T02:59:35Z</time></trkpt>
      <trkpt lat="22.24269" lon="114.199632"><ele>317</ele><time>2025-08-24T02:59:56Z</time></trkpt>
      <trkpt lat="22.242673" lon="114.199734"><ele>318</ele><time>2025-08-24T03:00:07Z</time></trkpt>
      <trkpt lat="22.242746" lon="114.199917"><ele>317</ele><time>2025-08-24T03:00:25Z</time></trkpt>
      <trkpt lat="22.242606" lon="114.200173"><ele>307</ele><time>2025-08-24T03:01:05Z</time></trkpt>
      <trkpt lat="22.242586" lon="114.200471"><ele>293</ele><time>2025-08-24T03:02:15Z</time></trkpt>
      <trkpt lat="22.242811" lon="114.201016"><ele>272</ele><time>2025-08-24T03:03:58Z</time></trkpt>
      <trkpt lat="22.242837" lon="114.201218"><ele>267</ele><time>2025-08-24T03:04:21Z</time></trkpt>
      <trkpt lat="22.242538" lon="114.201611"><ele>252</ele><time>2025-08-24T03:05:17Z</time></trkpt>
      <trkpt lat="22.242551" lon="114.201908"><ele>241</ele><time>2025-08-24T03:06:07Z</time></trkpt>
      <trkpt lat="22.242473" lon="114.202194"><ele>227</ele><time>2025-08-24T03:06:56Z</time></trkpt>
      <trkpt lat="22.242198" lon="114.202474"><ele>209</ele><time>2025-08-24T03:08:01Z</time></trkpt>
      <trkpt lat="22.242282" lon="114.202769"><ele>208</ele><time>2025-08-24T03:08:34Z</time></trkpt>
      <trkpt lat="22.242268" lon="114.202967"><ele>202</ele><time>2025-08-24T03:09:00Z</time></trkpt>
      <trkpt lat="22.242067" lon="114.203169"><ele>197</ele><time>2025-08-24T03:09:36Z</time></trkpt>
      <trkpt lat="22.241712" lon="114.203279"><ele>185</ele><time>2025-08-24T03:11:18Z</time></trkpt>
      <trkpt lat="22.24111" lon="114.203775"><ele>156</ele><time>2025-08-24T03:13:15Z</time></trkpt>
      <trkpt lat="22.241108" lon="114.204075"><ele>147</ele><time>2025-08-24T03:14:05Z</time></trkpt>
      <trkpt lat="22.240976" lon="114.204338"><ele>136</ele><time>2025-08-24T03:19:00Z</time></trkpt>
      <trkpt lat="22.240777" lon="114.204369"><ele>137</ele><time>2025-08-24T03:19:35Z</time></trkpt>
      <trkpt lat="22.240258" lon="114.204625"><ele>151</ele><time>2025-08-24T03:20:44Z</time></trkpt>
      <trkpt lat="22.239998" lon="114.204914"><ele>158</ele><time>2025-08-24T03:21:32Z</time></trkpt>
      <trkpt lat="22.239752" lon="114.205063"><ele>169</ele><time>2025-08-24T03:22:14Z</time></trkpt>
      <trkpt lat="22.238645" lon="114.205304"><ele>216</ele><time>2025-08-24T03:27:48Z</time></trkpt>
      <trkpt lat="22.238497" lon="114.20542"><ele>231</ele><time>2025-08-24T03:28:37Z</time></trkpt>
      <trkpt lat="22.236993" lon="114.205951"><ele>320</ele><time>2025-08-24T03:41:16Z</time></trkpt>
      <trkpt lat="22.235909" lon="114.206557"><ele>357</ele><time>2025-08-24T03:54:13Z</time></trkpt>
      <trkpt lat="22.23572" lon="114.206543"><ele>355</ele><time>2025-08-24T03:54:37Z</time></trkpt>
      <trkpt lat="22.23558" lon="114.20641"><ele>352</ele><time>2025-08-24T03:54:58Z</time></trkpt>
      <trkpt lat="22.235388" lon="114.206385"><ele>349</ele><time>2025-08-24T03:55:26Z</time></trkpt>
      <trkpt lat="22.234758" lon="114.2065"><ele>333</ele><time>2025-08-24T03:57:06Z</time></trkpt>
      <trkpt lat="22.234494" lon="114.206411"><ele>318</ele><time>2025-08-24T03:58:12Z</time></trkpt>
      <trkpt lat="22.234306" lon="114.20642"><ele>319</ele><time>2025-08-24T03:58:35Z</time></trkpt>
      <trkpt lat="22.23357" lon="114.206615"><ele>327</ele><time>2025-08-24T04:00:33Z</time></trkpt>
      <trkpt lat="22.23324" lon="114.206824"><ele>324</ele><time>2025-08-24T04:01:55Z</time></trkpt>
      <trkpt lat="22.232891" lon="114.206724"><ele>307</ele><time>2025-08-24T04:03:21Z</time></trkpt>
      <trkpt lat="22.232612" lon="114.20646"><ele>318</ele><time>2025-08-24T04:04:32Z</time></trkpt>
      <trkpt lat="22.232347" lon="114.206387"><ele>316</ele><time>2025-08-24T04:06:02Z</time></trkpt>
      <trkpt lat="22.231914" lon="114.206002"><ele>329</ele><time>2025-08-24T04:07:25Z</time></trkpt>
      <trkpt lat="22.23174" lon="114.205922"><ele>345</ele><time>2025-08-24T04:08:37Z</time></trkpt>
      <trkpt lat="22.231111" lon="114.205817"><ele>368</ele><time>2025-08-24T04:10:27Z</time></trkpt>
      <trkpt lat="22.230927" lon="114.20586"><ele>373</ele><time>2025-08-24T04:11:07Z</time></trkpt>
      <trkpt lat="22.230751" lon="114.205789"><ele>379</ele><time>2025-08-24T04:11:31Z</time></trkpt>
      <trkpt lat="22.230027" lon="114.206249"><ele>358</ele><time>2025-08-24T04:13:22Z</time></trkpt>
      <trkpt lat="22.229772" lon="114.20654"><ele>343</ele><time>2025-08-24T04:14:29Z</time></trkpt>
      <trkpt lat="22.229357" lon="114.206792"><ele>332</ele><time>2025-08-24T04:15:34Z</time></trkpt>
      <trkpt lat="22.228732" lon="114.206927"><ele>307</ele><time>2025-08-24T04:17:42Z</time></trkpt>
      <trkpt lat="22.228338" lon="114.207173"><ele>288</ele><time>2025-08-24T04:19:06Z</time></trkpt>
      <trkpt lat="22.22722" lon="114.207222"><ele>276</ele><time>2025-08-24T04:27:53Z</time></trkpt>
      <trkpt lat="22.227048" lon="114.20714"><ele>274</ele><time>2025-08-24T04:28:13Z</time></trkpt>
      <trkpt lat="22.226982" lon="114.207198"><ele>272</ele><time>2025-08-24T04:35:58Z</time></trkpt>
      <trkpt lat="22.226433" lon="114.207219"><ele>249</ele><time>2025-08-24T04:47:30Z</time></trkpt>
      <trkpt lat="22.226168" lon="114.207308"><ele>239</ele><time>2025-08-24T04:48:16Z</time></trkpt>
      <trkpt lat="22.225853" lon="114.207511"><ele>223</ele><time>2025-08-24T04:49:14Z</time></trkpt>
      <trkpt lat="22.225302" lon="114.20758"><ele>196</ele><time>2025-08-24T04:50:56Z</time></trkpt>
      <trkpt lat="22.225071" lon="114.207742"><ele>178</ele><time>2025-08-24T04:51:48Z</time></trkpt>
      <trkpt lat="22.225049" lon="114.207839"><ele>175</ele><time>2025-08-24T04:52:22Z</time></trkpt>
      <trkpt lat="22.224878" lon="114.207896"><ele>165</ele><time>2025-08-24T04:52:49Z</time></trkpt>
      <trkpt lat="22.224855" lon="114.207999"><ele>160</ele><time>2025-08-24T04:52:59Z</time></trkpt>
      <trkpt lat="22.224663" lon="114.208206"><ele>150</ele><time>2025-08-24T04:53:54Z</time></trkpt>
      <trkpt lat="22.224037" lon="114.208623"><ele>110</ele><time>2025-08-24T04:56:20Z</time></trkpt>
      <trkpt lat="22.223687" lon="114.208541"><ele>91</ele><time>2025-08-24T04:57:26Z</time></trkpt>
      <trkpt lat="22.223665" lon="114.208639"><ele>89</ele><time>2025-08-24T04:57:40Z</time></trkpt>
      <trkpt lat="22.223839" lon="114.208999"><ele>85</ele><time>2025-08-24T05:04:41Z</time></trkpt>
      <trkpt lat="22.224128" lon="114.209281"><ele>77</ele><time>2025-08-24T05:05:22Z</time></trkpt>
      <trkpt lat="22.2244" lon="114.20932"><ele>79</ele><time>2025-08-24T05:06:36Z</time></trkpt>
      <trkpt lat="22.223942" lon="114.209175"><ele>79</ele><time>2025-08-24T05:07:34Z</time></trkpt>
      <trkpt lat="22.223671" lon="114.208888"><ele>82</ele><time>2025-08-24T05:08:09Z</time></trkpt>
      <trkpt lat="22.223746" lon="114.20883"><ele>85</ele><time>2025-08-24T05:08:34Z</time></trkpt>
      <trkpt lat="22.223843" lon="114.209033"><ele>79</ele><time>2025-08-24T05:09:29Z</time></trkpt>
      <trkpt lat="22.224098" lon="114.209184"><ele>77</ele><time>2025-08-24T05:09:33Z</time></trkpt>
      <trkpt lat="22.225306" lon="114.209295"><ele>69</ele><time>2025-08-24T05:09:49Z</time></trkpt>
      <trkpt lat="22.225526" lon="114.209503"><ele>69</ele><time>2025-08-24T05:09:53Z</time></trkpt>
      <trkpt lat="22.225284" lon="114.209994"><ele>65</ele><time>2025-08-24T05:10:00Z</time></trkpt>
      <trkpt lat="22.224399" lon="114.210733"><ele>60</ele><time>2025-08-24T05:10:13Z</time></trkpt>
      <trkpt lat="22.224048" lon="114.211135"><ele>57</ele><time>2025-08-24T05:10:19Z</time></trkpt>
      <trkpt lat="22.223911" lon="114.211533"><ele>57</ele><time>2025-08-24T05:10:24Z</time></trkpt>
      <trkpt lat="22.224105" lon="114.211778"><ele>57</ele><time>2025-08-24T05:10:28Z</time></trkpt>
      <trkpt lat="22.224751" lon="114.212318"><ele>51</ele><time>2025-08-24T05:10:38Z</time></trkpt>
      <trkpt lat="22.224781" lon="114.212598"><ele>50</ele><time>2025-08-24T05:10:43Z</time></trkpt>
      <trkpt lat="22.224686" lon="114.212956"><ele>50</ele><time>2025-08-24T05:10:47Z</time></trkpt>
      <trkpt lat="22.224642" lon="114.213459"><ele>46</ele><time>2025-08-24T05:10:52Z</time></trkpt>
      <trkpt lat="22.224759" lon="114.213909"><ele>41</ele><time>2025-08-24T05:10:56Z</time></trkpt>
      <trkpt lat="22.225044" lon="114.214232"><ele>35</ele><time>2025-08-24T05:11:01Z</time></trkpt>
      <trkpt lat="22.225102" lon="114.214376"><ele>33</ele><time>2025-08-24T05:11:03Z</time></trkpt>
      <trkpt lat="22.225085" lon="114.214504"><ele>33</ele><time>2025-08-24T05:11:05Z</time></trkpt>
      <trkpt lat="22.224999" lon="114.214565"><ele>33</ele><time>2025-08-24T05:11:07Z</time></trkpt>
      <trkpt lat="22.224831" lon="114.214442"><ele>37</ele><time>2025-08-24T05:11:11Z</time></trkpt>
      <trkpt lat="22.224549" lon="114.214026"><ele>35</ele><time>2025-08-24T05:11:18Z</time></trkpt>
      <trkpt lat="22.224244" lon="114.213762"><ele>33</ele><time>2025-08-24T05:11:22Z</time></trkpt>
      <trkpt lat="22.223951" lon="114.21325"><ele>30</ele><time>2025-08-24T05:11:28Z</time></trkpt>
      <trkpt lat="22.223631" lon="114.212839"><ele>28</ele><time>2025-08-24T05:11:33Z</time></trkpt>
      <trkpt lat="22.223234" lon="114.212606"><ele>23</ele><time>2025-08-24T05:11:37Z</time></trkpt>
      <trkpt lat="22.222691" lon="114.212458"><ele>21</ele><time>2025-08-24T05:11:42Z</time></trkpt>
      <trkpt lat="22.22254" lon="114.212334"><ele>14</ele><time>2025-08-24T05:11:44Z</time></trkpt>
      <trkpt lat="22.222357" lon="114.212062"><ele>11</ele><time>2025-08-24T05:11:47Z</time></trkpt>
      <trkpt lat="22.222211" lon="114.211682"><ele>8</ele><time>2025-08-24T05:11:51Z</time></trkpt>
      <trkpt lat="22.221904" lon="114.211364"><ele>6</ele><time>2025-08-24T05:11:55Z</time></trkpt>
      <trkpt lat="22.22153" lon="114.211291"><ele>8</ele><time>2025-08-24T05:11:59Z</time></trkpt>
      <trkpt lat="22.221164" lon="114.211597"><ele>13</ele><time>2025-08-24T05:12:04Z</time></trkpt>
      <trkpt lat="22.221094" lon="114.211846"><ele>15</ele><time>2025-08-24T05:12:07Z</time></trkpt>
      <trkpt lat="22.221107" lon="114.212326"><ele>24</ele><time>2025-08-24T05:12:34Z</time></trkpt>
      <trkpt lat="22.220988" lon="114.212585"><ele>24</ele><time>2025-08-24T05:12:37Z</time></trkpt>
      <trkpt lat="22.220818" lon="114.2127"><ele>24</ele><time>2025-08-24T05:12:39Z</time></trkpt>
      <trkpt lat="22.219313" lon="114.212886"><ele>7</ele><time>2025-08-24T05:13:14Z</time></trkpt>
      <trkpt lat="22.219119" lon="114.212962"><ele>9</ele><time>2025-08-24T05:13:18Z</time></trkpt>
      <trkpt lat="22.219216" lon="114.212967"><ele>5</ele><time>2025-08-24T05:14:04Z</time></trkpt>
      <trkpt lat="22.219313" lon="114.212943"><ele>7</ele><time>2025-08-24T05:14:27Z</time></trkpt>
      <trkpt lat="22.219235" lon="114.21277"><ele>4</ele><time>2025-08-24T05:14:56Z</time></trkpt>
      <trkpt lat="22.218956" lon="114.212718"><ele>5</ele><time>2025-08-24T05:15:23Z</time></trkpt>
      <trkpt lat="22.219096" lon="114.212451"><ele>8</ele><time>2025-08-24T05:17:30Z</time></trkpt>
      <trkpt lat="22.218823" lon="114.212776"><ele>9</ele><time>2025-08-24T05:17:48Z</time></trkpt>
      <trkpt lat="22.218861" lon="114.212682"><ele>8</ele><time>2025-08-24T05:17:57Z</time></trkpt>
      <trkpt lat="22.218948" lon="114.212656"><ele>8</ele><time>2025-08-24T05:18:30Z</time></trkpt>
      <trkpt lat="22.218866" lon="114.212762"><ele>11</ele><time>2025-08-24T05:18:51Z</time></trkpt>
      <trkpt lat="22.21886" lon="114.21261"><ele>16</ele><time>2025-08-24T05:19:16Z</time></trkpt>
      <trkpt lat="22.218514" lon="114.212282"><ele>12</ele><time>2025-08-24T05:20:37Z</time></trkpt>
      <trkpt lat="22.218413" lon="114.212309"><ele>10</ele><time>2025-08-24T05:21:03Z</time></trkpt>
      <trkpt lat="22.218389" lon="114.212404"><ele>7</ele><time>2025-08-24T05:21:10Z</time></trkpt>
      <trkpt lat="22.218007" lon="114.212684"><ele>-2</ele><time>2025-08-24T05:22:08Z</time></trkpt>
      <trkpt lat="22.217919" lon="114.212853"><ele>0</ele><time>2025-08-24T05:22:37Z</time></trkpt>
      <trkpt lat="22.217554" lon="114.212993"><ele>0</ele><time>2025-08-24T05:24:05Z</time></trkpt>
      <trkpt lat="22.217124" lon="114.212832"><ele>-1</ele><time>2025-08-24T05:25:04Z</time></trkpt>
      <trkpt lat="22.217141" lon="114.212422"><ele>-1</ele><time>2025-08-24T05:25:46Z</time></trkpt>
      <trkpt lat="22.217771" lon="114.21221"><ele>-2</ele><time>2025-08-24T05:27:44Z</time></trkpt>
      <trkpt lat="22.218307" lon="114.211767"><ele>-2</ele><time>2025-08-24T05:29:12Z</time></trkpt>
      <trkpt lat="22.218477" lon="114.211667"><ele>2</ele><time>2025-08-24T05:29:34Z</time></trkpt>
      <trkpt lat="22.218571" lon="114.211679"><ele>2</ele><time>2025-08-24T05:29:49Z</time></trkpt>
    </trkseg>
  </trk>
</gpx>
