<?xml version="1.0" encoding="UTF-8"?>
<gpx version="1.1" creator="MyWorld" xmlns="http://www.topografix.com/GPX/1/1">
  <metadata><name>香港大帽山</name></metadata>
  <trk>
    <name>香港大帽山</name>
    <trkseg>
      <trkpt lat="22.438925" lon="114.123671"><ele>97</ele><time>2025-08-23T01:51:26Z</time></trkpt>
      <trkpt lat="22.438527" lon="114.124234"><ele>106</ele><time>2025-08-23T01:53:04Z</time></trkpt>
      <trkpt lat="22.438175" lon="114.124373"><ele>106</ele><time>2025-08-23T01:53:39Z</time></trkpt>
      <trkpt lat="22.438457" lon="114.124325"><ele>103</ele><time>2025-08-23T01:54:11Z</time></trkpt>
      <trkpt lat="22.438182" lon="114.124424"><ele>106</ele><time>2025-08-23T01:55:42Z</time></trkpt>
      <trkpt lat="22.438019" lon="114.124672"><ele>111</ele><time>2025-08-23T01:56:08Z</time></trkpt>
      <trkpt lat="22.437867" lon="114.124785"><ele>109</ele><time>2025-08-23T01:56:24Z</time></trkpt>
      <trkpt lat="22.437399" lon="114.124893"><ele>120</ele><time>2025-08-23T01:57:15Z</time></trkpt>
      <trkpt lat="22.437134" lon="114.124793"><ele>127</ele><time>2025-08-23T01:57:44Z</time></trkpt>
      <trkpt lat="22.436659" lon="114.124738"><ele>132</ele><time>2025-08-23T01:58:30Z</time></trkpt>
      <trkpt lat="22.4365" lon="114.124842"><ele>132</ele><time>2025-08-23T01:58:52Z</time></trkpt>
      <trkpt lat="22.436386" lon="114.125651"><ele>141</ele><time>2025-08-23T01:59:59Z</time></trkpt>
      <trkpt lat="22.436464" lon="114.125846"><ele>141</ele><time>2025-08-23T02:00:16Z</time></trkpt>
      <trkpt lat="22.436461" lon="114.126051"><ele>135</ele><time>2025-08-23T02:00:35Z</time></trkpt>
      <trkpt lat="22.43637" lon="114.12655"><ele>136</ele><time>2025-08-23T02:01:13Z</time></trkpt>
      <trkpt lat="22.436502" lon="114.126819"><ele>130</ele><time>2025-08-23T02:01:37Z</time></trkpt>
      <trkpt lat="22.436541" lon="114.127437"><ele>127</ele><time>2025-08-23T02:02:34Z</time></trkpt>
      <trkpt lat="22.436775" lon="114.127754"><ele>134</ele><time>2025-08-23T02:03:05Z</time></trkpt>
      <trkpt lat="22.436484" lon="114.128139"><ele>137</ele><time>2025-08-23T02:04:08Z</time></trkpt>
      <trkpt lat="22.436396" lon="114.128118"><ele>141</ele><time>2025-08-23T02:04:15Z</time></trkpt>
      <trkpt lat="22.435855" lon="114.128346"><ele>146</ele><time>2025-08-23T02:05:40Z</time></trkpt>
      <trkpt lat="22.435773" lon="114.128523"><ele>147</ele><time>2025-08-23T02:06:02Z</time></trkpt>
      <trkpt lat="22.435821" lon="114.128835"><ele>151</ele><time>2025-08-23T02:06:31Z</time></trkpt>
      <trkpt lat="22.435771" lon="114.128916"><ele>152</ele><time>2025-08-23T02:06:40Z</time></trkpt>
      <trkpt lat="22.435503" lon="114.129048"><ele>157</ele><time>2025-08-23T02:07:19Z</time></trkpt>
      <trkpt lat="22.435329" lon="114.129301"><ele>162</ele><time>2025-08-23T02:07:46Z</time></trkpt>
      <trkpt lat="22.435205" lon="114.129578"><ele>166</ele><time>2025-08-23T02:08:12Z</time></trkpt>
      <trkpt lat="22.435154" lon="114.130074"><ele>171</ele><time>2025-08-23T02:09:01Z</time></trkpt>
      <trkpt lat="22.435016" lon="114.130216"><ele>172</ele><time>2025-08-23T02:09:20Z</time></trkpt>
      <trkpt lat="22.434619" lon="114.130203"><ele>164</ele><time>2025-08-23T02:09:56Z</time></trkpt>
      <trkpt lat="22.433983" lon="114.129944"><ele>169</ele><time>2025-08-23T02:11:04Z</time></trkpt>
      <trkpt lat="22.433834" lon="114.129828"><ele>170</ele><time>2025-08-23T02:11:22Z</time></trkpt>
      <trkpt lat="22.433551" lon="114.129862"><ele>181</ele><time>2025-08-23T02:11:53Z</time></trkpt>
      <trkpt lat="22.433289" lon="114.129749"><ele>188</ele><time>2025-08-23T02:12:21Z</time></trkpt>
      <trkpt lat="22.433035" lon="114.1299"><ele>198</ele><time>2025-08-23T02:12:48Z</time></trkpt>
      <trkpt lat="22.432754" lon="114.129964"><ele>195</ele><time>2025-08-23T02:13:13Z</time></trkpt>
      <trkpt lat="22.431949" lon="114.129664"><ele>193</ele><time>2025-08-23T02:14:41Z</time></trkpt>
      <trkpt lat="22.431968" lon="114.129862"><ele>199</ele><time>2025-08-23T02:16:49Z</time></trkpt>
      <trkpt lat="22.432064" lon="114.130049"><ele>204</ele><time>2025-08-23T02:17:09Z</time></trkpt>
      <trkpt lat="22.432211" lon="114.130175"><ele>208</ele><time>2025-08-23T02:17:29Z</time></trkpt>
      <trkpt lat="22.432259" lon="114.130377"><ele>209</ele><time>2025-08-23T02:17:47Z</time></trkpt>
      <trkpt lat="22.432098" lon="114.130631"><ele>213</ele><time>2025-08-23T02:19:11Z</time></trkpt>
      <trkpt lat="22.43183" lon="114.130764"><ele>219</ele><time>2025-08-23T02:19:42Z</time></trkpt>
      <trkpt lat="22.431779" lon="114.130853"><ele>222</ele><time>2025-08-23T02:19:50Z</time></trkpt>
      <trkpt lat="22.431501" lon="114.130896"><ele>228</ele><time>2025-08-23T02:20:19Z</time></trkpt>
      <trkpt lat="22.431255" lon="114.131026"><ele>232</ele><time>2025-08-23T02:20:44Z</time></trkpt>
      <trkpt lat="22.431162" lon="114.130854"><ele>228</ele><time>2025-08-23T02:21:02Z</time></trkpt>
      <trkpt lat="22.431072" lon="114.130794"><ele>231</ele><time>2025-08-23T02:21:16Z</time></trkpt>
      <trkpt lat="22.430969" lon="114.130817"><ele>233</ele><time>2025-08-23T02:21:22Z</time></trkpt>
      <trkpt lat="22.430791" lon="114.130871"><ele>244</ele><time>2025-08-23T02:21:38Z</time></trkpt>
      <trkpt lat="22.43059" lon="114.131061"><ele>238</ele><time>2025-08-23T02:22:06Z</time></trkpt>
      <trkpt lat="22.430205" lon="114.13102"><ele>243</ele><time>2025-08-23T02:22:45Z</time></trkpt>
      <trkpt lat="22.430168" lon="114.131115"><ele>247</ele><time>2025-08-23T02:23:06Z</time></trkpt>
      <trkpt lat="22.42993" lon="114.131282"><ele>249</ele><time>2025-08-23T02:23:54Z</time></trkpt>
      <trkpt lat="22.429111" lon="114.131477"><ele>250</ele><time>2025-08-23T02:26:14Z</time></trkpt>
      <trkpt lat="22.428959" lon="114.131576"><ele>250</ele><time>2025-08-23T02:26:36Z</time></trkpt>
      <trkpt lat="22.42878" lon="114.131551"><ele>250</ele><time>2025-08-23T02:27:15Z</time></trkpt>
      <trkpt lat="22.428413" lon="114.131627"><ele>266</ele><time>2025-08-23T02:28:11Z</time></trkpt>
      <trkpt lat="22.428143" lon="114.131551"><ele>274</ele><time>2025-08-23T02:28:51Z</time></trkpt>
      <trkpt lat="22.428075" lon="114.131616"><ele>282</ele><time>2025-08-23T02:29:23Z</time></trkpt>
      <trkpt lat="22.427637" lon="114.131597"><ele>284</ele><time>2025-08-23T02:33:29Z</time></trkpt>
      <trkpt lat="22.427192" lon="114.131773"><ele>329</ele><time>2025-08-23T02:35:15Z</time></trkpt>
      <trkpt lat="22.427375" lon="114.131832"><ele>313</ele><time>2025-08-23T02:36:15Z</time></trkpt>
      <trkpt lat="22.427386" lon="114.131942"><ele>332</ele><time>2025-08-23T02:38:17Z</time></trkpt>
      <trkpt lat="22.427406" lon="114.131845"><ele>331</ele><time>2025-08-23T02:38:35Z</time></trkpt>
      <trkpt lat="22.427351" lon="114.131927"><ele>332</ele><time>2025-08-23T02:38:59Z</time></trkpt>
      <trkpt lat="22.427419" lon="114.131746"><ele>331</ele><time>2025-08-23T02:39:42Z</time></trkpt>
      <trkpt lat="22.427312" lon="114.131856"><ele>329</ele><time>2025-08-23T02:40:45Z</time></trkpt>
      <trkpt lat="22.427426" lon="114.131849"><ele>326</ele><time>2025-08-23T02:41:39Z</time></trkpt>
      <trkpt lat="22.427348" lon="114.132028"><ele>335</ele><time>2025-08-23T02:46:58Z</time></trkpt>
      <trkpt lat="22.427449" lon="114.131831"><ele>332</ele><time>2025-08-23T02:53:50Z</time></trkpt>
      <trkpt lat="22.427341" lon="114.131959"><ele>329</ele><time>2025-08-23T02:54:04Z</time></trkpt>
      <trkpt lat="22.427314" lon="114.131864"><ele>333</ele><time>2025-08-23T02:54:32Z</time></trkpt>
      <trkpt lat="22.427216" lon="114.131818"><ele>339</ele><time>2025-08-23T02:54:44Z</time></trkpt>
      <trkpt lat="22.427183" lon="114.131912"><ele>346</ele><time>2025-08-23T02:54:56Z</time></trkpt>
      <trkpt lat="22.427225" lon="114.131809"><ele>347</ele><time>2025-08-23T02:55:13Z</time></trkpt>
      <trkpt lat="22.427173" lon="114.131718"><ele>349</ele><time>2025-08-23T02:55:28Z</time></trkpt>
      <trkpt lat="22.427078" lon="114.131767"><ele>353</ele><time>2025-08-23T02:56:06Z</time></trkpt>
      <trkpt lat="22.427094" lon="114.13189"><ele>354</ele><time>2025-08-23T02:56:16Z</time></trkpt>
      <trkpt lat="22.427017" lon="114.131825"><ele>346</ele><time>2025-08-23T02:56:42Z</time></trkpt>
      <trkpt lat="22.42711" lon="114.131785"><ele>343</ele><time>2025-08-23T02:56:49Z</time></trkpt>
      <trkpt lat="22.427051" lon="114.131867"><ele>349</ele><time>2025-08-23T02:57:17Z</time></trkpt>
      <trkpt lat="22.427066" lon="114.131769"><ele>350</ele><time>2025-08-23T02:57:24Z</time></trkpt>
      <trkpt lat="22.426876" lon="114.13184"><ele>358</ele><time>2025-08-23T02:57:51Z</time></trkpt>
      <trkpt lat="22.426803" lon="114.131767"><ele>346</ele><time>2025-08-23T02:58:30Z</time></trkpt>
      <trkpt lat="22.426766" lon="114.131863"><ele>354</ele><time>2025-08-23T02:59:21Z</time></trkpt>
      <trkpt lat="22.426944" lon="114.131873"><ele>355</ele><time>2025-08-23T02:59:44Z</time></trkpt>
      <trkpt lat="22.427077" lon="114.131734"><ele>350</ele><time>2025-08-23T03:00:05Z</time></trkpt>
      <trkpt lat="22.426985" lon="114.131695"><ele>346</ele><time>2025-08-23T03:00:18Z</time></trkpt>
      <trkpt lat="22.427006" lon="114.131599"><ele>343</ele><time>2025-08-23T03:00:27Z</time></trkpt>
      <trkpt lat="22.426919" lon="114.131558"><ele>339</ele><time>2025-08-23T03:00:35Z</time></trkpt>
      <trkpt lat="22.426864" lon="114.131258"><ele>366</ele><time>2025-08-23T03:01:36Z</time></trkpt>
      <trkpt lat="22.426848" lon="114.131357"><ele>370</ele><time>2025-08-23T03:01:41Z</time></trkpt>
      <trkpt lat="22.426662" lon="114.131314"><ele>370</ele><time>2025-08-23T03:02:15Z</time></trkpt>
      <trkpt lat="22.426744" lon="114.131535"><ele>355</ele><time>2025-08-23T03:03:45Z</time></trkpt>
      <trkpt lat="22.426703" lon="114.131321"><ele>351</ele><time>2025-08-23T03:04:10Z</time></trkpt>
      <trkpt lat="22.426627" lon="114.131268"><ele>361</ele><time>2025-08-23T03:07:32Z</time></trkpt>
      <trkpt lat="22.426361" lon="114.131382"><ele>370</ele><time>2025-08-23T03:09:25Z</time></trkpt>
      <trkpt lat="22.426199" lon="114.131607"><ele>367</ele><time>2025-08-23T03:10:16Z</time></trkpt>
      <trkpt lat="22.425497" lon="114.131342"><ele>372</ele><time>2025-08-23T03:12:29Z</time></trkpt>
      <trkpt lat="22.424855" lon="114.131377"><ele>387</ele><time>2025-08-23T03:14:30Z</time></trkpt>
      <trkpt lat="22.42464" lon="114.131565"><ele>425</ele><time>2025-08-23T03:16:08Z</time></trkpt>
      <trkpt lat="22.424543" lon="114.131565"><ele>408</ele><time>2025-08-23T03:16:53Z</time></trkpt>
      <trkpt lat="22.424638" lon="114.131566"><ele>419</ele><time>2025-08-23T03:18:12Z</time></trkpt>
      <trkpt lat="22.424858" lon="114.131364"><ele>407</ele><time>2025-08-23T03:19:07Z</time></trkpt>
      <trkpt lat="22.424863" lon="114.13116"><ele>406</ele><time>2025-08-23T03:19:54Z</time></trkpt>
      <trkpt lat="22.424971" lon="114.130999"><ele>422</ele><time>2025-08-23T03:20:47Z</time></trkpt>
      <trkpt lat="22.424941" lon="114.130906"><ele>426</ele><time>2025-08-23T03:21:55Z</time></trkpt>
      <trkpt lat="22.424769" lon="114.130939"><ele>431</ele><time>2025-08-23T03:41:31Z</time></trkpt>
      <trkpt lat="22.424685" lon="114.131004"><ele>430</ele><time>2025-08-23T03:41:51Z</time></trkpt>
      <trkpt lat="22.424508" lon="114.131483"><ele>417</ele><time>2025-08-23T03:43:29Z</time></trkpt>
      <trkpt lat="22.424212" lon="114.131727"><ele>440</ele><time>2025-08-23T03:44:23Z</time></trkpt>
      <trkpt lat="22.424016" lon="114.131681"><ele>408</ele><time>2025-08-23T03:46:30Z</time></trkpt>
      <trkpt lat="22.424115" lon="114.131641"><ele>462</ele><time>2025-08-23T03:46:35Z</time></trkpt>
      <trkpt lat="22.424106" lon="114.131536"><ele>481</ele><time>2025-08-23T03:47:47Z</time></trkpt>
      <trkpt lat="22.424193" lon="114.131587"><ele>479</ele><time>2025-08-23T03:48:05Z</time></trkpt>
      <trkpt lat="22.424268" lon="114.13178"><ele>460</ele><time>2025-08-23T03:48:38Z</time></trkpt>
      <trkpt lat="22.424104" lon="114.132044"><ele>412</ele><time>2025-08-23T03:49:27Z</time></trkpt>
      <trkpt lat="22.424181" lon="114.131917"><ele>460</ele><time>2025-08-23T03:49:28Z</time></trkpt>
      <trkpt lat="22.424127" lon="114.131999"><ele>467</ele><time>2025-08-23T03:50:08Z</time></trkpt>
      <trkpt lat="22.424035" lon="114.131999"><ele>473</ele><time>2025-08-23T03:50:34Z</time></trkpt>
      <trkpt lat="22.424111" lon="114.132061"><ele>478</ele><time>2025-08-23T03:51:00Z</time></trkpt>
      <trkpt lat="22.424115" lon="114.132185"><ele>462</ele><time>2025-08-23T03:51:43Z</time></trkpt>
      <trkpt lat="22.42406" lon="114.132107"><ele>467</ele><time>2025-08-23T03:51:59Z</time></trkpt>
      <trkpt lat="22.42392" lon="114.132351"><ele>455</ele><time>2025-08-23T03:53:06Z</time></trkpt>
      <trkpt lat="22.423908" lon="114.132251"><ele>468</ele><time>2025-08-23T03:54:17Z</time></trkpt>
      <trkpt lat="22.423818" lon="114.132224"><ele>462</ele><time>2025-08-23T03:54:31Z</time></trkpt>
      <trkpt lat="22.423799" lon="114.132026"><ele>469</ele><time>2025-08-23T03:55:25Z</time></trkpt>
      <trkpt lat="22.423707" lon="114.132034"><ele>476</ele><time>2025-08-23T03:56:51Z</time></trkpt>
      <trkpt lat="22.423758" lon="114.131854"><ele>478</ele><time>2025-08-23T03:57:52Z</time></trkpt>
      <trkpt lat="22.423544" lon="114.131281"><ele>500</ele><time>2025-08-23T04:02:17Z</time></trkpt>
      <trkpt lat="22.423524" lon="114.130881"><ele>524</ele><time>2025-08-23T04:09:46Z</time></trkpt>
      <trkpt lat="22.423592" lon="114.130807"><ele>523</ele><time>2025-08-23T04:10:08Z</time></trkpt>
      <trkpt lat="22.423871" lon="114.130723"><ele>524</ele><time>2025-08-23T04:10:43Z</time></trkpt>
      <trkpt lat="22.423904" lon="114.130627"><ele>524</ele><time>2025-08-23T04:10:53Z</time></trkpt>
      <trkpt lat="22.424061" lon="114.130524"><ele>524</ele><time>2025-08-23T04:11:14Z</time></trkpt>
      <trkpt lat="22.424128" lon="114.130343"><ele>524</ele><time>2025-08-23T04:11:34Z</time></trkpt>
      <trkpt lat="22.424091" lon="114.130131"><ele>523</ele><time>2025-08-23T04:12:04Z</time></trkpt>
      <trkpt lat="22.423855" lon="114.129966"><ele>527</ele><time>2025-08-23T04:12:36Z</time></trkpt>
      <trkpt lat="22.423745" lon="114.129793"><ele>533</ele><time>2025-08-23T04:13:02Z</time></trkpt>
      <trkpt lat="22.423892" lon="114.129533"><ele>531</ele><time>2025-08-23T04:13:44Z</time></trkpt>
      <trkpt lat="22.423851" lon="114.12944"><ele>530</ele><time>2025-08-23T04:13:56Z</time></trkpt>
      <trkpt lat="22.423888" lon="114.129244"><ele>532</ele><time>2025-08-23T04:14:19Z</time></trkpt>
      <trkpt lat="22.424118" lon="114.129067"><ele>532</ele><time>2025-08-23T04:15:04Z</time></trkpt>
      <trkpt lat="22.4243" lon="114.129048"><ele>534</ele><time>2025-08-23T04:15:26Z</time></trkpt>
      <trkpt lat="22.424574" lon="114.128787"><ele>535</ele><time>2025-08-23T04:16:15Z</time></trkpt>
      <trkpt lat="22.42467" lon="114.128795"><ele>537</ele><time>2025-08-23T04:16:25Z</time></trkpt>
      <trkpt lat="22.424894" lon="114.129116"><ele>535</ele><time>2025-08-23T04:17:08Z</time></trkpt>
      <trkpt lat="22.424764" lon="114.128981"><ele>536</ele><time>2025-08-23T04:18:03Z</time></trkpt>
      <trkpt lat="22.424697" lon="114.128776"><ele>538</ele><time>2025-08-23T04:18:20Z</time></trkpt>
      <trkpt lat="22.424432" lon="114.128861"><ele>537</ele><time>2025-08-23T04:18:51Z</time></trkpt>
      <trkpt lat="22.424343" lon="114.129033"><ele>534</ele><time>2025-08-23T04:19:13Z</time></trkpt>
      <trkpt lat="22.424157" lon="114.129035"><ele>534</ele><time>2025-08-23T04:19:30Z</time></trkpt>
      <trkpt lat="22.424021" lon="114.129176"><ele>532</ele><time>2025-08-23T04:19:52Z</time></trkpt>
      <trkpt lat="22.423925" lon="114.129195"><ele>533</ele><time>2025-08-23T04:20:00Z</time></trkpt>
      <trkpt lat="22.423886" lon="114.1296"><ele>529</ele><time>2025-08-23T04:20:52Z</time></trkpt>
      <trkpt lat="22.423757" lon="114.12974"><ele>527</ele><time>2025-08-23T04:21:13Z</time></trkpt>
      <trkpt lat="22.42383" lon="114.129928"><ele>533</ele><time>2025-08-23T04:21:40Z</time></trkpt>
      <trkpt lat="22.424114" lon="114.130207"><ele>522</ele><time>2025-08-23T04:23:40Z</time></trkpt>
      <trkpt lat="22.424123" lon="114.130404"><ele>522</ele><time>2025-08-23T04:24:11Z</time></trkpt>
      <trkpt lat="22.423891" lon="114.130712"><ele>524</ele><time>2025-08-23T04:25:00Z</time></trkpt>
      <trkpt lat="22.423469" lon="114.130894"><ele>530</ele><time>2025-08-23T04:26:03Z</time></trkpt>
      <trkpt lat="22.423256" lon="114.130265"><ele>573</ele><time>2025-08-23T04:34:17Z</time></trkpt>
      <trkpt lat="22.42328" lon="114.130162"><ele>575</ele><time>2025-08-23T04:34:29Z</time></trkpt>
      <trkpt lat="22.423048" lon="114.129995"><ele>586</ele><time>2025-08-23T04:37:43Z</time></trkpt>
      <trkpt lat="22.42285" lon="114.129652"><ele>600</ele><time>2025-08-23T04:38:39Z</time></trkpt>
      <trkpt lat="22.422888" lon="114.129559"><ele>601</ele><time>2025-08-23T04:38:54Z</time></trkpt>
      <trkpt lat="22.422765" lon="114.129416"><ele>611</ele><time>2025-08-23T04:40:47Z</time></trkpt>
      <trkpt lat="22.422754" lon="114.129209"><ele>617</ele><time>2025-08-23T04:42:02Z</time></trkpt>
      <trkpt lat="22.422629" lon="114.129065"><ele>622</ele><time>2025-08-23T04:43:06Z</time></trkpt>
      <trkpt lat="22.422109" lon="114.128841"><ele>618</ele><time>2025-08-23T04:44:01Z</time></trkpt>
      <trkpt lat="22.421745" lon="114.128936"><ele>613</ele><time>2025-08-23T04:44:54Z</time></trkpt>
      <trkpt lat="22.421102" lon="114.128914"><ele>609</ele><time>2025-08-23T04:46:15Z</time></trkpt>
      <trkpt lat="22.420182" lon="114.129039"><ele>621</ele><time>2025-08-23T04:48:25Z</time></trkpt>
      <trkpt lat="22.419848" lon="114.129657"><ele>641</ele><time>2025-08-23T05:00:42Z</time></trkpt>
      <trkpt lat="22.419911" lon="114.129732"><ele>643</ele><time>2025-08-23T05:00:51Z</time></trkpt>
      <trkpt lat="22.419864" lon="114.129923"><ele>646</ele><time>2025-08-23T05:01:15Z</time></trkpt>
      <trkpt lat="22.419689" lon="114.12997"><ele>646</ele><time>2025-08-23T05:01:39Z</time></trkpt>
      <trkpt lat="22.419329" lon="114.130299"><ele>648</ele><time>2025-08-23T05:02:28Z</time></trkpt>
      <trkpt lat="22.418774" lon="114.130269"><ele>656</ele><time>2025-08-23T05:03:29Z</time></trkpt>
      <trkpt lat="22.418628" lon="114.130391"><ele>662</ele><time>2025-08-23T05:04:37Z</time></trkpt>
      <trkpt lat="22.418549" lon="114.13034"><ele>657</ele><time>2025-08-23T05:05:03Z</time></trkpt>
      <trkpt lat="22.41793" lon="114.130576"><ele>675</ele><time>2025-08-23T05:06:49Z</time></trkpt>
      <trkpt lat="22.417787" lon="114.130718"><ele>680</ele><time>2025-08-23T05:07:44Z</time></trkpt>
      <trkpt lat="22.417666" lon="114.130994"><ele>690</ele><time>2025-08-23T05:10:40Z</time></trkpt>
      <trkpt lat="22.417628" lon="114.131384"><ele>705</ele><time>2025-08-23T05:12:16Z</time></trkpt>
      <trkpt lat="22.41757" lon="114.131473"><ele>708</ele><time>2025-08-23T05:12:38Z</time></trkpt>
      <trkpt lat="22.41716" lon="114.131715"><ele>714</ele><time>2025-08-23T05:14:11Z</time></trkpt>
      <trkpt lat="22.416897" lon="114.132262"><ele>736</ele><time>2025-08-23T05:15:16Z</time></trkpt>
      <trkpt lat="22.416918" lon="114.13236"><ele>732</ele><time>2025-08-23T05:15:45Z</time></trkpt>
      <trkpt lat="22.416759" lon="114.132113"><ele>735</ele><time>2025-08-23T05:27:00Z</time></trkpt>
      <trkpt lat="22.416875" lon="114.131704"><ele>733</ele><time>2025-08-23T05:27:59Z</time></trkpt>
      <trkpt lat="22.41685" lon="114.131399"><ele>734</ele><time>2025-08-23T05:28:23Z</time></trkpt>
      <trkpt lat="22.416601" lon="114.131107"><ele>738</ele><time>2025-08-23T05:28:56Z</time></trkpt>
      <trkpt lat="22.416532" lon="114.130809"><ele>741</ele><time>2025-08-23T05:29:35Z</time></trkpt>
      <trkpt lat="22.416664" lon="114.130306"><ele>739</ele><time>2025-08-23T05:31:04Z</time></trkpt>
      <trkpt lat="22.416824" lon="114.130054"><ele>740</ele><time>2025-08-23T05:31:29Z</time></trkpt>
      <trkpt lat="22.416749" lon="114.129474"><ele>744</ele><time>2025-08-23T05:32:34Z</time></trkpt>
      <trkpt lat="22.41688" lon="114.128982"><ele>747</ele><time>2025-08-23T05:33:37Z</time></trkpt>
      <trkpt lat="22.416956" lon="114.12836"><ele>754</ele><time>2025-08-23T05:34:26Z</time></trkpt>
      <trkpt lat="22.416806" lon="114.127872"><ele>766</ele><time>2025-08-23T05:35:22Z</time></trkpt>
      <trkpt lat="22.416524" lon="114.127927"><ele>771</ele><time>2025-08-23T05:36:29Z</time></trkpt>
      <trkpt lat="22.41645" lon="114.127861"><ele>770</ele><time>2025-08-23T05:36:40Z</time></trkpt>
      <trkpt lat="22.416523" lon="114.127335"><ele>781</ele><time>2025-08-23T05:37:32Z</time></trkpt>
      <trkpt lat="22.416477" lon="114.126837"><ele>784</ele><time>2025-08-23T05:38:16Z</time></trkpt>
      <trkpt lat="22.416322" lon="114.126481"><ele>794</ele><time>2025-08-23T05:39:01Z</time></trkpt>
      <trkpt lat="22.416207" lon="114.125792"><ele>807</ele><time>2025-08-23T05:41:27Z</time></trkpt>
      <trkpt lat="22.415524" lon="114.12511"><ele>826</ele><time>2025-08-23T05:47:01Z</time></trkpt>
      <trkpt lat="22.414964" lon="114.125024"><ele>842</ele><time>2025-08-23T05:49:35Z</time></trkpt>
      <trkpt lat="22.414883" lon="114.124735"><ele>843</ele><time>2025-08-23T05:50:03Z</time></trkpt>
      <trkpt lat="22.414368" lon="114.12444"><ele>854</ele><time>2025-08-23T05:51:06Z</time></trkpt>
      <trkpt lat="22.414122" lon="114.124004"><ele>856</ele><time>2025-08-23T05:51:52Z</time></trkpt>
      <trkpt lat="22.414144" lon="114.123589"><ele>862</ele><time>2025-08-23T05:52:50Z</time></trkpt>
      <trkpt lat="22.414086" lon="114.123402"><ele>864</ele><time>2025-08-23T05:53:21Z</time></trkpt>
      <trkpt lat="22.413955" lon="114.12356"><ele>867</ele><time>2025-08-23T05:57:02Z</time></trkpt>
      <trkpt lat="22.413799" lon="114.124368"><ele>877</ele><time>2025-08-23T05:58:25Z</time></trkpt>
      <trkpt lat="22.413733" lon="114.124453"><ele>879</ele><time>2025-08-23T05:58:37Z</time></trkpt>
      <trkpt lat="22.41362" lon="114.124295"><ele>880</ele><time>2025-08-23T05:58:58Z</time></trkpt>
      <trkpt lat="22.413498" lon="114.123805"><ele>886</ele><time>2025-08-23T05:59:45Z</time></trkpt>
      <trkpt lat="22.413212" lon="114.123788"><ele>890</ele><time>2025-08-23T06:00:19Z</time></trkpt>
      <trkpt lat="22.412982" lon="114.123613"><ele>893</ele><time>2025-08-23T06:01:14Z</time></trkpt>
      <trkpt lat="22.412899" lon="114.123658"><ele>894</ele><time>2025-08-23T06:01:25Z</time></trkpt>
      <trkpt lat="22.41288" lon="114.123754"><ele>896</ele><time>2025-08-23T06:01:33Z</time></trkpt>
      <trkpt lat="22.413155" lon="114.124153"><ele>901</ele><time>2025-08-23T06:02:16Z</time></trkpt>
      <trkpt lat="22.413103" lon="114.124334"><ele>902</ele><time>2025-08-23T06:02:36Z</time></trkpt>
      <trkpt lat="22.412242" lon="114.124752"><ele>915</ele><time>2025-08-23T06:05:01Z</time></trkpt>
      <trkpt lat="22.412014" lon="114.124936"><ele>919</ele><time>2025-08-23T06:05:35Z</time></trkpt>
      <trkpt lat="22.411459" lon="114.125029"><ele>927</ele><time>2025-08-23T06:06:58Z</time></trkpt>
      <trkpt lat="22.41143" lon="114.125254"><ele>923</ele><time>2025-08-23T06:07:57Z</time></trkpt>
      <trkpt lat="22.411329" lon="114.12543"><ele>922</ele><time>2025-08-23T06:08:13Z</time></trkpt>
      <trkpt lat="22.410966" lon="114.125751"><ele>915</ele><time>2025-08-23T06:09:20Z</time></trkpt>
      <trkpt lat="22.410692" lon="114.12569"><ele>914</ele><time>2025-08-23T06:10:37Z</time></trkpt>
      <trkpt lat="22.410125" lon="114.125823"><ele>906</ele><time>2025-08-23T06:11:46Z</time></trkpt>
      <trkpt lat="22.409941" lon="114.125781"><ele>908</ele><time>2025-08-23T06:12:01Z</time></trkpt>
      <trkpt lat="22.409823" lon="114.125514"><ele>902</ele><time>2025-08-23T06:13:42Z</time></trkpt>
      <trkpt lat="22.409361" lon="114.125583"><ele>898</ele><time>2025-08-23T06:14:27Z</time></trkpt>
      <trkpt lat="22.408908" lon="114.125336"><ele>895</ele><time>2025-08-23T06:15:42Z</time></trkpt>
      <trkpt lat="22.408625" lon="114.125376"><ele>894</ele><time>2025-08-23T06:16:07Z</time></trkpt>
      <trkpt lat="22.408366" lon="114.125274"><ele>894</ele><time>2025-08-23T06:16:31Z</time></trkpt>
      <trkpt lat="22.408434" lon="114.124875"><ele>887</ele><time>2025-08-23T06:18:35Z</time></trkpt>
      <trkpt lat="22.408347" lon="114.124369"><ele>884</ele><time>2025-08-23T06:19:17Z</time></trkpt>
      <trkpt lat="22.408424" lon="114.124176"><ele>882</ele><time>2025-08-23T06:19:40Z</time></trkpt>
      <trkpt lat="22.408384" lon="114.12408"><ele>882</ele><time>2025-08-23T06:19:48Z</time></trkpt>
      <trkpt lat="22.40829" lon="114.1241"><ele>882</ele><time>2025-08-23T06:20:54Z</time></trkpt>
      <trkpt lat="22.40823" lon="114.124816"><ele>876</ele><time>2025-08-23T06:22:36Z</time></trkpt>
      <trkpt lat="22.407997" lon="114.125134"><ele>875</ele><time>2025-08-23T06:23:09Z</time></trkpt>
      <trkpt lat="22.408009" lon="114.125337"><ele>874</ele><time>2025-08-23T06:23:26Z</time></trkpt>
      <trkpt lat="22.407961" lon="114.125419"><ele>872</ele><time>2025-08-23T06:23:38Z</time></trkpt>
      <trkpt lat="22.407919" lon="114.125239"><ele>871</ele><time>2025-08-23T06:23:57Z</time></trkpt>
      <trkpt lat="22.408088" lon="114.124759"><ele>870</ele><time>2025-08-23T06:24:47Z</time></trkpt>
      <trkpt lat="22.407952" lon="114.123966"><ele>863</ele><time>2025-08-23T06:26:04Z</time></trkpt>
      <trkpt lat="22.407781" lon="114.123888"><ele>856</ele><time>2025-08-23T06:26:51Z</time></trkpt>
      <trkpt lat="22.407716" lon="114.124297"><ele>854</ele><time>2025-08-23T06:28:26Z</time></trkpt>
      <trkpt lat="22.407507" lon="114.12451"><ele>852</ele><time>2025-08-23T06:28:48Z</time></trkpt>
      <trkpt lat="22.407503" lon="114.124615"><ele>850</ele><time>2025-08-23T06:28:57Z</time></trkpt>
      <trkpt lat="22.407627" lon="114.124762"><ele>851</ele><time>2025-08-23T06:29:14Z</time></trkpt>
      <trkpt lat="22.407554" lon="114.124832"><ele>850</ele><time>2025-08-23T06:29:21Z</time></trkpt>
      <trkpt lat="22.407464" lon="114.124783"><ele>847</ele><time>2025-08-23T06:29:30Z</time></trkpt>
      <trkpt lat="22.407128" lon="114.124264"><ele>839</ele><time>2025-08-23T06:30:51Z</time></trkpt>
      <trkpt lat="22.407052" lon="114.123868"><ele>832</ele><time>2025-08-23T06:31:25Z</time></trkpt>
      <trkpt lat="22.406822" lon="114.123529"><ele>830</ele><time>2025-08-23T06:31:57Z</time></trkpt>
      <trkpt lat="22.406876" lon="114.12332"><ele>826</ele><time>2025-08-23T06:32:13Z</time></trkpt>
      <trkpt lat="22.407109" lon="114.122983"><ele>823</ele><time>2025-08-23T06:32:46Z</time></trkpt>
      <trkpt lat="22.40711" lon="114.122879"><ele>821</ele><time>2025-08-23T06:32:53Z</time></trkpt>
      <trkpt lat="22.406939" lon="114.122634"><ele>814</ele><time>2025-08-23T06:33:15Z</time></trkpt>
      <trkpt lat="22.40712" lon="114.122282"><ele>808</ele><time>2025-08-23T06:33:49Z</time></trkpt>
      <trkpt lat="22.40687" lon="114.122146"><ele>800</ele><time>2025-08-23T06:35:29Z</time></trkpt>
      <trkpt lat="22.406725" lon="114.122187"><ele>800</ele><time>2025-08-23T06:35:43Z</time></trkpt>
      <trkpt lat="22.406554" lon="114.12242"><ele>800</ele><time>2025-08-23T06:36:12Z</time></trkpt>
      <trkpt lat="22.406463" lon="114.122426"><ele>797</ele><time>2025-08-23T06:36:21Z</time></trkpt>
      <trkpt lat="22.406366" lon="114.122396"><ele>793</ele><time>2025-08-23T06:36:30Z</time></trkpt>
      <trkpt lat="22.406101" lon="114.1221"><ele>788</ele><time>2025-08-23T06:37:01Z</time></trkpt>
      <trkpt lat="22.406089" lon="114.121996"><ele>786</ele><time>2025-08-23T06:37:09Z</time></trkpt>
      <trkpt lat="22.406206" lon="114.121841"><ele>785</ele><time>2025-08-23T06:37:25Z</time></trkpt>
      <trkpt lat="22.406484" lon="114.121793"><ele>783</ele><time>2025-08-23T06:37:49Z</time></trkpt>
      <trkpt lat="22.40688" lon="114.121518"><ele>780</ele><time>2025-08-23T06:38:29Z</time></trkpt>
      <trkpt lat="22.407358" lon="114.121406"><ele>773</ele><time>2025-08-23T06:39:10Z</time></trkpt>
      <trkpt lat="22.407793" lon="114.121631"><ele>767</ele><time>2025-08-23T06:39:51Z</time></trkpt>
      <trkpt lat="22.407891" lon="114.121617"><ele>766</ele><time>2025-08-23T06:40:00Z</time></trkpt>
      <trkpt lat="22.408114" lon="114.12143"><ele>765</ele><time>2025-08-23T06:40:23Z</time></trkpt>
      <trkpt lat="22.408351" lon="114.121609"><ele>763</ele><time>2025-08-23T06:40:49Z</time></trkpt>
      <trkpt lat="22.408448" lon="114.12163"><ele>763</ele><time>2025-08-23T06:42:01Z</time></trkpt>
      <trkpt lat="22.408622" lon="114.121549"><ele>758</ele><time>2025-08-23T06:42:18Z</time></trkpt>
      <trkpt lat="22.408779" lon="114.121281"><ele>758</ele><time>2025-08-23T06:42:45Z</time></trkpt>
      <trkpt lat="22.408804" lon="114.120649"><ele>748</ele><time>2025-08-23T06:43:44Z</time></trkpt>
      <trkpt lat="22.408973" lon="114.120404"><ele>746</ele><time>2025-08-23T06:44:36Z</time></trkpt>
      <trkpt lat="22.40933" lon="114.120233"><ele>741</ele><time>2025-08-23T06:45:08Z</time></trkpt>
      <trkpt lat="22.409605" lon="114.120217"><ele>740</ele><time>2025-08-23T06:45:33Z</time></trkpt>
      <trkpt lat="22.409892" lon="114.119931"><ele>735</ele><time>2025-08-23T06:46:04Z</time></trkpt>
      <trkpt lat="22.410172" lon="114.119876"><ele>736</ele><time>2025-08-23T06:46:27Z</time></trkpt>
      <trkpt lat="22.410677" lon="114.119292"><ele>724</ele><time>2025-08-23T06:47:32Z</time></trkpt>
      <trkpt lat="22.411139" lon="114.119126"><ele>720</ele><time>2025-08-23T06:48:20Z</time></trkpt>
      <trkpt lat="22.411578" lon="114.118775"><ele>714</ele><time>2025-08-23T06:49:18Z</time></trkpt>
      <trkpt lat="22.411577" lon="114.118674"><ele>713</ele><time>2025-08-23T06:49:33Z</time></trkpt>
      <trkpt lat="22.411643" lon="114.118606"><ele>708</ele><time>2025-08-23T06:50:40Z</time></trkpt>
      <trkpt lat="22.411503" lon="114.118332"><ele>704</ele><time>2025-08-23T06:52:45Z</time></trkpt>
      <trkpt lat="22.411861" lon="114.117494"><ele>695</ele><time>2025-08-23T06:54:30Z</time></trkpt>
      <trkpt lat="22.411778" lon="114.117205"><ele>693</ele><time>2025-08-23T06:54:54Z</time></trkpt>
      <trkpt lat="22.411593" lon="114.116969"><ele>680</ele><time>2025-08-23T06:55:25Z</time></trkpt>
      <trkpt lat="22.411352" lon="114.116807"><ele>676</ele><time>2025-08-23T06:55:51Z</time></trkpt>
      <trkpt lat="22.411065" lon="114.116802"><ele>674</ele><time>2025-08-23T06:56:16Z</time></trkpt>
      <trkpt lat="22.410643" lon="114.117055"><ele>669</ele><time>2025-08-23T06:56:53Z</time></trkpt>
      <trkpt lat="22.410458" lon="114.116982"><ele>660</ele><time>2025-08-23T06:57:09Z</time></trkpt>
      <trkpt lat="22.410234" lon="114.115887"><ele>643</ele><time>2025-08-23T06:58:27Z</time></trkpt>
      <trkpt lat="22.410145" lon="114.115701"><ele>645</ele><time>2025-08-23T06:58:40Z</time></trkpt>
      <trkpt lat="22.409824" lon="114.11547"><ele>641</ele><time>2025-08-23T06:59:13Z</time></trkpt>
      <trkpt lat="22.40975" lon="114.11553"><ele>641</ele><time>2025-08-23T06:59:33Z</time></trkpt>
      <trkpt lat="22.409785" lon="114.115439"><ele>640</ele><time>2025-08-23T07:01:01Z</time></trkpt>
      <trkpt lat="22.409704" lon="114.115376"><ele>639</ele><time>2025-08-23T07:03:00Z</time></trkpt>
      <trkpt lat="22.409433" lon="114.115294"><ele>634</ele><time>2025-08-23T07:03:26Z</time></trkpt>
      <trkpt lat="22.408918" lon="114.11501"><ele>626</ele><time>2025-08-23T07:04:22Z</time></trkpt>
      <trkpt lat="22.408675" lon="114.114845"><ele>620</ele><time>2025-08-23T07:04:43Z</time></trkpt>
      <trkpt lat="22.408483" lon="114.11462"><ele>614</ele><time>2025-08-23T07:05:06Z</time></trkpt>
      <trkpt lat="22.40841" lon="114.114318"><ele>610</ele><time>2025-08-23T07:05:30Z</time></trkpt>
      <trkpt lat="22.408386" lon="114.113482"><ele>600</ele><time>2025-08-23T07:06:32Z</time></trkpt>
      <trkpt lat="22.408225" lon="114.112993"><ele>592</ele><time>2025-08-23T07:07:07Z</time></trkpt>
      <trkpt lat="22.407938" lon="114.11274"><ele>589</ele><time>2025-08-23T07:07:36Z</time></trkpt>
      <trkpt lat="22.40756" lon="114.112634"><ele>584</ele><time>2025-08-23T07:08:10Z</time></trkpt>
      <trkpt lat="22.40698" lon="114.112591"><ele>582</ele><time>2025-08-23T07:08:53Z</time></trkpt>
      <trkpt lat="22.406755" lon="114.112422"><ele>570</ele><time>2025-08-23T07:09:15Z</time></trkpt>
      <trkpt lat="22.406416" lon="114.111564"><ele>556</ele><time>2025-08-23T07:10:23Z</time></trkpt>
      <trkpt lat="22.406323" lon="114.110874"><ele>548</ele><time>2025-08-23T07:11:20Z</time></trkpt>
      <trkpt lat="22.405676" lon="114.11013"><ele>534</ele><time>2025-08-23T07:12:40Z</time></trkpt>
      <trkpt lat="22.405414" lon="114.109369"><ele>526</ele><time>2025-08-23T07:13:37Z</time></trkpt>
      <trkpt lat="22.405397" lon="114.10905"><ele>520</ele><time>2025-08-23T07:14:01Z</time></trkpt>
      <trkpt lat="22.405545" lon="114.108561"><ele>516</ele><time>2025-08-23T07:14:39Z</time></trkpt>
      <trkpt lat="22.406008" lon="114.108045"><ele>511</ele><time>2025-08-23T07:15:33Z</time></trkpt>
      <trkpt lat="22.406186" lon="114.107562"><ele>506</ele><time>2025-08-23T07:16:15Z</time></trkpt>
      <trkpt lat="22.40604" lon="114.107304"><ele>500</ele><time>2025-08-23T07:16:36Z</time></trkpt>
      <trkpt lat="22.405515" lon="114.106998"><ele>491</ele><time>2025-08-23T07:17:23Z</time></trkpt>
      <trkpt lat="22.405135" lon="114.107101"><ele>483</ele><time>2025-08-23T07:17:55Z</time></trkpt>
      <trkpt lat="22.404942" lon="114.107048"><ele>481</ele><time>2025-08-23T07:18:12Z</time></trkpt>
      <trkpt lat="22.404816" lon="114.106879"><ele>477</ele><time>2025-08-23T07:18:28Z</time></trkpt>
      <trkpt lat="22.404787" lon="114.106667"><ele>475</ele><time>2025-08-23T07:18:43Z</time></trkpt>
      <trkpt lat="22.405516" lon="114.105449"><ele>461</ele><time>2025-08-23T07:20:27Z</time></trkpt>
      <trkpt lat="22.405696" lon="114.105398"><ele>458</ele><time>2025-08-23T07:20:43Z</time></trkpt>
      <trkpt lat="22.406165" lon="114.105482"><ele>459</ele><time>2025-08-23T07:21:24Z</time></trkpt>
      <trkpt lat="22.406829" lon="114.105401"><ele>459</ele><time>2025-08-23T07:22:38Z</time></trkpt>
    </trkseg>
  </trk>
</gpx>
