<?xml version="1.0" encoding="UTF-8"?>
<gpx version="1.1" creator="MyWorld" xmlns="http://www.topografix.com/GPX/1/1">
  <metadata><name>上饶三清山</name></metadata>
  <trk>
    <name>上饶三清山</name>
    <trkseg>
      <trkpt lat="28.880747" lon="118.061382"><ele>580</ele><time>2026-01-02T00:40:04Z</time></trkpt>
      <trkpt lat="28.880862" lon="118.061176"><ele>584</ele><time>2026-01-02T00:40:25Z</time></trkpt>
      <trkpt lat="28.881081" lon="118.061027"><ele>589</ele><time>2026-01-02T00:40:50Z</time></trkpt>
      <trkpt lat="28.88123" lon="118.061004"><ele>593</ele><time>2026-01-02T00:41:05Z</time></trkpt>
      <trkpt lat="28.881552" lon="118.061103"><ele>595</ele><time>2026-01-02T00:41:36Z</time></trkpt>
      <trkpt lat="28.881691" lon="118.060737"><ele>606</ele><time>2026-01-02T00:42:06Z</time></trkpt>
      <trkpt lat="28.881779" lon="118.060673"><ele>606</ele><time>2026-01-02T00:42:19Z</time></trkpt>
      <trkpt lat="28.882635" lon="118.060589"><ele>609</ele><time>2026-01-02T00:43:32Z</time></trkpt>
      <trkpt lat="28.883114" lon="118.060793"><ele>634</ele><time>2026-01-02T00:45:04Z</time></trkpt>
      <trkpt lat="28.883337" lon="118.060696"><ele>632</ele><time>2026-01-02T00:45:36Z</time></trkpt>
      <trkpt lat="28.883614" lon="118.06045"><ele>629</ele><time>2026-01-02T00:46:05Z</time></trkpt>
      <trkpt lat="28.884139" lon="118.060436"><ele>631</ele><time>2026-01-02T00:46:46Z</time></trkpt>
      <trkpt lat="28.884599" lon="118.060678"><ele>640</ele><time>2026-01-02T00:47:37Z</time></trkpt>
      <trkpt lat="28.885181" lon="118.060804"><ele>648</ele><time>2026-01-02T00:49:21Z</time></trkpt>
      <trkpt lat="28.885308" lon="118.060913"><ele>645</ele><time>2026-01-02T00:49:36Z</time></trkpt>
      <trkpt lat="28.885548" lon="118.061334"><ele>650</ele><time>2026-01-02T00:50:22Z</time></trkpt>
      <trkpt lat="28.885647" lon="118.061344"><ele>650</ele><time>2026-01-02T00:50:33Z</time></trkpt>
      <trkpt lat="28.885704" lon="118.061522"><ele>652</ele><time>2026-01-02T00:50:46Z</time></trkpt>
      <trkpt lat="28.885928" lon="118.06161"><ele>658</ele><time>2026-01-02T00:51:22Z</time></trkpt>
      <trkpt lat="28.886048" lon="118.061779"><ele>665</ele><time>2026-01-02T00:51:47Z</time></trkpt>
      <trkpt lat="28.886187" lon="118.061791"><ele>669</ele><time>2026-01-02T00:52:11Z</time></trkpt>
      <trkpt lat="28.886312" lon="118.062034"><ele>675</ele><time>2026-01-02T00:52:45Z</time></trkpt>
      <trkpt lat="28.886517" lon="118.062138"><ele>687</ele><time>2026-01-02T00:53:58Z</time></trkpt>
      <trkpt lat="28.886591" lon="118.062295"><ele>686</ele><time>2026-01-02T00:54:16Z</time></trkpt>
      <trkpt lat="28.886756" lon="118.062433"><ele>689</ele><time>2026-01-02T00:54:39Z</time></trkpt>
      <trkpt lat="28.886976" lon="118.062545"><ele>692</ele><time>2026-01-02T00:55:09Z</time></trkpt>
      <trkpt lat="28.887062" lon="118.062751"><ele>698</ele><time>2026-01-02T00:55:41Z</time></trkpt>
      <trkpt lat="28.887218" lon="118.06289"><ele>700</ele><time>2026-01-02T00:56:09Z</time></trkpt>
      <trkpt lat="28.887669" lon="118.063178"><ele>716</ele><time>2026-01-02T00:57:34Z</time></trkpt>
      <trkpt lat="28.887719" lon="118.063084"><ele>721</ele><time>2026-01-02T00:57:59Z</time></trkpt>
      <trkpt lat="28.887804" lon="118.063117"><ele>726</ele><time>2026-01-02T00:58:22Z</time></trkpt>
      <trkpt lat="28.88788" lon="118.06326"><ele>726</ele><time>2026-01-02T00:58:46Z</time></trkpt>
      <trkpt lat="28.888301" lon="118.063621"><ele>737</ele><time>2026-01-02T00:59:57Z</time></trkpt>
      <trkpt lat="28.888899" lon="118.06376"><ele>740</ele><time>2026-01-02T01:01:02Z</time></trkpt>
      <trkpt lat="28.889446" lon="118.063686"><ele>747</ele><time>2026-01-02T01:01:59Z</time></trkpt>
      <trkpt lat="28.890176" lon="118.063334"><ele>767</ele><time>2026-01-02T01:03:29Z</time></trkpt>
      <trkpt lat="28.890471" lon="118.063384"><ele>773</ele><time>2026-01-02T01:04:19Z</time></trkpt>
      <trkpt lat="28.890609" lon="118.063168"><ele>771</ele><time>2026-01-02T01:05:14Z</time></trkpt>
      <trkpt lat="28.89093" lon="118.062997"><ele>777</ele><time>2026-01-02T01:05:59Z</time></trkpt>
      <trkpt lat="28.891077" lon="118.063015"><ele>787</ele><time>2026-01-02T01:06:16Z</time></trkpt>
      <trkpt lat="28.891342" lon="118.062632"><ele>794</ele><time>2026-01-02T01:07:19Z</time></trkpt>
      <trkpt lat="28.891479" lon="118.062567"><ele>796</ele><time>2026-01-02T01:07:41Z</time></trkpt>
      <trkpt lat="28.89172" lon="118.062304"><ele>805</ele><time>2026-01-02T01:08:33Z</time></trkpt>
      <trkpt lat="28.89244" lon="118.061892"><ele>822</ele><time>2026-01-02T01:10:07Z</time></trkpt>
      <trkpt lat="28.892529" lon="118.061702"><ele>824</ele><time>2026-01-02T01:10:32Z</time></trkpt>
      <trkpt lat="28.892767" lon="118.061681"><ele>827</ele><time>2026-01-02T01:11:13Z</time></trkpt>
      <trkpt lat="28.892862" lon="118.061556"><ele>827</ele><time>2026-01-02T01:11:32Z</time></trkpt>
      <trkpt lat="28.892956" lon="118.061617"><ele>829</ele><time>2026-01-02T01:11:41Z</time></trkpt>
      <trkpt lat="28.892922" lon="118.061723"><ele>841</ele><time>2026-01-02T01:11:55Z</time></trkpt>
      <trkpt lat="28.893204" lon="118.061607"><ele>866</ele><time>2026-01-02T01:13:03Z</time></trkpt>
      <trkpt lat="28.893345" lon="118.061635"><ele>864</ele><time>2026-01-02T01:13:16Z</time></trkpt>
      <trkpt lat="28.893449" lon="118.061514"><ele>865</ele><time>2026-01-02T01:13:32Z</time></trkpt>
      <trkpt lat="28.893541" lon="118.061513"><ele>868</ele><time>2026-01-02T01:13:57Z</time></trkpt>
      <trkpt lat="28.893723" lon="118.061543"><ele>879</ele><time>2026-01-02T01:14:52Z</time></trkpt>
      <trkpt lat="28.893874" lon="118.061671"><ele>882</ele><time>2026-01-02T01:15:23Z</time></trkpt>
      <trkpt lat="28.89401" lon="118.061641"><ele>886</ele><time>2026-01-02T01:16:01Z</time></trkpt>
      <trkpt lat="28.894224" lon="118.061777"><ele>895</ele><time>2026-01-02T01:16:53Z</time></trkpt>
      <trkpt lat="28.894514" lon="118.061797"><ele>892</ele><time>2026-01-02T01:17:21Z</time></trkpt>
      <trkpt lat="28.894794" lon="118.061924"><ele>898</ele><time>2026-01-02T01:17:52Z</time></trkpt>
      <trkpt lat="28.894874" lon="118.061874"><ele>906</ele><time>2026-01-02T01:18:10Z</time></trkpt>
      <trkpt lat="28.895257" lon="118.061936"><ele>908</ele><time>2026-01-02T01:18:59Z</time></trkpt>
      <trkpt lat="28.895446" lon="118.062113"><ele>918</ele><time>2026-01-02T01:19:47Z</time></trkpt>
      <trkpt lat="28.895688" lon="118.062166"><ele>916</ele><time>2026-01-02T01:20:12Z</time></trkpt>
      <trkpt lat="28.895867" lon="118.062354"><ele>916</ele><time>2026-01-02T01:20:55Z</time></trkpt>
      <trkpt lat="28.895959" lon="118.062238"><ele>931</ele><time>2026-01-02T01:21:31Z</time></trkpt>
      <trkpt lat="28.895908" lon="118.062227"><ele>938</ele><time>2026-01-02T01:21:53Z</time></trkpt>
      <trkpt lat="28.895966" lon="118.062107"><ele>940</ele><time>2026-01-02T01:22:10Z</time></trkpt>
      <trkpt lat="28.896146" lon="118.062154"><ele>925</ele><time>2026-01-02T01:22:30Z</time></trkpt>
      <trkpt lat="28.896424" lon="118.061878"><ele>936</ele><time>2026-01-02T01:23:39Z</time></trkpt>
      <trkpt lat="28.896489" lon="118.061725"><ele>943</ele><time>2026-01-02T01:24:14Z</time></trkpt>
      <trkpt lat="28.896751" lon="118.061627"><ele>972</ele><time>2026-01-02T01:25:11Z</time></trkpt>
      <trkpt lat="28.896836" lon="118.061675"><ele>967</ele><time>2026-01-02T01:25:29Z</time></trkpt>
      <trkpt lat="28.897116" lon="118.061615"><ele>975</ele><time>2026-01-02T01:26:17Z</time></trkpt>
      <trkpt lat="28.897327" lon="118.061735"><ele>988</ele><time>2026-01-02T01:27:31Z</time></trkpt>
      <trkpt lat="28.897619" lon="118.061761"><ele>997</ele><time>2026-01-02T01:28:25Z</time></trkpt>
      <trkpt lat="28.897692" lon="118.061716"><ele>997</ele><time>2026-01-02T01:28:37Z</time></trkpt>
      <trkpt lat="28.897746" lon="118.061553"><ele>995</ele><time>2026-01-02T01:28:54Z</time></trkpt>
      <trkpt lat="28.898601" lon="118.061655"><ele>1028</ele><time>2026-01-02T01:31:26Z</time></trkpt>
      <trkpt lat="28.898779" lon="118.061653"><ele>1041</ele><time>2026-01-02T01:32:18Z</time></trkpt>
      <trkpt lat="28.898865" lon="118.061559"><ele>1047</ele><time>2026-01-02T01:32:51Z</time></trkpt>
      <trkpt lat="28.899081" lon="118.061622"><ele>1052</ele><time>2026-01-02T01:33:45Z</time></trkpt>
      <trkpt lat="28.899064" lon="118.061559"><ele>1052</ele><time>2026-01-02T01:33:48Z</time></trkpt>
      <trkpt lat="28.899233" lon="118.061553"><ele>1054</ele><time>2026-01-02T01:35:41Z</time></trkpt>
      <trkpt lat="28.899301" lon="118.06163"><ele>1057</ele><time>2026-01-02T01:36:00Z</time></trkpt>
      <trkpt lat="28.899545" lon="118.061662"><ele>1057</ele><time>2026-01-02T01:36:28Z</time></trkpt>
      <trkpt lat="28.899824" lon="118.061454"><ele>1081</ele><time>2026-01-02T01:38:18Z</time></trkpt>
      <trkpt lat="28.899975" lon="118.061571"><ele>1087</ele><time>2026-01-02T01:38:47Z</time></trkpt>
      <trkpt lat="28.900103" lon="118.061506"><ele>1088</ele><time>2026-01-02T01:39:17Z</time></trkpt>
      <trkpt lat="28.90021" lon="118.061604"><ele>1091</ele><time>2026-01-02T01:39:39Z</time></trkpt>
      <trkpt lat="28.900269" lon="118.061425"><ele>1107</ele><time>2026-01-02T01:40:17Z</time></trkpt>
      <trkpt lat="28.900384" lon="118.061512"><ele>1109</ele><time>2026-01-02T01:40:30Z</time></trkpt>
      <trkpt lat="28.900479" lon="118.061391"><ele>1106</ele><time>2026-01-02T01:40:57Z</time></trkpt>
      <trkpt lat="28.900384" lon="118.061461"><ele>1116</ele><time>2026-01-02T01:41:18Z</time></trkpt>
      <trkpt lat="28.900443" lon="118.061497"><ele>1114</ele><time>2026-01-02T01:41:39Z</time></trkpt>
      <trkpt lat="28.900625" lon="118.061332"><ele>1112</ele><time>2026-01-02T01:41:54Z</time></trkpt>
      <trkpt lat="28.900962" lon="118.061239"><ele>1141</ele><time>2026-01-02T01:43:05Z</time></trkpt>
      <trkpt lat="28.901043" lon="118.060978"><ele>1161</ele><time>2026-01-02T01:44:07Z</time></trkpt>
      <trkpt lat="28.901133" lon="118.061033"><ele>1166</ele><time>2026-01-02T01:44:25Z</time></trkpt>
      <trkpt lat="28.901066" lon="118.060901"><ele>1170</ele><time>2026-01-02T01:45:32Z</time></trkpt>
      <trkpt lat="28.901176" lon="118.060944"><ele>1165</ele><time>2026-01-02T01:46:11Z</time></trkpt>
      <trkpt lat="28.901177" lon="118.060999"><ele>1165</ele><time>2026-01-02T01:46:12Z</time></trkpt>
      <trkpt lat="28.900917" lon="118.060629"><ele>1168</ele><time>2026-01-02T01:46:25Z</time></trkpt>
      <trkpt lat="28.900837" lon="118.060604"><ele>1168</ele><time>2026-01-02T01:46:26Z</time></trkpt>
      <trkpt lat="28.900955" lon="118.060702"><ele>1168</ele><time>2026-01-02T01:46:28Z</time></trkpt>
      <trkpt lat="28.900903" lon="118.060704"><ele>1168</ele><time>2026-01-02T01:46:29Z</time></trkpt>
      <trkpt lat="28.900963" lon="118.060667"><ele>1168</ele><time>2026-01-02T01:46:30Z</time></trkpt>
      <trkpt lat="28.900939" lon="118.060726"><ele>1168</ele><time>2026-01-02T01:46:32Z</time></trkpt>
      <trkpt lat="28.900825" lon="118.060564"><ele>1170</ele><time>2026-01-02T01:46:44Z</time></trkpt>
      <trkpt lat="28.901197" lon="118.060944"><ele>1174</ele><time>2026-01-02T01:47:32Z</time></trkpt>
      <trkpt lat="28.901098" lon="118.060898"><ele>1170</ele><time>2026-01-02T01:48:12Z</time></trkpt>
      <trkpt lat="28.901129" lon="118.060941"><ele>1166</ele><time>2026-01-02T01:48:22Z</time></trkpt>
      <trkpt lat="28.901218" lon="118.060808"><ele>1162</ele><time>2026-01-02T01:49:02Z</time></trkpt>
      <trkpt lat="28.90127" lon="118.060661"><ele>1169</ele><time>2026-01-02T01:49:39Z</time></trkpt>
      <trkpt lat="28.901235" lon="118.060629"><ele>1167</ele><time>2026-01-02T01:49:45Z</time></trkpt>
      <trkpt lat="28.90145" lon="118.060518"><ele>1169</ele><time>2026-01-02T01:51:13Z</time></trkpt>
      <trkpt lat="28.901594" lon="118.060657"><ele>1174</ele><time>2026-01-02T01:51:51Z</time></trkpt>
      <trkpt lat="28.901611" lon="118.060854"><ele>1174</ele><time>2026-01-02T01:52:24Z</time></trkpt>
      <trkpt lat="28.902035" lon="118.06121"><ele>1201</ele><time>2026-01-02T01:54:42Z</time></trkpt>
      <trkpt lat="28.902073" lon="118.061316"><ele>1201</ele><time>2026-01-02T01:55:01Z</time></trkpt>
      <trkpt lat="28.902016" lon="118.061401"><ele>1212</ele><time>2026-01-02T01:55:23Z</time></trkpt>
      <trkpt lat="28.902092" lon="118.061528"><ele>1212</ele><time>2026-01-02T01:55:49Z</time></trkpt>
      <trkpt lat="28.902513" lon="118.06165"><ele>1213</ele><time>2026-01-02T01:56:57Z</time></trkpt>
      <trkpt lat="28.902503" lon="118.061809"><ele>1230</ele><time>2026-01-02T01:57:45Z</time></trkpt>
      <trkpt lat="28.902579" lon="118.062005"><ele>1224</ele><time>2026-01-02T01:58:40Z</time></trkpt>
      <trkpt lat="28.902478" lon="118.062178"><ele>1228</ele><time>2026-01-02T01:59:07Z</time></trkpt>
      <trkpt lat="28.902561" lon="118.062187"><ele>1220</ele><time>2026-01-02T01:59:29Z</time></trkpt>
      <trkpt lat="28.902667" lon="118.062075"><ele>1226</ele><time>2026-01-02T02:00:07Z</time></trkpt>
      <trkpt lat="28.902598" lon="118.061994"><ele>1247</ele><time>2026-01-02T02:00:37Z</time></trkpt>
      <trkpt lat="28.902693" lon="118.06201"><ele>1242</ele><time>2026-01-02T02:00:56Z</time></trkpt>
      <trkpt lat="28.90263" lon="118.062167"><ele>1242</ele><time>2026-01-02T02:09:50Z</time></trkpt>
      <trkpt lat="28.902678" lon="118.062024"><ele>1242</ele><time>2026-01-02T02:10:26Z</time></trkpt>
      <trkpt lat="28.902637" lon="118.062142"><ele>1242</ele><time>2026-01-02T02:11:31Z</time></trkpt>
      <trkpt lat="28.902552" lon="118.062028"><ele>1248</ele><time>2026-01-02T02:11:42Z</time></trkpt>
      <trkpt lat="28.902599" lon="118.062045"><ele>1242</ele><time>2026-01-02T02:11:57Z</time></trkpt>
      <trkpt lat="28.902563" lon="118.062177"><ele>1234</ele><time>2026-01-02T02:12:55Z</time></trkpt>
      <trkpt lat="28.902464" lon="118.062294"><ele>1225</ele><time>2026-01-02T02:13:49Z</time></trkpt>
      <trkpt lat="28.903019" lon="118.06235"><ele>1241</ele><time>2026-01-02T02:16:16Z</time></trkpt>
      <trkpt lat="28.903183" lon="118.061896"><ele>1251</ele><time>2026-01-02T02:17:35Z</time></trkpt>
      <trkpt lat="28.903491" lon="118.061647"><ele>1268</ele><time>2026-01-02T02:19:25Z</time></trkpt>
      <trkpt lat="28.903541" lon="118.061655"><ele>1270</ele><time>2026-01-02T02:19:40Z</time></trkpt>
      <trkpt lat="28.903573" lon="118.061811"><ele>1278</ele><time>2026-01-02T02:20:13Z</time></trkpt>
      <trkpt lat="28.903673" lon="118.061646"><ele>1279</ele><time>2026-01-02T02:21:07Z</time></trkpt>
      <trkpt lat="28.90377" lon="118.061668"><ele>1286</ele><time>2026-01-02T02:22:01Z</time></trkpt>
      <trkpt lat="28.903773" lon="118.061612"><ele>1290</ele><time>2026-01-02T02:22:15Z</time></trkpt>
      <trkpt lat="28.903954" lon="118.061532"><ele>1291</ele><time>2026-01-02T02:23:02Z</time></trkpt>
      <trkpt lat="28.903929" lon="118.061732"><ele>1302</ele><time>2026-01-02T02:24:03Z</time></trkpt>
      <trkpt lat="28.904108" lon="118.06166"><ele>1305</ele><time>2026-01-02T02:24:52Z</time></trkpt>
      <trkpt lat="28.904052" lon="118.061854"><ele>1315</ele><time>2026-01-02T02:25:42Z</time></trkpt>
      <trkpt lat="28.904142" lon="118.061865"><ele>1320</ele><time>2026-01-02T02:26:14Z</time></trkpt>
      <trkpt lat="28.904149" lon="118.061967"><ele>1327</ele><time>2026-01-02T02:27:44Z</time></trkpt>
      <trkpt lat="28.904231" lon="118.061973"><ele>1327</ele><time>2026-01-02T02:28:06Z</time></trkpt>
      <trkpt lat="28.904322" lon="118.06194"><ele>1328</ele><time>2026-01-02T02:28:31Z</time></trkpt>
      <trkpt lat="28.904448" lon="118.061635"><ele>1330</ele><time>2026-01-02T02:29:36Z</time></trkpt>
      <trkpt lat="28.904475" lon="118.061406"><ele>1328</ele><time>2026-01-02T02:29:51Z</time></trkpt>
      <trkpt lat="28.904225" lon="118.060939"><ele>1332</ele><time>2026-01-02T02:31:19Z</time></trkpt>
      <trkpt lat="28.904441" lon="118.060868"><ele>1349</ele><time>2026-01-02T02:32:21Z</time></trkpt>
      <trkpt lat="28.904194" lon="118.060527"><ele>1374</ele><time>2026-01-02T02:34:45Z</time></trkpt>
      <trkpt lat="28.904335" lon="118.060641"><ele>1366</ele><time>2026-01-02T02:36:27Z</time></trkpt>
      <trkpt lat="28.904343" lon="118.060537"><ele>1366</ele><time>2026-01-02T02:37:05Z</time></trkpt>
      <trkpt lat="28.904475" lon="118.060605"><ele>1374</ele><time>2026-01-02T02:37:41Z</time></trkpt>
      <trkpt lat="28.90452" lon="118.060455"><ele>1381</ele><time>2026-01-02T02:38:33Z</time></trkpt>
      <trkpt lat="28.904482" lon="118.060295"><ele>1387</ele><time>2026-01-02T02:39:04Z</time></trkpt>
      <trkpt lat="28.904565" lon="118.060246"><ele>1386</ele><time>2026-01-02T02:39:36Z</time></trkpt>
      <trkpt lat="28.904635" lon="118.059991"><ele>1386</ele><time>2026-01-02T02:40:23Z</time></trkpt>
      <trkpt lat="28.904551" lon="118.059549"><ele>1400</ele><time>2026-01-02T02:41:19Z</time></trkpt>
      <trkpt lat="28.90465" lon="118.059438"><ele>1403</ele><time>2026-01-02T02:41:52Z</time></trkpt>
      <trkpt lat="28.904539" lon="118.059103"><ele>1413</ele><time>2026-01-02T02:42:59Z</time></trkpt>
      <trkpt lat="28.904675" lon="118.058707"><ele>1424</ele><time>2026-01-02T02:44:55Z</time></trkpt>
      <trkpt lat="28.904672" lon="118.058503"><ele>1435</ele><time>2026-01-02T02:45:44Z</time></trkpt>
      <trkpt lat="28.904747" lon="118.05879"><ele>1445</ele><time>2026-01-02T02:47:54Z</time></trkpt>
      <trkpt lat="28.904704" lon="118.058823"><ele>1464</ele><time>2026-01-02T02:48:53Z</time></trkpt>
      <trkpt lat="28.904791" lon="118.058698"><ele>1449</ele><time>2026-01-02T02:50:09Z</time></trkpt>
      <trkpt lat="28.904843" lon="118.058328"><ele>1454</ele><time>2026-01-02T02:51:18Z</time></trkpt>
      <trkpt lat="28.904796" lon="118.058063"><ele>1471</ele><time>2026-01-02T02:52:08Z</time></trkpt>
      <trkpt lat="28.904929" lon="118.057906"><ele>1471</ele><time>2026-01-02T02:52:40Z</time></trkpt>
      <trkpt lat="28.904799" lon="118.05769"><ele>1479</ele><time>2026-01-02T02:53:21Z</time></trkpt>
      <trkpt lat="28.904708" lon="118.057697"><ele>1480</ele><time>2026-01-02T02:53:38Z</time></trkpt>
      <trkpt lat="28.905029" lon="118.05777"><ele>1493</ele><time>2026-01-02T02:55:13Z</time></trkpt>
      <trkpt lat="28.904795" lon="118.057594"><ele>1502</ele><time>2026-01-02T02:56:19Z</time></trkpt>
      <trkpt lat="28.90453" lon="118.057146"><ele>1514</ele><time>2026-01-02T02:58:22Z</time></trkpt>
      <trkpt lat="28.904527" lon="118.057043"><ele>1524</ele><time>2026-01-02T02:59:55Z</time></trkpt>
      <trkpt lat="28.904624" lon="118.057119"><ele>1522</ele><time>2026-01-02T03:00:54Z</time></trkpt>
      <trkpt lat="28.904742" lon="118.057032"><ele>1526</ele><time>2026-01-02T03:01:26Z</time></trkpt>
      <trkpt lat="28.905151" lon="118.056956"><ele>1527</ele><time>2026-01-02T03:02:39Z</time></trkpt>
      <trkpt lat="28.905315" lon="118.056827"><ele>1532</ele><time>2026-01-02T03:03:08Z</time></trkpt>
      <trkpt lat="28.905404" lon="118.056665"><ele>1538</ele><time>2026-01-02T03:03:25Z</time></trkpt>
      <trkpt lat="28.906043" lon="118.056619"><ele>1540</ele><time>2026-01-02T03:05:10Z</time></trkpt>
      <trkpt lat="28.906216" lon="118.056524"><ele>1546</ele><time>2026-01-02T03:05:28Z</time></trkpt>
      <trkpt lat="28.906695" lon="118.056483"><ele>1549</ele><time>2026-01-02T03:06:30Z</time></trkpt>
      <trkpt lat="28.907254" lon="118.056275"><ele>1559</ele><time>2026-01-02T03:07:34Z</time></trkpt>
      <trkpt lat="28.907321" lon="118.056444"><ele>1556</ele><time>2026-01-02T03:07:56Z</time></trkpt>
      <trkpt lat="28.907715" lon="118.056138"><ele>1554</ele><time>2026-01-02T03:08:43Z</time></trkpt>
      <trkpt lat="28.907742" lon="118.05597"><ele>1560</ele><time>2026-01-02T03:08:58Z</time></trkpt>
      <trkpt lat="28.90787" lon="118.055816"><ele>1559</ele><time>2026-01-02T03:09:19Z</time></trkpt>
      <trkpt lat="28.908299" lon="118.055747"><ele>1559</ele><time>2026-01-02T03:10:13Z</time></trkpt>
      <trkpt lat="28.908332" lon="118.055787"><ele>1557</ele><time>2026-01-02T03:10:18Z</time></trkpt>
      <trkpt lat="28.908147" lon="118.055967"><ele>1563</ele><time>2026-01-02T03:10:50Z</time></trkpt>
      <trkpt lat="28.907906" lon="118.056362"><ele>1572</ele><time>2026-01-02T03:11:49Z</time></trkpt>
      <trkpt lat="28.907965" lon="118.056445"><ele>1571</ele><time>2026-01-02T03:11:56Z</time></trkpt>
      <trkpt lat="28.908481" lon="118.056492"><ele>1577</ele><time>2026-01-02T03:13:06Z</time></trkpt>
      <trkpt lat="28.908461" lon="118.056603"><ele>1577</ele><time>2026-01-02T03:13:20Z</time></trkpt>
      <trkpt lat="28.908581" lon="118.056844"><ele>1579</ele><time>2026-01-02T03:13:53Z</time></trkpt>
      <trkpt lat="28.908562" lon="118.056965"><ele>1576</ele><time>2026-01-02T03:14:03Z</time></trkpt>
      <trkpt lat="28.908703" lon="118.057123"><ele>1586</ele><time>2026-01-02T03:14:35Z</time></trkpt>
      <trkpt lat="28.908676" lon="118.057353"><ele>1571</ele><time>2026-01-02T03:14:55Z</time></trkpt>
      <trkpt lat="28.90881" lon="118.057425"><ele>1591</ele><time>2026-01-02T03:15:11Z</time></trkpt>
      <trkpt lat="28.908978" lon="118.05693"><ele>1584</ele><time>2026-01-02T03:16:20Z</time></trkpt>
      <trkpt lat="28.908965" lon="118.05677"><ele>1588</ele><time>2026-01-02T03:16:47Z</time></trkpt>
      <trkpt lat="28.909127" lon="118.056564"><ele>1588</ele><time>2026-01-02T03:17:21Z</time></trkpt>
      <trkpt lat="28.909192" lon="118.05625"><ele>1590</ele><time>2026-01-02T03:17:53Z</time></trkpt>
      <trkpt lat="28.909251" lon="118.056251"><ele>1589</ele><time>2026-01-02T03:18:00Z</time></trkpt>
      <trkpt lat="28.909369" lon="118.056021"><ele>1590</ele><time>2026-01-02T03:18:32Z</time></trkpt>
      <trkpt lat="28.909597" lon="118.056138"><ele>1587</ele><time>2026-01-02T03:19:04Z</time></trkpt>
      <trkpt lat="28.909749" lon="118.055998"><ele>1589</ele><time>2026-01-02T03:19:23Z</time></trkpt>
      <trkpt lat="28.909901" lon="118.056025"><ele>1586</ele><time>2026-01-02T03:19:43Z</time></trkpt>
      <trkpt lat="28.910156" lon="118.055878"><ele>1595</ele><time>2026-01-02T03:20:08Z</time></trkpt>
      <trkpt lat="28.910321" lon="118.055984"><ele>1592</ele><time>2026-01-02T03:20:32Z</time></trkpt>
      <trkpt lat="28.91068" lon="118.055969"><ele>1590</ele><time>2026-01-02T03:21:04Z</time></trkpt>
      <trkpt lat="28.910915" lon="118.055577"><ele>1582</ele><time>2026-01-02T03:21:43Z</time></trkpt>
      <trkpt lat="28.910826" lon="118.055544"><ele>1583</ele><time>2026-01-02T03:21:54Z</time></trkpt>
      <trkpt lat="28.910792" lon="118.055447"><ele>1581</ele><time>2026-01-02T03:22:06Z</time></trkpt>
      <trkpt lat="28.91104" lon="118.055118"><ele>1590</ele><time>2026-01-02T03:22:52Z</time></trkpt>
      <trkpt lat="28.911198" lon="118.055218"><ele>1586</ele><time>2026-01-02T03:23:16Z</time></trkpt>
      <trkpt lat="28.911551" lon="118.055115"><ele>1602</ele><time>2026-01-02T03:23:54Z</time></trkpt>
      <trkpt lat="28.911652" lon="118.05514"><ele>1602</ele><time>2026-01-02T03:24:06Z</time></trkpt>
      <trkpt lat="28.911784" lon="118.054938"><ele>1601</ele><time>2026-01-02T03:24:39Z</time></trkpt>
      <trkpt lat="28.911919" lon="118.054869"><ele>1605</ele><time>2026-01-02T03:25:15Z</time></trkpt>
      <trkpt lat="28.912153" lon="118.054827"><ele>1609</ele><time>2026-01-02T03:26:25Z</time></trkpt>
      <trkpt lat="28.912436" lon="118.05495"><ele>1611</ele><time>2026-01-02T03:26:57Z</time></trkpt>
      <trkpt lat="28.912542" lon="118.054786"><ele>1615</ele><time>2026-01-02T03:27:16Z</time></trkpt>
      <trkpt lat="28.912886" lon="118.054825"><ele>1617</ele><time>2026-01-02T03:28:10Z</time></trkpt>
      <trkpt lat="28.912964" lon="118.054958"><ele>1618</ele><time>2026-01-02T03:28:47Z</time></trkpt>
      <trkpt lat="28.912956" lon="118.054898"><ele>1618</ele><time>2026-01-02T03:28:52Z</time></trkpt>
      <trkpt lat="28.912857" lon="118.054935"><ele>1618</ele><time>2026-01-02T03:28:59Z</time></trkpt>
      <trkpt lat="28.912786" lon="118.054774"><ele>1618</ele><time>2026-01-02T03:29:09Z</time></trkpt>
      <trkpt lat="28.912769" lon="118.054823"><ele>1619</ele><time>2026-01-02T03:29:36Z</time></trkpt>
      <trkpt lat="28.912807" lon="118.05479"><ele>1618</ele><time>2026-01-02T03:30:52Z</time></trkpt>
      <trkpt lat="28.912762" lon="118.05453"><ele>1619</ele><time>2026-01-02T03:31:32Z</time></trkpt>
      <trkpt lat="28.912613" lon="118.054294"><ele>1617</ele><time>2026-01-02T03:31:59Z</time></trkpt>
      <trkpt lat="28.912413" lon="118.05405"><ele>1613</ele><time>2026-01-02T03:32:34Z</time></trkpt>
      <trkpt lat="28.912131" lon="118.053907"><ele>1621</ele><time>2026-01-02T03:33:05Z</time></trkpt>
      <trkpt lat="28.912462" lon="118.053812"><ele>1606</ele><time>2026-01-02T03:33:51Z</time></trkpt>
      <trkpt lat="28.912523" lon="118.053552"><ele>1605</ele><time>2026-01-02T03:34:11Z</time></trkpt>
      <trkpt lat="28.91244" lon="118.053351"><ele>1619</ele><time>2026-01-02T03:34:49Z</time></trkpt>
      <trkpt lat="28.912533" lon="118.053315"><ele>1615</ele><time>2026-01-02T03:35:00Z</time></trkpt>
      <trkpt lat="28.912675" lon="118.053366"><ele>1611</ele><time>2026-01-02T03:35:17Z</time></trkpt>
      <trkpt lat="28.912941" lon="118.053231"><ele>1615</ele><time>2026-01-02T03:35:41Z</time></trkpt>
      <trkpt lat="28.912984" lon="118.053191"><ele>1616</ele><time>2026-01-02T03:35:45Z</time></trkpt>
      <trkpt lat="28.912901" lon="118.053037"><ele>1617</ele><time>2026-01-02T03:35:57Z</time></trkpt>
      <trkpt lat="28.91294" lon="118.052998"><ele>1616</ele><time>2026-01-02T03:36:03Z</time></trkpt>
      <trkpt lat="28.913155" lon="118.053053"><ele>1617</ele><time>2026-01-02T03:36:20Z</time></trkpt>
      <trkpt lat="28.91306" lon="118.053002"><ele>1619</ele><time>2026-01-02T03:37:30Z</time></trkpt>
      <trkpt lat="28.912909" lon="118.053058"><ele>1619</ele><time>2026-01-02T03:37:44Z</time></trkpt>
      <trkpt lat="28.912961" lon="118.053211"><ele>1621</ele><time>2026-01-02T03:37:56Z</time></trkpt>
      <trkpt lat="28.912708" lon="118.053381"><ele>1624</ele><time>2026-01-02T03:38:20Z</time></trkpt>
      <trkpt lat="28.912452" lon="118.053366"><ele>1623</ele><time>2026-01-02T03:38:43Z</time></trkpt>
      <trkpt lat="28.91245" lon="118.053461"><ele>1623</ele><time>2026-01-02T03:38:57Z</time></trkpt>
      <trkpt lat="28.912573" lon="118.053542"><ele>1621</ele><time>2026-01-02T03:39:12Z</time></trkpt>
      <trkpt lat="28.912474" lon="118.053752"><ele>1625</ele><time>2026-01-02T03:39:30Z</time></trkpt>
      <trkpt lat="28.912095" lon="118.053901"><ele>1630</ele><time>2026-01-02T03:40:01Z</time></trkpt>
      <trkpt lat="28.912194" lon="118.05402"><ele>1626</ele><time>2026-01-02T03:40:14Z</time></trkpt>
      <trkpt lat="28.912437" lon="118.054055"><ele>1623</ele><time>2026-01-02T03:40:37Z</time></trkpt>
      <trkpt lat="28.912467" lon="118.054225"><ele>1623</ele><time>2026-01-02T03:40:48Z</time></trkpt>
      <trkpt lat="28.912603" lon="118.054272"><ele>1621</ele><time>2026-01-02T03:41:00Z</time></trkpt>
      <trkpt lat="28.912761" lon="118.054484"><ele>1624</ele><time>2026-01-02T03:41:26Z</time></trkpt>
      <trkpt lat="28.912709" lon="118.054636"><ele>1621</ele><time>2026-01-02T03:41:51Z</time></trkpt>
      <trkpt lat="28.912833" lon="118.054822"><ele>1622</ele><time>2026-01-02T03:42:12Z</time></trkpt>
      <trkpt lat="28.91358" lon="118.055144"><ele>1603</ele><time>2026-01-02T03:43:52Z</time></trkpt>
      <trkpt lat="28.913621" lon="118.055374"><ele>1606</ele><time>2026-01-02T03:44:24Z</time></trkpt>
      <trkpt lat="28.913823" lon="118.055363"><ele>1601</ele><time>2026-01-02T03:44:44Z</time></trkpt>
      <trkpt lat="28.913962" lon="118.055502"><ele>1605</ele><time>2026-01-02T03:45:09Z</time></trkpt>
      <trkpt lat="28.914017" lon="118.055667"><ele>1606</ele><time>2026-01-02T03:45:22Z</time></trkpt>
      <trkpt lat="28.913989" lon="118.055782"><ele>1607</ele><time>2026-01-02T03:45:30Z</time></trkpt>
      <trkpt lat="28.91379" lon="118.056124"><ele>1608</ele><time>2026-01-02T03:45:59Z</time></trkpt>
      <trkpt lat="28.914024" lon="118.05627"><ele>1604</ele><time>2026-01-02T03:47:15Z</time></trkpt>
      <trkpt lat="28.914079" lon="118.056494"><ele>1607</ele><time>2026-01-02T03:47:39Z</time></trkpt>
      <trkpt lat="28.914174" lon="118.05661"><ele>1608</ele><time>2026-01-02T03:47:52Z</time></trkpt>
      <trkpt lat="28.914114" lon="118.056819"><ele>1610</ele><time>2026-01-02T03:48:10Z</time></trkpt>
      <trkpt lat="28.913876" lon="118.057121"><ele>1611</ele><time>2026-01-02T03:48:43Z</time></trkpt>
      <trkpt lat="28.913683" lon="118.057523"><ele>1606</ele><time>2026-01-02T03:49:56Z</time></trkpt>
      <trkpt lat="28.913344" lon="118.057899"><ele>1608</ele><time>2026-01-02T03:51:13Z</time></trkpt>
      <trkpt lat="28.913382" lon="118.057957"><ele>1608</ele><time>2026-01-02T03:51:28Z</time></trkpt>
      <trkpt lat="28.912921" lon="118.058329"><ele>1616</ele><time>2026-01-02T03:53:06Z</time></trkpt>
      <trkpt lat="28.912964" lon="118.058364"><ele>1625</ele><time>2026-01-02T03:53:26Z</time></trkpt>
      <trkpt lat="28.91291" lon="118.058344"><ele>1623</ele><time>2026-01-02T03:53:30Z</time></trkpt>
      <trkpt lat="28.912935" lon="118.058513"><ele>1622</ele><time>2026-01-02T03:54:52Z</time></trkpt>
      <trkpt lat="28.912779" lon="118.058714"><ele>1618</ele><time>2026-01-02T03:55:40Z</time></trkpt>
      <trkpt lat="28.912829" lon="118.058806"><ele>1613</ele><time>2026-01-02T03:55:51Z</time></trkpt>
      <trkpt lat="28.912912" lon="118.058751"><ele>1610</ele><time>2026-01-02T03:55:59Z</time></trkpt>
      <trkpt lat="28.912624" lon="118.058816"><ele>1607</ele><time>2026-01-02T03:56:42Z</time></trkpt>
      <trkpt lat="28.912429" lon="118.059074"><ele>1615</ele><time>2026-01-02T03:57:14Z</time></trkpt>
      <trkpt lat="28.912366" lon="118.059365"><ele>1610</ele><time>2026-01-02T03:57:50Z</time></trkpt>
      <trkpt lat="28.912213" lon="118.059512"><ele>1605</ele><time>2026-01-02T03:58:23Z</time></trkpt>
      <trkpt lat="28.912197" lon="118.059675"><ele>1604</ele><time>2026-01-02T03:58:38Z</time></trkpt>
      <trkpt lat="28.912315" lon="118.059809"><ele>1606</ele><time>2026-01-02T03:59:20Z</time></trkpt>
      <trkpt lat="28.91219" lon="118.059958"><ele>1608</ele><time>2026-01-02T04:00:08Z</time></trkpt>
      <trkpt lat="28.911895" lon="118.060083"><ele>1583</ele><time>2026-01-02T04:00:53Z</time></trkpt>
      <trkpt lat="28.911818" lon="118.060217"><ele>1580</ele><time>2026-01-02T04:01:11Z</time></trkpt>
      <trkpt lat="28.911841" lon="118.060404"><ele>1606</ele><time>2026-01-02T04:01:29Z</time></trkpt>
      <trkpt lat="28.911801" lon="118.060448"><ele>1609</ele><time>2026-01-02T04:01:33Z</time></trkpt>
      <trkpt lat="28.911781" lon="118.060398"><ele>1608</ele><time>2026-01-02T04:03:28Z</time></trkpt>
      <trkpt lat="28.911714" lon="118.060458"><ele>1613</ele><time>2026-01-02T04:09:31Z</time></trkpt>
      <trkpt lat="28.911618" lon="118.060404"><ele>1614</ele><time>2026-01-02T04:09:42Z</time></trkpt>
      <trkpt lat="28.911669" lon="118.060066"><ele>1625</ele><time>2026-01-02T04:10:15Z</time></trkpt>
      <trkpt lat="28.91151" lon="118.060212"><ele>1630</ele><time>2026-01-02T04:10:38Z</time></trkpt>
      <trkpt lat="28.911315" lon="118.060174"><ele>1619</ele><time>2026-01-02T04:11:00Z</time></trkpt>
      <trkpt lat="28.91121" lon="118.060282"><ele>1623</ele><time>2026-01-02T04:11:17Z</time></trkpt>
      <trkpt lat="28.91098" lon="118.060333"><ele>1618</ele><time>2026-01-02T04:11:41Z</time></trkpt>
      <trkpt lat="28.910923" lon="118.060265"><ele>1617</ele><time>2026-01-02T04:11:53Z</time></trkpt>
      <trkpt lat="28.911052" lon="118.060178"><ele>1615</ele><time>2026-01-02T04:12:09Z</time></trkpt>
      <trkpt lat="28.911033" lon="118.060057"><ele>1623</ele><time>2026-01-02T04:12:19Z</time></trkpt>
      <trkpt lat="28.910898" lon="118.060079"><ele>1631</ele><time>2026-01-02T04:12:38Z</time></trkpt>
      <trkpt lat="28.91052" lon="118.059917"><ele>1624</ele><time>2026-01-02T04:13:22Z</time></trkpt>
      <trkpt lat="28.910325" lon="118.059936"><ele>1621</ele><time>2026-01-02T04:13:39Z</time></trkpt>
      <trkpt lat="28.910189" lon="118.059858"><ele>1620</ele><time>2026-01-02T04:13:55Z</time></trkpt>
      <trkpt lat="28.909737" lon="118.059982"><ele>1627</ele><time>2026-01-02T04:14:35Z</time></trkpt>
      <trkpt lat="28.909682" lon="118.060073"><ele>1632</ele><time>2026-01-02T04:14:43Z</time></trkpt>
      <trkpt lat="28.909737" lon="118.060165"><ele>1628</ele><time>2026-01-02T04:14:52Z</time></trkpt>
      <trkpt lat="28.909687" lon="118.060254"><ele>1629</ele><time>2026-01-02T04:15:01Z</time></trkpt>
      <trkpt lat="28.909912" lon="118.060429"><ele>1622</ele><time>2026-01-02T04:16:08Z</time></trkpt>
      <trkpt lat="28.909815" lon="118.060664"><ele>1623</ele><time>2026-01-02T04:16:43Z</time></trkpt>
      <trkpt lat="28.909888" lon="118.060743"><ele>1620</ele><time>2026-01-02T04:16:53Z</time></trkpt>
      <trkpt lat="28.910072" lon="118.060779"><ele>1615</ele><time>2026-01-02T04:17:15Z</time></trkpt>
      <trkpt lat="28.909966" lon="118.06097"><ele>1616</ele><time>2026-01-02T04:17:35Z</time></trkpt>
      <trkpt lat="28.909919" lon="118.061245"><ele>1616</ele><time>2026-01-02T04:17:58Z</time></trkpt>
      <trkpt lat="28.910015" lon="118.061453"><ele>1616</ele><time>2026-01-02T04:18:17Z</time></trkpt>
      <trkpt lat="28.9099" lon="118.061627"><ele>1616</ele><time>2026-01-02T04:18:41Z</time></trkpt>
      <trkpt lat="28.909637" lon="118.061722"><ele>1612</ele><time>2026-01-02T04:19:07Z</time></trkpt>
      <trkpt lat="28.909614" lon="118.061555"><ele>1606</ele><time>2026-01-02T04:19:34Z</time></trkpt>
      <trkpt lat="28.909234" lon="118.061463"><ele>1598</ele><time>2026-01-02T04:20:07Z</time></trkpt>
      <trkpt lat="28.908999" lon="118.061461"><ele>1599</ele><time>2026-01-02T04:20:22Z</time></trkpt>
      <trkpt lat="28.908944" lon="118.061564"><ele>1600</ele><time>2026-01-02T04:20:29Z</time></trkpt>
      <trkpt lat="28.908761" lon="118.06149"><ele>1594</ele><time>2026-01-02T04:20:43Z</time></trkpt>
      <trkpt lat="28.908602" lon="118.061633"><ele>1602</ele><time>2026-01-02T04:20:57Z</time></trkpt>
      <trkpt lat="28.908594" lon="118.061725"><ele>1602</ele><time>2026-01-02T04:21:03Z</time></trkpt>
      <trkpt lat="28.908148" lon="118.061816"><ele>1593</ele><time>2026-01-02T04:21:37Z</time></trkpt>
      <trkpt lat="28.907924" lon="118.061927"><ele>1592</ele><time>2026-01-02T04:21:57Z</time></trkpt>
      <trkpt lat="28.907881" lon="118.062268"><ele>1585</ele><time>2026-01-02T04:22:18Z</time></trkpt>
      <trkpt lat="28.907996" lon="118.062438"><ele>1583</ele><time>2026-01-02T04:22:32Z</time></trkpt>
      <trkpt lat="28.907783" lon="118.062551"><ele>1588</ele><time>2026-01-02T04:23:00Z</time></trkpt>
      <trkpt lat="28.907488" lon="118.062254"><ele>1571</ele><time>2026-01-02T04:24:14Z</time></trkpt>
      <trkpt lat="28.907226" lon="118.062335"><ele>1574</ele><time>2026-01-02T04:25:02Z</time></trkpt>
      <trkpt lat="28.907025" lon="118.062213"><ele>1583</ele><time>2026-01-02T04:25:47Z</time></trkpt>
      <trkpt lat="28.906933" lon="118.062333"><ele>1576</ele><time>2026-01-02T04:31:51Z</time></trkpt>
      <trkpt lat="28.906991" lon="118.062244"><ele>1577</ele><time>2026-01-02T04:34:04Z</time></trkpt>
      <trkpt lat="28.906961" lon="118.06239"><ele>1574</ele><time>2026-01-02T04:34:32Z</time></trkpt>
      <trkpt lat="28.906913" lon="118.062351"><ele>1575</ele><time>2026-01-02T04:34:48Z</time></trkpt>
      <trkpt lat="28.906941" lon="118.06242"><ele>1573</ele><time>2026-01-02T04:34:51Z</time></trkpt>
      <trkpt lat="28.90704" lon="118.062402"><ele>1568</ele><time>2026-01-02T04:35:18Z</time></trkpt>
      <trkpt lat="28.907043" lon="118.062284"><ele>1568</ele><time>2026-01-02T04:35:59Z</time></trkpt>
      <trkpt lat="28.90695" lon="118.06231"><ele>1568</ele><time>2026-01-02T04:36:37Z</time></trkpt>
      <trkpt lat="28.90696" lon="118.062392"><ele>1568</ele><time>2026-01-02T04:37:06Z</time></trkpt>
      <trkpt lat="28.906866" lon="118.062287"><ele>1556</ele><time>2026-01-02T04:40:09Z</time></trkpt>
      <trkpt lat="28.906932" lon="118.062201"><ele>1522</ele><time>2026-01-02T04:41:20Z</time></trkpt>
      <trkpt lat="28.906837" lon="118.062326"><ele>1534</ele><time>2026-01-02T04:42:53Z</time></trkpt>
      <trkpt lat="28.906702" lon="118.062349"><ele>1545</ele><time>2026-01-02T04:43:47Z</time></trkpt>
      <trkpt lat="28.906477" lon="118.062201"><ele>1518</ele><time>2026-01-02T04:46:13Z</time></trkpt>
      <trkpt lat="28.906517" lon="118.062174"><ele>1498</ele><time>2026-01-02T04:47:10Z</time></trkpt>
      <trkpt lat="28.906448" lon="118.062308"><ele>1510</ele><time>2026-01-02T04:47:36Z</time></trkpt>
      <trkpt lat="28.906348" lon="118.062292"><ele>1512</ele><time>2026-01-02T04:47:57Z</time></trkpt>
      <trkpt lat="28.906242" lon="118.062407"><ele>1518</ele><time>2026-01-02T04:48:15Z</time></trkpt>
      <trkpt lat="28.906308" lon="118.062486"><ele>1519</ele><time>2026-01-02T04:48:31Z</time></trkpt>
      <trkpt lat="28.906224" lon="118.062556"><ele>1520</ele><time>2026-01-02T04:48:43Z</time></trkpt>
      <trkpt lat="28.906341" lon="118.062657"><ele>1506</ele><time>2026-01-02T04:49:26Z</time></trkpt>
      <trkpt lat="28.906454" lon="118.062916"><ele>1468</ele><time>2026-01-02T04:49:59Z</time></trkpt>
      <trkpt lat="28.906421" lon="118.063025"><ele>1466</ele><time>2026-01-02T04:50:12Z</time></trkpt>
      <trkpt lat="28.906216" lon="118.062831"><ele>1467</ele><time>2026-01-02T04:51:14Z</time></trkpt>
      <trkpt lat="28.906056" lon="118.062854"><ele>1461</ele><time>2026-01-02T04:51:32Z</time></trkpt>
      <trkpt lat="28.906021" lon="118.062695"><ele>1453</ele><time>2026-01-02T04:51:57Z</time></trkpt>
      <trkpt lat="28.905772" lon="118.062652"><ele>1452</ele><time>2026-01-02T04:52:57Z</time></trkpt>
      <trkpt lat="28.905678" lon="118.062344"><ele>1430</ele><time>2026-01-02T04:53:47Z</time></trkpt>
      <trkpt lat="28.905417" lon="118.062303"><ele>1427</ele><time>2026-01-02T04:54:11Z</time></trkpt>
      <trkpt lat="28.905538" lon="118.062223"><ele>1415</ele><time>2026-01-02T04:54:42Z</time></trkpt>
      <trkpt lat="28.905544" lon="118.062072"><ele>1417</ele><time>2026-01-02T04:55:07Z</time></trkpt>
      <trkpt lat="28.905477" lon="118.061949"><ele>1407</ele><time>2026-01-02T04:55:40Z</time></trkpt>
      <trkpt lat="28.90553" lon="118.061718"><ele>1409</ele><time>2026-01-02T04:56:04Z</time></trkpt>
      <trkpt lat="28.905843" lon="118.061585"><ele>1394</ele><time>2026-01-02T04:57:07Z</time></trkpt>
      <trkpt lat="28.905911" lon="118.061485"><ele>1396</ele><time>2026-01-02T04:57:16Z</time></trkpt>
      <trkpt lat="28.905936" lon="118.061376"><ele>1401</ele><time>2026-01-02T04:57:24Z</time></trkpt>
      <trkpt lat="28.905814" lon="118.061289"><ele>1408</ele><time>2026-01-02T04:57:50Z</time></trkpt>
      <trkpt lat="28.905865" lon="118.061032"><ele>1392</ele><time>2026-01-02T04:58:21Z</time></trkpt>
      <trkpt lat="28.905797" lon="118.060965"><ele>1387</ele><time>2026-01-02T04:58:34Z</time></trkpt>
      <trkpt lat="28.905648" lon="118.061073"><ele>1385</ele><time>2026-01-02T04:58:50Z</time></trkpt>
      <trkpt lat="28.905384" lon="118.060907"><ele>1374</ele><time>2026-01-02T04:59:26Z</time></trkpt>
      <trkpt lat="28.905246" lon="118.060948"><ele>1376</ele><time>2026-01-02T04:59:42Z</time></trkpt>
      <trkpt lat="28.905212" lon="118.060851"><ele>1372</ele><time>2026-01-02T04:59:59Z</time></trkpt>
      <trkpt lat="28.905007" lon="118.060721"><ele>1365</ele><time>2026-01-02T05:00:56Z</time></trkpt>
      <trkpt lat="28.904334" lon="118.060503"><ele>1360</ele><time>2026-01-02T05:02:37Z</time></trkpt>
      <trkpt lat="28.904313" lon="118.06057"><ele>1359</ele><time>2026-01-02T05:02:53Z</time></trkpt>
      <trkpt lat="28.904479" lon="118.060839"><ele>1343</ele><time>2026-01-02T05:03:44Z</time></trkpt>
      <trkpt lat="28.904339" lon="118.060865"><ele>1331</ele><time>2026-01-02T05:04:17Z</time></trkpt>
      <trkpt lat="28.904341" lon="118.061085"><ele>1327</ele><time>2026-01-02T05:04:52Z</time></trkpt>
      <trkpt lat="28.904514" lon="118.061489"><ele>1320</ele><time>2026-01-02T05:05:56Z</time></trkpt>
      <trkpt lat="28.904498" lon="118.061645"><ele>1321</ele><time>2026-01-02T05:06:08Z</time></trkpt>
      <trkpt lat="28.904358" lon="118.061893"><ele>1318</ele><time>2026-01-02T05:06:36Z</time></trkpt>
      <trkpt lat="28.904218" lon="118.061911"><ele>1316</ele><time>2026-01-02T05:07:03Z</time></trkpt>
      <trkpt lat="28.90424" lon="118.061862"><ele>1313</ele><time>2026-01-02T05:07:19Z</time></trkpt>
      <trkpt lat="28.904128" lon="118.061787"><ele>1304</ele><time>2026-01-02T05:07:48Z</time></trkpt>
      <trkpt lat="28.904191" lon="118.061637"><ele>1302</ele><time>2026-01-02T05:08:11Z</time></trkpt>
      <trkpt lat="28.904052" lon="118.061677"><ele>1296</ele><time>2026-01-02T05:08:47Z</time></trkpt>
      <trkpt lat="28.904003" lon="118.061582"><ele>1297</ele><time>2026-01-02T05:09:07Z</time></trkpt>
      <trkpt lat="28.904037" lon="118.061487"><ele>1292</ele><time>2026-01-02T05:09:19Z</time></trkpt>
      <trkpt lat="28.903987" lon="118.061495"><ele>1284</ele><time>2026-01-02T05:09:29Z</time></trkpt>
      <trkpt lat="28.903825" lon="118.06163"><ele>1272</ele><time>2026-01-02T05:10:09Z</time></trkpt>
      <trkpt lat="28.903732" lon="118.061625"><ele>1271</ele><time>2026-01-02T05:10:20Z</time></trkpt>
      <trkpt lat="28.903678" lon="118.06177"><ele>1267</ele><time>2026-01-02T05:10:55Z</time></trkpt>
      <trkpt lat="28.903624" lon="118.061576"><ele>1276</ele><time>2026-01-02T05:11:40Z</time></trkpt>
      <trkpt lat="28.903249" lon="118.061788"><ele>1261</ele><time>2026-01-02T05:12:59Z</time></trkpt>
      <trkpt lat="28.90323" lon="118.062045"><ele>1258</ele><time>2026-01-02T05:13:42Z</time></trkpt>
      <trkpt lat="28.903093" lon="118.062263"><ele>1254</ele><time>2026-01-02T05:14:19Z</time></trkpt>
      <trkpt lat="28.902559" lon="118.062248"><ele>1243</ele><time>2026-01-02T05:15:42Z</time></trkpt>
      <trkpt lat="28.902527" lon="118.062209"><ele>1241</ele><time>2026-01-02T05:15:53Z</time></trkpt>
      <trkpt lat="28.902705" lon="118.062026"><ele>1237</ele><time>2026-01-02T05:16:31Z</time></trkpt>
      <trkpt lat="28.902807" lon="118.062053"><ele>1230</ele><time>2026-01-02T05:16:42Z</time></trkpt>
      <trkpt lat="28.902856" lon="118.061961"><ele>1231</ele><time>2026-01-02T05:17:03Z</time></trkpt>
      <trkpt lat="28.903" lon="118.061896"><ele>1229</ele><time>2026-01-02T05:17:09Z</time></trkpt>
      <trkpt lat="28.903003" lon="118.061729"><ele>1238</ele><time>2026-01-02T05:17:22Z</time></trkpt>
      <trkpt lat="28.902894" lon="118.061603"><ele>1243</ele><time>2026-01-02T05:17:56Z</time></trkpt>
      <trkpt lat="28.90295" lon="118.061558"><ele>1247</ele><time>2026-01-02T05:20:16Z</time></trkpt>
    </trkseg>
  </trk>
</gpx>
