<?xml version="1.0" encoding="UTF-8"?>
<gpx version="1.1" creator="MyWorld" xmlns="http://www.topografix.com/GPX/1/1">
  <metadata><name>峨眉山报国寺到金顶</name></metadata>
  <trk>
    <name>峨眉山报国寺到金顶</name>
    <trkseg>
      <trkpt lat="29.571489" lon="103.441275"><ele>538</ele><time>2026-08-15T00:26:23Z</time></trkpt>
      <trkpt lat="29.570527" lon="103.441439"><ele>534</ele><time>2026-08-15T00:27:51Z</time></trkpt>
      <trkpt lat="29.570023" lon="103.441107"><ele>538</ele><time>2026-08-15T00:28:45Z</time></trkpt>
      <trkpt lat="29.569515" lon="103.440936"><ele>534</ele><time>2026-08-15T00:29:27Z</time></trkpt>
      <trkpt lat="29.569209" lon="103.440937"><ele>528</ele><time>2026-08-15T00:29:50Z</time></trkpt>
      <trkpt lat="29.56916" lon="103.440662"><ele>530</ele><time>2026-08-15T00:30:08Z</time></trkpt>
      <trkpt lat="29.569026" lon="103.440588"><ele>530</ele><time>2026-08-15T00:30:20Z</time></trkpt>
      <trkpt lat="29.569011" lon="103.440351"><ele>531</ele><time>2026-08-15T00:30:40Z</time></trkpt>
      <trkpt lat="29.568906" lon="103.440129"><ele>533</ele><time>2026-08-15T00:30:58Z</time></trkpt>
      <trkpt lat="29.568463" lon="103.439491"><ele>541</ele><time>2026-08-15T00:31:52Z</time></trkpt>
      <trkpt lat="29.568072" lon="103.439118"><ele>540</ele><time>2026-08-15T00:32:28Z</time></trkpt>
      <trkpt lat="29.567504" lon="103.438425"><ele>548</ele><time>2026-08-15T00:33:27Z</time></trkpt>
      <trkpt lat="29.566514" lon="103.436735"><ele>562</ele><time>2026-08-15T00:35:39Z</time></trkpt>
      <trkpt lat="29.566358" lon="103.436405"><ele>564</ele><time>2026-08-15T00:36:00Z</time></trkpt>
      <trkpt lat="29.565995" lon="103.435218"><ele>572</ele><time>2026-08-15T00:37:24Z</time></trkpt>
      <trkpt lat="29.565578" lon="103.434692"><ele>578</ele><time>2026-08-15T00:38:12Z</time></trkpt>
      <trkpt lat="29.565589" lon="103.434521"><ele>579</ele><time>2026-08-15T00:38:24Z</time></trkpt>
      <trkpt lat="29.565717" lon="103.434294"><ele>582</ele><time>2026-08-15T00:38:45Z</time></trkpt>
      <trkpt lat="29.565756" lon="103.434083"><ele>585</ele><time>2026-08-15T00:38:59Z</time></trkpt>
      <trkpt lat="29.56572" lon="103.43315"><ele>591</ele><time>2026-08-15T00:40:07Z</time></trkpt>
      <trkpt lat="29.565317" lon="103.431948"><ele>600</ele><time>2026-08-15T00:41:36Z</time></trkpt>
      <trkpt lat="29.565517" lon="103.431066"><ele>616</ele><time>2026-08-15T00:42:44Z</time></trkpt>
      <trkpt lat="29.565348" lon="103.430796"><ele>618</ele><time>2026-08-15T00:43:08Z</time></trkpt>
      <trkpt lat="29.56525" lon="103.429976"><ele>624</ele><time>2026-08-15T00:44:04Z</time></trkpt>
      <trkpt lat="29.564877" lon="103.429097"><ele>627</ele><time>2026-08-15T00:45:10Z</time></trkpt>
      <trkpt lat="29.564835" lon="103.428529"><ele>634</ele><time>2026-08-15T00:45:46Z</time></trkpt>
      <trkpt lat="29.564846" lon="103.428446"><ele>636</ele><time>2026-08-15T00:45:52Z</time></trkpt>
      <trkpt lat="29.565051" lon="103.42836"><ele>643</ele><time>2026-08-15T00:46:10Z</time></trkpt>
      <trkpt lat="29.565414" lon="103.428017"><ele>648</ele><time>2026-08-15T00:46:46Z</time></trkpt>
      <trkpt lat="29.565465" lon="103.427681"><ele>667</ele><time>2026-08-15T00:47:13Z</time></trkpt>
      <trkpt lat="29.565392" lon="103.427285"><ele>678</ele><time>2026-08-15T00:47:40Z</time></trkpt>
      <trkpt lat="29.56491" lon="103.426873"><ele>655</ele><time>2026-08-15T00:48:15Z</time></trkpt>
      <trkpt lat="29.56491" lon="103.426717"><ele>653</ele><time>2026-08-15T00:48:33Z</time></trkpt>
      <trkpt lat="29.565069" lon="103.426434"><ele>676</ele><time>2026-08-15T00:49:33Z</time></trkpt>
      <trkpt lat="29.565177" lon="103.425799"><ele>691</ele><time>2026-08-15T00:50:44Z</time></trkpt>
      <trkpt lat="29.564813" lon="103.425182"><ele>708</ele><time>2026-08-15T00:54:54Z</time></trkpt>
      <trkpt lat="29.564674" lon="103.424406"><ele>717</ele><time>2026-08-15T00:56:39Z</time></trkpt>
      <trkpt lat="29.564408" lon="103.423961"><ele>734</ele><time>2026-08-15T00:59:04Z</time></trkpt>
      <trkpt lat="29.564386" lon="103.423707"><ele>740</ele><time>2026-08-15T00:59:34Z</time></trkpt>
      <trkpt lat="29.564451" lon="103.423479"><ele>747</ele><time>2026-08-15T01:00:11Z</time></trkpt>
      <trkpt lat="29.564539" lon="103.423454"><ele>752</ele><time>2026-08-15T01:00:22Z</time></trkpt>
      <trkpt lat="29.564554" lon="103.423375"><ele>757</ele><time>2026-08-15T01:00:34Z</time></trkpt>
      <trkpt lat="29.564306" lon="103.42143"><ele>805</ele><time>2026-08-15T01:08:41Z</time></trkpt>
      <trkpt lat="29.564605" lon="103.421222"><ele>808</ele><time>2026-08-15T01:09:37Z</time></trkpt>
      <trkpt lat="29.564654" lon="103.421122"><ele>810</ele><time>2026-08-15T01:10:04Z</time></trkpt>
      <trkpt lat="29.564696" lon="103.421253"><ele>816</ele><time>2026-08-15T01:14:41Z</time></trkpt>
      <trkpt lat="29.564973" lon="103.42139"><ele>818</ele><time>2026-08-15T01:15:28Z</time></trkpt>
      <trkpt lat="29.56557" lon="103.42112"><ele>830</ele><time>2026-08-15T01:18:16Z</time></trkpt>
      <trkpt lat="29.566011" lon="103.421157"><ele>842</ele><time>2026-08-15T01:19:39Z</time></trkpt>
      <trkpt lat="29.566136" lon="103.421114"><ele>843</ele><time>2026-08-15T01:19:51Z</time></trkpt>
      <trkpt lat="29.566225" lon="103.420989"><ele>843</ele><time>2026-08-15T01:20:18Z</time></trkpt>
      <trkpt lat="29.566333" lon="103.420547"><ele>845</ele><time>2026-08-15T01:20:59Z</time></trkpt>
      <trkpt lat="29.566641" lon="103.420141"><ele>844</ele><time>2026-08-15T01:21:35Z</time></trkpt>
      <trkpt lat="29.566694" lon="103.419893"><ele>846</ele><time>2026-08-15T01:21:59Z</time></trkpt>
      <trkpt lat="29.566915" lon="103.420061"><ele>857</ele><time>2026-08-15T01:23:02Z</time></trkpt>
      <trkpt lat="29.566987" lon="103.42034"><ele>860</ele><time>2026-08-15T01:23:35Z</time></trkpt>
      <trkpt lat="29.567086" lon="103.420449"><ele>864</ele><time>2026-08-15T01:24:30Z</time></trkpt>
      <trkpt lat="29.56731" lon="103.420514"><ele>874</ele><time>2026-08-15T01:25:11Z</time></trkpt>
      <trkpt lat="29.567416" lon="103.420392"><ele>877</ele><time>2026-08-15T01:26:19Z</time></trkpt>
      <trkpt lat="29.567957" lon="103.42011"><ele>895</ele><time>2026-08-15T01:27:55Z</time></trkpt>
      <trkpt lat="29.568499" lon="103.420041"><ele>921</ele><time>2026-08-15T01:30:02Z</time></trkpt>
      <trkpt lat="29.568566" lon="103.420084"><ele>922</ele><time>2026-08-15T01:32:15Z</time></trkpt>
      <trkpt lat="29.568491" lon="103.420129"><ele>924</ele><time>2026-08-15T01:36:24Z</time></trkpt>
      <trkpt lat="29.569418" lon="103.419696"><ele>927</ele><time>2026-08-15T01:42:22Z</time></trkpt>
      <trkpt lat="29.569755" lon="103.419251"><ele>928</ele><time>2026-08-15T01:43:04Z</time></trkpt>
      <trkpt lat="29.569739" lon="103.418983"><ele>926</ele><time>2026-08-15T01:43:22Z</time></trkpt>
      <trkpt lat="29.569842" lon="103.418221"><ele>925</ele><time>2026-08-15T01:44:19Z</time></trkpt>
      <trkpt lat="29.570009" lon="103.417813"><ele>921</ele><time>2026-08-15T01:44:46Z</time></trkpt>
      <trkpt lat="29.570012" lon="103.417317"><ele>920</ele><time>2026-08-15T01:45:19Z</time></trkpt>
      <trkpt lat="29.570123" lon="103.41713"><ele>921</ele><time>2026-08-15T01:45:34Z</time></trkpt>
      <trkpt lat="29.570379" lon="103.417069"><ele>921</ele><time>2026-08-15T01:45:58Z</time></trkpt>
      <trkpt lat="29.570391" lon="103.416304"><ele>917</ele><time>2026-08-15T01:46:55Z</time></trkpt>
      <trkpt lat="29.570509" lon="103.416194"><ele>918</ele><time>2026-08-15T01:47:07Z</time></trkpt>
      <trkpt lat="29.570642" lon="103.416183"><ele>928</ele><time>2026-08-15T01:47:22Z</time></trkpt>
      <trkpt lat="29.570728" lon="103.416034"><ele>924</ele><time>2026-08-15T01:47:46Z</time></trkpt>
      <trkpt lat="29.570343" lon="103.4156"><ele>922</ele><time>2026-08-15T01:48:32Z</time></trkpt>
      <trkpt lat="29.569952" lon="103.415399"><ele>928</ele><time>2026-08-15T01:49:26Z</time></trkpt>
      <trkpt lat="29.569856" lon="103.414975"><ele>928</ele><time>2026-08-15T01:49:56Z</time></trkpt>
      <trkpt lat="29.569697" lon="103.414757"><ele>927</ele><time>2026-08-15T01:50:19Z</time></trkpt>
      <trkpt lat="29.569285" lon="103.414853"><ele>924</ele><time>2026-08-15T01:50:58Z</time></trkpt>
      <trkpt lat="29.569157" lon="103.414676"><ele>925</ele><time>2026-08-15T01:51:16Z</time></trkpt>
      <trkpt lat="29.569094" lon="103.414398"><ele>924</ele><time>2026-08-15T01:51:34Z</time></trkpt>
      <trkpt lat="29.569177" lon="103.413858"><ele>926</ele><time>2026-08-15T01:52:12Z</time></trkpt>
      <trkpt lat="29.569" lon="103.413553"><ele>915</ele><time>2026-08-15T01:52:39Z</time></trkpt>
      <trkpt lat="29.569001" lon="103.413213"><ele>920</ele><time>2026-08-15T01:53:09Z</time></trkpt>
      <trkpt lat="29.569196" lon="103.412893"><ele>912</ele><time>2026-08-15T01:53:38Z</time></trkpt>
      <trkpt lat="29.56942" lon="103.412716"><ele>914</ele><time>2026-08-15T01:53:59Z</time></trkpt>
      <trkpt lat="29.569322" lon="103.412234"><ele>904</ele><time>2026-08-15T01:54:57Z</time></trkpt>
      <trkpt lat="29.569084" lon="103.412147"><ele>898</ele><time>2026-08-15T01:55:26Z</time></trkpt>
      <trkpt lat="29.568862" lon="103.411897"><ele>894</ele><time>2026-08-15T01:56:02Z</time></trkpt>
      <trkpt lat="29.568485" lon="103.411739"><ele>882</ele><time>2026-08-15T01:56:54Z</time></trkpt>
      <trkpt lat="29.568366" lon="103.411583"><ele>881</ele><time>2026-08-15T01:57:11Z</time></trkpt>
      <trkpt lat="29.568641" lon="103.410664"><ele>877</ele><time>2026-08-15T01:58:17Z</time></trkpt>
      <trkpt lat="29.568612" lon="103.410067"><ele>873</ele><time>2026-08-15T01:58:56Z</time></trkpt>
      <trkpt lat="29.568328" lon="103.409882"><ele>865</ele><time>2026-08-15T01:59:23Z</time></trkpt>
      <trkpt lat="29.568044" lon="103.40915"><ele>848</ele><time>2026-08-15T02:00:44Z</time></trkpt>
      <trkpt lat="29.567901" lon="103.408939"><ele>837</ele><time>2026-08-15T02:01:17Z</time></trkpt>
      <trkpt lat="29.567869" lon="103.408708"><ele>832</ele><time>2026-08-15T02:01:44Z</time></trkpt>
      <trkpt lat="29.567734" lon="103.408488"><ele>828</ele><time>2026-08-15T02:02:05Z</time></trkpt>
      <trkpt lat="29.567633" lon="103.408416"><ele>825</ele><time>2026-08-15T02:02:20Z</time></trkpt>
      <trkpt lat="29.56745" lon="103.40863"><ele>818</ele><time>2026-08-15T02:02:44Z</time></trkpt>
      <trkpt lat="29.567161" lon="103.408472"><ele>817</ele><time>2026-08-15T02:03:08Z</time></trkpt>
      <trkpt lat="29.566709" lon="103.408423"><ele>814</ele><time>2026-08-15T02:03:40Z</time></trkpt>
      <trkpt lat="29.566696" lon="103.407981"><ele>815</ele><time>2026-08-15T02:04:07Z</time></trkpt>
      <trkpt lat="29.566441" lon="103.407309"><ele>812</ele><time>2026-08-15T02:04:55Z</time></trkpt>
      <trkpt lat="29.566419" lon="103.406985"><ele>812</ele><time>2026-08-15T02:05:15Z</time></trkpt>
      <trkpt lat="29.5669" lon="103.406385"><ele>809</ele><time>2026-08-15T02:06:09Z</time></trkpt>
      <trkpt lat="29.567115" lon="103.405895"><ele>805</ele><time>2026-08-15T02:06:45Z</time></trkpt>
      <trkpt lat="29.567093" lon="103.405788"><ele>803</ele><time>2026-08-15T02:06:54Z</time></trkpt>
      <trkpt lat="29.566781" lon="103.405429"><ele>801</ele><time>2026-08-15T02:07:28Z</time></trkpt>
      <trkpt lat="29.566721" lon="103.405171"><ele>802</ele><time>2026-08-15T02:07:46Z</time></trkpt>
      <trkpt lat="29.56719" lon="103.405092"><ele>799</ele><time>2026-08-15T02:08:22Z</time></trkpt>
      <trkpt lat="29.567785" lon="103.405105"><ele>801</ele><time>2026-08-15T02:09:07Z</time></trkpt>
      <trkpt lat="29.568246" lon="103.404838"><ele>795</ele><time>2026-08-15T02:09:49Z</time></trkpt>
      <trkpt lat="29.568756" lon="103.403972"><ele>786</ele><time>2026-08-15T02:10:58Z</time></trkpt>
      <trkpt lat="29.568896" lon="103.40393"><ele>785</ele><time>2026-08-15T02:11:10Z</time></trkpt>
      <trkpt lat="29.569114" lon="103.404002"><ele>784</ele><time>2026-08-15T02:11:26Z</time></trkpt>
      <trkpt lat="29.569325" lon="103.403884"><ele>783</ele><time>2026-08-15T02:11:42Z</time></trkpt>
      <trkpt lat="29.56971" lon="103.403546"><ele>781</ele><time>2026-08-15T02:12:18Z</time></trkpt>
      <trkpt lat="29.570072" lon="103.402901"><ele>775</ele><time>2026-08-15T02:13:12Z</time></trkpt>
      <trkpt lat="29.57068" lon="103.402759"><ele>771</ele><time>2026-08-15T02:14:02Z</time></trkpt>
      <trkpt lat="29.570966" lon="103.402608"><ele>765</ele><time>2026-08-15T02:14:29Z</time></trkpt>
      <trkpt lat="29.571522" lon="103.401922"><ele>764</ele><time>2026-08-15T02:15:42Z</time></trkpt>
      <trkpt lat="29.571737" lon="103.401863"><ele>767</ele><time>2026-08-15T02:16:00Z</time></trkpt>
      <trkpt lat="29.571823" lon="103.401691"><ele>765</ele><time>2026-08-15T02:16:26Z</time></trkpt>
      <trkpt lat="29.571996" lon="103.401539"><ele>768</ele><time>2026-08-15T02:16:44Z</time></trkpt>
      <trkpt lat="29.572012" lon="103.401066"><ele>777</ele><time>2026-08-15T02:17:59Z</time></trkpt>
      <trkpt lat="29.571949" lon="103.401034"><ele>780</ele><time>2026-08-15T02:18:14Z</time></trkpt>
      <trkpt lat="29.571782" lon="103.399953"><ele>817</ele><time>2026-08-15T02:21:42Z</time></trkpt>
      <trkpt lat="29.571853" lon="103.399729"><ele>825</ele><time>2026-08-15T02:26:50Z</time></trkpt>
      <trkpt lat="29.571823" lon="103.399351"><ele>836</ele><time>2026-08-15T02:27:38Z</time></trkpt>
      <trkpt lat="29.571597" lon="103.39883"><ele>845</ele><time>2026-08-15T02:28:33Z</time></trkpt>
      <trkpt lat="29.571571" lon="103.398059"><ele>835</ele><time>2026-08-15T02:30:22Z</time></trkpt>
      <trkpt lat="29.571446" lon="103.397489"><ele>816</ele><time>2026-08-15T02:31:13Z</time></trkpt>
      <trkpt lat="29.571543" lon="103.397214"><ele>809</ele><time>2026-08-15T02:31:48Z</time></trkpt>
      <trkpt lat="29.571757" lon="103.396888"><ele>799</ele><time>2026-08-15T02:32:30Z</time></trkpt>
      <trkpt lat="29.572307" lon="103.396684"><ele>781</ele><time>2026-08-15T02:33:36Z</time></trkpt>
      <trkpt lat="29.572402" lon="103.396087"><ele>763</ele><time>2026-08-15T02:34:17Z</time></trkpt>
      <trkpt lat="29.572738" lon="103.395835"><ele>761</ele><time>2026-08-15T02:34:53Z</time></trkpt>
      <trkpt lat="29.572884" lon="103.395542"><ele>756</ele><time>2026-08-15T02:35:17Z</time></trkpt>
      <trkpt lat="29.572992" lon="103.395265"><ele>751</ele><time>2026-08-15T02:35:37Z</time></trkpt>
      <trkpt lat="29.572918" lon="103.395109"><ele>748</ele><time>2026-08-15T02:35:52Z</time></trkpt>
      <trkpt lat="29.572905" lon="103.394847"><ele>744</ele><time>2026-08-15T02:36:10Z</time></trkpt>
      <trkpt lat="29.572724" lon="103.394617"><ele>735</ele><time>2026-08-15T02:36:37Z</time></trkpt>
      <trkpt lat="29.573014" lon="103.393827"><ele>723</ele><time>2026-08-15T02:41:42Z</time></trkpt>
      <trkpt lat="29.573096" lon="103.393753"><ele>724</ele><time>2026-08-15T02:41:51Z</time></trkpt>
      <trkpt lat="29.573275" lon="103.393754"><ele>725</ele><time>2026-08-15T02:42:12Z</time></trkpt>
      <trkpt lat="29.573911" lon="103.39334"><ele>722</ele><time>2026-08-15T02:43:10Z</time></trkpt>
      <trkpt lat="29.574102" lon="103.39276"><ele>709</ele><time>2026-08-15T02:44:10Z</time></trkpt>
      <trkpt lat="29.57406" lon="103.392432"><ele>701</ele><time>2026-08-15T02:44:40Z</time></trkpt>
      <trkpt lat="29.574179" lon="103.392424"><ele>698</ele><time>2026-08-15T02:45:01Z</time></trkpt>
      <trkpt lat="29.574164" lon="103.392339"><ele>695</ele><time>2026-08-15T02:45:46Z</time></trkpt>
      <trkpt lat="29.574238" lon="103.392284"><ele>691</ele><time>2026-08-15T02:46:39Z</time></trkpt>
      <trkpt lat="29.574212" lon="103.392382"><ele>686</ele><time>2026-08-15T02:48:19Z</time></trkpt>
      <trkpt lat="29.574319" lon="103.392392"><ele>695</ele><time>2026-08-15T02:49:22Z</time></trkpt>
      <trkpt lat="29.574199" lon="103.392404"><ele>699</ele><time>2026-08-15T02:51:00Z</time></trkpt>
      <trkpt lat="29.57437" lon="103.392164"><ele>694</ele><time>2026-08-15T02:53:13Z</time></trkpt>
      <trkpt lat="29.574734" lon="103.392163"><ele>707</ele><time>2026-08-15T02:54:04Z</time></trkpt>
      <trkpt lat="29.575408" lon="103.39184"><ele>734</ele><time>2026-08-15T02:57:54Z</time></trkpt>
      <trkpt lat="29.57569" lon="103.391964"><ele>748</ele><time>2026-08-15T02:58:43Z</time></trkpt>
      <trkpt lat="29.575997" lon="103.391877"><ele>750</ele><time>2026-08-15T02:59:49Z</time></trkpt>
      <trkpt lat="29.576222" lon="103.391989"><ele>760</ele><time>2026-08-15T03:01:48Z</time></trkpt>
      <trkpt lat="29.576589" lon="103.391947"><ele>768</ele><time>2026-08-15T03:03:01Z</time></trkpt>
      <trkpt lat="29.576728" lon="103.391848"><ele>769</ele><time>2026-08-15T03:03:19Z</time></trkpt>
      <trkpt lat="29.577159" lon="103.390974"><ele>782</ele><time>2026-08-15T03:05:12Z</time></trkpt>
      <trkpt lat="29.577842" lon="103.391102"><ele>796</ele><time>2026-08-15T03:07:29Z</time></trkpt>
      <trkpt lat="29.578291" lon="103.390322"><ele>799</ele><time>2026-08-15T03:09:43Z</time></trkpt>
      <trkpt lat="29.578444" lon="103.38991"><ele>804</ele><time>2026-08-15T03:10:27Z</time></trkpt>
      <trkpt lat="29.578497" lon="103.389591"><ele>809</ele><time>2026-08-15T03:10:57Z</time></trkpt>
      <trkpt lat="29.578441" lon="103.38935"><ele>811</ele><time>2026-08-15T03:11:18Z</time></trkpt>
      <trkpt lat="29.578317" lon="103.389171"><ele>809</ele><time>2026-08-15T03:11:42Z</time></trkpt>
      <trkpt lat="29.578391" lon="103.388903"><ele>810</ele><time>2026-08-15T03:12:42Z</time></trkpt>
      <trkpt lat="29.578793" lon="103.388819"><ele>812</ele><time>2026-08-15T03:13:20Z</time></trkpt>
      <trkpt lat="29.578998" lon="103.388584"><ele>813</ele><time>2026-08-15T03:13:53Z</time></trkpt>
      <trkpt lat="29.57892" lon="103.387285"><ele>831</ele><time>2026-08-15T03:20:50Z</time></trkpt>
      <trkpt lat="29.579182" lon="103.386866"><ele>841</ele><time>2026-08-15T03:22:01Z</time></trkpt>
      <trkpt lat="29.579371" lon="103.386728"><ele>850</ele><time>2026-08-15T03:22:37Z</time></trkpt>
      <trkpt lat="29.579428" lon="103.386113"><ele>868</ele><time>2026-08-15T03:24:01Z</time></trkpt>
      <trkpt lat="29.579414" lon="103.386025"><ele>868</ele><time>2026-08-15T03:24:10Z</time></trkpt>
      <trkpt lat="29.579358" lon="103.38601"><ele>867</ele><time>2026-08-15T03:26:20Z</time></trkpt>
      <trkpt lat="29.579682" lon="103.385552"><ele>885</ele><time>2026-08-15T03:33:33Z</time></trkpt>
      <trkpt lat="29.580067" lon="103.385221"><ele>901</ele><time>2026-08-15T03:34:53Z</time></trkpt>
      <trkpt lat="29.58079" lon="103.384252"><ele>923</ele><time>2026-08-15T03:37:40Z</time></trkpt>
      <trkpt lat="29.581058" lon="103.38419"><ele>935</ele><time>2026-08-15T03:38:27Z</time></trkpt>
      <trkpt lat="29.581359" lon="103.384353"><ele>957</ele><time>2026-08-15T03:39:49Z</time></trkpt>
      <trkpt lat="29.58167" lon="103.384328"><ele>952</ele><time>2026-08-15T03:46:49Z</time></trkpt>
      <trkpt lat="29.581617" lon="103.384233"><ele>961</ele><time>2026-08-15T03:47:19Z</time></trkpt>
      <trkpt lat="29.58162" lon="103.384351"><ele>965</ele><time>2026-08-15T03:48:45Z</time></trkpt>
      <trkpt lat="29.581457" lon="103.383806"><ele>977</ele><time>2026-08-15T03:50:22Z</time></trkpt>
      <trkpt lat="29.581863" lon="103.383265"><ele>977</ele><time>2026-08-15T03:51:10Z</time></trkpt>
      <trkpt lat="29.581884" lon="103.382725"><ele>988</ele><time>2026-08-15T03:52:09Z</time></trkpt>
      <trkpt lat="29.582146" lon="103.382052"><ele>993</ele><time>2026-08-15T03:53:03Z</time></trkpt>
      <trkpt lat="29.582357" lon="103.381838"><ele>993</ele><time>2026-08-15T03:53:23Z</time></trkpt>
      <trkpt lat="29.582768" lon="103.381106"><ele>997</ele><time>2026-08-15T03:54:17Z</time></trkpt>
      <trkpt lat="29.582746" lon="103.380779"><ele>996</ele><time>2026-08-15T03:54:35Z</time></trkpt>
      <trkpt lat="29.583062" lon="103.37997"><ele>993</ele><time>2026-08-15T03:55:25Z</time></trkpt>
      <trkpt lat="29.582919" lon="103.37962"><ele>1004</ele><time>2026-08-15T03:55:55Z</time></trkpt>
      <trkpt lat="29.582958" lon="103.379457"><ele>1011</ele><time>2026-08-15T03:56:21Z</time></trkpt>
      <trkpt lat="29.582613" lon="103.379559"><ele>1014</ele><time>2026-08-15T03:56:45Z</time></trkpt>
      <trkpt lat="29.58267" lon="103.379242"><ele>1016</ele><time>2026-08-15T03:57:03Z</time></trkpt>
      <trkpt lat="29.582853" lon="103.379254"><ele>1018</ele><time>2026-08-15T03:57:15Z</time></trkpt>
      <trkpt lat="29.582923" lon="103.379197"><ele>1021</ele><time>2026-08-15T03:57:24Z</time></trkpt>
      <trkpt lat="29.582948" lon="103.378733"><ele>1036</ele><time>2026-08-15T03:58:21Z</time></trkpt>
      <trkpt lat="29.582671" lon="103.378423"><ele>1052</ele><time>2026-08-15T03:59:19Z</time></trkpt>
      <trkpt lat="29.582431" lon="103.378258"><ele>1054</ele><time>2026-08-15T04:00:10Z</time></trkpt>
      <trkpt lat="29.582355" lon="103.377682"><ele>1064</ele><time>2026-08-15T04:01:15Z</time></trkpt>
      <trkpt lat="29.582396" lon="103.377433"><ele>1074</ele><time>2026-08-15T04:02:00Z</time></trkpt>
      <trkpt lat="29.582233" lon="103.377167"><ele>1091</ele><time>2026-08-15T04:03:04Z</time></trkpt>
      <trkpt lat="29.582113" lon="103.377151"><ele>1098</ele><time>2026-08-15T04:03:31Z</time></trkpt>
      <trkpt lat="29.582121" lon="103.37681"><ele>1113</ele><time>2026-08-15T04:04:51Z</time></trkpt>
      <trkpt lat="29.582047" lon="103.376759"><ele>1115</ele><time>2026-08-15T04:05:06Z</time></trkpt>
      <trkpt lat="29.581986" lon="103.376568"><ele>1126</ele><time>2026-08-15T04:05:48Z</time></trkpt>
      <trkpt lat="29.58185" lon="103.376501"><ele>1139</ele><time>2026-08-15T04:06:33Z</time></trkpt>
      <trkpt lat="29.581748" lon="103.376527"><ele>1144</ele><time>2026-08-15T04:06:54Z</time></trkpt>
      <trkpt lat="29.581801" lon="103.376298"><ele>1153</ele><time>2026-08-15T04:07:37Z</time></trkpt>
      <trkpt lat="29.581741" lon="103.376233"><ele>1156</ele><time>2026-08-15T04:07:52Z</time></trkpt>
      <trkpt lat="29.581222" lon="103.376381"><ele>1188</ele><time>2026-08-15T04:09:57Z</time></trkpt>
      <trkpt lat="29.581207" lon="103.376472"><ele>1193</ele><time>2026-08-15T04:10:18Z</time></trkpt>
      <trkpt lat="29.581037" lon="103.376497"><ele>1198</ele><time>2026-08-15T04:11:00Z</time></trkpt>
      <trkpt lat="29.580899" lon="103.37642"><ele>1210</ele><time>2026-08-15T04:11:56Z</time></trkpt>
      <trkpt lat="29.580974" lon="103.376194"><ele>1222</ele><time>2026-08-15T04:12:52Z</time></trkpt>
      <trkpt lat="29.580392" lon="103.376361"><ele>1232</ele><time>2026-08-15T04:14:07Z</time></trkpt>
      <trkpt lat="29.579984" lon="103.376233"><ele>1230</ele><time>2026-08-15T04:14:37Z</time></trkpt>
      <trkpt lat="29.579802" lon="103.375703"><ele>1234</ele><time>2026-08-15T04:15:17Z</time></trkpt>
      <trkpt lat="29.580029" lon="103.37553"><ele>1246</ele><time>2026-08-15T04:16:11Z</time></trkpt>
      <trkpt lat="29.580278" lon="103.3756"><ele>1260</ele><time>2026-08-15T04:17:12Z</time></trkpt>
      <trkpt lat="29.580483" lon="103.375464"><ele>1272</ele><time>2026-08-15T04:17:57Z</time></trkpt>
      <trkpt lat="29.580622" lon="103.375485"><ele>1277</ele><time>2026-08-15T04:18:18Z</time></trkpt>
      <trkpt lat="29.580666" lon="103.375411"><ele>1277</ele><time>2026-08-15T04:18:27Z</time></trkpt>
      <trkpt lat="29.580711" lon="103.374939"><ele>1299</ele><time>2026-08-15T04:20:07Z</time></trkpt>
      <trkpt lat="29.580645" lon="103.37474"><ele>1313</ele><time>2026-08-15T04:20:46Z</time></trkpt>
      <trkpt lat="29.580641" lon="103.374003"><ele>1335</ele><time>2026-08-15T04:23:02Z</time></trkpt>
      <trkpt lat="29.579802" lon="103.373115"><ele>1367</ele><time>2026-08-15T04:26:08Z</time></trkpt>
      <trkpt lat="29.579639" lon="103.372868"><ele>1381</ele><time>2026-08-15T04:27:13Z</time></trkpt>
      <trkpt lat="29.579463" lon="103.372814"><ele>1386</ele><time>2026-08-15T04:27:40Z</time></trkpt>
      <trkpt lat="29.579237" lon="103.372553"><ele>1396</ele><time>2026-08-15T04:28:25Z</time></trkpt>
      <trkpt lat="29.578996" lon="103.372483"><ele>1397</ele><time>2026-08-15T04:28:51Z</time></trkpt>
      <trkpt lat="29.578684" lon="103.372205"><ele>1404</ele><time>2026-08-15T04:29:45Z</time></trkpt>
      <trkpt lat="29.578269" lon="103.371631"><ele>1418</ele><time>2026-08-15T04:31:15Z</time></trkpt>
      <trkpt lat="29.577728" lon="103.371203"><ele>1452</ele><time>2026-08-15T04:33:33Z</time></trkpt>
      <trkpt lat="29.577512" lon="103.370707"><ele>1453</ele><time>2026-08-15T04:34:18Z</time></trkpt>
      <trkpt lat="29.576977" lon="103.370197"><ele>1454</ele><time>2026-08-15T04:35:30Z</time></trkpt>
      <trkpt lat="29.576924" lon="103.368721"><ele>1462</ele><time>2026-08-15T04:37:42Z</time></trkpt>
      <trkpt lat="29.577017" lon="103.368116"><ele>1477</ele><time>2026-08-15T04:38:51Z</time></trkpt>
      <trkpt lat="29.577188" lon="103.367893"><ele>1488</ele><time>2026-08-15T04:39:57Z</time></trkpt>
      <trkpt lat="29.577204" lon="103.367716"><ele>1494</ele><time>2026-08-15T04:40:30Z</time></trkpt>
      <trkpt lat="29.576925" lon="103.367304"><ele>1494</ele><time>2026-08-15T04:41:11Z</time></trkpt>
      <trkpt lat="29.576717" lon="103.367116"><ele>1492</ele><time>2026-08-15T04:41:32Z</time></trkpt>
      <trkpt lat="29.576602" lon="103.366892"><ele>1488</ele><time>2026-08-15T04:41:50Z</time></trkpt>
      <trkpt lat="29.57638" lon="103.366717"><ele>1487</ele><time>2026-08-15T04:42:11Z</time></trkpt>
      <trkpt lat="29.576225" lon="103.366136"><ele>1477</ele><time>2026-08-15T04:43:10Z</time></trkpt>
      <trkpt lat="29.576112" lon="103.36598"><ele>1467</ele><time>2026-08-15T04:43:37Z</time></trkpt>
      <trkpt lat="29.57555" lon="103.365579"><ele>1448</ele><time>2026-08-15T04:44:41Z</time></trkpt>
      <trkpt lat="29.57536" lon="103.365531"><ele>1459</ele><time>2026-08-15T04:45:37Z</time></trkpt>
      <trkpt lat="29.575338" lon="103.365438"><ele>1465</ele><time>2026-08-15T04:46:01Z</time></trkpt>
      <trkpt lat="29.57517" lon="103.365332"><ele>1481</ele><time>2026-08-15T04:46:52Z</time></trkpt>
      <trkpt lat="29.575131" lon="103.365217"><ele>1488</ele><time>2026-08-15T04:47:31Z</time></trkpt>
      <trkpt lat="29.575025" lon="103.365155"><ele>1489</ele><time>2026-08-15T04:47:43Z</time></trkpt>
      <trkpt lat="29.574961" lon="103.364868"><ele>1493</ele><time>2026-08-15T04:48:13Z</time></trkpt>
      <trkpt lat="29.574686" lon="103.364495"><ele>1523</ele><time>2026-08-15T04:50:16Z</time></trkpt>
      <trkpt lat="29.574638" lon="103.364312"><ele>1527</ele><time>2026-08-15T04:50:47Z</time></trkpt>
      <trkpt lat="29.574429" lon="103.364116"><ele>1527</ele><time>2026-08-15T04:51:21Z</time></trkpt>
      <trkpt lat="29.574372" lon="103.363803"><ele>1534</ele><time>2026-08-15T04:52:14Z</time></trkpt>
      <trkpt lat="29.574455" lon="103.363702"><ele>1540</ele><time>2026-08-15T04:52:47Z</time></trkpt>
      <trkpt lat="29.574605" lon="103.363737"><ele>1553</ele><time>2026-08-15T04:53:30Z</time></trkpt>
      <trkpt lat="29.574616" lon="103.363693"><ele>1554</ele><time>2026-08-15T04:53:43Z</time></trkpt>
      <trkpt lat="29.574577" lon="103.363456"><ele>1559</ele><time>2026-08-15T04:56:30Z</time></trkpt>
      <trkpt lat="29.574642" lon="103.363167"><ele>1573</ele><time>2026-08-15T04:57:31Z</time></trkpt>
      <trkpt lat="29.5746" lon="103.362995"><ele>1578</ele><time>2026-08-15T04:57:53Z</time></trkpt>
      <trkpt lat="29.574734" lon="103.362956"><ele>1584</ele><time>2026-08-15T04:58:15Z</time></trkpt>
      <trkpt lat="29.574892" lon="103.362687"><ele>1583</ele><time>2026-08-15T04:58:57Z</time></trkpt>
      <trkpt lat="29.574805" lon="103.362461"><ele>1586</ele><time>2026-08-15T04:59:26Z</time></trkpt>
      <trkpt lat="29.574735" lon="103.36242"><ele>1591</ele><time>2026-08-15T04:59:38Z</time></trkpt>
      <trkpt lat="29.573983" lon="103.362546"><ele>1590</ele><time>2026-08-15T05:00:50Z</time></trkpt>
      <trkpt lat="29.57348" lon="103.361982"><ele>1616</ele><time>2026-08-15T05:03:05Z</time></trkpt>
      <trkpt lat="29.572923" lon="103.361625"><ele>1634</ele><time>2026-08-15T05:04:43Z</time></trkpt>
      <trkpt lat="29.572384" lon="103.361703"><ele>1651</ele><time>2026-08-15T05:06:02Z</time></trkpt>
      <trkpt lat="29.572139" lon="103.361815"><ele>1657</ele><time>2026-08-15T05:06:56Z</time></trkpt>
      <trkpt lat="29.571657" lon="103.361857"><ele>1678</ele><time>2026-08-15T05:08:42Z</time></trkpt>
      <trkpt lat="29.571437" lon="103.361727"><ele>1677</ele><time>2026-08-15T05:09:06Z</time></trkpt>
      <trkpt lat="29.571181" lon="103.3617"><ele>1677</ele><time>2026-08-15T05:09:27Z</time></trkpt>
      <trkpt lat="29.570883" lon="103.361489"><ele>1682</ele><time>2026-08-15T05:10:19Z</time></trkpt>
      <trkpt lat="29.570021" lon="103.361186"><ele>1683</ele><time>2026-08-15T05:11:43Z</time></trkpt>
      <trkpt lat="29.569429" lon="103.360754"><ele>1697</ele><time>2026-08-15T05:13:06Z</time></trkpt>
      <trkpt lat="29.568923" lon="103.360272"><ele>1708</ele><time>2026-08-15T05:14:21Z</time></trkpt>
      <trkpt lat="29.568815" lon="103.36004"><ele>1711</ele><time>2026-08-15T05:14:48Z</time></trkpt>
      <trkpt lat="29.568774" lon="103.359719"><ele>1715</ele><time>2026-08-15T05:15:18Z</time></trkpt>
      <trkpt lat="29.568304" lon="103.359693"><ele>1719</ele><time>2026-08-15T05:16:01Z</time></trkpt>
      <trkpt lat="29.568152" lon="103.359555"><ele>1716</ele><time>2026-08-15T05:16:18Z</time></trkpt>
      <trkpt lat="29.567862" lon="103.359577"><ele>1718</ele><time>2026-08-15T05:16:42Z</time></trkpt>
      <trkpt lat="29.567533" lon="103.359403"><ele>1727</ele><time>2026-08-15T05:17:24Z</time></trkpt>
      <trkpt lat="29.567185" lon="103.35944"><ele>1738</ele><time>2026-08-15T05:18:19Z</time></trkpt>
      <trkpt lat="29.566931" lon="103.35935"><ele>1749</ele><time>2026-08-15T05:19:00Z</time></trkpt>
      <trkpt lat="29.566666" lon="103.359066"><ele>1755</ele><time>2026-08-15T05:19:36Z</time></trkpt>
      <trkpt lat="29.566408" lon="103.358908"><ele>1758</ele><time>2026-08-15T05:20:10Z</time></trkpt>
      <trkpt lat="29.56623" lon="103.358603"><ele>1770</ele><time>2026-08-15T05:21:00Z</time></trkpt>
      <trkpt lat="29.566238" lon="103.358317"><ele>1782</ele><time>2026-08-15T05:21:42Z</time></trkpt>
      <trkpt lat="29.565995" lon="103.357604"><ele>1802</ele><time>2026-08-15T05:23:47Z</time></trkpt>
      <trkpt lat="29.56568" lon="103.357346"><ele>1816</ele><time>2026-08-15T05:24:53Z</time></trkpt>
      <trkpt lat="29.56543" lon="103.35686"><ele>1836</ele><time>2026-08-15T05:26:29Z</time></trkpt>
      <trkpt lat="29.564874" lon="103.356512"><ele>1849</ele><time>2026-08-15T05:28:03Z</time></trkpt>
      <trkpt lat="29.564624" lon="103.356044"><ele>1863</ele><time>2026-08-15T05:29:18Z</time></trkpt>
      <trkpt lat="29.56446" lon="103.356185"><ele>1874</ele><time>2026-08-15T05:30:02Z</time></trkpt>
      <trkpt lat="29.564383" lon="103.356179"><ele>1876</ele><time>2026-08-15T05:30:29Z</time></trkpt>
      <trkpt lat="29.564354" lon="103.356359"><ele>1883</ele><time>2026-08-15T05:31:04Z</time></trkpt>
      <trkpt lat="29.564176" lon="103.356469"><ele>1896</ele><time>2026-08-15T05:31:54Z</time></trkpt>
      <trkpt lat="29.563955" lon="103.355329"><ele>1868</ele><time>2026-08-15T05:34:05Z</time></trkpt>
      <trkpt lat="29.563364" lon="103.354492"><ele>1868</ele><time>2026-08-15T05:35:28Z</time></trkpt>
      <trkpt lat="29.563107" lon="103.353641"><ele>1867</ele><time>2026-08-15T05:36:31Z</time></trkpt>
      <trkpt lat="29.563124" lon="103.353428"><ele>1864</ele><time>2026-08-15T05:36:52Z</time></trkpt>
      <trkpt lat="29.562939" lon="103.352832"><ele>1853</ele><time>2026-08-15T05:37:49Z</time></trkpt>
      <trkpt lat="29.563157" lon="103.352325"><ele>1836</ele><time>2026-08-15T05:38:46Z</time></trkpt>
      <trkpt lat="29.562944" lon="103.35146"><ele>1833</ele><time>2026-08-15T05:40:00Z</time></trkpt>
      <trkpt lat="29.563008" lon="103.351198"><ele>1827</ele><time>2026-08-15T05:40:27Z</time></trkpt>
      <trkpt lat="29.562862" lon="103.350778"><ele>1824</ele><time>2026-08-15T05:41:00Z</time></trkpt>
      <trkpt lat="29.562682" lon="103.350765"><ele>1833</ele><time>2026-08-15T05:41:20Z</time></trkpt>
      <trkpt lat="29.562781" lon="103.350629"><ele>1816</ele><time>2026-08-15T05:41:48Z</time></trkpt>
      <trkpt lat="29.562812" lon="103.350303"><ele>1815</ele><time>2026-08-15T05:42:15Z</time></trkpt>
      <trkpt lat="29.562933" lon="103.350051"><ele>1815</ele><time>2026-08-15T05:42:33Z</time></trkpt>
      <trkpt lat="29.562881" lon="103.349812"><ele>1815</ele><time>2026-08-15T05:42:51Z</time></trkpt>
      <trkpt lat="29.563217" lon="103.349123"><ele>1817</ele><time>2026-08-15T05:43:42Z</time></trkpt>
      <trkpt lat="29.563244" lon="103.348429"><ele>1821</ele><time>2026-08-15T05:44:34Z</time></trkpt>
      <trkpt lat="29.563547" lon="103.347879"><ele>1823</ele><time>2026-08-15T05:45:22Z</time></trkpt>
      <trkpt lat="29.56356" lon="103.347433"><ele>1808</ele><time>2026-08-15T05:45:58Z</time></trkpt>
      <trkpt lat="29.563369" lon="103.347178"><ele>1812</ele><time>2026-08-15T05:46:21Z</time></trkpt>
      <trkpt lat="29.563191" lon="103.347095"><ele>1813</ele><time>2026-08-15T05:46:39Z</time></trkpt>
      <trkpt lat="29.562813" lon="103.346542"><ele>1806</ele><time>2026-08-15T05:47:39Z</time></trkpt>
      <trkpt lat="29.562394" lon="103.346239"><ele>1802</ele><time>2026-08-15T05:48:16Z</time></trkpt>
      <trkpt lat="29.562089" lon="103.345716"><ele>1799</ele><time>2026-08-15T05:48:58Z</time></trkpt>
      <trkpt lat="29.561876" lon="103.34559"><ele>1805</ele><time>2026-08-15T05:49:19Z</time></trkpt>
      <trkpt lat="29.56159" lon="103.345587"><ele>1805</ele><time>2026-08-15T05:49:48Z</time></trkpt>
      <trkpt lat="29.561192" lon="103.345072"><ele>1821</ele><time>2026-08-15T05:51:22Z</time></trkpt>
      <trkpt lat="29.561032" lon="103.344992"><ele>1833</ele><time>2026-08-15T05:52:23Z</time></trkpt>
      <trkpt lat="29.560889" lon="103.345085"><ele>1845</ele><time>2026-08-15T05:53:13Z</time></trkpt>
      <trkpt lat="29.56083" lon="103.344906"><ele>1855</ele><time>2026-08-15T05:54:07Z</time></trkpt>
      <trkpt lat="29.560709" lon="103.344873"><ele>1865</ele><time>2026-08-15T05:54:47Z</time></trkpt>
      <trkpt lat="29.560659" lon="103.34464"><ele>1876</ele><time>2026-08-15T05:56:44Z</time></trkpt>
      <trkpt lat="29.560651" lon="103.344695"><ele>1879</ele><time>2026-08-15T05:58:45Z</time></trkpt>
      <trkpt lat="29.560498" lon="103.344637"><ele>1885</ele><time>2026-08-15T05:59:24Z</time></trkpt>
      <trkpt lat="29.560271" lon="103.344464"><ele>1905</ele><time>2026-08-15T06:00:35Z</time></trkpt>
      <trkpt lat="29.560158" lon="103.34424"><ele>1912</ele><time>2026-08-15T06:01:38Z</time></trkpt>
      <trkpt lat="29.560062" lon="103.344194"><ele>1926</ele><time>2026-08-15T06:02:14Z</time></trkpt>
      <trkpt lat="29.560095" lon="103.343886"><ele>1940</ele><time>2026-08-15T06:03:48Z</time></trkpt>
      <trkpt lat="29.559784" lon="103.34367"><ele>1961</ele><time>2026-08-15T06:05:25Z</time></trkpt>
      <trkpt lat="29.559679" lon="103.343501"><ele>1965</ele><time>2026-08-15T06:06:11Z</time></trkpt>
      <trkpt lat="29.55963" lon="103.343585"><ele>1975</ele><time>2026-08-15T06:06:40Z</time></trkpt>
      <trkpt lat="29.559475" lon="103.343502"><ele>1979</ele><time>2026-08-15T06:07:25Z</time></trkpt>
      <trkpt lat="29.559407" lon="103.343584"><ele>1991</ele><time>2026-08-15T06:07:55Z</time></trkpt>
      <trkpt lat="29.559293" lon="103.343594"><ele>1995</ele><time>2026-08-15T06:08:39Z</time></trkpt>
      <trkpt lat="29.559191" lon="103.34378"><ele>2010</ele><time>2026-08-15T06:09:36Z</time></trkpt>
      <trkpt lat="29.558977" lon="103.343646"><ele>2022</ele><time>2026-08-15T06:11:06Z</time></trkpt>
      <trkpt lat="29.558978" lon="103.343721"><ele>2030</ele><time>2026-08-15T06:11:24Z</time></trkpt>
      <trkpt lat="29.55889" lon="103.343768"><ele>2034</ele><time>2026-08-15T06:12:06Z</time></trkpt>
      <trkpt lat="29.558928" lon="103.344104"><ele>2035</ele><time>2026-08-15T06:12:32Z</time></trkpt>
      <trkpt lat="29.558889" lon="103.344052"><ele>2039</ele><time>2026-08-15T06:12:54Z</time></trkpt>
      <trkpt lat="29.558822" lon="103.344309"><ele>2046</ele><time>2026-08-15T06:13:48Z</time></trkpt>
      <trkpt lat="29.558359" lon="103.344093"><ele>2065</ele><time>2026-08-15T06:15:40Z</time></trkpt>
      <trkpt lat="29.55811" lon="103.344155"><ele>2068</ele><time>2026-08-15T06:16:08Z</time></trkpt>
      <trkpt lat="29.558128" lon="103.344008"><ele>2069</ele><time>2026-08-15T06:16:17Z</time></trkpt>
      <trkpt lat="29.557868" lon="103.343925"><ele>2068</ele><time>2026-08-15T06:16:41Z</time></trkpt>
      <trkpt lat="29.55781" lon="103.343726"><ele>2068</ele><time>2026-08-15T06:16:54Z</time></trkpt>
      <trkpt lat="29.557743" lon="103.343924"><ele>2066</ele><time>2026-08-15T06:16:59Z</time></trkpt>
      <trkpt lat="29.557627" lon="103.344045"><ele>2068</ele><time>2026-08-15T06:17:10Z</time></trkpt>
      <trkpt lat="29.557442" lon="103.343708"><ele>2065</ele><time>2026-08-15T06:17:45Z</time></trkpt>
      <trkpt lat="29.557335" lon="103.343633"><ele>2064</ele><time>2026-08-15T06:17:57Z</time></trkpt>
      <trkpt lat="29.557317" lon="103.343672"><ele>2066</ele><time>2026-08-15T06:21:06Z</time></trkpt>
      <trkpt lat="29.55741" lon="103.343584"><ele>2065</ele><time>2026-08-15T06:21:30Z</time></trkpt>
      <trkpt lat="29.557292" lon="103.343664"><ele>2064</ele><time>2026-08-15T06:21:50Z</time></trkpt>
      <trkpt lat="29.557108" lon="103.343617"><ele>2077</ele><time>2026-08-15T06:22:46Z</time></trkpt>
      <trkpt lat="29.55685" lon="103.343754"><ele>2090</ele><time>2026-08-15T06:23:49Z</time></trkpt>
      <trkpt lat="29.55671" lon="103.343714"><ele>2094</ele><time>2026-08-15T06:24:23Z</time></trkpt>
      <trkpt lat="29.556576" lon="103.343816"><ele>2104</ele><time>2026-08-15T06:25:09Z</time></trkpt>
      <trkpt lat="29.556451" lon="103.34411"><ele>2119</ele><time>2026-08-15T06:26:39Z</time></trkpt>
      <trkpt lat="29.55624" lon="103.344264"><ele>2126</ele><time>2026-08-15T06:27:40Z</time></trkpt>
      <trkpt lat="29.55609" lon="103.344492"><ele>2136</ele><time>2026-08-15T06:28:59Z</time></trkpt>
      <trkpt lat="29.556014" lon="103.344501"><ele>2135</ele><time>2026-08-15T06:29:18Z</time></trkpt>
      <trkpt lat="29.556147" lon="103.344484"><ele>2139</ele><time>2026-08-15T06:31:24Z</time></trkpt>
      <trkpt lat="29.556198" lon="103.344684"><ele>2139</ele><time>2026-08-15T06:35:41Z</time></trkpt>
      <trkpt lat="29.556151" lon="103.344501"><ele>2139</ele><time>2026-08-15T06:36:24Z</time></trkpt>
      <trkpt lat="29.556035" lon="103.344544"><ele>2140</ele><time>2026-08-15T06:46:08Z</time></trkpt>
      <trkpt lat="29.555779" lon="103.344981"><ele>2155</ele><time>2026-08-15T06:47:45Z</time></trkpt>
      <trkpt lat="29.555531" lon="103.344947"><ele>2171</ele><time>2026-08-15T06:48:57Z</time></trkpt>
      <trkpt lat="29.555394" lon="103.345117"><ele>2181</ele><time>2026-08-15T06:50:18Z</time></trkpt>
      <trkpt lat="29.55525" lon="103.345012"><ele>2188</ele><time>2026-08-15T06:50:55Z</time></trkpt>
      <trkpt lat="29.554713" lon="103.345331"><ele>2208</ele><time>2026-08-15T06:52:47Z</time></trkpt>
      <trkpt lat="29.554064" lon="103.34552"><ele>2241</ele><time>2026-08-15T06:55:34Z</time></trkpt>
      <trkpt lat="29.553637" lon="103.345326"><ele>2253</ele><time>2026-08-15T06:56:45Z</time></trkpt>
      <trkpt lat="29.552819" lon="103.34547"><ele>2263</ele><time>2026-08-15T06:58:27Z</time></trkpt>
      <trkpt lat="29.552435" lon="103.345471"><ele>2261</ele><time>2026-08-15T06:59:09Z</time></trkpt>
      <trkpt lat="29.552408" lon="103.345256"><ele>2266</ele><time>2026-08-15T06:59:30Z</time></trkpt>
      <trkpt lat="29.552004" lon="103.345091"><ele>2266</ele><time>2026-08-15T07:00:07Z</time></trkpt>
      <trkpt lat="29.551954" lon="103.344856"><ele>2271</ele><time>2026-08-15T07:00:27Z</time></trkpt>
      <trkpt lat="29.55155" lon="103.344312"><ele>2273</ele><time>2026-08-15T07:01:21Z</time></trkpt>
      <trkpt lat="29.550768" lon="103.344139"><ele>2267</ele><time>2026-08-15T07:02:29Z</time></trkpt>
      <trkpt lat="29.550691" lon="103.343969"><ele>2267</ele><time>2026-08-15T07:02:47Z</time></trkpt>
      <trkpt lat="29.550517" lon="103.343885"><ele>2270</ele><time>2026-08-15T07:03:05Z</time></trkpt>
      <trkpt lat="29.550294" lon="103.343594"><ele>2270</ele><time>2026-08-15T07:03:32Z</time></trkpt>
      <trkpt lat="29.550188" lon="103.34334"><ele>2271</ele><time>2026-08-15T07:03:52Z</time></trkpt>
      <trkpt lat="29.549973" lon="103.343139"><ele>2275</ele><time>2026-08-15T07:04:18Z</time></trkpt>
      <trkpt lat="29.549726" lon="103.342637"><ele>2272</ele><time>2026-08-15T07:05:04Z</time></trkpt>
      <trkpt lat="29.549391" lon="103.342245"><ele>2276</ele><time>2026-08-15T07:05:45Z</time></trkpt>
      <trkpt lat="29.549221" lon="103.341484"><ele>2280</ele><time>2026-08-15T07:06:51Z</time></trkpt>
      <trkpt lat="29.549066" lon="103.34122"><ele>2289</ele><time>2026-08-15T07:07:36Z</time></trkpt>
      <trkpt lat="29.54883" lon="103.341157"><ele>2297</ele><time>2026-08-15T07:08:18Z</time></trkpt>
      <trkpt lat="29.548385" lon="103.341255"><ele>2315</ele><time>2026-08-15T07:10:03Z</time></trkpt>
      <trkpt lat="29.547433" lon="103.34102"><ele>2339</ele><time>2026-08-15T07:12:41Z</time></trkpt>
      <trkpt lat="29.547359" lon="103.340766"><ele>2344</ele><time>2026-08-15T07:13:11Z</time></trkpt>
      <trkpt lat="29.547246" lon="103.340607"><ele>2346</ele><time>2026-08-15T07:13:35Z</time></trkpt>
      <trkpt lat="29.547227" lon="103.340429"><ele>2355</ele><time>2026-08-15T07:14:15Z</time></trkpt>
      <trkpt lat="29.547136" lon="103.340341"><ele>2354</ele><time>2026-08-15T07:14:39Z</time></trkpt>
      <trkpt lat="29.54719" lon="103.340319"><ele>2357</ele><time>2026-08-15T07:14:45Z</time></trkpt>
      <trkpt lat="29.547102" lon="103.340183"><ele>2365</ele><time>2026-08-15T07:15:24Z</time></trkpt>
      <trkpt lat="29.547084" lon="103.339795"><ele>2381</ele><time>2026-08-15T07:16:52Z</time></trkpt>
      <trkpt lat="29.546525" lon="103.338934"><ele>2426</ele><time>2026-08-15T07:20:57Z</time></trkpt>
      <trkpt lat="29.546325" lon="103.338759"><ele>2439</ele><time>2026-08-15T07:22:03Z</time></trkpt>
      <trkpt lat="29.546173" lon="103.338424"><ele>2449</ele><time>2026-08-15T07:23:07Z</time></trkpt>
      <trkpt lat="29.546244" lon="103.338048"><ele>2461</ele><time>2026-08-15T07:24:12Z</time></trkpt>
      <trkpt lat="29.546585" lon="103.337306"><ele>2462</ele><time>2026-08-15T07:25:26Z</time></trkpt>
      <trkpt lat="29.546589" lon="103.337128"><ele>2464</ele><time>2026-08-15T07:25:41Z</time></trkpt>
      <trkpt lat="29.546474" lon="103.336947"><ele>2465</ele><time>2026-08-15T07:26:02Z</time></trkpt>
      <trkpt lat="29.546428" lon="103.336662"><ele>2459</ele><time>2026-08-15T07:26:34Z</time></trkpt>
      <trkpt lat="29.546753" lon="103.335197"><ele>2431</ele><time>2026-08-15T07:28:44Z</time></trkpt>
      <trkpt lat="29.5467" lon="103.335043"><ele>2426</ele><time>2026-08-15T07:28:59Z</time></trkpt>
      <trkpt lat="29.54652" lon="103.33485"><ele>2427</ele><time>2026-08-15T07:29:23Z</time></trkpt>
      <trkpt lat="29.546278" lon="103.334726"><ele>2437</ele><time>2026-08-15T07:29:56Z</time></trkpt>
      <trkpt lat="29.545892" lon="103.334686"><ele>2433</ele><time>2026-08-15T07:30:39Z</time></trkpt>
      <trkpt lat="29.545719" lon="103.334465"><ele>2432</ele><time>2026-08-15T07:31:02Z</time></trkpt>
      <trkpt lat="29.545077" lon="103.334075"><ele>2431</ele><time>2026-08-15T07:32:20Z</time></trkpt>
      <trkpt lat="29.54483" lon="103.334065"><ele>2428</ele><time>2026-08-15T07:32:44Z</time></trkpt>
      <trkpt lat="29.544585" lon="103.334221"><ele>2421</ele><time>2026-08-15T07:33:06Z</time></trkpt>
      <trkpt lat="29.544364" lon="103.334127"><ele>2426</ele><time>2026-08-15T07:33:23Z</time></trkpt>
      <trkpt lat="29.544043" lon="103.334105"><ele>2426</ele><time>2026-08-15T07:33:50Z</time></trkpt>
      <trkpt lat="29.543826" lon="103.333911"><ele>2424</ele><time>2026-08-15T07:34:14Z</time></trkpt>
      <trkpt lat="29.543637" lon="103.333877"><ele>2421</ele><time>2026-08-15T07:34:32Z</time></trkpt>
      <trkpt lat="29.543397" lon="103.333611"><ele>2419</ele><time>2026-08-15T07:35:08Z</time></trkpt>
      <trkpt lat="29.543256" lon="103.333163"><ele>2419</ele><time>2026-08-15T07:35:41Z</time></trkpt>
      <trkpt lat="29.543104" lon="103.332993"><ele>2422</ele><time>2026-08-15T07:36:02Z</time></trkpt>
      <trkpt lat="29.542884" lon="103.332915"><ele>2420</ele><time>2026-08-15T07:36:20Z</time></trkpt>
      <trkpt lat="29.54272" lon="103.332671"><ele>2418</ele><time>2026-08-15T07:36:44Z</time></trkpt>
      <trkpt lat="29.542474" lon="103.332504"><ele>2422</ele><time>2026-08-15T07:37:05Z</time></trkpt>
      <trkpt lat="29.542358" lon="103.332156"><ele>2422</ele><time>2026-08-15T07:37:32Z</time></trkpt>
      <trkpt lat="29.542075" lon="103.331977"><ele>2418</ele><time>2026-08-15T07:37:56Z</time></trkpt>
      <trkpt lat="29.541945" lon="103.332088"><ele>2417</ele><time>2026-08-15T07:38:17Z</time></trkpt>
      <trkpt lat="29.541687" lon="103.332055"><ele>2417</ele><time>2026-08-15T07:38:47Z</time></trkpt>
      <trkpt lat="29.541687" lon="103.331925"><ele>2416</ele><time>2026-08-15T07:38:58Z</time></trkpt>
      <trkpt lat="29.541801" lon="103.331774"><ele>2416</ele><time>2026-08-15T07:39:16Z</time></trkpt>
      <trkpt lat="29.541726" lon="103.331651"><ele>2419</ele><time>2026-08-15T07:39:34Z</time></trkpt>
      <trkpt lat="29.540999" lon="103.331796"><ele>2428</ele><time>2026-08-15T07:40:52Z</time></trkpt>
      <trkpt lat="29.540645" lon="103.331706"><ele>2426</ele><time>2026-08-15T07:41:23Z</time></trkpt>
      <trkpt lat="29.540131" lon="103.332105"><ele>2426</ele><time>2026-08-15T07:42:26Z</time></trkpt>
      <trkpt lat="29.539599" lon="103.332375"><ele>2428</ele><time>2026-08-15T07:43:17Z</time></trkpt>
      <trkpt lat="29.539222" lon="103.33278"><ele>2445</ele><time>2026-08-15T07:44:25Z</time></trkpt>
      <trkpt lat="29.538875" lon="103.333047"><ele>2448</ele><time>2026-08-15T07:45:04Z</time></trkpt>
      <trkpt lat="29.538264" lon="103.333209"><ele>2459</ele><time>2026-08-15T07:46:07Z</time></trkpt>
      <trkpt lat="29.53756" lon="103.333728"><ele>2465</ele><time>2026-08-15T07:47:10Z</time></trkpt>
      <trkpt lat="29.537316" lon="103.333769"><ele>2470</ele><time>2026-08-15T07:47:33Z</time></trkpt>
      <trkpt lat="29.537153" lon="103.334065"><ele>2473</ele><time>2026-08-15T07:48:11Z</time></trkpt>
      <trkpt lat="29.536672" lon="103.334345"><ele>2483</ele><time>2026-08-15T07:49:24Z</time></trkpt>
      <trkpt lat="29.536163" lon="103.334306"><ele>2490</ele><time>2026-08-15T07:50:45Z</time></trkpt>
      <trkpt lat="29.535771" lon="103.33408"><ele>2497</ele><time>2026-08-15T07:51:44Z</time></trkpt>
      <trkpt lat="29.535422" lon="103.33372"><ele>2509</ele><time>2026-08-15T07:52:44Z</time></trkpt>
      <trkpt lat="29.535387" lon="103.333055"><ele>2514</ele><time>2026-08-15T07:53:29Z</time></trkpt>
      <trkpt lat="29.535297" lon="103.332849"><ele>2515</ele><time>2026-08-15T07:53:44Z</time></trkpt>
      <trkpt lat="29.535026" lon="103.332528"><ele>2517</ele><time>2026-08-15T07:54:11Z</time></trkpt>
      <trkpt lat="29.534942" lon="103.331513"><ele>2519</ele><time>2026-08-15T07:55:17Z</time></trkpt>
      <trkpt lat="29.534853" lon="103.331372"><ele>2520</ele><time>2026-08-15T07:55:29Z</time></trkpt>
      <trkpt lat="29.534721" lon="103.331363"><ele>2521</ele><time>2026-08-15T07:55:38Z</time></trkpt>
      <trkpt lat="29.53466" lon="103.331473"><ele>2521</ele><time>2026-08-15T07:55:50Z</time></trkpt>
      <trkpt lat="29.534748" lon="103.331955"><ele>2524</ele><time>2026-08-15T07:56:23Z</time></trkpt>
      <trkpt lat="29.534685" lon="103.332502"><ele>2526</ele><time>2026-08-15T07:56:59Z</time></trkpt>
      <trkpt lat="29.53484" lon="103.332891"><ele>2533</ele><time>2026-08-15T07:57:29Z</time></trkpt>
      <trkpt lat="29.534375" lon="103.333101"><ele>2548</ele><time>2026-08-15T07:58:41Z</time></trkpt>
      <trkpt lat="29.534176" lon="103.33307"><ele>2554</ele><time>2026-08-15T07:59:20Z</time></trkpt>
      <trkpt lat="29.534125" lon="103.333165"><ele>2561</ele><time>2026-08-15T07:59:40Z</time></trkpt>
      <trkpt lat="29.533878" lon="103.333147"><ele>2571</ele><time>2026-08-15T08:00:31Z</time></trkpt>
      <trkpt lat="29.532935" lon="103.332321"><ele>2614</ele><time>2026-08-15T08:04:55Z</time></trkpt>
      <trkpt lat="29.532631" lon="103.331956"><ele>2623</ele><time>2026-08-15T08:06:23Z</time></trkpt>
      <trkpt lat="29.532516" lon="103.331582"><ele>2642</ele><time>2026-08-15T08:07:44Z</time></trkpt>
      <trkpt lat="29.532373" lon="103.331552"><ele>2644</ele><time>2026-08-15T08:08:05Z</time></trkpt>
      <trkpt lat="29.53243" lon="103.331502"><ele>2648</ele><time>2026-08-15T08:08:16Z</time></trkpt>
      <trkpt lat="29.532257" lon="103.331432"><ele>2643</ele><time>2026-08-15T08:08:41Z</time></trkpt>
      <trkpt lat="29.53223" lon="103.331197"><ele>2660</ele><time>2026-08-15T08:09:14Z</time></trkpt>
      <trkpt lat="29.532101" lon="103.33119"><ele>2656</ele><time>2026-08-15T08:09:26Z</time></trkpt>
      <trkpt lat="29.532171" lon="103.331197"><ele>2653</ele><time>2026-08-15T08:09:38Z</time></trkpt>
      <trkpt lat="29.53207" lon="103.33126"><ele>2651</ele><time>2026-08-15T08:09:47Z</time></trkpt>
      <trkpt lat="29.532183" lon="103.331342"><ele>2659</ele><time>2026-08-15T08:10:05Z</time></trkpt>
      <trkpt lat="29.532167" lon="103.331388"><ele>2659</ele><time>2026-08-15T08:10:14Z</time></trkpt>
      <trkpt lat="29.532108" lon="103.331293"><ele>2664</ele><time>2026-08-15T08:10:41Z</time></trkpt>
      <trkpt lat="29.532061" lon="103.331119"><ele>2671</ele><time>2026-08-15T08:11:02Z</time></trkpt>
      <trkpt lat="29.532199" lon="103.330956"><ele>2678</ele><time>2026-08-15T08:11:20Z</time></trkpt>
      <trkpt lat="29.532219" lon="103.330451"><ele>2683</ele><time>2026-08-15T08:12:31Z</time></trkpt>
      <trkpt lat="29.532141" lon="103.330352"><ele>2691</ele><time>2026-08-15T08:13:09Z</time></trkpt>
      <trkpt lat="29.532224" lon="103.33032"><ele>2695</ele><time>2026-08-15T08:13:24Z</time></trkpt>
      <trkpt lat="29.532173" lon="103.330238"><ele>2693</ele><time>2026-08-15T08:13:48Z</time></trkpt>
      <trkpt lat="29.531856" lon="103.330193"><ele>2710</ele><time>2026-08-15T08:15:30Z</time></trkpt>
      <trkpt lat="29.53137" lon="103.329818"><ele>2739</ele><time>2026-08-15T08:18:33Z</time></trkpt>
      <trkpt lat="29.531225" lon="103.3296"><ele>2759</ele><time>2026-08-15T08:19:55Z</time></trkpt>
      <trkpt lat="29.531103" lon="103.32891"><ele>2772</ele><time>2026-08-15T08:21:52Z</time></trkpt>
      <trkpt lat="29.531297" lon="103.328148"><ele>2786</ele><time>2026-08-15T08:23:30Z</time></trkpt>
      <trkpt lat="29.531259" lon="103.32728"><ele>2809</ele><time>2026-08-15T08:25:50Z</time></trkpt>
      <trkpt lat="29.531138" lon="103.327091"><ele>2813</ele><time>2026-08-15T08:26:32Z</time></trkpt>
      <trkpt lat="29.530829" lon="103.326909"><ele>2826</ele><time>2026-08-15T08:27:34Z</time></trkpt>
      <trkpt lat="29.530826" lon="103.326803"><ele>2831</ele><time>2026-08-15T08:27:55Z</time></trkpt>
      <trkpt lat="29.530308" lon="103.327024"><ele>2845</ele><time>2026-08-15T08:29:47Z</time></trkpt>
      <trkpt lat="29.530016" lon="103.327241"><ele>2854</ele><time>2026-08-15T08:30:26Z</time></trkpt>
      <trkpt lat="29.529882" lon="103.327374"><ele>2858</ele><time>2026-08-15T08:30:47Z</time></trkpt>
      <trkpt lat="29.529703" lon="103.327736"><ele>2861</ele><time>2026-08-15T08:31:26Z</time></trkpt>
      <trkpt lat="29.529298" lon="103.327824"><ele>2857</ele><time>2026-08-15T08:32:11Z</time></trkpt>
      <trkpt lat="29.52921" lon="103.328291"><ele>2863</ele><time>2026-08-15T08:33:20Z</time></trkpt>
      <trkpt lat="29.529004" lon="103.328861"><ele>2875</ele><time>2026-08-15T08:34:53Z</time></trkpt>
      <trkpt lat="29.528697" lon="103.329313"><ele>2898</ele><time>2026-08-15T08:36:05Z</time></trkpt>
      <trkpt lat="29.528666" lon="103.329585"><ele>2905</ele><time>2026-08-15T08:36:35Z</time></trkpt>
      <trkpt lat="29.528513" lon="103.33001"><ele>2902</ele><time>2026-08-15T08:37:17Z</time></trkpt>
      <trkpt lat="29.528287" lon="103.330251"><ele>2904</ele><time>2026-08-15T08:37:46Z</time></trkpt>
      <trkpt lat="29.528292" lon="103.330566"><ele>2913</ele><time>2026-08-15T08:38:28Z</time></trkpt>
      <trkpt lat="29.528137" lon="103.33075"><ele>2917</ele><time>2026-08-15T08:39:12Z</time></trkpt>
      <trkpt lat="29.528053" lon="103.331008"><ele>2926</ele><time>2026-08-15T08:39:45Z</time></trkpt>
      <trkpt lat="29.528066" lon="103.331161"><ele>2920</ele><time>2026-08-15T08:40:03Z</time></trkpt>
      <trkpt lat="29.527813" lon="103.331428"><ele>2925</ele><time>2026-08-15T08:40:57Z</time></trkpt>
      <trkpt lat="29.527741" lon="103.331604"><ele>2928</ele><time>2026-08-15T08:41:20Z</time></trkpt>
      <trkpt lat="29.52774" lon="103.331987"><ele>2930</ele><time>2026-08-15T08:42:00Z</time></trkpt>
      <trkpt lat="29.527574" lon="103.332177"><ele>2935</ele><time>2026-08-15T08:42:50Z</time></trkpt>
      <trkpt lat="29.527587" lon="103.332356"><ele>2942</ele><time>2026-08-15T08:43:20Z</time></trkpt>
      <trkpt lat="29.527425" lon="103.332484"><ele>2948</ele><time>2026-08-15T08:44:00Z</time></trkpt>
      <trkpt lat="29.52722" lon="103.332251"><ele>2948</ele><time>2026-08-15T08:44:34Z</time></trkpt>
      <trkpt lat="29.527094" lon="103.332333"><ele>2950</ele><time>2026-08-15T08:44:49Z</time></trkpt>
      <trkpt lat="29.527058" lon="103.332941"><ele>2959</ele><time>2026-08-15T08:45:58Z</time></trkpt>
      <trkpt lat="29.527159" lon="103.333194"><ele>2961</ele><time>2026-08-15T08:46:26Z</time></trkpt>
      <trkpt lat="29.52709" lon="103.333382"><ele>2967</ele><time>2026-08-15T08:46:46Z</time></trkpt>
      <trkpt lat="29.526935" lon="103.333468"><ele>2968</ele><time>2026-08-15T08:47:13Z</time></trkpt>
      <trkpt lat="29.526685" lon="103.333483"><ele>2982</ele><time>2026-08-15T08:48:04Z</time></trkpt>
      <trkpt lat="29.526062" lon="103.333916"><ele>2990</ele><time>2026-08-15T08:49:43Z</time></trkpt>
      <trkpt lat="29.525822" lon="103.334001"><ele>2998</ele><time>2026-08-15T08:50:19Z</time></trkpt>
      <trkpt lat="29.525294" lon="103.334685"><ele>3010</ele><time>2026-08-15T08:52:15Z</time></trkpt>
      <trkpt lat="29.525029" lon="103.334851"><ele>3019</ele><time>2026-08-15T08:53:09Z</time></trkpt>
      <trkpt lat="29.524979" lon="103.33485"><ele>3019</ele><time>2026-08-15T08:53:15Z</time></trkpt>
      <trkpt lat="29.524935" lon="103.334733"><ele>3023</ele><time>2026-08-15T08:54:06Z</time></trkpt>
      <trkpt lat="29.524633" lon="103.334805"><ele>3022</ele><time>2026-08-15T08:54:38Z</time></trkpt>
      <trkpt lat="29.524428" lon="103.33493"><ele>3026</ele><time>2026-08-15T08:54:58Z</time></trkpt>
      <trkpt lat="29.523849" lon="103.334951"><ele>3030</ele><time>2026-08-15T08:55:52Z</time></trkpt>
      <trkpt lat="29.523608" lon="103.334873"><ele>3034</ele><time>2026-08-15T08:56:13Z</time></trkpt>
      <trkpt lat="29.523582" lon="103.33462"><ele>3025</ele><time>2026-08-15T08:56:39Z</time></trkpt>
      <trkpt lat="29.523433" lon="103.334565"><ele>3027</ele><time>2026-08-15T08:56:51Z</time></trkpt>
    </trkseg>
  </trk>
</gpx>
