<?xml version="1.0" encoding="UTF-8"?>
<gpx version="1.1" creator="MyWorld" xmlns="http://www.topografix.com/GPX/1/1">
  <metadata><name>绍兴香炉禅寺</name></metadata>
  <trk>
    <name>绍兴香炉禅寺</name>
    <trkseg>
      <trkpt lat="29.96557" lon="120.601357"><ele>12</ele><time>2026-03-21T01:11:14Z</time></trkpt>
      <trkpt lat="29.965212" lon="120.601892"><ele>11</ele><time>2026-03-21T01:11:59Z</time></trkpt>
      <trkpt lat="29.964944" lon="120.60189"><ele>12</ele><time>2026-03-21T01:12:25Z</time></trkpt>
      <trkpt lat="29.964598" lon="120.601778"><ele>12</ele><time>2026-03-21T01:12:55Z</time></trkpt>
      <trkpt lat="29.963741" lon="120.601844"><ele>14</ele><time>2026-03-21T01:14:09Z</time></trkpt>
      <trkpt lat="29.963329" lon="120.602044"><ele>18</ele><time>2026-03-21T01:14:46Z</time></trkpt>
      <trkpt lat="29.963192" lon="120.602041"><ele>20</ele><time>2026-03-21T01:15:11Z</time></trkpt>
      <trkpt lat="29.962635" lon="120.602564"><ele>22</ele><time>2026-03-21T01:16:19Z</time></trkpt>
      <trkpt lat="29.961742" lon="120.602777"><ele>27</ele><time>2026-03-21T01:17:57Z</time></trkpt>
      <trkpt lat="29.961643" lon="120.602957"><ele>27</ele><time>2026-03-21T01:18:21Z</time></trkpt>
      <trkpt lat="29.961696" lon="120.602882"><ele>27</ele><time>2026-03-21T01:18:45Z</time></trkpt>
      <trkpt lat="29.961625" lon="120.602829"><ele>27</ele><time>2026-03-21T01:18:54Z</time></trkpt>
      <trkpt lat="29.961474" lon="120.602925"><ele>28</ele><time>2026-03-21T01:19:11Z</time></trkpt>
      <trkpt lat="29.960636" lon="120.603173"><ele>33</ele><time>2026-03-21T01:20:30Z</time></trkpt>
      <trkpt lat="29.959991" lon="120.603261"><ele>37</ele><time>2026-03-21T01:21:36Z</time></trkpt>
      <trkpt lat="29.959838" lon="120.603469"><ele>35</ele><time>2026-03-21T01:22:02Z</time></trkpt>
      <trkpt lat="29.958896" lon="120.603497"><ele>40</ele><time>2026-03-21T01:24:12Z</time></trkpt>
      <trkpt lat="29.958772" lon="120.60359"><ele>41</ele><time>2026-03-21T01:24:31Z</time></trkpt>
      <trkpt lat="29.958753" lon="120.603824"><ele>40</ele><time>2026-03-21T01:24:49Z</time></trkpt>
      <trkpt lat="29.958543" lon="120.604185"><ele>40</ele><time>2026-03-21T01:25:20Z</time></trkpt>
      <trkpt lat="29.958915" lon="120.603903"><ele>41</ele><time>2026-03-21T01:25:35Z</time></trkpt>
      <trkpt lat="29.95872" lon="120.604006"><ele>41</ele><time>2026-03-21T01:25:47Z</time></trkpt>
      <trkpt lat="29.958763" lon="120.60382"><ele>40</ele><time>2026-03-21T01:26:17Z</time></trkpt>
      <trkpt lat="29.958588" lon="120.604007"><ele>41</ele><time>2026-03-21T01:27:19Z</time></trkpt>
      <trkpt lat="29.958502" lon="120.603989"><ele>42</ele><time>2026-03-21T01:27:36Z</time></trkpt>
      <trkpt lat="29.95841" lon="120.603735"><ele>42</ele><time>2026-03-21T01:28:24Z</time></trkpt>
      <trkpt lat="29.958451" lon="120.603563"><ele>42</ele><time>2026-03-21T01:28:44Z</time></trkpt>
      <trkpt lat="29.958382" lon="120.603597"><ele>42</ele><time>2026-03-21T01:29:48Z</time></trkpt>
      <trkpt lat="29.958367" lon="120.603488"><ele>42</ele><time>2026-03-21T01:30:13Z</time></trkpt>
      <trkpt lat="29.958329" lon="120.603695"><ele>42</ele><time>2026-03-21T01:30:45Z</time></trkpt>
      <trkpt lat="29.958073" lon="120.603749"><ele>45</ele><time>2026-03-21T01:31:13Z</time></trkpt>
      <trkpt lat="29.957865" lon="120.603903"><ele>46</ele><time>2026-03-21T01:31:39Z</time></trkpt>
      <trkpt lat="29.956993" lon="120.603743"><ele>53</ele><time>2026-03-21T01:33:10Z</time></trkpt>
      <trkpt lat="29.956597" lon="120.603763"><ele>55</ele><time>2026-03-21T01:33:51Z</time></trkpt>
      <trkpt lat="29.956261" lon="120.603995"><ele>61</ele><time>2026-03-21T01:34:30Z</time></trkpt>
      <trkpt lat="29.955649" lon="120.604215"><ele>70</ele><time>2026-03-21T01:35:32Z</time></trkpt>
      <trkpt lat="29.955593" lon="120.60434"><ele>72</ele><time>2026-03-21T01:35:46Z</time></trkpt>
      <trkpt lat="29.9554" lon="120.604338"><ele>72</ele><time>2026-03-21T01:36:20Z</time></trkpt>
      <trkpt lat="29.954877" lon="120.604538"><ele>72</ele><time>2026-03-21T01:37:27Z</time></trkpt>
      <trkpt lat="29.954905" lon="120.604474"><ele>72</ele><time>2026-03-21T01:37:45Z</time></trkpt>
      <trkpt lat="29.954807" lon="120.604251"><ele>71</ele><time>2026-03-21T01:38:07Z</time></trkpt>
      <trkpt lat="29.954795" lon="120.604337"><ele>73</ele><time>2026-03-21T01:38:21Z</time></trkpt>
      <trkpt lat="29.954665" lon="120.604355"><ele>74</ele><time>2026-03-21T01:38:57Z</time></trkpt>
      <trkpt lat="29.954673" lon="120.604423"><ele>74</ele><time>2026-03-21T01:39:01Z</time></trkpt>
      <trkpt lat="29.954844" lon="120.60433"><ele>71</ele><time>2026-03-21T01:39:16Z</time></trkpt>
      <trkpt lat="29.954891" lon="120.604538"><ele>72</ele><time>2026-03-21T01:40:49Z</time></trkpt>
      <trkpt lat="29.953956" lon="120.605289"><ele>81</ele><time>2026-03-21T01:42:55Z</time></trkpt>
      <trkpt lat="29.95378" lon="120.605565"><ele>84</ele><time>2026-03-21T01:43:28Z</time></trkpt>
      <trkpt lat="29.953383" lon="120.605807"><ele>89</ele><time>2026-03-21T01:44:26Z</time></trkpt>
      <trkpt lat="29.952728" lon="120.606373"><ele>100</ele><time>2026-03-21T01:46:21Z</time></trkpt>
      <trkpt lat="29.952593" lon="120.606608"><ele>100</ele><time>2026-03-21T01:47:01Z</time></trkpt>
      <trkpt lat="29.952578" lon="120.606488"><ele>103</ele><time>2026-03-21T01:47:26Z</time></trkpt>
      <trkpt lat="29.952329" lon="120.606631"><ele>109</ele><time>2026-03-21T01:48:29Z</time></trkpt>
      <trkpt lat="29.952374" lon="120.606542"><ele>109</ele><time>2026-03-21T01:49:11Z</time></trkpt>
      <trkpt lat="29.952152" lon="120.606362"><ele>116</ele><time>2026-03-21T01:50:08Z</time></trkpt>
      <trkpt lat="29.952047" lon="120.606113"><ele>127</ele><time>2026-03-21T01:50:54Z</time></trkpt>
      <trkpt lat="29.951484" lon="120.605621"><ele>152</ele><time>2026-03-21T01:54:48Z</time></trkpt>
      <trkpt lat="29.951384" lon="120.605624"><ele>154</ele><time>2026-03-21T01:55:08Z</time></trkpt>
      <trkpt lat="29.951377" lon="120.60568"><ele>155</ele><time>2026-03-21T01:56:48Z</time></trkpt>
      <trkpt lat="29.95105" lon="120.605533"><ele>154</ele><time>2026-03-21T01:58:18Z</time></trkpt>
      <trkpt lat="29.950945" lon="120.60557"><ele>142</ele><time>2026-03-21T01:58:47Z</time></trkpt>
      <trkpt lat="29.950809" lon="120.60547"><ele>145</ele><time>2026-03-21T01:59:18Z</time></trkpt>
      <trkpt lat="29.950744" lon="120.605331"><ele>155</ele><time>2026-03-21T02:00:25Z</time></trkpt>
      <trkpt lat="29.950416" lon="120.605249"><ele>180</ele><time>2026-03-21T02:02:42Z</time></trkpt>
      <trkpt lat="29.950391" lon="120.605149"><ele>196</ele><time>2026-03-21T02:03:24Z</time></trkpt>
      <trkpt lat="29.950153" lon="120.605194"><ele>203</ele><time>2026-03-21T02:04:27Z</time></trkpt>
      <trkpt lat="29.950083" lon="120.60505"><ele>215</ele><time>2026-03-21T02:05:17Z</time></trkpt>
      <trkpt lat="29.950124" lon="120.605075"><ele>230</ele><time>2026-03-21T02:05:39Z</time></trkpt>
      <trkpt lat="29.950113" lon="120.604999"><ele>226</ele><time>2026-03-21T02:10:45Z</time></trkpt>
      <trkpt lat="29.949977" lon="120.604953"><ele>243</ele><time>2026-03-21T02:11:10Z</time></trkpt>
      <trkpt lat="29.949904" lon="120.604823"><ele>251</ele><time>2026-03-21T02:11:50Z</time></trkpt>
      <trkpt lat="29.949828" lon="120.604866"><ele>254</ele><time>2026-03-21T02:12:03Z</time></trkpt>
      <trkpt lat="29.949755" lon="120.605072"><ele>259</ele><time>2026-03-21T02:13:32Z</time></trkpt>
      <trkpt lat="29.949489" lon="120.605282"><ele>279</ele><time>2026-03-21T02:14:58Z</time></trkpt>
      <trkpt lat="29.949002" lon="120.605353"><ele>287</ele><time>2026-03-21T02:21:19Z</time></trkpt>
      <trkpt lat="29.948917" lon="120.605488"><ele>285</ele><time>2026-03-21T02:21:42Z</time></trkpt>
      <trkpt lat="29.948788" lon="120.606025"><ele>290</ele><time>2026-03-21T02:23:16Z</time></trkpt>
      <trkpt lat="29.948387" lon="120.606469"><ele>299</ele><time>2026-03-21T02:26:41Z</time></trkpt>
      <trkpt lat="29.948362" lon="120.606531"><ele>298</ele><time>2026-03-21T02:26:46Z</time></trkpt>
      <trkpt lat="29.948433" lon="120.606671"><ele>306</ele><time>2026-03-21T02:27:10Z</time></trkpt>
      <trkpt lat="29.948348" lon="120.606866"><ele>307</ele><time>2026-03-21T02:29:00Z</time></trkpt>
      <trkpt lat="29.947954" lon="120.607327"><ele>306</ele><time>2026-03-21T02:30:41Z</time></trkpt>
      <trkpt lat="29.947548" lon="120.60754"><ele>305</ele><time>2026-03-21T02:31:36Z</time></trkpt>
      <trkpt lat="29.947567" lon="120.607713"><ele>310</ele><time>2026-03-21T02:31:58Z</time></trkpt>
      <trkpt lat="29.947507" lon="120.607922"><ele>311</ele><time>2026-03-21T02:32:48Z</time></trkpt>
      <trkpt lat="29.947347" lon="120.608042"><ele>315</ele><time>2026-03-21T02:34:01Z</time></trkpt>
      <trkpt lat="29.947365" lon="120.608146"><ele>318</ele><time>2026-03-21T02:34:24Z</time></trkpt>
      <trkpt lat="29.947249" lon="120.608238"><ele>318</ele><time>2026-03-21T02:34:59Z</time></trkpt>
      <trkpt lat="29.947281" lon="120.608308"><ele>320</ele><time>2026-03-21T02:35:33Z</time></trkpt>
      <trkpt lat="29.947137" lon="120.608709"><ele>313</ele><time>2026-03-21T02:36:10Z</time></trkpt>
      <trkpt lat="29.947192" lon="120.608715"><ele>313</ele><time>2026-03-21T02:36:13Z</time></trkpt>
      <trkpt lat="29.947219" lon="120.608587"><ele>314</ele><time>2026-03-21T02:36:20Z</time></trkpt>
      <trkpt lat="29.947113" lon="120.608328"><ele>325</ele><time>2026-03-21T02:36:58Z</time></trkpt>
      <trkpt lat="29.947197" lon="120.608371"><ele>319</ele><time>2026-03-21T02:38:55Z</time></trkpt>
      <trkpt lat="29.947034" lon="120.608593"><ele>323</ele><time>2026-03-21T02:39:26Z</time></trkpt>
      <trkpt lat="29.947138" lon="120.60845"><ele>321</ele><time>2026-03-21T02:39:54Z</time></trkpt>
      <trkpt lat="29.94706" lon="120.608424"><ele>316</ele><time>2026-03-21T02:40:19Z</time></trkpt>
      <trkpt lat="29.947133" lon="120.608414"><ele>336</ele><time>2026-03-21T02:40:38Z</time></trkpt>
      <trkpt lat="29.946961" lon="120.608722"><ele>318</ele><time>2026-03-21T02:42:29Z</time></trkpt>
      <trkpt lat="29.946955" lon="120.608482"><ele>320</ele><time>2026-03-21T02:42:34Z</time></trkpt>
      <trkpt lat="29.947023" lon="120.608344"><ele>325</ele><time>2026-03-21T02:42:51Z</time></trkpt>
      <trkpt lat="29.946975" lon="120.608337"><ele>325</ele><time>2026-03-21T02:43:24Z</time></trkpt>
      <trkpt lat="29.947025" lon="120.608246"><ele>325</ele><time>2026-03-21T02:44:09Z</time></trkpt>
      <trkpt lat="29.947132" lon="120.608236"><ele>319</ele><time>2026-03-21T02:44:35Z</time></trkpt>
      <trkpt lat="29.947174" lon="120.60838"><ele>320</ele><time>2026-03-21T02:46:00Z</time></trkpt>
      <trkpt lat="29.947374" lon="120.608441"><ele>314</ele><time>2026-03-21T02:46:11Z</time></trkpt>
      <trkpt lat="29.947325" lon="120.608439"><ele>313</ele><time>2026-03-21T02:46:13Z</time></trkpt>
      <trkpt lat="29.947377" lon="120.608334"><ele>312</ele><time>2026-03-21T02:46:19Z</time></trkpt>
      <trkpt lat="29.94727" lon="120.608418"><ele>312</ele><time>2026-03-21T02:46:22Z</time></trkpt>
      <trkpt lat="29.947085" lon="120.608427"><ele>321</ele><time>2026-03-21T02:46:34Z</time></trkpt>
      <trkpt lat="29.947305" lon="120.608202"><ele>320</ele><time>2026-03-21T02:47:14Z</time></trkpt>
      <trkpt lat="29.947335" lon="120.608004"><ele>319</ele><time>2026-03-21T02:47:50Z</time></trkpt>
      <trkpt lat="29.947508" lon="120.607947"><ele>315</ele><time>2026-03-21T02:48:22Z</time></trkpt>
      <trkpt lat="29.94767" lon="120.6075"><ele>310</ele><time>2026-03-21T02:49:18Z</time></trkpt>
      <trkpt lat="29.948059" lon="120.607249"><ele>310</ele><time>2026-03-21T02:50:07Z</time></trkpt>
      <trkpt lat="29.948436" lon="120.606733"><ele>308</ele><time>2026-03-21T02:51:31Z</time></trkpt>
      <trkpt lat="29.948406" lon="120.606454"><ele>299</ele><time>2026-03-21T02:52:09Z</time></trkpt>
      <trkpt lat="29.948832" lon="120.605986"><ele>290</ele><time>2026-03-21T02:53:51Z</time></trkpt>
      <trkpt lat="29.948981" lon="120.605418"><ele>282</ele><time>2026-03-21T02:55:31Z</time></trkpt>
      <trkpt lat="29.949061" lon="120.605341"><ele>284</ele><time>2026-03-21T02:55:44Z</time></trkpt>
      <trkpt lat="29.949545" lon="120.605266"><ele>277</ele><time>2026-03-21T02:56:55Z</time></trkpt>
      <trkpt lat="29.949801" lon="120.605042"><ele>258</ele><time>2026-03-21T02:58:03Z</time></trkpt>
      <trkpt lat="29.950012" lon="120.604362"><ele>243</ele><time>2026-03-21T03:01:34Z</time></trkpt>
      <trkpt lat="29.950009" lon="120.604136"><ele>239</ele><time>2026-03-21T03:01:54Z</time></trkpt>
      <trkpt lat="29.950125" lon="120.60398"><ele>236</ele><time>2026-03-21T03:02:15Z</time></trkpt>
      <trkpt lat="29.950131" lon="120.603646"><ele>229</ele><time>2026-03-21T03:02:54Z</time></trkpt>
      <trkpt lat="29.950225" lon="120.603431"><ele>227</ele><time>2026-03-21T03:03:17Z</time></trkpt>
      <trkpt lat="29.950436" lon="120.603218"><ele>223</ele><time>2026-03-21T03:03:54Z</time></trkpt>
      <trkpt lat="29.950574" lon="120.603196"><ele>222</ele><time>2026-03-21T03:04:11Z</time></trkpt>
      <trkpt lat="29.950952" lon="120.602912"><ele>219</ele><time>2026-03-21T03:05:05Z</time></trkpt>
      <trkpt lat="29.95158" lon="120.602982"><ele>209</ele><time>2026-03-21T03:06:38Z</time></trkpt>
      <trkpt lat="29.951689" lon="120.603094"><ele>211</ele><time>2026-03-21T03:07:00Z</time></trkpt>
      <trkpt lat="29.952087" lon="120.603274"><ele>207</ele><time>2026-03-21T03:07:51Z</time></trkpt>
      <trkpt lat="29.953164" lon="120.603238"><ele>187</ele><time>2026-03-21T03:10:30Z</time></trkpt>
      <trkpt lat="29.953243" lon="120.603171"><ele>183</ele><time>2026-03-21T03:10:42Z</time></trkpt>
      <trkpt lat="29.953205" lon="120.603124"><ele>183</ele><time>2026-03-21T03:10:58Z</time></trkpt>
      <trkpt lat="29.953146" lon="120.603176"><ele>183</ele><time>2026-03-21T03:14:51Z</time></trkpt>
      <trkpt lat="29.95319" lon="120.603092"><ele>186</ele><time>2026-03-21T03:22:42Z</time></trkpt>
      <trkpt lat="29.953655" lon="120.603009"><ele>173</ele><time>2026-03-21T03:28:15Z</time></trkpt>
      <trkpt lat="29.954057" lon="120.602779"><ele>163</ele><time>2026-03-21T03:29:10Z</time></trkpt>
      <trkpt lat="29.954359" lon="120.602814"><ele>156</ele><time>2026-03-21T03:29:48Z</time></trkpt>
      <trkpt lat="29.955934" lon="120.602269"><ele>112</ele><time>2026-03-21T03:33:12Z</time></trkpt>
      <trkpt lat="29.95611" lon="120.602016"><ele>98</ele><time>2026-03-21T03:34:06Z</time></trkpt>
      <trkpt lat="29.956223" lon="120.602068"><ele>61</ele><time>2026-03-21T03:34:19Z</time></trkpt>
      <trkpt lat="29.956119" lon="120.60208"><ele>71</ele><time>2026-03-21T03:34:20Z</time></trkpt>
      <trkpt lat="29.956119" lon="120.601985"><ele>87</ele><time>2026-03-21T03:34:22Z</time></trkpt>
      <trkpt lat="29.956355" lon="120.60162"><ele>83</ele><time>2026-03-21T03:35:11Z</time></trkpt>
      <trkpt lat="29.956675" lon="120.601431"><ele>71</ele><time>2026-03-21T03:36:08Z</time></trkpt>
      <trkpt lat="29.956826" lon="120.60157"><ele>68</ele><time>2026-03-21T03:37:54Z</time></trkpt>
      <trkpt lat="29.957045" lon="120.602313"><ele>58</ele><time>2026-03-21T03:39:09Z</time></trkpt>
      <trkpt lat="29.957152" lon="120.602442"><ele>56</ele><time>2026-03-21T03:39:24Z</time></trkpt>
      <trkpt lat="29.957449" lon="120.602551"><ele>54</ele><time>2026-03-21T03:39:54Z</time></trkpt>
      <trkpt lat="29.95791" lon="120.602899"><ele>51</ele><time>2026-03-21T03:40:50Z</time></trkpt>
      <trkpt lat="29.95825" lon="120.60293"><ele>49</ele><time>2026-03-21T03:41:23Z</time></trkpt>
      <trkpt lat="29.958563" lon="120.602863"><ele>49</ele><time>2026-03-21T03:41:49Z</time></trkpt>
      <trkpt lat="29.958797" lon="120.603459"><ele>42</ele><time>2026-03-21T03:43:21Z</time></trkpt>
      <trkpt lat="29.958715" lon="120.603825"><ele>42</ele><time>2026-03-21T03:44:02Z</time></trkpt>
      <trkpt lat="29.958963" lon="120.604015"><ele>39</ele><time>2026-03-21T03:44:33Z</time></trkpt>
      <trkpt lat="29.958922" lon="120.604239"><ele>39</ele><time>2026-03-21T03:45:04Z</time></trkpt>
      <trkpt lat="29.958855" lon="120.604414"><ele>39</ele><time>2026-03-21T03:45:24Z</time></trkpt>
      <trkpt lat="29.958823" lon="120.604383"><ele>39</ele><time>2026-03-21T03:45:30Z</time></trkpt>
      <trkpt lat="29.959" lon="120.604389"><ele>39</ele><time>2026-03-21T03:45:48Z</time></trkpt>
      <trkpt lat="29.958894" lon="120.604233"><ele>40</ele><time>2026-03-21T03:46:52Z</time></trkpt>
      <trkpt lat="29.958944" lon="120.604354"><ele>40</ele><time>2026-03-21T03:47:46Z</time></trkpt>
      <trkpt lat="29.95899" lon="120.604327"><ele>39</ele><time>2026-03-21T03:49:26Z</time></trkpt>
      <trkpt lat="29.958951" lon="120.604083"><ele>41</ele><time>2026-03-21T03:50:30Z</time></trkpt>
      <trkpt lat="29.958992" lon="120.603983"><ele>41</ele><time>2026-03-21T03:50:42Z</time></trkpt>
      <trkpt lat="29.959437" lon="120.603995"><ele>38</ele><time>2026-03-21T03:51:31Z</time></trkpt>
      <trkpt lat="29.960365" lon="120.603724"><ele>32</ele><time>2026-03-21T03:53:12Z</time></trkpt>
      <trkpt lat="29.961702" lon="120.603469"><ele>27</ele><time>2026-03-21T03:55:27Z</time></trkpt>
      <trkpt lat="29.961731" lon="120.603365"><ele>27</ele><time>2026-03-21T03:55:37Z</time></trkpt>
      <trkpt lat="29.961658" lon="120.603072"><ele>29</ele><time>2026-03-21T03:56:04Z</time></trkpt>
      <trkpt lat="29.961749" lon="120.602938"><ele>27</ele><time>2026-03-21T03:56:17Z</time></trkpt>
      <trkpt lat="29.962759" lon="120.602706"><ele>22</ele><time>2026-03-21T03:57:55Z</time></trkpt>
      <trkpt lat="29.963297" lon="120.602093"><ele>19</ele><time>2026-03-21T03:59:02Z</time></trkpt>
      <trkpt lat="29.963757" lon="120.601877"><ele>14</ele><time>2026-03-21T03:59:47Z</time></trkpt>
      <trkpt lat="29.964484" lon="120.601792"><ele>12</ele><time>2026-03-21T04:00:53Z</time></trkpt>
      <trkpt lat="29.965015" lon="120.60194"><ele>12</ele><time>2026-03-21T04:01:38Z</time></trkpt>
      <trkpt lat="29.96527" lon="120.601943"><ele>11</ele><time>2026-03-21T04:02:02Z</time></trkpt>
      <trkpt lat="29.965702" lon="120.601189"><ele>12</ele><time>2026-03-21T04:03:24Z</time></trkpt>
      <trkpt lat="29.965589" lon="120.600706"><ele>10</ele><time>2026-03-21T04:04:02Z</time></trkpt>
      <trkpt lat="29.965668" lon="120.601226"><ele>11</ele><time>2026-03-21T04:07:27Z</time></trkpt>
      <trkpt lat="29.965231" lon="120.602025"><ele>12</ele><time>2026-03-21T04:07:48Z</time></trkpt>
      <trkpt lat="29.96526" lon="120.601882"><ele>11</ele><time>2026-03-21T04:08:17Z</time></trkpt>
      <trkpt lat="29.965212" lon="120.601734"><ele>11</ele><time>2026-03-21T04:08:26Z</time></trkpt>
      <trkpt lat="29.965442" lon="120.601528"><ele>11</ele><time>2026-03-21T04:08:29Z</time></trkpt>
      <trkpt lat="29.965779" lon="120.601017"><ele>11</ele><time>2026-03-21T04:08:41Z</time></trkpt>
      <trkpt lat="29.965787" lon="120.600886"><ele>11</ele><time>2026-03-21T04:08:43Z</time></trkpt>
      <trkpt lat="29.965656" lon="120.600473"><ele>10</ele><time>2026-03-21T04:08:48Z</time></trkpt>
      <trkpt lat="29.965637" lon="120.600088"><ele>9</ele><time>2026-03-21T04:09:05Z</time></trkpt>
      <trkpt lat="29.965702" lon="120.599654"><ele>10</ele><time>2026-03-21T04:09:11Z</time></trkpt>
      <trkpt lat="29.96587" lon="120.599234"><ele>10</ele><time>2026-03-21T04:09:16Z</time></trkpt>
      <trkpt lat="29.966137" lon="120.598796"><ele>9</ele><time>2026-03-21T04:09:21Z</time></trkpt>
      <trkpt lat="29.966421" lon="120.598466"><ele>7</ele><time>2026-03-21T04:09:25Z</time></trkpt>
      <trkpt lat="29.966847" lon="120.598115"><ele>7</ele><time>2026-03-21T04:09:31Z</time></trkpt>
      <trkpt lat="29.967242" lon="120.597909"><ele>7</ele><time>2026-03-21T04:09:39Z</time></trkpt>
      <trkpt lat="29.967362" lon="120.597754"><ele>8</ele><time>2026-03-21T04:09:43Z</time></trkpt>
    </trkseg>
  </trk>
</gpx>
