<?xml version="1.0" encoding="UTF-8"?>
<gpx version="1.1" creator="MyWorld" xmlns="http://www.topografix.com/GPX/1/1">
  <metadata><name>川西小金山</name></metadata>
  <trk>
    <name>川西小金山</name>
    <trkseg>
      <trkpt lat="31.38502" lon="102.266455"><ele>4069</ele><time>2026-03-27T19:13:47Z</time></trkpt>
      <trkpt lat="31.385727" lon="102.266557"><ele>4063</ele><time>2026-03-27T19:15:20Z</time></trkpt>
      <trkpt lat="31.385871" lon="102.266701"><ele>4065</ele><time>2026-03-27T19:15:44Z</time></trkpt>
      <trkpt lat="31.385949" lon="102.266625"><ele>4065</ele><time>2026-03-27T19:16:04Z</time></trkpt>
      <trkpt lat="31.386089" lon="102.266667"><ele>4068</ele><time>2026-03-27T19:16:29Z</time></trkpt>
      <trkpt lat="31.38658" lon="102.26652"><ele>4081</ele><time>2026-03-27T19:18:45Z</time></trkpt>
      <trkpt lat="31.38694" lon="102.266621"><ele>4089</ele><time>2026-03-27T19:20:12Z</time></trkpt>
      <trkpt lat="31.387144" lon="102.266889"><ele>4097</ele><time>2026-03-27T19:22:03Z</time></trkpt>
      <trkpt lat="31.387344" lon="102.267024"><ele>4103</ele><time>2026-03-27T19:22:55Z</time></trkpt>
      <trkpt lat="31.387872" lon="102.26784"><ele>4130</ele><time>2026-03-27T19:29:36Z</time></trkpt>
      <trkpt lat="31.388094" lon="102.267945"><ele>4137</ele><time>2026-03-27T19:30:42Z</time></trkpt>
      <trkpt lat="31.388187" lon="102.268072"><ele>4145</ele><time>2026-03-27T19:31:36Z</time></trkpt>
      <trkpt lat="31.388477" lon="102.268221"><ele>4155</ele><time>2026-03-27T19:33:51Z</time></trkpt>
      <trkpt lat="31.388564" lon="102.268202"><ele>4156</ele><time>2026-03-27T19:34:21Z</time></trkpt>
      <trkpt lat="31.389459" lon="102.268756"><ele>4192</ele><time>2026-03-27T19:41:03Z</time></trkpt>
      <trkpt lat="31.390074" lon="102.269026"><ele>4212</ele><time>2026-03-27T19:44:41Z</time></trkpt>
      <trkpt lat="31.390168" lon="102.269274"><ele>4222</ele><time>2026-03-27T19:47:37Z</time></trkpt>
      <trkpt lat="31.390213" lon="102.269665"><ele>4235</ele><time>2026-03-27T19:48:26Z</time></trkpt>
      <trkpt lat="31.390434" lon="102.270027"><ele>4240</ele><time>2026-03-27T19:49:25Z</time></trkpt>
      <trkpt lat="31.390821" lon="102.271077"><ele>4250</ele><time>2026-03-27T19:52:02Z</time></trkpt>
      <trkpt lat="31.390939" lon="102.27126"><ele>4250</ele><time>2026-03-27T19:52:29Z</time></trkpt>
      <trkpt lat="31.390985" lon="102.271251"><ele>4242</ele><time>2026-03-27T19:53:23Z</time></trkpt>
      <trkpt lat="31.390996" lon="102.271359"><ele>4243</ele><time>2026-03-27T19:55:46Z</time></trkpt>
      <trkpt lat="31.390896" lon="102.271609"><ele>4245</ele><time>2026-03-27T19:56:44Z</time></trkpt>
      <trkpt lat="31.391028" lon="102.272307"><ele>4259</ele><time>2026-03-27T19:58:56Z</time></trkpt>
      <trkpt lat="31.391146" lon="102.272675"><ele>4262</ele><time>2026-03-27T19:59:43Z</time></trkpt>
      <trkpt lat="31.391368" lon="102.273045"><ele>4269</ele><time>2026-03-27T20:01:27Z</time></trkpt>
      <trkpt lat="31.391495" lon="102.273659"><ele>4289</ele><time>2026-03-27T20:04:44Z</time></trkpt>
      <trkpt lat="31.391597" lon="102.273832"><ele>4289</ele><time>2026-03-27T20:08:26Z</time></trkpt>
      <trkpt lat="31.391557" lon="102.274595"><ele>4309</ele><time>2026-03-27T20:11:13Z</time></trkpt>
      <trkpt lat="31.391718" lon="102.275064"><ele>4323</ele><time>2026-03-27T20:13:24Z</time></trkpt>
      <trkpt lat="31.391842" lon="102.275224"><ele>4326</ele><time>2026-03-27T20:14:37Z</time></trkpt>
      <trkpt lat="31.39188" lon="102.27549"><ele>4333</ele><time>2026-03-27T20:15:41Z</time></trkpt>
      <trkpt lat="31.392188" lon="102.27595"><ele>4364</ele><time>2026-03-27T20:29:42Z</time></trkpt>
      <trkpt lat="31.392321" lon="102.275989"><ele>4369</ele><time>2026-03-27T20:30:43Z</time></trkpt>
      <trkpt lat="31.39238" lon="102.276141"><ele>4378</ele><time>2026-03-27T20:31:50Z</time></trkpt>
      <trkpt lat="31.392355" lon="102.276301"><ele>4386</ele><time>2026-03-27T20:32:35Z</time></trkpt>
      <trkpt lat="31.392537" lon="102.276553"><ele>4400</ele><time>2026-03-27T20:34:05Z</time></trkpt>
      <trkpt lat="31.39263" lon="102.276524"><ele>4388</ele><time>2026-03-27T20:35:53Z</time></trkpt>
      <trkpt lat="31.392591" lon="102.276497"><ele>4391</ele><time>2026-03-27T20:38:01Z</time></trkpt>
      <trkpt lat="31.392648" lon="102.276777"><ele>4396</ele><time>2026-03-27T20:39:06Z</time></trkpt>
      <trkpt lat="31.392854" lon="102.277003"><ele>4405</ele><time>2026-03-27T20:40:32Z</time></trkpt>
      <trkpt lat="31.392774" lon="102.277131"><ele>4416</ele><time>2026-03-27T20:41:03Z</time></trkpt>
      <trkpt lat="31.393177" lon="102.277695"><ele>4432</ele><time>2026-03-27T20:45:23Z</time></trkpt>
      <trkpt lat="31.393219" lon="102.277903"><ele>4439</ele><time>2026-03-27T20:46:44Z</time></trkpt>
      <trkpt lat="31.393163" lon="102.277991"><ele>4441</ele><time>2026-03-27T20:48:38Z</time></trkpt>
      <trkpt lat="31.393176" lon="102.278327"><ele>4453</ele><time>2026-03-27T20:50:34Z</time></trkpt>
      <trkpt lat="31.393299" lon="102.278467"><ele>4460</ele><time>2026-03-27T20:51:35Z</time></trkpt>
      <trkpt lat="31.393274" lon="102.278567"><ele>4466</ele><time>2026-03-27T20:52:24Z</time></trkpt>
      <trkpt lat="31.393482" lon="102.279215"><ele>4491</ele><time>2026-03-27T20:57:47Z</time></trkpt>
      <trkpt lat="31.393489" lon="102.279434"><ele>4499</ele><time>2026-03-27T20:59:26Z</time></trkpt>
      <trkpt lat="31.393557" lon="102.279578"><ele>4503</ele><time>2026-03-27T21:00:10Z</time></trkpt>
      <trkpt lat="31.393644" lon="102.27961"><ele>4505</ele><time>2026-03-27T21:00:35Z</time></trkpt>
      <trkpt lat="31.393957" lon="102.280406"><ele>4531</ele><time>2026-03-27T21:04:32Z</time></trkpt>
      <trkpt lat="31.394033" lon="102.281274"><ele>4550</ele><time>2026-03-27T21:08:05Z</time></trkpt>
      <trkpt lat="31.393952" lon="102.281579"><ele>4565</ele><time>2026-03-27T21:17:53Z</time></trkpt>
      <trkpt lat="31.394057" lon="102.281682"><ele>4563</ele><time>2026-03-27T21:18:30Z</time></trkpt>
      <trkpt lat="31.393946" lon="102.281977"><ele>4580</ele><time>2026-03-27T21:22:03Z</time></trkpt>
      <trkpt lat="31.394008" lon="102.282059"><ele>4581</ele><time>2026-03-27T21:22:28Z</time></trkpt>
      <trkpt lat="31.393981" lon="102.282471"><ele>4604</ele><time>2026-03-27T21:25:41Z</time></trkpt>
      <trkpt lat="31.394096" lon="102.282552"><ele>4608</ele><time>2026-03-27T21:26:44Z</time></trkpt>
      <trkpt lat="31.394257" lon="102.282499"><ele>4615</ele><time>2026-03-27T21:28:09Z</time></trkpt>
      <trkpt lat="31.394342" lon="102.28274"><ele>4624</ele><time>2026-03-27T21:30:27Z</time></trkpt>
      <trkpt lat="31.394509" lon="102.282911"><ele>4625</ele><time>2026-03-27T21:31:48Z</time></trkpt>
      <trkpt lat="31.394465" lon="102.283069"><ele>4629</ele><time>2026-03-27T21:32:24Z</time></trkpt>
      <trkpt lat="31.394692" lon="102.283712"><ele>4646</ele><time>2026-03-27T21:41:31Z</time></trkpt>
      <trkpt lat="31.394941" lon="102.283955"><ele>4654</ele><time>2026-03-27T21:42:47Z</time></trkpt>
      <trkpt lat="31.395076" lon="102.284308"><ele>4671</ele><time>2026-03-27T21:45:48Z</time></trkpt>
      <trkpt lat="31.395254" lon="102.284552"><ele>4685</ele><time>2026-03-27T21:49:30Z</time></trkpt>
      <trkpt lat="31.395276" lon="102.285165"><ele>4707</ele><time>2026-03-27T21:57:02Z</time></trkpt>
      <trkpt lat="31.395312" lon="102.285264"><ele>4710</ele><time>2026-03-27T21:57:30Z</time></trkpt>
      <trkpt lat="31.395371" lon="102.285189"><ele>4709</ele><time>2026-03-27T21:57:53Z</time></trkpt>
      <trkpt lat="31.395408" lon="102.285224"><ele>4712</ele><time>2026-03-27T21:58:11Z</time></trkpt>
      <trkpt lat="31.395476" lon="102.285421"><ele>4715</ele><time>2026-03-27T21:58:55Z</time></trkpt>
      <trkpt lat="31.395448" lon="102.285594"><ele>4714</ele><time>2026-03-27T21:59:26Z</time></trkpt>
      <trkpt lat="31.395071" lon="102.285762"><ele>4728</ele><time>2026-03-27T22:02:32Z</time></trkpt>
      <trkpt lat="31.394952" lon="102.286163"><ele>4741</ele><time>2026-03-27T22:05:54Z</time></trkpt>
      <trkpt lat="31.394874" lon="102.28619"><ele>4746</ele><time>2026-03-27T22:09:16Z</time></trkpt>
      <trkpt lat="31.394784" lon="102.286479"><ele>4760</ele><time>2026-03-27T22:10:43Z</time></trkpt>
      <trkpt lat="31.394908" lon="102.286858"><ele>4771</ele><time>2026-03-27T22:13:29Z</time></trkpt>
      <trkpt lat="31.395059" lon="102.28775"><ele>4792</ele><time>2026-03-27T22:18:15Z</time></trkpt>
      <trkpt lat="31.395052" lon="102.288467"><ele>4802</ele><time>2026-03-27T22:22:54Z</time></trkpt>
      <trkpt lat="31.394876" lon="102.288786"><ele>4813</ele><time>2026-03-27T22:25:18Z</time></trkpt>
      <trkpt lat="31.394902" lon="102.289115"><ele>4824</ele><time>2026-03-27T22:27:09Z</time></trkpt>
      <trkpt lat="31.395021" lon="102.289469"><ele>4841</ele><time>2026-03-27T22:32:49Z</time></trkpt>
      <trkpt lat="31.394938" lon="102.289721"><ele>4850</ele><time>2026-03-27T22:34:50Z</time></trkpt>
      <trkpt lat="31.395075" lon="102.289933"><ele>4860</ele><time>2026-03-27T22:37:44Z</time></trkpt>
      <trkpt lat="31.395013" lon="102.290174"><ele>4871</ele><time>2026-03-27T22:39:02Z</time></trkpt>
      <trkpt lat="31.395085" lon="102.290233"><ele>4875</ele><time>2026-03-27T22:39:35Z</time></trkpt>
      <trkpt lat="31.395115" lon="102.290192"><ele>4875</ele><time>2026-03-27T22:39:44Z</time></trkpt>
      <trkpt lat="31.395076" lon="102.290655"><ele>4887</ele><time>2026-03-27T22:43:54Z</time></trkpt>
      <trkpt lat="31.395014" lon="102.290782"><ele>4894</ele><time>2026-03-27T22:45:25Z</time></trkpt>
      <trkpt lat="31.395047" lon="102.290815"><ele>4895</ele><time>2026-03-27T22:45:38Z</time></trkpt>
      <trkpt lat="31.394915" lon="102.290963"><ele>4901</ele><time>2026-03-27T22:47:37Z</time></trkpt>
      <trkpt lat="31.39501" lon="102.291152"><ele>4908</ele><time>2026-03-27T22:49:31Z</time></trkpt>
      <trkpt lat="31.39494" lon="102.291286"><ele>4912</ele><time>2026-03-27T22:50:33Z</time></trkpt>
      <trkpt lat="31.394976" lon="102.291526"><ele>4915</ele><time>2026-03-27T22:52:03Z</time></trkpt>
      <trkpt lat="31.394933" lon="102.291502"><ele>4913</ele><time>2026-03-27T22:53:11Z</time></trkpt>
    </trkseg>
  </trk>
</gpx>
