<?xml version="1.0" encoding="UTF-8"?>
<gpx version="1.1" creator="MyWorld" xmlns="http://www.topografix.com/GPX/1/1">
  <metadata><name>杭州十里琅珰</name></metadata>
  <trk>
    <name>杭州十里琅珰</name>
    <trkseg>
      <trkpt lat="30.189535" lon="120.114257"><ele>10</ele><time>2026-06-07T01:51:57Z</time></trkpt>
      <trkpt lat="30.189519" lon="120.114021"><ele>10</ele><time>2026-06-07T01:52:20Z</time></trkpt>
      <trkpt lat="30.189602" lon="120.113823"><ele>10</ele><time>2026-06-07T01:52:40Z</time></trkpt>
      <trkpt lat="30.189958" lon="120.113411"><ele>12</ele><time>2026-06-07T01:53:25Z</time></trkpt>
      <trkpt lat="30.190061" lon="120.113196"><ele>12</ele><time>2026-06-07T01:53:44Z</time></trkpt>
      <trkpt lat="30.190218" lon="120.113178"><ele>11</ele><time>2026-06-07T01:54:03Z</time></trkpt>
      <trkpt lat="30.190236" lon="120.113061"><ele>10</ele><time>2026-06-07T01:54:18Z</time></trkpt>
      <trkpt lat="30.190424" lon="120.112886"><ele>11</ele><time>2026-06-07T01:54:42Z</time></trkpt>
      <trkpt lat="30.190828" lon="120.112763"><ele>11</ele><time>2026-06-07T01:55:28Z</time></trkpt>
      <trkpt lat="30.191232" lon="120.112846"><ele>12</ele><time>2026-06-07T01:56:16Z</time></trkpt>
      <trkpt lat="30.19132" lon="120.112667"><ele>11</ele><time>2026-06-07T01:56:41Z</time></trkpt>
      <trkpt lat="30.191462" lon="120.112597"><ele>12</ele><time>2026-06-07T01:56:56Z</time></trkpt>
      <trkpt lat="30.191801" lon="120.11274"><ele>11</ele><time>2026-06-07T01:57:32Z</time></trkpt>
      <trkpt lat="30.193189" lon="120.112406"><ele>15</ele><time>2026-06-07T01:59:47Z</time></trkpt>
      <trkpt lat="30.193598" lon="120.111902"><ele>19</ele><time>2026-06-07T02:00:41Z</time></trkpt>
      <trkpt lat="30.194428" lon="120.111328"><ele>18</ele><time>2026-06-07T02:02:10Z</time></trkpt>
      <trkpt lat="30.194611" lon="120.111114"><ele>19</ele><time>2026-06-07T02:02:32Z</time></trkpt>
      <trkpt lat="30.19492" lon="120.110981"><ele>16</ele><time>2026-06-07T02:02:57Z</time></trkpt>
      <trkpt lat="30.195191" lon="120.110614"><ele>17</ele><time>2026-06-07T02:03:34Z</time></trkpt>
      <trkpt lat="30.19554" lon="120.110428"><ele>18</ele><time>2026-06-07T02:04:06Z</time></trkpt>
      <trkpt lat="30.195637" lon="120.110299"><ele>19</ele><time>2026-06-07T02:04:21Z</time></trkpt>
      <trkpt lat="30.195596" lon="120.110264"><ele>21</ele><time>2026-06-07T02:04:28Z</time></trkpt>
      <trkpt lat="30.195685" lon="120.110329"><ele>19</ele><time>2026-06-07T02:05:14Z</time></trkpt>
      <trkpt lat="30.195642" lon="120.110349"><ele>22</ele><time>2026-06-07T02:05:28Z</time></trkpt>
      <trkpt lat="30.195747" lon="120.110272"><ele>19</ele><time>2026-06-07T02:05:37Z</time></trkpt>
      <trkpt lat="30.196173" lon="120.11025"><ele>21</ele><time>2026-06-07T02:06:12Z</time></trkpt>
      <trkpt lat="30.196562" lon="120.110142"><ele>23</ele><time>2026-06-07T02:06:45Z</time></trkpt>
      <trkpt lat="30.197228" lon="120.109361"><ele>26</ele><time>2026-06-07T02:08:00Z</time></trkpt>
      <trkpt lat="30.197672" lon="120.109088"><ele>21</ele><time>2026-06-07T02:08:43Z</time></trkpt>
      <trkpt lat="30.198031" lon="120.108992"><ele>21</ele><time>2026-06-07T02:09:13Z</time></trkpt>
      <trkpt lat="30.198438" lon="120.10904"><ele>22</ele><time>2026-06-07T02:09:44Z</time></trkpt>
      <trkpt lat="30.199067" lon="120.10896"><ele>26</ele><time>2026-06-07T02:10:38Z</time></trkpt>
      <trkpt lat="30.200294" lon="120.108228"><ele>36</ele><time>2026-06-07T02:12:38Z</time></trkpt>
      <trkpt lat="30.200741" lon="120.108206"><ele>36</ele><time>2026-06-07T02:13:20Z</time></trkpt>
      <trkpt lat="30.201671" lon="120.108524"><ele>47</ele><time>2026-06-07T02:14:45Z</time></trkpt>
      <trkpt lat="30.201984" lon="120.108504"><ele>44</ele><time>2026-06-07T02:15:10Z</time></trkpt>
      <trkpt lat="30.202761" lon="120.108191"><ele>35</ele><time>2026-06-07T02:16:19Z</time></trkpt>
      <trkpt lat="30.203019" lon="120.108181"><ele>34</ele><time>2026-06-07T02:16:45Z</time></trkpt>
      <trkpt lat="30.203424" lon="120.108431"><ele>40</ele><time>2026-06-07T02:17:27Z</time></trkpt>
      <trkpt lat="30.204673" lon="120.108448"><ele>48</ele><time>2026-06-07T02:19:38Z</time></trkpt>
      <trkpt lat="30.204715" lon="120.108667"><ele>53</ele><time>2026-06-07T02:21:41Z</time></trkpt>
      <trkpt lat="30.205109" lon="120.108899"><ele>64</ele><time>2026-06-07T02:23:17Z</time></trkpt>
      <trkpt lat="30.205274" lon="120.108681"><ele>59</ele><time>2026-06-07T02:24:25Z</time></trkpt>
      <trkpt lat="30.205517" lon="120.108567"><ele>50</ele><time>2026-06-07T02:25:04Z</time></trkpt>
      <trkpt lat="30.205586" lon="120.108335"><ele>43</ele><time>2026-06-07T02:25:31Z</time></trkpt>
      <trkpt lat="30.205542" lon="120.108128"><ele>42</ele><time>2026-06-07T02:26:03Z</time></trkpt>
      <trkpt lat="30.205666" lon="120.107996"><ele>39</ele><time>2026-06-07T02:26:25Z</time></trkpt>
      <trkpt lat="30.206233" lon="120.108076"><ele>42</ele><time>2026-06-07T02:27:35Z</time></trkpt>
      <trkpt lat="30.20661" lon="120.108033"><ele>47</ele><time>2026-06-07T02:28:06Z</time></trkpt>
      <trkpt lat="30.207502" lon="120.108173"><ele>63</ele><time>2026-06-07T02:29:28Z</time></trkpt>
      <trkpt lat="30.207631" lon="120.108094"><ele>65</ele><time>2026-06-07T02:29:41Z</time></trkpt>
      <trkpt lat="30.207837" lon="120.108081"><ele>64</ele><time>2026-06-07T02:29:58Z</time></trkpt>
      <trkpt lat="30.207936" lon="120.108127"><ele>65</ele><time>2026-06-07T02:30:07Z</time></trkpt>
      <trkpt lat="30.208025" lon="120.108468"><ele>58</ele><time>2026-06-07T02:30:30Z</time></trkpt>
      <trkpt lat="30.20848" lon="120.108867"><ele>60</ele><time>2026-06-07T02:31:18Z</time></trkpt>
      <trkpt lat="30.208727" lon="120.108967"><ele>61</ele><time>2026-06-07T02:31:39Z</time></trkpt>
      <trkpt lat="30.209018" lon="120.108985"><ele>64</ele><time>2026-06-07T02:32:05Z</time></trkpt>
      <trkpt lat="30.209429" lon="120.10883"><ele>67</ele><time>2026-06-07T02:32:56Z</time></trkpt>
      <trkpt lat="30.209655" lon="120.10862"><ele>65</ele><time>2026-06-07T02:33:32Z</time></trkpt>
      <trkpt lat="30.209653" lon="120.108145"><ele>66</ele><time>2026-06-07T02:34:30Z</time></trkpt>
      <trkpt lat="30.209833" lon="120.108097"><ele>75</ele><time>2026-06-07T02:34:57Z</time></trkpt>
      <trkpt lat="30.209786" lon="120.108071"><ele>77</ele><time>2026-06-07T02:35:23Z</time></trkpt>
      <trkpt lat="30.209656" lon="120.108163"><ele>72</ele><time>2026-06-07T02:35:37Z</time></trkpt>
      <trkpt lat="30.209688" lon="120.10872"><ele>64</ele><time>2026-06-07T02:36:21Z</time></trkpt>
      <trkpt lat="30.209508" lon="120.109057"><ele>67</ele><time>2026-06-07T02:36:52Z</time></trkpt>
      <trkpt lat="30.209364" lon="120.109037"><ele>66</ele><time>2026-06-07T02:37:04Z</time></trkpt>
      <trkpt lat="30.209162" lon="120.10886"><ele>64</ele><time>2026-06-07T02:37:25Z</time></trkpt>
      <trkpt lat="30.209031" lon="120.108958"><ele>63</ele><time>2026-06-07T02:37:36Z</time></trkpt>
      <trkpt lat="30.208438" lon="120.108796"><ele>60</ele><time>2026-06-07T02:38:23Z</time></trkpt>
      <trkpt lat="30.208068" lon="120.108475"><ele>57</ele><time>2026-06-07T02:39:01Z</time></trkpt>
      <trkpt lat="30.207978" lon="120.108148"><ele>62</ele><time>2026-06-07T02:39:27Z</time></trkpt>
      <trkpt lat="30.207838" lon="120.108055"><ele>64</ele><time>2026-06-07T02:39:37Z</time></trkpt>
      <trkpt lat="30.207431" lon="120.108158"><ele>64</ele><time>2026-06-07T02:40:08Z</time></trkpt>
      <trkpt lat="30.206854" lon="120.108078"><ele>56</ele><time>2026-06-07T02:40:54Z</time></trkpt>
      <trkpt lat="30.206661" lon="120.107989"><ele>53</ele><time>2026-06-07T02:41:08Z</time></trkpt>
      <trkpt lat="30.206498" lon="120.10803"><ele>50</ele><time>2026-06-07T02:41:20Z</time></trkpt>
      <trkpt lat="30.205928" lon="120.107936"><ele>41</ele><time>2026-06-07T02:42:04Z</time></trkpt>
      <trkpt lat="30.205402" lon="120.107968"><ele>43</ele><time>2026-06-07T02:42:45Z</time></trkpt>
      <trkpt lat="30.205172" lon="120.108059"><ele>42</ele><time>2026-06-07T02:43:04Z</time></trkpt>
      <trkpt lat="30.20486" lon="120.108408"><ele>47</ele><time>2026-06-07T02:43:42Z</time></trkpt>
      <trkpt lat="30.204443" lon="120.108454"><ele>50</ele><time>2026-06-07T02:44:14Z</time></trkpt>
      <trkpt lat="30.204753" lon="120.108452"><ele>48</ele><time>2026-06-07T02:44:47Z</time></trkpt>
      <trkpt lat="30.20498" lon="120.108296"><ele>47</ele><time>2026-06-07T02:45:07Z</time></trkpt>
      <trkpt lat="30.204887" lon="120.107695"><ele>42</ele><time>2026-06-07T02:45:52Z</time></trkpt>
      <trkpt lat="30.204938" lon="120.107471"><ele>40</ele><time>2026-06-07T02:46:08Z</time></trkpt>
      <trkpt lat="30.205627" lon="120.107169"><ele>47</ele><time>2026-06-07T02:47:08Z</time></trkpt>
      <trkpt lat="30.206082" lon="120.107122"><ele>43</ele><time>2026-06-07T02:47:44Z</time></trkpt>
      <trkpt lat="30.20628" lon="120.10652"><ele>44</ele><time>2026-06-07T02:48:50Z</time></trkpt>
      <trkpt lat="30.206543" lon="120.106164"><ele>44</ele><time>2026-06-07T02:49:25Z</time></trkpt>
      <trkpt lat="30.206939" lon="120.105912"><ele>45</ele><time>2026-06-07T02:50:06Z</time></trkpt>
      <trkpt lat="30.207111" lon="120.105687"><ele>47</ele><time>2026-06-07T02:50:27Z</time></trkpt>
      <trkpt lat="30.207446" lon="120.105425"><ele>53</ele><time>2026-06-07T02:50:58Z</time></trkpt>
      <trkpt lat="30.208372" lon="120.104403"><ele>48</ele><time>2026-06-07T02:52:39Z</time></trkpt>
      <trkpt lat="30.209178" lon="120.104314"><ele>60</ele><time>2026-06-07T02:53:51Z</time></trkpt>
      <trkpt lat="30.209877" lon="120.103561"><ele>55</ele><time>2026-06-07T02:55:16Z</time></trkpt>
      <trkpt lat="30.210023" lon="120.103503"><ele>56</ele><time>2026-06-07T02:55:29Z</time></trkpt>
      <trkpt lat="30.210169" lon="120.103566"><ele>54</ele><time>2026-06-07T02:55:41Z</time></trkpt>
      <trkpt lat="30.210259" lon="120.103699"><ele>55</ele><time>2026-06-07T02:55:53Z</time></trkpt>
      <trkpt lat="30.210385" lon="120.104464"><ele>60</ele><time>2026-06-07T02:56:46Z</time></trkpt>
      <trkpt lat="30.210454" lon="120.104553"><ele>58</ele><time>2026-06-07T02:56:53Z</time></trkpt>
      <trkpt lat="30.210606" lon="120.104587"><ele>57</ele><time>2026-06-07T02:57:04Z</time></trkpt>
      <trkpt lat="30.211024" lon="120.104148"><ele>65</ele><time>2026-06-07T02:57:49Z</time></trkpt>
      <trkpt lat="30.211098" lon="120.103757"><ele>65</ele><time>2026-06-07T02:58:28Z</time></trkpt>
      <trkpt lat="30.211315" lon="120.103381"><ele>65</ele><time>2026-06-07T02:58:58Z</time></trkpt>
      <trkpt lat="30.211934" lon="120.10263"><ele>80</ele><time>2026-06-07T03:00:20Z</time></trkpt>
      <trkpt lat="30.21209" lon="120.102626"><ele>82</ele><time>2026-06-07T03:00:32Z</time></trkpt>
      <trkpt lat="30.212386" lon="120.10287"><ele>83</ele><time>2026-06-07T03:01:03Z</time></trkpt>
      <trkpt lat="30.21259" lon="120.102949"><ele>81</ele><time>2026-06-07T03:01:20Z</time></trkpt>
      <trkpt lat="30.213317" lon="120.102853"><ele>81</ele><time>2026-06-07T03:02:19Z</time></trkpt>
      <trkpt lat="30.213719" lon="120.102952"><ele>83</ele><time>2026-06-07T03:02:55Z</time></trkpt>
      <trkpt lat="30.213974" lon="120.10291"><ele>85</ele><time>2026-06-07T03:03:16Z</time></trkpt>
      <trkpt lat="30.214702" lon="120.103018"><ele>87</ele><time>2026-06-07T03:04:10Z</time></trkpt>
      <trkpt lat="30.215683" lon="120.102725"><ele>83</ele><time>2026-06-07T03:05:38Z</time></trkpt>
      <trkpt lat="30.21582" lon="120.102792"><ele>80</ele><time>2026-06-07T03:05:50Z</time></trkpt>
      <trkpt lat="30.216262" lon="120.103272"><ele>89</ele><time>2026-06-07T03:06:56Z</time></trkpt>
      <trkpt lat="30.21681" lon="120.103237"><ele>87</ele><time>2026-06-07T03:07:38Z</time></trkpt>
      <trkpt lat="30.217736" lon="120.103332"><ele>84</ele><time>2026-06-07T03:08:53Z</time></trkpt>
      <trkpt lat="30.218133" lon="120.103211"><ele>86</ele><time>2026-06-07T03:09:25Z</time></trkpt>
      <trkpt lat="30.218551" lon="120.102959"><ele>91</ele><time>2026-06-07T03:10:02Z</time></trkpt>
      <trkpt lat="30.218913" lon="120.102913"><ele>93</ele><time>2026-06-07T03:10:29Z</time></trkpt>
      <trkpt lat="30.219527" lon="120.102482"><ele>90</ele><time>2026-06-07T03:11:25Z</time></trkpt>
      <trkpt lat="30.219818" lon="120.102382"><ele>91</ele><time>2026-06-07T03:11:50Z</time></trkpt>
      <trkpt lat="30.220115" lon="120.102124"><ele>91</ele><time>2026-06-07T03:12:15Z</time></trkpt>
      <trkpt lat="30.220868" lon="120.102029"><ele>94</ele><time>2026-06-07T03:13:15Z</time></trkpt>
      <trkpt lat="30.2207" lon="120.101646"><ele>92</ele><time>2026-06-07T03:14:26Z</time></trkpt>
      <trkpt lat="30.220717" lon="120.10153"><ele>93</ele><time>2026-06-07T03:14:37Z</time></trkpt>
      <trkpt lat="30.221235" lon="120.100945"><ele>97</ele><time>2026-06-07T03:15:34Z</time></trkpt>
      <trkpt lat="30.221383" lon="120.099613"><ele>101</ele><time>2026-06-07T03:17:02Z</time></trkpt>
      <trkpt lat="30.221496" lon="120.099055"><ele>103</ele><time>2026-06-07T03:17:39Z</time></trkpt>
      <trkpt lat="30.221686" lon="120.098695"><ele>107</ele><time>2026-06-07T03:18:07Z</time></trkpt>
      <trkpt lat="30.221692" lon="120.098525"><ele>109</ele><time>2026-06-07T03:18:18Z</time></trkpt>
      <trkpt lat="30.221474" lon="120.097752"><ele>115</ele><time>2026-06-07T03:19:14Z</time></trkpt>
      <trkpt lat="30.221295" lon="120.097336"><ele>118</ele><time>2026-06-07T03:19:53Z</time></trkpt>
      <trkpt lat="30.221212" lon="120.09727"><ele>119</ele><time>2026-06-07T03:20:02Z</time></trkpt>
      <trkpt lat="30.221171" lon="120.097028"><ele>123</ele><time>2026-06-07T03:20:25Z</time></trkpt>
      <trkpt lat="30.22065" lon="120.096332"><ele>137</ele><time>2026-06-07T03:21:49Z</time></trkpt>
      <trkpt lat="30.220453" lon="120.095885"><ele>148</ele><time>2026-06-07T03:23:01Z</time></trkpt>
      <trkpt lat="30.220457" lon="120.095361"><ele>158</ele><time>2026-06-07T03:24:05Z</time></trkpt>
      <trkpt lat="30.220601" lon="120.095048"><ele>166</ele><time>2026-06-07T03:24:39Z</time></trkpt>
      <trkpt lat="30.22063" lon="120.094777"><ele>173</ele><time>2026-06-07T03:25:15Z</time></trkpt>
      <trkpt lat="30.220549" lon="120.094149"><ele>180</ele><time>2026-06-07T03:26:23Z</time></trkpt>
      <trkpt lat="30.220466" lon="120.094018"><ele>184</ele><time>2026-06-07T03:26:42Z</time></trkpt>
      <trkpt lat="30.220485" lon="120.093498"><ele>200</ele><time>2026-06-07T03:27:50Z</time></trkpt>
      <trkpt lat="30.220322" lon="120.09317"><ele>213</ele><time>2026-06-07T03:28:47Z</time></trkpt>
      <trkpt lat="30.220245" lon="120.092614"><ele>237</ele><time>2026-06-07T03:30:21Z</time></trkpt>
      <trkpt lat="30.220472" lon="120.092541"><ele>240</ele><time>2026-06-07T03:30:52Z</time></trkpt>
      <trkpt lat="30.220665" lon="120.09259"><ele>238</ele><time>2026-06-07T03:31:21Z</time></trkpt>
      <trkpt lat="30.220991" lon="120.092367"><ele>247</ele><time>2026-06-07T03:32:00Z</time></trkpt>
      <trkpt lat="30.221424" lon="120.09243"><ele>253</ele><time>2026-06-07T03:32:48Z</time></trkpt>
      <trkpt lat="30.221928" lon="120.092637"><ele>263</ele><time>2026-06-07T03:33:49Z</time></trkpt>
      <trkpt lat="30.221934" lon="120.092584"><ele>264</ele><time>2026-06-07T03:33:58Z</time></trkpt>
      <trkpt lat="30.221908" lon="120.092265"><ele>272</ele><time>2026-06-07T03:34:55Z</time></trkpt>
      <trkpt lat="30.221481" lon="120.09214"><ele>271</ele><time>2026-06-07T03:35:49Z</time></trkpt>
      <trkpt lat="30.221304" lon="120.091941"><ele>271</ele><time>2026-06-07T03:36:19Z</time></trkpt>
      <trkpt lat="30.220658" lon="120.091927"><ele>276</ele><time>2026-06-07T03:37:43Z</time></trkpt>
      <trkpt lat="30.220289" lon="120.091714"><ele>285</ele><time>2026-06-07T03:38:22Z</time></trkpt>
      <trkpt lat="30.220045" lon="120.091767"><ele>288</ele><time>2026-06-07T03:38:42Z</time></trkpt>
      <trkpt lat="30.219966" lon="120.091835"><ele>288</ele><time>2026-06-07T03:38:50Z</time></trkpt>
      <trkpt lat="30.220269" lon="120.091732"><ele>287</ele><time>2026-06-07T03:39:30Z</time></trkpt>
      <trkpt lat="30.220689" lon="120.091915"><ele>278</ele><time>2026-06-07T03:40:10Z</time></trkpt>
      <trkpt lat="30.221226" lon="120.091893"><ele>273</ele><time>2026-06-07T03:40:55Z</time></trkpt>
      <trkpt lat="30.221229" lon="120.091677"><ele>272</ele><time>2026-06-07T03:41:27Z</time></trkpt>
      <trkpt lat="30.221551" lon="120.091709"><ele>262</ele><time>2026-06-07T03:42:10Z</time></trkpt>
      <trkpt lat="30.221501" lon="120.091536"><ele>265</ele><time>2026-06-07T03:42:35Z</time></trkpt>
      <trkpt lat="30.221548" lon="120.091537"><ele>264</ele><time>2026-06-07T03:42:43Z</time></trkpt>
      <trkpt lat="30.222205" lon="120.091767"><ele>240</ele><time>2026-06-07T03:44:15Z</time></trkpt>
      <trkpt lat="30.22254" lon="120.091973"><ele>219</ele><time>2026-06-07T03:45:14Z</time></trkpt>
      <trkpt lat="30.222901" lon="120.091965"><ele>208</ele><time>2026-06-07T03:46:06Z</time></trkpt>
      <trkpt lat="30.223216" lon="120.091896"><ele>202</ele><time>2026-06-07T03:46:40Z</time></trkpt>
      <trkpt lat="30.22336" lon="120.091752"><ele>198</ele><time>2026-06-07T03:47:05Z</time></trkpt>
      <trkpt lat="30.223448" lon="120.091755"><ele>196</ele><time>2026-06-07T03:47:23Z</time></trkpt>
      <trkpt lat="30.223569" lon="120.091656"><ele>194</ele><time>2026-06-07T03:47:40Z</time></trkpt>
      <trkpt lat="30.223616" lon="120.091496"><ele>191</ele><time>2026-06-07T03:48:00Z</time></trkpt>
      <trkpt lat="30.223794" lon="120.091412"><ele>190</ele><time>2026-06-07T03:48:21Z</time></trkpt>
      <trkpt lat="30.223981" lon="120.091508"><ele>191</ele><time>2026-06-07T03:48:38Z</time></trkpt>
      <trkpt lat="30.224708" lon="120.091377"><ele>177</ele><time>2026-06-07T03:49:55Z</time></trkpt>
      <trkpt lat="30.224904" lon="120.091427"><ele>173</ele><time>2026-06-07T03:50:13Z</time></trkpt>
      <trkpt lat="30.225384" lon="120.091291"><ele>160</ele><time>2026-06-07T03:50:58Z</time></trkpt>
      <trkpt lat="30.2262" lon="120.091346"><ele>150</ele><time>2026-06-07T03:52:04Z</time></trkpt>
      <trkpt lat="30.227056" lon="120.091302"><ele>130</ele><time>2026-06-07T03:53:19Z</time></trkpt>
      <trkpt lat="30.227421" lon="120.091379"><ele>125</ele><time>2026-06-07T03:53:55Z</time></trkpt>
      <trkpt lat="30.227453" lon="120.091336"><ele>124</ele><time>2026-06-07T03:53:59Z</time></trkpt>
      <trkpt lat="30.227271" lon="120.091058"><ele>122</ele><time>2026-06-07T03:54:23Z</time></trkpt>
      <trkpt lat="30.227513" lon="120.090992"><ele>121</ele><time>2026-06-07T03:54:53Z</time></trkpt>
      <trkpt lat="30.227598" lon="120.091053"><ele>120</ele><time>2026-06-07T03:55:16Z</time></trkpt>
      <trkpt lat="30.227683" lon="120.091005"><ele>117</ele><time>2026-06-07T03:55:29Z</time></trkpt>
      <trkpt lat="30.227799" lon="120.091089"><ele>116</ele><time>2026-06-07T03:56:00Z</time></trkpt>
      <trkpt lat="30.227702" lon="120.091081"><ele>116</ele><time>2026-06-07T03:56:22Z</time></trkpt>
      <trkpt lat="30.227749" lon="120.09095"><ele>114</ele><time>2026-06-07T04:02:44Z</time></trkpt>
      <trkpt lat="30.227656" lon="120.091032"><ele>118</ele><time>2026-06-07T04:07:08Z</time></trkpt>
      <trkpt lat="30.227311" lon="120.091036"><ele>120</ele><time>2026-06-07T04:08:11Z</time></trkpt>
      <trkpt lat="30.227279" lon="120.091077"><ele>122</ele><time>2026-06-07T04:08:15Z</time></trkpt>
      <trkpt lat="30.227461" lon="120.091342"><ele>122</ele><time>2026-06-07T04:08:41Z</time></trkpt>
      <trkpt lat="30.227262" lon="120.091375"><ele>123</ele><time>2026-06-07T04:09:01Z</time></trkpt>
      <trkpt lat="30.227216" lon="120.091348"><ele>125</ele><time>2026-06-07T04:09:05Z</time></trkpt>
      <trkpt lat="30.22725" lon="120.091311"><ele>125</ele><time>2026-06-07T04:09:12Z</time></trkpt>
      <trkpt lat="30.22744" lon="120.091318"><ele>120</ele><time>2026-06-07T04:09:33Z</time></trkpt>
      <trkpt lat="30.227848" lon="120.091197"><ele>115</ele><time>2026-06-07T04:10:01Z</time></trkpt>
      <trkpt lat="30.228025" lon="120.091068"><ele>113</ele><time>2026-06-07T04:10:17Z</time></trkpt>
      <trkpt lat="30.228185" lon="120.091097"><ele>112</ele><time>2026-06-07T04:10:28Z</time></trkpt>
      <trkpt lat="30.228333" lon="120.091025"><ele>111</ele><time>2026-06-07T04:10:40Z</time></trkpt>
      <trkpt lat="30.229008" lon="120.091199"><ele>107</ele><time>2026-06-07T04:11:38Z</time></trkpt>
      <trkpt lat="30.229106" lon="120.091174"><ele>108</ele><time>2026-06-07T04:11:47Z</time></trkpt>
      <trkpt lat="30.229228" lon="120.090691"><ele>111</ele><time>2026-06-07T04:12:57Z</time></trkpt>
      <trkpt lat="30.2292" lon="120.090457"><ele>114</ele><time>2026-06-07T04:13:18Z</time></trkpt>
      <trkpt lat="30.229087" lon="120.090199"><ele>116</ele><time>2026-06-07T04:13:43Z</time></trkpt>
      <trkpt lat="30.229092" lon="120.09002"><ele>118</ele><time>2026-06-07T04:14:01Z</time></trkpt>
      <trkpt lat="30.22919" lon="120.090012"><ele>118</ele><time>2026-06-07T04:15:08Z</time></trkpt>
      <trkpt lat="30.229136" lon="120.090019"><ele>119</ele><time>2026-06-07T04:15:18Z</time></trkpt>
      <trkpt lat="30.229194" lon="120.089817"><ele>118</ele><time>2026-06-07T04:16:14Z</time></trkpt>
      <trkpt lat="30.2293" lon="120.089995"><ele>119</ele><time>2026-06-07T04:16:24Z</time></trkpt>
      <trkpt lat="30.229053" lon="120.090171"><ele>118</ele><time>2026-06-07T04:16:40Z</time></trkpt>
      <trkpt lat="30.229364" lon="120.089864"><ele>118</ele><time>2026-06-07T04:16:59Z</time></trkpt>
      <trkpt lat="30.229301" lon="120.089847"><ele>117</ele><time>2026-06-07T04:17:26Z</time></trkpt>
      <trkpt lat="30.229441" lon="120.089764"><ele>120</ele><time>2026-06-07T04:18:04Z</time></trkpt>
      <trkpt lat="30.229573" lon="120.089835"><ele>120</ele><time>2026-06-07T04:18:29Z</time></trkpt>
      <trkpt lat="30.2296" lon="120.089692"><ele>121</ele><time>2026-06-07T04:18:46Z</time></trkpt>
      <trkpt lat="30.229475" lon="120.089813"><ele>120</ele><time>2026-06-07T04:21:00Z</time></trkpt>
      <trkpt lat="30.229526" lon="120.089784"><ele>121</ele><time>2026-06-07T04:22:08Z</time></trkpt>
      <trkpt lat="30.229613" lon="120.089879"><ele>121</ele><time>2026-06-07T04:22:42Z</time></trkpt>
      <trkpt lat="30.229818" lon="120.089713"><ele>122</ele><time>2026-06-07T04:23:04Z</time></trkpt>
      <trkpt lat="30.229908" lon="120.089732"><ele>123</ele><time>2026-06-07T04:23:12Z</time></trkpt>
      <trkpt lat="30.230013" lon="120.089606"><ele>126</ele><time>2026-06-07T04:23:28Z</time></trkpt>
      <trkpt lat="30.230031" lon="120.089472"><ele>126</ele><time>2026-06-07T04:23:45Z</time></trkpt>
      <trkpt lat="30.230166" lon="120.089475"><ele>126</ele><time>2026-06-07T04:23:54Z</time></trkpt>
      <trkpt lat="30.230382" lon="120.089603"><ele>130</ele><time>2026-06-07T04:25:06Z</time></trkpt>
      <trkpt lat="30.230416" lon="120.089706"><ele>132</ele><time>2026-06-07T04:25:12Z</time></trkpt>
      <trkpt lat="30.230625" lon="120.089326"><ele>133</ele><time>2026-06-07T04:25:22Z</time></trkpt>
      <trkpt lat="30.230602" lon="120.089245"><ele>133</ele><time>2026-06-07T04:25:25Z</time></trkpt>
      <trkpt lat="30.230851" lon="120.089233"><ele>136</ele><time>2026-06-07T04:26:01Z</time></trkpt>
      <trkpt lat="30.230678" lon="120.089453"><ele>201</ele><time>2026-06-07T04:27:19Z</time></trkpt>
      <trkpt lat="30.230846" lon="120.089331"><ele>137</ele><time>2026-06-07T04:27:33Z</time></trkpt>
      <trkpt lat="30.230803" lon="120.089282"><ele>136</ele><time>2026-06-07T04:27:36Z</time></trkpt>
      <trkpt lat="30.230854" lon="120.089191"><ele>136</ele><time>2026-06-07T04:27:59Z</time></trkpt>
      <trkpt lat="30.230816" lon="120.089238"><ele>136</ele><time>2026-06-07T04:28:02Z</time></trkpt>
      <trkpt lat="30.230839" lon="120.089191"><ele>137</ele><time>2026-06-07T04:28:16Z</time></trkpt>
      <trkpt lat="30.230885" lon="120.089229"><ele>136</ele><time>2026-06-07T04:28:23Z</time></trkpt>
      <trkpt lat="30.230729" lon="120.089222"><ele>136</ele><time>2026-06-07T04:30:59Z</time></trkpt>
      <trkpt lat="30.23079" lon="120.089042"><ele>137</ele><time>2026-06-07T04:31:22Z</time></trkpt>
      <trkpt lat="30.23075" lon="120.089013"><ele>138</ele><time>2026-06-07T04:31:24Z</time></trkpt>
      <trkpt lat="30.230796" lon="120.089107"><ele>137</ele><time>2026-06-07T04:31:39Z</time></trkpt>
      <trkpt lat="30.230842" lon="120.089092"><ele>138</ele><time>2026-06-07T04:31:42Z</time></trkpt>
      <trkpt lat="30.230856" lon="120.089042"><ele>139</ele><time>2026-06-07T04:31:48Z</time></trkpt>
      <trkpt lat="30.23077" lon="120.089094"><ele>138</ele><time>2026-06-07T04:32:08Z</time></trkpt>
      <trkpt lat="30.230753" lon="120.089182"><ele>135</ele><time>2026-06-07T04:32:44Z</time></trkpt>
      <trkpt lat="30.230718" lon="120.089089"><ele>135</ele><time>2026-06-07T04:33:25Z</time></trkpt>
      <trkpt lat="30.230665" lon="120.089093"><ele>136</ele><time>2026-06-07T04:33:30Z</time></trkpt>
      <trkpt lat="30.23068" lon="120.089205"><ele>132</ele><time>2026-06-07T04:33:49Z</time></trkpt>
      <trkpt lat="30.230572" lon="120.089016"><ele>132</ele><time>2026-06-07T04:34:17Z</time></trkpt>
      <trkpt lat="30.230342" lon="120.088987"><ele>130</ele><time>2026-06-07T04:34:43Z</time></trkpt>
      <trkpt lat="30.229107" lon="120.089778"><ele>119</ele><time>2026-06-07T04:37:12Z</time></trkpt>
      <trkpt lat="30.22904" lon="120.089922"><ele>117</ele><time>2026-06-07T04:37:30Z</time></trkpt>
      <trkpt lat="30.229208" lon="120.090189"><ele>117</ele><time>2026-06-07T04:37:57Z</time></trkpt>
      <trkpt lat="30.229331" lon="120.089956"><ele>119</ele><time>2026-06-07T04:38:55Z</time></trkpt>
      <trkpt lat="30.229222" lon="120.089998"><ele>119</ele><time>2026-06-07T04:39:20Z</time></trkpt>
      <trkpt lat="30.229408" lon="120.089884"><ele>119</ele><time>2026-06-07T04:40:05Z</time></trkpt>
      <trkpt lat="30.229302" lon="120.0901"><ele>119</ele><time>2026-06-07T04:40:57Z</time></trkpt>
      <trkpt lat="30.229357" lon="120.089943"><ele>119</ele><time>2026-06-07T04:42:30Z</time></trkpt>
      <trkpt lat="30.22924" lon="120.090003"><ele>119</ele><time>2026-06-07T04:44:52Z</time></trkpt>
      <trkpt lat="30.229365" lon="120.089907"><ele>119</ele><time>2026-06-07T04:49:04Z</time></trkpt>
      <trkpt lat="30.229177" lon="120.090103"><ele>117</ele><time>2026-06-07T04:49:15Z</time></trkpt>
      <trkpt lat="30.229086" lon="120.090121"><ele>117</ele><time>2026-06-07T04:49:28Z</time></trkpt>
      <trkpt lat="30.229249" lon="120.090573"><ele>112</ele><time>2026-06-07T04:50:14Z</time></trkpt>
      <trkpt lat="30.228763" lon="120.090845"><ele>110</ele><time>2026-06-07T04:51:12Z</time></trkpt>
      <trkpt lat="30.228454" lon="120.090903"><ele>110</ele><time>2026-06-07T04:51:42Z</time></trkpt>
      <trkpt lat="30.228425" lon="120.091008"><ele>111</ele><time>2026-06-07T04:51:52Z</time></trkpt>
      <trkpt lat="30.229032" lon="120.091266"><ele>108</ele><time>2026-06-07T04:52:56Z</time></trkpt>
      <trkpt lat="30.229002" lon="120.091802"><ele>106</ele><time>2026-06-07T04:53:37Z</time></trkpt>
      <trkpt lat="30.229107" lon="120.092126"><ele>104</ele><time>2026-06-07T04:54:01Z</time></trkpt>
      <trkpt lat="30.229442" lon="120.092609"><ele>99</ele><time>2026-06-07T04:54:46Z</time></trkpt>
      <trkpt lat="30.230133" lon="120.093402"><ele>96</ele><time>2026-06-07T04:56:02Z</time></trkpt>
      <trkpt lat="30.230346" lon="120.093809"><ele>97</ele><time>2026-06-07T04:56:35Z</time></trkpt>
      <trkpt lat="30.230615" lon="120.093993"><ele>99</ele><time>2026-06-07T04:57:00Z</time></trkpt>
      <trkpt lat="30.23123" lon="120.094161"><ele>94</ele><time>2026-06-07T04:57:23Z</time></trkpt>
      <trkpt lat="30.231302" lon="120.094324"><ele>89</ele><time>2026-06-07T04:57:31Z</time></trkpt>
      <trkpt lat="30.231408" lon="120.094339"><ele>87</ele><time>2026-06-07T04:57:59Z</time></trkpt>
    </trkseg>
  </trk>
</gpx>
