<?xml version="1.0" encoding="UTF-8"?>
<gpx version="1.1" creator="MyWorld" xmlns="http://www.topografix.com/GPX/1/1">
  <metadata><name>桂林兴坪古镇</name></metadata>
  <trk>
    <name>桂林兴坪古镇</name>
    <trkseg>
      <trkpt lat="24.996221" lon="110.449385"><ele>130</ele><time>2026-01-24T01:19:27Z</time></trkpt>
      <trkpt lat="24.996199" lon="110.449545"><ele>126</ele><time>2026-01-24T01:19:40Z</time></trkpt>
      <trkpt lat="24.995748" lon="110.449837"><ele>122</ele><time>2026-01-24T01:20:38Z</time></trkpt>
      <trkpt lat="24.994695" lon="110.448506"><ele>122</ele><time>2026-01-24T01:22:59Z</time></trkpt>
      <trkpt lat="24.994378" lon="110.448758"><ele>119</ele><time>2026-01-24T01:23:56Z</time></trkpt>
      <trkpt lat="24.994305" lon="110.448675"><ele>117</ele><time>2026-01-24T01:25:30Z</time></trkpt>
      <trkpt lat="24.99418" lon="110.44888"><ele>118</ele><time>2026-01-24T01:26:57Z</time></trkpt>
      <trkpt lat="24.993698" lon="110.449137"><ele>116</ele><time>2026-01-24T01:27:30Z</time></trkpt>
      <trkpt lat="24.993572" lon="110.449453"><ele>118</ele><time>2026-01-24T01:28:44Z</time></trkpt>
      <trkpt lat="24.993494" lon="110.449495"><ele>114</ele><time>2026-01-24T01:28:51Z</time></trkpt>
      <trkpt lat="24.993556" lon="110.449549"><ele>112</ele><time>2026-01-24T01:29:06Z</time></trkpt>
      <trkpt lat="24.993376" lon="110.449495"><ele>121</ele><time>2026-01-24T01:29:34Z</time></trkpt>
      <trkpt lat="24.993078" lon="110.449292"><ele>127</ele><time>2026-01-24T01:30:16Z</time></trkpt>
      <trkpt lat="24.992836" lon="110.448898"><ele>125</ele><time>2026-01-24T01:31:05Z</time></trkpt>
      <trkpt lat="24.992577" lon="110.448218"><ele>125</ele><time>2026-01-24T01:32:05Z</time></trkpt>
      <trkpt lat="24.992275" lon="110.448028"><ele>127</ele><time>2026-01-24T01:32:35Z</time></trkpt>
      <trkpt lat="24.992141" lon="110.447532"><ele>128</ele><time>2026-01-24T01:33:13Z</time></trkpt>
      <trkpt lat="24.991914" lon="110.4472"><ele>125</ele><time>2026-01-24T01:33:45Z</time></trkpt>
      <trkpt lat="24.991765" lon="110.44714"><ele>125</ele><time>2026-01-24T01:34:00Z</time></trkpt>
      <trkpt lat="24.991456" lon="110.446638"><ele>127</ele><time>2026-01-24T01:34:50Z</time></trkpt>
      <trkpt lat="24.991228" lon="110.446682"><ele>126</ele><time>2026-01-24T01:35:14Z</time></trkpt>
      <trkpt lat="24.991009" lon="110.446437"><ele>128</ele><time>2026-01-24T01:35:42Z</time></trkpt>
      <trkpt lat="24.990609" lon="110.446222"><ele>130</ele><time>2026-01-24T01:36:19Z</time></trkpt>
      <trkpt lat="24.99044" lon="110.446021"><ele>128</ele><time>2026-01-24T01:36:38Z</time></trkpt>
      <trkpt lat="24.989654" lon="110.445426"><ele>130</ele><time>2026-01-24T01:37:57Z</time></trkpt>
      <trkpt lat="24.989423" lon="110.44514"><ele>129</ele><time>2026-01-24T01:38:26Z</time></trkpt>
      <trkpt lat="24.98847" lon="110.444256"><ele>127</ele><time>2026-01-24T01:40:10Z</time></trkpt>
      <trkpt lat="24.987875" lon="110.443874"><ele>127</ele><time>2026-01-24T01:41:06Z</time></trkpt>
      <trkpt lat="24.987574" lon="110.443853"><ele>127</ele><time>2026-01-24T01:41:32Z</time></trkpt>
      <trkpt lat="24.986911" lon="110.443584"><ele>124</ele><time>2026-01-24T01:42:33Z</time></trkpt>
      <trkpt lat="24.986423" lon="110.443498"><ele>126</ele><time>2026-01-24T01:43:13Z</time></trkpt>
      <trkpt lat="24.986369" lon="110.44341"><ele>125</ele><time>2026-01-24T01:43:24Z</time></trkpt>
      <trkpt lat="24.986368" lon="110.443071"><ele>118</ele><time>2026-01-24T01:43:53Z</time></trkpt>
      <trkpt lat="24.985953" lon="110.442885"><ele>117</ele><time>2026-01-24T01:44:47Z</time></trkpt>
      <trkpt lat="24.98371" lon="110.443967"><ele>119</ele><time>2026-01-24T01:49:11Z</time></trkpt>
      <trkpt lat="24.982913" lon="110.444588"><ele>115</ele><time>2026-01-24T01:50:50Z</time></trkpt>
      <trkpt lat="24.982882" lon="110.444712"><ele>116</ele><time>2026-01-24T01:50:56Z</time></trkpt>
      <trkpt lat="24.982281" lon="110.445589"><ele>114</ele><time>2026-01-24T01:52:46Z</time></trkpt>
      <trkpt lat="24.982336" lon="110.445668"><ele>121</ele><time>2026-01-24T01:53:03Z</time></trkpt>
      <trkpt lat="24.982489" lon="110.445632"><ele>120</ele><time>2026-01-24T01:53:20Z</time></trkpt>
      <trkpt lat="24.982254" lon="110.445902"><ele>123</ele><time>2026-01-24T01:54:04Z</time></trkpt>
      <trkpt lat="24.981697" lon="110.446277"><ele>123</ele><time>2026-01-24T01:55:10Z</time></trkpt>
      <trkpt lat="24.981653" lon="110.446589"><ele>125</ele><time>2026-01-24T01:55:40Z</time></trkpt>
      <trkpt lat="24.981058" lon="110.446658"><ele>128</ele><time>2026-01-24T01:56:37Z</time></trkpt>
      <trkpt lat="24.980325" lon="110.446888"><ele>126</ele><time>2026-01-24T01:57:47Z</time></trkpt>
      <trkpt lat="24.979538" lon="110.447225"><ele>124</ele><time>2026-01-24T01:59:08Z</time></trkpt>
      <trkpt lat="24.978627" lon="110.447734"><ele>123</ele><time>2026-01-24T02:00:41Z</time></trkpt>
      <trkpt lat="24.97853" lon="110.447554"><ele>117</ele><time>2026-01-24T02:01:09Z</time></trkpt>
      <trkpt lat="24.97845" lon="110.44753"><ele>116</ele><time>2026-01-24T02:01:49Z</time></trkpt>
      <trkpt lat="24.977466" lon="110.448209"><ele>117</ele><time>2026-01-24T02:03:41Z</time></trkpt>
      <trkpt lat="24.976925" lon="110.448488"><ele>118</ele><time>2026-01-24T02:04:35Z</time></trkpt>
      <trkpt lat="24.976022" lon="110.449143"><ele>117</ele><time>2026-01-24T02:06:18Z</time></trkpt>
      <trkpt lat="24.974601" lon="110.450261"><ele>118</ele><time>2026-01-24T02:09:14Z</time></trkpt>
      <trkpt lat="24.973553" lon="110.451369"><ele>117</ele><time>2026-01-24T02:11:33Z</time></trkpt>
      <trkpt lat="24.972648" lon="110.452142"><ele>117</ele><time>2026-01-24T02:13:22Z</time></trkpt>
      <trkpt lat="24.970829" lon="110.453975"><ele>118</ele><time>2026-01-24T02:17:23Z</time></trkpt>
      <trkpt lat="24.970686" lon="110.45398"><ele>114</ele><time>2026-01-24T02:21:05Z</time></trkpt>
      <trkpt lat="24.970663" lon="110.453772"><ele>115</ele><time>2026-01-24T02:22:18Z</time></trkpt>
      <trkpt lat="24.970453" lon="110.453554"><ele>117</ele><time>2026-01-24T02:22:58Z</time></trkpt>
      <trkpt lat="24.970017" lon="110.453424"><ele>116</ele><time>2026-01-24T02:23:58Z</time></trkpt>
      <trkpt lat="24.969898" lon="110.453333"><ele>114</ele><time>2026-01-24T02:24:24Z</time></trkpt>
      <trkpt lat="24.969788" lon="110.452936"><ele>112</ele><time>2026-01-24T02:26:23Z</time></trkpt>
      <trkpt lat="24.96952" lon="110.452633"><ele>123</ele><time>2026-01-24T02:27:13Z</time></trkpt>
      <trkpt lat="24.969034" lon="110.451791"><ele>121</ele><time>2026-01-24T02:28:40Z</time></trkpt>
      <trkpt lat="24.969045" lon="110.451696"><ele>121</ele><time>2026-01-24T02:28:51Z</time></trkpt>
      <trkpt lat="24.968713" lon="110.451728"><ele>120</ele><time>2026-01-24T02:29:25Z</time></trkpt>
      <trkpt lat="24.968444" lon="110.451966"><ele>127</ele><time>2026-01-24T02:29:57Z</time></trkpt>
      <trkpt lat="24.968001" lon="110.452086"><ele>123</ele><time>2026-01-24T02:30:38Z</time></trkpt>
      <trkpt lat="24.966956" lon="110.45281"><ele>125</ele><time>2026-01-24T02:32:22Z</time></trkpt>
      <trkpt lat="24.966551" lon="110.452896"><ele>126</ele><time>2026-01-24T02:32:57Z</time></trkpt>
      <trkpt lat="24.966102" lon="110.452809"><ele>131</ele><time>2026-01-24T02:33:33Z</time></trkpt>
      <trkpt lat="24.965695" lon="110.452894"><ele>127</ele><time>2026-01-24T02:34:05Z</time></trkpt>
      <trkpt lat="24.965235" lon="110.453092"><ele>126</ele><time>2026-01-24T02:34:47Z</time></trkpt>
      <trkpt lat="24.964335" lon="110.453674"><ele>122</ele><time>2026-01-24T02:36:13Z</time></trkpt>
      <trkpt lat="24.963783" lon="110.454149"><ele>118</ele><time>2026-01-24T02:37:10Z</time></trkpt>
      <trkpt lat="24.963573" lon="110.454414"><ele>119</ele><time>2026-01-24T02:37:38Z</time></trkpt>
      <trkpt lat="24.963017" lon="110.454554"><ele>122</ele><time>2026-01-24T02:38:26Z</time></trkpt>
      <trkpt lat="24.962681" lon="110.454746"><ele>122</ele><time>2026-01-24T02:39:01Z</time></trkpt>
      <trkpt lat="24.962432" lon="110.455"><ele>121</ele><time>2026-01-24T02:39:58Z</time></trkpt>
      <trkpt lat="24.962276" lon="110.455284"><ele>126</ele><time>2026-01-24T02:40:22Z</time></trkpt>
      <trkpt lat="24.962149" lon="110.455364"><ele>125</ele><time>2026-01-24T02:40:34Z</time></trkpt>
      <trkpt lat="24.961486" lon="110.455376"><ele>124</ele><time>2026-01-24T02:41:36Z</time></trkpt>
      <trkpt lat="24.961088" lon="110.455624"><ele>125</ele><time>2026-01-24T02:42:15Z</time></trkpt>
      <trkpt lat="24.960564" lon="110.455761"><ele>125</ele><time>2026-01-24T02:43:03Z</time></trkpt>
      <trkpt lat="24.96037" lon="110.455922"><ele>124</ele><time>2026-01-24T02:43:23Z</time></trkpt>
      <trkpt lat="24.960109" lon="110.455948"><ele>123</ele><time>2026-01-24T02:44:09Z</time></trkpt>
      <trkpt lat="24.960034" lon="110.456011"><ele>124</ele><time>2026-01-24T02:44:20Z</time></trkpt>
      <trkpt lat="24.959783" lon="110.455952"><ele>125</ele><time>2026-01-24T02:44:48Z</time></trkpt>
      <trkpt lat="24.958915" lon="110.45599"><ele>126</ele><time>2026-01-24T02:46:04Z</time></trkpt>
      <trkpt lat="24.958665" lon="110.45603"><ele>123</ele><time>2026-01-24T02:46:28Z</time></trkpt>
      <trkpt lat="24.958447" lon="110.456152"><ele>119</ele><time>2026-01-24T02:46:52Z</time></trkpt>
      <trkpt lat="24.95815" lon="110.456184"><ele>117</ele><time>2026-01-24T02:47:20Z</time></trkpt>
      <trkpt lat="24.95733" lon="110.456072"><ele>121</ele><time>2026-01-24T02:48:35Z</time></trkpt>
      <trkpt lat="24.957158" lon="110.455871"><ele>123</ele><time>2026-01-24T02:49:00Z</time></trkpt>
      <trkpt lat="24.957244" lon="110.45558"><ele>124</ele><time>2026-01-24T02:49:30Z</time></trkpt>
      <trkpt lat="24.956951" lon="110.455316"><ele>122</ele><time>2026-01-24T02:50:08Z</time></trkpt>
      <trkpt lat="24.956856" lon="110.455337"><ele>122</ele><time>2026-01-24T02:50:16Z</time></trkpt>
      <trkpt lat="24.956649" lon="110.455657"><ele>121</ele><time>2026-01-24T02:50:48Z</time></trkpt>
      <trkpt lat="24.956332" lon="110.455915"><ele>123</ele><time>2026-01-24T02:51:23Z</time></trkpt>
      <trkpt lat="24.955342" lon="110.455991"><ele>122</ele><time>2026-01-24T02:52:55Z</time></trkpt>
      <trkpt lat="24.954651" lon="110.456222"><ele>127</ele><time>2026-01-24T02:53:57Z</time></trkpt>
      <trkpt lat="24.954516" lon="110.456318"><ele>129</ele><time>2026-01-24T02:54:10Z</time></trkpt>
      <trkpt lat="24.953855" lon="110.456407"><ele>126</ele><time>2026-01-24T02:55:07Z</time></trkpt>
      <trkpt lat="24.953491" lon="110.456579"><ele>121</ele><time>2026-01-24T02:55:45Z</time></trkpt>
      <trkpt lat="24.95301" lon="110.457229"><ele>126</ele><time>2026-01-24T02:56:50Z</time></trkpt>
      <trkpt lat="24.952524" lon="110.457711"><ele>123</ele><time>2026-01-24T02:57:53Z</time></trkpt>
      <trkpt lat="24.95217" lon="110.457723"><ele>120</ele><time>2026-01-24T02:58:24Z</time></trkpt>
      <trkpt lat="24.951987" lon="110.4579"><ele>123</ele><time>2026-01-24T02:58:49Z</time></trkpt>
      <trkpt lat="24.952001" lon="110.457949"><ele>120</ele><time>2026-01-24T02:58:58Z</time></trkpt>
      <trkpt lat="24.951902" lon="110.457926"><ele>123</ele><time>2026-01-24T02:59:28Z</time></trkpt>
      <trkpt lat="24.951767" lon="110.457994"><ele>123</ele><time>2026-01-24T02:59:57Z</time></trkpt>
      <trkpt lat="24.951546" lon="110.4582"><ele>126</ele><time>2026-01-24T03:00:28Z</time></trkpt>
      <trkpt lat="24.951414" lon="110.45843"><ele>127</ele><time>2026-01-24T03:00:49Z</time></trkpt>
      <trkpt lat="24.950862" lon="110.458869"><ele>126</ele><time>2026-01-24T03:01:49Z</time></trkpt>
      <trkpt lat="24.950797" lon="110.459011"><ele>126</ele><time>2026-01-24T03:02:03Z</time></trkpt>
      <trkpt lat="24.949467" lon="110.460056"><ele>122</ele><time>2026-01-24T03:04:39Z</time></trkpt>
      <trkpt lat="24.949209" lon="110.460405"><ele>124</ele><time>2026-01-24T03:05:11Z</time></trkpt>
      <trkpt lat="24.948966" lon="110.460622"><ele>122</ele><time>2026-01-24T03:05:39Z</time></trkpt>
      <trkpt lat="24.948794" lon="110.460971"><ele>120</ele><time>2026-01-24T03:06:12Z</time></trkpt>
      <trkpt lat="24.948661" lon="110.461013"><ele>121</ele><time>2026-01-24T03:06:25Z</time></trkpt>
      <trkpt lat="24.94854" lon="110.461317"><ele>123</ele><time>2026-01-24T03:06:55Z</time></trkpt>
      <trkpt lat="24.948304" lon="110.461532"><ele>124</ele><time>2026-01-24T03:07:23Z</time></trkpt>
      <trkpt lat="24.948057" lon="110.462353"><ele>123</ele><time>2026-01-24T03:09:18Z</time></trkpt>
      <trkpt lat="24.947807" lon="110.462775"><ele>130</ele><time>2026-01-24T03:09:59Z</time></trkpt>
      <trkpt lat="24.94773" lon="110.463038"><ele>133</ele><time>2026-01-24T03:10:23Z</time></trkpt>
      <trkpt lat="24.947534" lon="110.463079"><ele>140</ele><time>2026-01-24T03:10:50Z</time></trkpt>
      <trkpt lat="24.947395" lon="110.463221"><ele>140</ele><time>2026-01-24T03:11:10Z</time></trkpt>
      <trkpt lat="24.947361" lon="110.463263"><ele>141</ele><time>2026-01-24T03:11:15Z</time></trkpt>
      <trkpt lat="24.947414" lon="110.463512"><ele>140</ele><time>2026-01-24T03:11:43Z</time></trkpt>
      <trkpt lat="24.946937" lon="110.463976"><ele>132</ele><time>2026-01-24T03:12:48Z</time></trkpt>
      <trkpt lat="24.946988" lon="110.4641"><ele>126</ele><time>2026-01-24T03:13:24Z</time></trkpt>
      <trkpt lat="24.946793" lon="110.464644"><ele>128</ele><time>2026-01-24T03:14:43Z</time></trkpt>
      <trkpt lat="24.946811" lon="110.464802"><ele>127</ele><time>2026-01-24T03:14:55Z</time></trkpt>
      <trkpt lat="24.946897" lon="110.464926"><ele>129</ele><time>2026-01-24T03:15:07Z</time></trkpt>
      <trkpt lat="24.947169" lon="110.46489"><ele>125</ele><time>2026-01-24T03:15:33Z</time></trkpt>
      <trkpt lat="24.947266" lon="110.464936"><ele>122</ele><time>2026-01-24T03:15:52Z</time></trkpt>
      <trkpt lat="24.94704" lon="110.465705"><ele>121</ele><time>2026-01-24T03:19:18Z</time></trkpt>
      <trkpt lat="24.94701" lon="110.466244"><ele>121</ele><time>2026-01-24T03:20:03Z</time></trkpt>
      <trkpt lat="24.946858" lon="110.466884"><ele>121</ele><time>2026-01-24T03:21:09Z</time></trkpt>
      <trkpt lat="24.946985" lon="110.468326"><ele>118</ele><time>2026-01-24T03:23:23Z</time></trkpt>
      <trkpt lat="24.946899" lon="110.468763"><ele>120</ele><time>2026-01-24T03:24:02Z</time></trkpt>
      <trkpt lat="24.947127" lon="110.469602"><ele>123</ele><time>2026-01-24T03:25:16Z</time></trkpt>
      <trkpt lat="24.947091" lon="110.469947"><ele>122</ele><time>2026-01-24T03:25:42Z</time></trkpt>
      <trkpt lat="24.947448" lon="110.471033"><ele>119</ele><time>2026-01-24T03:27:16Z</time></trkpt>
      <trkpt lat="24.947705" lon="110.471501"><ele>118</ele><time>2026-01-24T03:27:59Z</time></trkpt>
      <trkpt lat="24.94806" lon="110.472646"><ele>118</ele><time>2026-01-24T03:29:43Z</time></trkpt>
      <trkpt lat="24.948268" lon="110.473582"><ele>118</ele><time>2026-01-24T03:31:09Z</time></trkpt>
      <trkpt lat="24.948378" lon="110.474604"><ele>117</ele><time>2026-01-24T03:32:31Z</time></trkpt>
      <trkpt lat="24.948456" lon="110.474741"><ele>118</ele><time>2026-01-24T03:32:45Z</time></trkpt>
      <trkpt lat="24.948426" lon="110.475056"><ele>117</ele><time>2026-01-24T03:33:17Z</time></trkpt>
      <trkpt lat="24.94856" lon="110.475465"><ele>118</ele><time>2026-01-24T03:33:53Z</time></trkpt>
      <trkpt lat="24.948551" lon="110.475567"><ele>118</ele><time>2026-01-24T03:34:04Z</time></trkpt>
      <trkpt lat="24.948361" lon="110.475595"><ele>121</ele><time>2026-01-24T03:34:27Z</time></trkpt>
      <trkpt lat="24.94832" lon="110.475817"><ele>123</ele><time>2026-01-24T03:34:44Z</time></trkpt>
      <trkpt lat="24.948539" lon="110.477409"><ele>119</ele><time>2026-01-24T03:36:57Z</time></trkpt>
      <trkpt lat="24.948521" lon="110.477787"><ele>119</ele><time>2026-01-24T03:37:30Z</time></trkpt>
      <trkpt lat="24.948375" lon="110.478328"><ele>116</ele><time>2026-01-24T03:38:15Z</time></trkpt>
      <trkpt lat="24.948385" lon="110.478868"><ele>117</ele><time>2026-01-24T03:38:59Z</time></trkpt>
      <trkpt lat="24.947981" lon="110.479869"><ele>119</ele><time>2026-01-24T03:40:30Z</time></trkpt>
      <trkpt lat="24.947595" lon="110.480437"><ele>120</ele><time>2026-01-24T03:41:27Z</time></trkpt>
      <trkpt lat="24.94769" lon="110.480678"><ele>118</ele><time>2026-01-24T03:41:50Z</time></trkpt>
      <trkpt lat="24.947573" lon="110.481067"><ele>119</ele><time>2026-01-24T03:43:26Z</time></trkpt>
      <trkpt lat="24.947411" lon="110.481185"><ele>119</ele><time>2026-01-24T03:43:57Z</time></trkpt>
      <trkpt lat="24.947189" lon="110.481574"><ele>119</ele><time>2026-01-24T03:44:39Z</time></trkpt>
      <trkpt lat="24.94697" lon="110.482375"><ele>120</ele><time>2026-01-24T03:45:51Z</time></trkpt>
      <trkpt lat="24.94628" lon="110.483335"><ele>120</ele><time>2026-01-24T03:47:33Z</time></trkpt>
      <trkpt lat="24.944794" lon="110.485144"><ele>115</ele><time>2026-01-24T03:51:08Z</time></trkpt>
      <trkpt lat="24.944407" lon="110.485751"><ele>118</ele><time>2026-01-24T03:52:05Z</time></trkpt>
      <trkpt lat="24.942905" lon="110.487136"><ele>120</ele><time>2026-01-24T03:55:17Z</time></trkpt>
      <trkpt lat="24.942273" lon="110.487484"><ele>119</ele><time>2026-01-24T03:56:28Z</time></trkpt>
      <trkpt lat="24.941975" lon="110.487564"><ele>121</ele><time>2026-01-24T03:57:00Z</time></trkpt>
      <trkpt lat="24.940589" lon="110.487238"><ele>116</ele><time>2026-01-24T03:59:12Z</time></trkpt>
      <trkpt lat="24.940515" lon="110.487176"><ele>120</ele><time>2026-01-24T03:59:23Z</time></trkpt>
      <trkpt lat="24.940519" lon="110.487064"><ele>127</ele><time>2026-01-24T03:59:47Z</time></trkpt>
      <trkpt lat="24.940361" lon="110.487072"><ele>126</ele><time>2026-01-24T04:00:03Z</time></trkpt>
      <trkpt lat="24.940333" lon="110.487025"><ele>126</ele><time>2026-01-24T04:00:08Z</time></trkpt>
      <trkpt lat="24.940335" lon="110.486767"><ele>127</ele><time>2026-01-24T04:00:31Z</time></trkpt>
      <trkpt lat="24.940279" lon="110.486686"><ele>126</ele><time>2026-01-24T04:00:58Z</time></trkpt>
      <trkpt lat="24.940376" lon="110.486731"><ele>128</ele><time>2026-01-24T04:02:58Z</time></trkpt>
      <trkpt lat="24.940409" lon="110.486692"><ele>127</ele><time>2026-01-24T04:03:01Z</time></trkpt>
      <trkpt lat="24.94031" lon="110.486673"><ele>123</ele><time>2026-01-24T04:03:35Z</time></trkpt>
      <trkpt lat="24.940316" lon="110.486731"><ele>122</ele><time>2026-01-24T04:03:41Z</time></trkpt>
      <trkpt lat="24.940401" lon="110.486669"><ele>122</ele><time>2026-01-24T04:03:50Z</time></trkpt>
      <trkpt lat="24.940325" lon="110.486722"><ele>119</ele><time>2026-01-24T04:04:02Z</time></trkpt>
      <trkpt lat="24.940269" lon="110.486608"><ele>126</ele><time>2026-01-24T04:07:09Z</time></trkpt>
      <trkpt lat="24.940252" lon="110.486673"><ele>118</ele><time>2026-01-24T04:26:44Z</time></trkpt>
      <trkpt lat="24.940301" lon="110.486631"><ele>112</ele><time>2026-01-24T04:33:19Z</time></trkpt>
      <trkpt lat="24.940239" lon="110.486699"><ele>120</ele><time>2026-01-24T04:34:29Z</time></trkpt>
      <trkpt lat="24.940334" lon="110.486725"><ele>120</ele><time>2026-01-24T04:35:29Z</time></trkpt>
      <trkpt lat="24.940341" lon="110.487109"><ele>128</ele><time>2026-01-24T04:36:04Z</time></trkpt>
      <trkpt lat="24.939737" lon="110.487098"><ele>128</ele><time>2026-01-24T04:37:01Z</time></trkpt>
      <trkpt lat="24.939404" lon="110.48702"><ele>129</ele><time>2026-01-24T04:38:02Z</time></trkpt>
      <trkpt lat="24.938675" lon="110.487207"><ele>127</ele><time>2026-01-24T04:39:03Z</time></trkpt>
      <trkpt lat="24.938361" lon="110.486923"><ele>128</ele><time>2026-01-24T04:39:37Z</time></trkpt>
      <trkpt lat="24.938169" lon="110.487154"><ele>120</ele><time>2026-01-24T04:40:15Z</time></trkpt>
      <trkpt lat="24.938205" lon="110.487371"><ele>116</ele><time>2026-01-24T04:40:45Z</time></trkpt>
      <trkpt lat="24.938095" lon="110.48718"><ele>117</ele><time>2026-01-24T04:41:24Z</time></trkpt>
      <trkpt lat="24.937699" lon="110.486997"><ele>119</ele><time>2026-01-24T04:41:45Z</time></trkpt>
      <trkpt lat="24.936871" lon="110.486968"><ele>127</ele><time>2026-01-24T04:42:34Z</time></trkpt>
      <trkpt lat="24.936637" lon="110.48713"><ele>129</ele><time>2026-01-24T04:43:20Z</time></trkpt>
      <trkpt lat="24.936405" lon="110.487058"><ele>129</ele><time>2026-01-24T04:43:48Z</time></trkpt>
      <trkpt lat="24.935187" lon="110.486963"><ele>131</ele><time>2026-01-24T04:45:39Z</time></trkpt>
      <trkpt lat="24.934042" lon="110.486608"><ele>131</ele><time>2026-01-24T04:47:28Z</time></trkpt>
      <trkpt lat="24.933794" lon="110.48662"><ele>129</ele><time>2026-01-24T04:47:50Z</time></trkpt>
      <trkpt lat="24.933044" lon="110.486928"><ele>131</ele><time>2026-01-24T04:49:03Z</time></trkpt>
      <trkpt lat="24.931806" lon="110.486978"><ele>133</ele><time>2026-01-24T04:50:58Z</time></trkpt>
      <trkpt lat="24.931869" lon="110.486764"><ele>130</ele><time>2026-01-24T04:51:20Z</time></trkpt>
      <trkpt lat="24.931881" lon="110.485908"><ele>126</ele><time>2026-01-24T04:52:28Z</time></trkpt>
      <trkpt lat="24.932021" lon="110.484602"><ele>124</ele><time>2026-01-24T04:54:07Z</time></trkpt>
      <trkpt lat="24.932061" lon="110.484443"><ele>122</ele><time>2026-01-24T04:54:20Z</time></trkpt>
      <trkpt lat="24.932186" lon="110.484285"><ele>120</ele><time>2026-01-24T04:54:39Z</time></trkpt>
      <trkpt lat="24.932203" lon="110.483639"><ele>124</ele><time>2026-01-24T04:55:30Z</time></trkpt>
      <trkpt lat="24.931845" lon="110.483913"><ele>130</ele><time>2026-01-24T04:56:13Z</time></trkpt>
      <trkpt lat="24.93171" lon="110.483762"><ele>135</ele><time>2026-01-24T04:56:35Z</time></trkpt>
      <trkpt lat="24.931754" lon="110.483441"><ele>124</ele><time>2026-01-24T04:57:11Z</time></trkpt>
      <trkpt lat="24.931716" lon="110.483282"><ele>123</ele><time>2026-01-24T04:57:24Z</time></trkpt>
      <trkpt lat="24.93158" lon="110.483197"><ele>121</ele><time>2026-01-24T04:57:40Z</time></trkpt>
      <trkpt lat="24.93137" lon="110.483209"><ele>123</ele><time>2026-01-24T04:58:00Z</time></trkpt>
      <trkpt lat="24.930605" lon="110.483622"><ele>122</ele><time>2026-01-24T04:59:24Z</time></trkpt>
      <trkpt lat="24.930075" lon="110.484082"><ele>127</ele><time>2026-01-24T05:00:25Z</time></trkpt>
      <trkpt lat="24.929616" lon="110.484589"><ele>127</ele><time>2026-01-24T05:01:30Z</time></trkpt>
      <trkpt lat="24.929251" lon="110.485329"><ele>124</ele><time>2026-01-24T05:02:52Z</time></trkpt>
      <trkpt lat="24.928868" lon="110.485438"><ele>133</ele><time>2026-01-24T05:03:29Z</time></trkpt>
      <trkpt lat="24.927287" lon="110.486472"><ele>137</ele><time>2026-01-24T05:06:21Z</time></trkpt>
      <trkpt lat="24.926646" lon="110.487045"><ele>126</ele><time>2026-01-24T05:07:41Z</time></trkpt>
      <trkpt lat="24.925811" lon="110.487667"><ele>137</ele><time>2026-01-24T05:09:24Z</time></trkpt>
      <trkpt lat="24.925335" lon="110.488217"><ele>129</ele><time>2026-01-24T05:10:28Z</time></trkpt>
      <trkpt lat="24.924996" lon="110.488433"><ele>129</ele><time>2026-01-24T05:11:11Z</time></trkpt>
      <trkpt lat="24.92491" lon="110.488623"><ele>122</ele><time>2026-01-24T05:11:30Z</time></trkpt>
      <trkpt lat="24.924745" lon="110.488749"><ele>125</ele><time>2026-01-24T05:11:48Z</time></trkpt>
      <trkpt lat="24.924515" lon="110.489158"><ele>124</ele><time>2026-01-24T05:12:34Z</time></trkpt>
      <trkpt lat="24.924305" lon="110.489379"><ele>123</ele><time>2026-01-24T05:13:03Z</time></trkpt>
      <trkpt lat="24.923643" lon="110.490683"><ele>127</ele><time>2026-01-24T05:15:23Z</time></trkpt>
      <trkpt lat="24.923444" lon="110.491415"><ele>127</ele><time>2026-01-24T05:16:36Z</time></trkpt>
      <trkpt lat="24.923482" lon="110.491538"><ele>128</ele><time>2026-01-24T05:17:17Z</time></trkpt>
      <trkpt lat="24.923407" lon="110.492109"><ele>131</ele><time>2026-01-24T05:18:19Z</time></trkpt>
      <trkpt lat="24.923326" lon="110.492311"><ele>128</ele><time>2026-01-24T05:18:39Z</time></trkpt>
      <trkpt lat="24.923296" lon="110.492873"><ele>128</ele><time>2026-01-24T05:19:28Z</time></trkpt>
      <trkpt lat="24.923229" lon="110.49301"><ele>124</ele><time>2026-01-24T05:19:45Z</time></trkpt>
      <trkpt lat="24.923119" lon="110.493713"><ele>117</ele><time>2026-01-24T05:20:45Z</time></trkpt>
      <trkpt lat="24.923152" lon="110.494012"><ele>118</ele><time>2026-01-24T05:21:15Z</time></trkpt>
      <trkpt lat="24.92302" lon="110.494426"><ele>113</ele><time>2026-01-24T05:22:10Z</time></trkpt>
      <trkpt lat="24.923084" lon="110.494581"><ele>115</ele><time>2026-01-24T05:22:25Z</time></trkpt>
      <trkpt lat="24.923047" lon="110.494919"><ele>117</ele><time>2026-01-24T05:22:52Z</time></trkpt>
      <trkpt lat="24.923154" lon="110.495637"><ele>127</ele><time>2026-01-24T05:23:51Z</time></trkpt>
      <trkpt lat="24.923023" lon="110.496411"><ele>122</ele><time>2026-01-24T05:24:58Z</time></trkpt>
      <trkpt lat="24.923039" lon="110.497182"><ele>122</ele><time>2026-01-24T05:26:01Z</time></trkpt>
      <trkpt lat="24.923153" lon="110.498889"><ele>124</ele><time>2026-01-24T05:28:40Z</time></trkpt>
      <trkpt lat="24.923306" lon="110.499702"><ele>126</ele><time>2026-01-24T05:30:01Z</time></trkpt>
      <trkpt lat="24.923303" lon="110.50017"><ele>118</ele><time>2026-01-24T05:30:47Z</time></trkpt>
      <trkpt lat="24.923892" lon="110.502654"><ele>122</ele><time>2026-01-24T05:34:15Z</time></trkpt>
      <trkpt lat="24.924333" lon="110.503569"><ele>128</ele><time>2026-01-24T05:35:38Z</time></trkpt>
      <trkpt lat="24.924664" lon="110.504982"><ele>117</ele><time>2026-01-24T05:37:59Z</time></trkpt>
      <trkpt lat="24.924795" lon="110.505068"><ele>115</ele><time>2026-01-24T05:38:15Z</time></trkpt>
      <trkpt lat="24.924939" lon="110.505347"><ele>119</ele><time>2026-01-24T05:38:42Z</time></trkpt>
      <trkpt lat="24.925076" lon="110.505383"><ele>119</ele><time>2026-01-24T05:39:03Z</time></trkpt>
      <trkpt lat="24.925087" lon="110.505886"><ele>124</ele><time>2026-01-24T05:40:07Z</time></trkpt>
      <trkpt lat="24.925225" lon="110.506481"><ele>121</ele><time>2026-01-24T05:41:04Z</time></trkpt>
      <trkpt lat="24.925595" lon="110.50748"><ele>131</ele><time>2026-01-24T05:42:25Z</time></trkpt>
      <trkpt lat="24.92598" lon="110.50888"><ele>139</ele><time>2026-01-24T05:44:16Z</time></trkpt>
      <trkpt lat="24.926049" lon="110.508968"><ele>135</ele><time>2026-01-24T05:44:26Z</time></trkpt>
      <trkpt lat="24.926563" lon="110.511508"><ele>131</ele><time>2026-01-24T05:47:51Z</time></trkpt>
      <trkpt lat="24.926598" lon="110.512058"><ele>132</ele><time>2026-01-24T05:48:36Z</time></trkpt>
      <trkpt lat="24.926611" lon="110.511784"><ele>125</ele><time>2026-01-24T05:49:06Z</time></trkpt>
      <trkpt lat="24.926647" lon="110.51174"><ele>126</ele><time>2026-01-24T05:49:14Z</time></trkpt>
      <trkpt lat="24.926691" lon="110.511841"><ele>121</ele><time>2026-01-24T05:49:37Z</time></trkpt>
      <trkpt lat="24.926688" lon="110.512959"><ele>122</ele><time>2026-01-24T05:51:02Z</time></trkpt>
      <trkpt lat="24.926587" lon="110.513402"><ele>120</ele><time>2026-01-24T05:51:42Z</time></trkpt>
      <trkpt lat="24.92632" lon="110.513678"><ele>130</ele><time>2026-01-24T05:52:14Z</time></trkpt>
      <trkpt lat="24.926127" lon="110.514103"><ele>131</ele><time>2026-01-24T05:52:49Z</time></trkpt>
      <trkpt lat="24.925856" lon="110.514493"><ele>133</ele><time>2026-01-24T05:53:29Z</time></trkpt>
      <trkpt lat="24.925723" lon="110.514852"><ele>126</ele><time>2026-01-24T05:53:59Z</time></trkpt>
      <trkpt lat="24.925825" lon="110.515458"><ele>128</ele><time>2026-01-24T05:54:48Z</time></trkpt>
      <trkpt lat="24.925708" lon="110.51582"><ele>131</ele><time>2026-01-24T05:55:19Z</time></trkpt>
      <trkpt lat="24.925528" lon="110.516007"><ele>130</ele><time>2026-01-24T05:55:45Z</time></trkpt>
      <trkpt lat="24.92541" lon="110.516451"><ele>117</ele><time>2026-01-24T05:56:25Z</time></trkpt>
      <trkpt lat="24.92518" lon="110.516898"><ele>118</ele><time>2026-01-24T05:56:56Z</time></trkpt>
      <trkpt lat="24.925247" lon="110.517668"><ele>128</ele><time>2026-01-24T05:57:58Z</time></trkpt>
      <trkpt lat="24.925163" lon="110.518232"><ele>137</ele><time>2026-01-24T05:58:40Z</time></trkpt>
      <trkpt lat="24.925063" lon="110.518365"><ele>144</ele><time>2026-01-24T05:58:52Z</time></trkpt>
      <trkpt lat="24.924823" lon="110.518397"><ele>141</ele><time>2026-01-24T05:59:16Z</time></trkpt>
      <trkpt lat="24.924721" lon="110.518514"><ele>135</ele><time>2026-01-24T05:59:30Z</time></trkpt>
      <trkpt lat="24.924545" lon="110.51846"><ele>126</ele><time>2026-01-24T06:00:02Z</time></trkpt>
      <trkpt lat="24.92459" lon="110.518454"><ele>126</ele><time>2026-01-24T06:02:18Z</time></trkpt>
      <trkpt lat="24.924552" lon="110.518491"><ele>122</ele><time>2026-01-24T06:05:41Z</time></trkpt>
      <trkpt lat="24.924695" lon="110.518642"><ele>128</ele><time>2026-01-24T06:06:46Z</time></trkpt>
      <trkpt lat="24.924505" lon="110.518976"><ele>124</ele><time>2026-01-24T06:07:22Z</time></trkpt>
      <trkpt lat="24.924297" lon="110.519206"><ele>121</ele><time>2026-01-24T06:07:55Z</time></trkpt>
      <trkpt lat="24.92379" lon="110.519472"><ele>118</ele><time>2026-01-24T06:09:05Z</time></trkpt>
      <trkpt lat="24.923458" lon="110.520249"><ele>114</ele><time>2026-01-24T06:10:26Z</time></trkpt>
      <trkpt lat="24.923206" lon="110.520422"><ele>115</ele><time>2026-01-24T06:10:52Z</time></trkpt>
      <trkpt lat="24.923265" lon="110.520351"><ele>115</ele><time>2026-01-24T06:12:06Z</time></trkpt>
      <trkpt lat="24.923218" lon="110.520345"><ele>112</ele><time>2026-01-24T06:12:21Z</time></trkpt>
      <trkpt lat="24.923235" lon="110.520294"><ele>114</ele><time>2026-01-24T06:13:09Z</time></trkpt>
      <trkpt lat="24.92315" lon="110.520337"><ele>118</ele><time>2026-01-24T06:14:08Z</time></trkpt>
      <trkpt lat="24.923279" lon="110.520259"><ele>113</ele><time>2026-01-24T06:15:35Z</time></trkpt>
      <trkpt lat="24.92324" lon="110.520462"><ele>114</ele><time>2026-01-24T06:16:14Z</time></trkpt>
      <trkpt lat="24.923023" lon="110.520836"><ele>116</ele><time>2026-01-24T06:16:50Z</time></trkpt>
      <trkpt lat="24.922541" lon="110.52123"><ele>123</ele><time>2026-01-24T06:17:44Z</time></trkpt>
      <trkpt lat="24.921666" lon="110.521631"><ele>126</ele><time>2026-01-24T06:19:08Z</time></trkpt>
      <trkpt lat="24.921599" lon="110.522048"><ele>123</ele><time>2026-01-24T06:19:50Z</time></trkpt>
      <trkpt lat="24.921481" lon="110.522312"><ele>126</ele><time>2026-01-24T06:20:10Z</time></trkpt>
      <trkpt lat="24.921693" lon="110.523029"><ele>127</ele><time>2026-01-24T06:21:12Z</time></trkpt>
      <trkpt lat="24.921654" lon="110.523253"><ele>127</ele><time>2026-01-24T06:21:40Z</time></trkpt>
      <trkpt lat="24.921508" lon="110.523388"><ele>128</ele><time>2026-01-24T06:21:57Z</time></trkpt>
      <trkpt lat="24.921629" lon="110.523549"><ele>127</ele><time>2026-01-24T06:22:14Z</time></trkpt>
      <trkpt lat="24.921889" lon="110.524902"><ele>129</ele><time>2026-01-24T06:24:08Z</time></trkpt>
      <trkpt lat="24.922517" lon="110.526973"><ele>130</ele><time>2026-01-24T06:26:46Z</time></trkpt>
      <trkpt lat="24.922856" lon="110.527807"><ele>132</ele><time>2026-01-24T06:27:57Z</time></trkpt>
      <trkpt lat="24.923308" lon="110.528476"><ele>134</ele><time>2026-01-24T06:29:11Z</time></trkpt>
      <trkpt lat="24.92339" lon="110.528844"><ele>140</ele><time>2026-01-24T06:29:40Z</time></trkpt>
      <trkpt lat="24.923893" lon="110.529917"><ele>131</ele><time>2026-01-24T06:31:14Z</time></trkpt>
      <trkpt lat="24.924007" lon="110.530303"><ele>124</ele><time>2026-01-24T06:31:45Z</time></trkpt>
      <trkpt lat="24.924041" lon="110.531196"><ele>127</ele><time>2026-01-24T06:32:50Z</time></trkpt>
      <trkpt lat="24.92392" lon="110.53284"><ele>135</ele><time>2026-01-24T06:34:50Z</time></trkpt>
      <trkpt lat="24.923775" lon="110.532906"><ele>132</ele><time>2026-01-24T06:35:05Z</time></trkpt>
      <trkpt lat="24.923515" lon="110.53288"><ele>131</ele><time>2026-01-24T06:35:28Z</time></trkpt>
      <trkpt lat="24.922983" lon="110.532492"><ele>128</ele><time>2026-01-24T06:36:17Z</time></trkpt>
      <trkpt lat="24.922617" lon="110.532087"><ele>127</ele><time>2026-01-24T06:36:59Z</time></trkpt>
      <trkpt lat="24.922345" lon="110.532106"><ele>125</ele><time>2026-01-24T06:37:21Z</time></trkpt>
      <trkpt lat="24.922139" lon="110.532151"><ele>126</ele><time>2026-01-24T06:37:38Z</time></trkpt>
      <trkpt lat="24.921885" lon="110.532324"><ele>129</ele><time>2026-01-24T06:38:03Z</time></trkpt>
      <trkpt lat="24.921796" lon="110.532507"><ele>130</ele><time>2026-01-24T06:38:25Z</time></trkpt>
      <trkpt lat="24.92179" lon="110.532804"><ele>129</ele><time>2026-01-24T06:38:50Z</time></trkpt>
      <trkpt lat="24.921676" lon="110.533101"><ele>128</ele><time>2026-01-24T06:39:14Z</time></trkpt>
      <trkpt lat="24.921414" lon="110.533381"><ele>125</ele><time>2026-01-24T06:39:44Z</time></trkpt>
      <trkpt lat="24.921097" lon="110.533558"><ele>126</ele><time>2026-01-24T06:40:13Z</time></trkpt>
      <trkpt lat="24.920647" lon="110.534103"><ele>130</ele><time>2026-01-24T06:41:11Z</time></trkpt>
      <trkpt lat="24.920342" lon="110.534036"><ele>127</ele><time>2026-01-24T06:41:38Z</time></trkpt>
      <trkpt lat="24.919727" lon="110.533582"><ele>115</ele><time>2026-01-24T06:42:42Z</time></trkpt>
      <trkpt lat="24.919214" lon="110.532342"><ele>130</ele><time>2026-01-24T06:44:27Z</time></trkpt>
      <trkpt lat="24.919538" lon="110.53165"><ele>129</ele><time>2026-01-24T06:45:35Z</time></trkpt>
      <trkpt lat="24.919999" lon="110.530936"><ele>137</ele><time>2026-01-24T06:46:43Z</time></trkpt>
      <trkpt lat="24.920068" lon="110.529701"><ele>143</ele><time>2026-01-24T06:48:32Z</time></trkpt>
      <trkpt lat="24.920134" lon="110.529497"><ele>137</ele><time>2026-01-24T06:48:51Z</time></trkpt>
    </trkseg>
  </trk>
</gpx>
