<?xml version="1.0" encoding="UTF-8"?>
<gpx version="1.1" creator="MyWorld" xmlns="http://www.topografix.com/GPX/1/1">
  <metadata><name>桂林百里画廊</name></metadata>
  <trk>
    <name>桂林百里画廊</name>
    <trkseg>
      <trkpt lat="24.819568" lon="110.3898"><ele>136</ele><time>2026-01-25T01:40:07Z</time></trkpt>
      <trkpt lat="24.819433" lon="110.389858"><ele>134</ele><time>2026-01-25T01:40:20Z</time></trkpt>
      <trkpt lat="24.819133" lon="110.389193"><ele>136</ele><time>2026-01-25T01:41:22Z</time></trkpt>
      <trkpt lat="24.81898" lon="110.38919"><ele>137</ele><time>2026-01-25T01:41:37Z</time></trkpt>
      <trkpt lat="24.818921" lon="110.389053"><ele>132</ele><time>2026-01-25T01:41:56Z</time></trkpt>
      <trkpt lat="24.81888" lon="110.389148"><ele>130</ele><time>2026-01-25T01:42:07Z</time></trkpt>
      <trkpt lat="24.818604" lon="110.389278"><ele>132</ele><time>2026-01-25T01:42:34Z</time></trkpt>
      <trkpt lat="24.818216" lon="110.389695"><ele>132</ele><time>2026-01-25T01:43:23Z</time></trkpt>
      <trkpt lat="24.817916" lon="110.389812"><ele>132</ele><time>2026-01-25T01:43:51Z</time></trkpt>
      <trkpt lat="24.817591" lon="110.390065"><ele>132</ele><time>2026-01-25T01:44:32Z</time></trkpt>
      <trkpt lat="24.817262" lon="110.39042"><ele>133</ele><time>2026-01-25T01:45:15Z</time></trkpt>
      <trkpt lat="24.817143" lon="110.390717"><ele>135</ele><time>2026-01-25T01:45:41Z</time></trkpt>
      <trkpt lat="24.816762" lon="110.391219"><ele>133</ele><time>2026-01-25T01:46:33Z</time></trkpt>
      <trkpt lat="24.816616" lon="110.391513"><ele>134</ele><time>2026-01-25T01:47:01Z</time></trkpt>
      <trkpt lat="24.816193" lon="110.391801"><ele>131</ele><time>2026-01-25T01:47:47Z</time></trkpt>
      <trkpt lat="24.815906" lon="110.3921"><ele>131</ele><time>2026-01-25T01:48:19Z</time></trkpt>
      <trkpt lat="24.815366" lon="110.392087"><ele>131</ele><time>2026-01-25T01:49:07Z</time></trkpt>
      <trkpt lat="24.814553" lon="110.392365"><ele>130</ele><time>2026-01-25T01:50:19Z</time></trkpt>
      <trkpt lat="24.813914" lon="110.39297"><ele>131</ele><time>2026-01-25T01:51:46Z</time></trkpt>
      <trkpt lat="24.813082" lon="110.39347"><ele>130</ele><time>2026-01-25T01:53:12Z</time></trkpt>
      <trkpt lat="24.813074" lon="110.393623"><ele>129</ele><time>2026-01-25T01:53:26Z</time></trkpt>
      <trkpt lat="24.81275" lon="110.393749"><ele>127</ele><time>2026-01-25T01:53:55Z</time></trkpt>
      <trkpt lat="24.812576" lon="110.39401"><ele>126</ele><time>2026-01-25T01:54:25Z</time></trkpt>
      <trkpt lat="24.812342" lon="110.39407"><ele>127</ele><time>2026-01-25T01:54:49Z</time></trkpt>
      <trkpt lat="24.812255" lon="110.394192"><ele>130</ele><time>2026-01-25T01:55:04Z</time></trkpt>
      <trkpt lat="24.811879" lon="110.393519"><ele>130</ele><time>2026-01-25T01:56:58Z</time></trkpt>
      <trkpt lat="24.811247" lon="110.394147"><ele>133</ele><time>2026-01-25T01:58:11Z</time></trkpt>
      <trkpt lat="24.810852" lon="110.394392"><ele>130</ele><time>2026-01-25T01:58:51Z</time></trkpt>
      <trkpt lat="24.810517" lon="110.394505"><ele>130</ele><time>2026-01-25T01:59:21Z</time></trkpt>
      <trkpt lat="24.810592" lon="110.394794"><ele>130</ele><time>2026-01-25T01:59:54Z</time></trkpt>
      <trkpt lat="24.810721" lon="110.394895"><ele>127</ele><time>2026-01-25T02:00:06Z</time></trkpt>
      <trkpt lat="24.810695" lon="110.394949"><ele>127</ele><time>2026-01-25T02:00:11Z</time></trkpt>
      <trkpt lat="24.810483" lon="110.39519"><ele>129</ele><time>2026-01-25T02:00:35Z</time></trkpt>
      <trkpt lat="24.810388" lon="110.395429"><ele>126</ele><time>2026-01-25T02:01:17Z</time></trkpt>
      <trkpt lat="24.810308" lon="110.395477"><ele>128</ele><time>2026-01-25T02:01:26Z</time></trkpt>
      <trkpt lat="24.810235" lon="110.395414"><ele>129</ele><time>2026-01-25T02:01:41Z</time></trkpt>
      <trkpt lat="24.810144" lon="110.395437"><ele>129</ele><time>2026-01-25T02:01:51Z</time></trkpt>
      <trkpt lat="24.809319" lon="110.396333"><ele>130</ele><time>2026-01-25T02:03:46Z</time></trkpt>
      <trkpt lat="24.809324" lon="110.396708"><ele>129</ele><time>2026-01-25T02:04:14Z</time></trkpt>
      <trkpt lat="24.809268" lon="110.396918"><ele>129</ele><time>2026-01-25T02:04:30Z</time></trkpt>
      <trkpt lat="24.808903" lon="110.39755"><ele>129</ele><time>2026-01-25T02:05:29Z</time></trkpt>
      <trkpt lat="24.808674" lon="110.397631"><ele>126</ele><time>2026-01-25T02:05:49Z</time></trkpt>
      <trkpt lat="24.808115" lon="110.39898"><ele>128</ele><time>2026-01-25T02:07:50Z</time></trkpt>
      <trkpt lat="24.807712" lon="110.399535"><ele>126</ele><time>2026-01-25T02:08:45Z</time></trkpt>
      <trkpt lat="24.807324" lon="110.399554"><ele>127</ele><time>2026-01-25T02:09:19Z</time></trkpt>
      <trkpt lat="24.807124" lon="110.399991"><ele>127</ele><time>2026-01-25T02:09:56Z</time></trkpt>
      <trkpt lat="24.806678" lon="110.400712"><ele>127</ele><time>2026-01-25T02:11:02Z</time></trkpt>
      <trkpt lat="24.80626" lon="110.401135"><ele>128</ele><time>2026-01-25T02:11:49Z</time></trkpt>
      <trkpt lat="24.805861" lon="110.401434"><ele>126</ele><time>2026-01-25T02:12:28Z</time></trkpt>
      <trkpt lat="24.80565" lon="110.401203"><ele>124</ele><time>2026-01-25T02:12:53Z</time></trkpt>
      <trkpt lat="24.805515" lon="110.401174"><ele>125</ele><time>2026-01-25T02:13:05Z</time></trkpt>
      <trkpt lat="24.805214" lon="110.401533"><ele>128</ele><time>2026-01-25T02:13:43Z</time></trkpt>
      <trkpt lat="24.804789" lon="110.401735"><ele>123</ele><time>2026-01-25T02:14:20Z</time></trkpt>
      <trkpt lat="24.804552" lon="110.401726"><ele>125</ele><time>2026-01-25T02:14:40Z</time></trkpt>
      <trkpt lat="24.804361" lon="110.401983"><ele>126</ele><time>2026-01-25T02:15:06Z</time></trkpt>
      <trkpt lat="24.80412" lon="110.402165"><ele>127</ele><time>2026-01-25T02:15:31Z</time></trkpt>
      <trkpt lat="24.803743" lon="110.402438"><ele>125</ele><time>2026-01-25T02:16:09Z</time></trkpt>
      <trkpt lat="24.803404" lon="110.402577"><ele>126</ele><time>2026-01-25T02:16:41Z</time></trkpt>
      <trkpt lat="24.803219" lon="110.402785"><ele>125</ele><time>2026-01-25T02:17:05Z</time></trkpt>
      <trkpt lat="24.803123" lon="110.402803"><ele>125</ele><time>2026-01-25T02:17:14Z</time></trkpt>
      <trkpt lat="24.803081" lon="110.40296"><ele>126</ele><time>2026-01-25T02:17:27Z</time></trkpt>
      <trkpt lat="24.802656" lon="110.403406"><ele>127</ele><time>2026-01-25T02:18:17Z</time></trkpt>
      <trkpt lat="24.802074" lon="110.403834"><ele>125</ele><time>2026-01-25T02:19:16Z</time></trkpt>
      <trkpt lat="24.800415" lon="110.405509"><ele>127</ele><time>2026-01-25T02:22:33Z</time></trkpt>
      <trkpt lat="24.799793" lon="110.405872"><ele>130</ele><time>2026-01-25T02:23:34Z</time></trkpt>
      <trkpt lat="24.799804" lon="110.406008"><ele>129</ele><time>2026-01-25T02:23:56Z</time></trkpt>
      <trkpt lat="24.799988" lon="110.406092"><ele>127</ele><time>2026-01-25T02:24:43Z</time></trkpt>
      <trkpt lat="24.799805" lon="110.406015"><ele>128</ele><time>2026-01-25T02:26:33Z</time></trkpt>
      <trkpt lat="24.799786" lon="110.405879"><ele>128</ele><time>2026-01-25T02:27:05Z</time></trkpt>
      <trkpt lat="24.799642" lon="110.405917"><ele>130</ele><time>2026-01-25T02:27:40Z</time></trkpt>
      <trkpt lat="24.798872" lon="110.406575"><ele>130</ele><time>2026-01-25T02:29:04Z</time></trkpt>
      <trkpt lat="24.798511" lon="110.406778"><ele>128</ele><time>2026-01-25T02:29:37Z</time></trkpt>
      <trkpt lat="24.798391" lon="110.406964"><ele>129</ele><time>2026-01-25T02:29:54Z</time></trkpt>
      <trkpt lat="24.798072" lon="110.407015"><ele>129</ele><time>2026-01-25T02:30:21Z</time></trkpt>
      <trkpt lat="24.797768" lon="110.40722"><ele>128</ele><time>2026-01-25T02:30:53Z</time></trkpt>
      <trkpt lat="24.797688" lon="110.407403"><ele>128</ele><time>2026-01-25T02:31:07Z</time></trkpt>
      <trkpt lat="24.797377" lon="110.407481"><ele>127</ele><time>2026-01-25T02:31:33Z</time></trkpt>
      <trkpt lat="24.797073" lon="110.408113"><ele>126</ele><time>2026-01-25T02:32:30Z</time></trkpt>
      <trkpt lat="24.79637" lon="110.408695"><ele>126</ele><time>2026-01-25T02:33:37Z</time></trkpt>
      <trkpt lat="24.795851" lon="110.408966"><ele>126</ele><time>2026-01-25T02:34:21Z</time></trkpt>
      <trkpt lat="24.79576" lon="110.408912"><ele>127</ele><time>2026-01-25T02:34:29Z</time></trkpt>
      <trkpt lat="24.795652" lon="110.408715"><ele>126</ele><time>2026-01-25T02:34:47Z</time></trkpt>
      <trkpt lat="24.795508" lon="110.408635"><ele>125</ele><time>2026-01-25T02:34:59Z</time></trkpt>
      <trkpt lat="24.795412" lon="110.408675"><ele>126</ele><time>2026-01-25T02:35:07Z</time></trkpt>
      <trkpt lat="24.795071" lon="110.408904"><ele>127</ele><time>2026-01-25T02:35:38Z</time></trkpt>
      <trkpt lat="24.794854" lon="110.409186"><ele>127</ele><time>2026-01-25T02:36:07Z</time></trkpt>
      <trkpt lat="24.79437" lon="110.409463"><ele>128</ele><time>2026-01-25T02:36:50Z</time></trkpt>
      <trkpt lat="24.793614" lon="110.410238"><ele>127</ele><time>2026-01-25T02:38:10Z</time></trkpt>
      <trkpt lat="24.793023" lon="110.410577"><ele>122</ele><time>2026-01-25T02:39:07Z</time></trkpt>
      <trkpt lat="24.792556" lon="110.410952"><ele>124</ele><time>2026-01-25T02:39:52Z</time></trkpt>
      <trkpt lat="24.792258" lon="110.411062"><ele>125</ele><time>2026-01-25T02:40:17Z</time></trkpt>
      <trkpt lat="24.79207" lon="110.411329"><ele>125</ele><time>2026-01-25T02:40:41Z</time></trkpt>
      <trkpt lat="24.79172" lon="110.4121"><ele>125</ele><time>2026-01-25T02:41:43Z</time></trkpt>
      <trkpt lat="24.791421" lon="110.412305"><ele>125</ele><time>2026-01-25T02:42:12Z</time></trkpt>
      <trkpt lat="24.790931" lon="110.413176"><ele>125</ele><time>2026-01-25T02:43:27Z</time></trkpt>
      <trkpt lat="24.790341" lon="110.414866"><ele>126</ele><time>2026-01-25T02:45:43Z</time></trkpt>
      <trkpt lat="24.790154" lon="110.414871"><ele>125</ele><time>2026-01-25T02:46:00Z</time></trkpt>
      <trkpt lat="24.789965" lon="110.415267"><ele>127</ele><time>2026-01-25T02:46:34Z</time></trkpt>
      <trkpt lat="24.789912" lon="110.416036"><ele>126</ele><time>2026-01-25T02:47:34Z</time></trkpt>
      <trkpt lat="24.789731" lon="110.416373"><ele>127</ele><time>2026-01-25T02:48:05Z</time></trkpt>
      <trkpt lat="24.789791" lon="110.416576"><ele>127</ele><time>2026-01-25T02:48:21Z</time></trkpt>
      <trkpt lat="24.789749" lon="110.416908"><ele>126</ele><time>2026-01-25T02:48:47Z</time></trkpt>
      <trkpt lat="24.789444" lon="110.417469"><ele>126</ele><time>2026-01-25T02:49:37Z</time></trkpt>
      <trkpt lat="24.789002" lon="110.417967"><ele>126</ele><time>2026-01-25T02:50:30Z</time></trkpt>
      <trkpt lat="24.788127" lon="110.418669"><ele>126</ele><time>2026-01-25T02:52:02Z</time></trkpt>
      <trkpt lat="24.787467" lon="110.419045"><ele>125</ele><time>2026-01-25T02:53:05Z</time></trkpt>
      <trkpt lat="24.787312" lon="110.419076"><ele>125</ele><time>2026-01-25T02:53:17Z</time></trkpt>
      <trkpt lat="24.787143" lon="110.418979"><ele>126</ele><time>2026-01-25T02:53:33Z</time></trkpt>
      <trkpt lat="24.78698" lon="110.419008"><ele>125</ele><time>2026-01-25T02:53:46Z</time></trkpt>
      <trkpt lat="24.78649" lon="110.419607"><ele>125</ele><time>2026-01-25T02:54:48Z</time></trkpt>
      <trkpt lat="24.786093" lon="110.419624"><ele>126</ele><time>2026-01-25T02:55:21Z</time></trkpt>
      <trkpt lat="24.785857" lon="110.419906"><ele>125</ele><time>2026-01-25T02:55:50Z</time></trkpt>
      <trkpt lat="24.785105" lon="110.420437"><ele>125</ele><time>2026-01-25T02:57:02Z</time></trkpt>
      <trkpt lat="24.784926" lon="110.420717"><ele>126</ele><time>2026-01-25T02:57:28Z</time></trkpt>
      <trkpt lat="24.784422" lon="110.42115"><ele>125</ele><time>2026-01-25T02:58:22Z</time></trkpt>
      <trkpt lat="24.783825" lon="110.421821"><ele>125</ele><time>2026-01-25T02:59:31Z</time></trkpt>
      <trkpt lat="24.782866" lon="110.423049"><ele>126</ele><time>2026-01-25T03:01:30Z</time></trkpt>
      <trkpt lat="24.782316" lon="110.42345"><ele>129</ele><time>2026-01-25T03:02:23Z</time></trkpt>
      <trkpt lat="24.782136" lon="110.423953"><ele>127</ele><time>2026-01-25T03:03:06Z</time></trkpt>
      <trkpt lat="24.781314" lon="110.425149"><ele>126</ele><time>2026-01-25T03:04:58Z</time></trkpt>
      <trkpt lat="24.780898" lon="110.425552"><ele>125</ele><time>2026-01-25T03:05:40Z</time></trkpt>
      <trkpt lat="24.780741" lon="110.425902"><ele>126</ele><time>2026-01-25T03:06:09Z</time></trkpt>
      <trkpt lat="24.780375" lon="110.426337"><ele>125</ele><time>2026-01-25T03:06:51Z</time></trkpt>
      <trkpt lat="24.780222" lon="110.426344"><ele>126</ele><time>2026-01-25T03:07:04Z</time></trkpt>
      <trkpt lat="24.779948" lon="110.426736"><ele>127</ele><time>2026-01-25T03:07:42Z</time></trkpt>
      <trkpt lat="24.779607" lon="110.426996"><ele>126</ele><time>2026-01-25T03:08:14Z</time></trkpt>
      <trkpt lat="24.779279" lon="110.427479"><ele>126</ele><time>2026-01-25T03:09:02Z</time></trkpt>
      <trkpt lat="24.778821" lon="110.427983"><ele>125</ele><time>2026-01-25T03:10:37Z</time></trkpt>
      <trkpt lat="24.778757" lon="110.428299"><ele>125</ele><time>2026-01-25T03:11:00Z</time></trkpt>
      <trkpt lat="24.77845" lon="110.428693"><ele>125</ele><time>2026-01-25T03:11:36Z</time></trkpt>
      <trkpt lat="24.777896" lon="110.429362"><ele>126</ele><time>2026-01-25T03:12:45Z</time></trkpt>
      <trkpt lat="24.776752" lon="110.43017"><ele>126</ele><time>2026-01-25T03:15:13Z</time></trkpt>
      <trkpt lat="24.776732" lon="110.430224"><ele>127</ele><time>2026-01-25T03:15:17Z</time></trkpt>
      <trkpt lat="24.777098" lon="110.430885"><ele>126</ele><time>2026-01-25T03:16:14Z</time></trkpt>
      <trkpt lat="24.777017" lon="110.431227"><ele>127</ele><time>2026-01-25T03:16:38Z</time></trkpt>
      <trkpt lat="24.776871" lon="110.431589"><ele>129</ele><time>2026-01-25T03:17:06Z</time></trkpt>
      <trkpt lat="24.776405" lon="110.432105"><ele>128</ele><time>2026-01-25T03:17:59Z</time></trkpt>
      <trkpt lat="24.776105" lon="110.43261"><ele>126</ele><time>2026-01-25T03:18:42Z</time></trkpt>
      <trkpt lat="24.775928" lon="110.432557"><ele>126</ele><time>2026-01-25T03:19:05Z</time></trkpt>
      <trkpt lat="24.77569" lon="110.432774"><ele>126</ele><time>2026-01-25T03:19:29Z</time></trkpt>
      <trkpt lat="24.775072" lon="110.433012"><ele>126</ele><time>2026-01-25T03:20:23Z</time></trkpt>
      <trkpt lat="24.774021" lon="110.433661"><ele>125</ele><time>2026-01-25T03:21:59Z</time></trkpt>
      <trkpt lat="24.773621" lon="110.43377"><ele>124</ele><time>2026-01-25T03:22:35Z</time></trkpt>
      <trkpt lat="24.773403" lon="110.433898"><ele>123</ele><time>2026-01-25T03:22:56Z</time></trkpt>
      <trkpt lat="24.772936" lon="110.433866"><ele>124</ele><time>2026-01-25T03:23:32Z</time></trkpt>
      <trkpt lat="24.772402" lon="110.434052"><ele>123</ele><time>2026-01-25T03:24:17Z</time></trkpt>
      <trkpt lat="24.772045" lon="110.434382"><ele>124</ele><time>2026-01-25T03:24:53Z</time></trkpt>
      <trkpt lat="24.771805" lon="110.434511"><ele>125</ele><time>2026-01-25T03:25:13Z</time></trkpt>
      <trkpt lat="24.771581" lon="110.434947"><ele>125</ele><time>2026-01-25T03:25:49Z</time></trkpt>
      <trkpt lat="24.771441" lon="110.435078"><ele>125</ele><time>2026-01-25T03:26:10Z</time></trkpt>
      <trkpt lat="24.771045" lon="110.434941"><ele>123</ele><time>2026-01-25T03:26:55Z</time></trkpt>
      <trkpt lat="24.770108" lon="110.43481"><ele>123</ele><time>2026-01-25T03:28:02Z</time></trkpt>
      <trkpt lat="24.769931" lon="110.434683"><ele>123</ele><time>2026-01-25T03:28:18Z</time></trkpt>
      <trkpt lat="24.769102" lon="110.434409"><ele>124</ele><time>2026-01-25T03:29:25Z</time></trkpt>
      <trkpt lat="24.768852" lon="110.434477"><ele>122</ele><time>2026-01-25T03:29:45Z</time></trkpt>
      <trkpt lat="24.766351" lon="110.436538"><ele>123</ele><time>2026-01-25T03:33:55Z</time></trkpt>
      <trkpt lat="24.766196" lon="110.436821"><ele>124</ele><time>2026-01-25T03:34:20Z</time></trkpt>
      <trkpt lat="24.765842" lon="110.437247"><ele>124</ele><time>2026-01-25T03:35:00Z</time></trkpt>
      <trkpt lat="24.765459" lon="110.438108"><ele>124</ele><time>2026-01-25T03:36:12Z</time></trkpt>
      <trkpt lat="24.765484" lon="110.438719"><ele>123</ele><time>2026-01-25T03:36:56Z</time></trkpt>
      <trkpt lat="24.765593" lon="110.438685"><ele>123</ele><time>2026-01-25T03:37:07Z</time></trkpt>
      <trkpt lat="24.765714" lon="110.438853"><ele>123</ele><time>2026-01-25T03:37:22Z</time></trkpt>
      <trkpt lat="24.765393" lon="110.439204"><ele>124</ele><time>2026-01-25T03:37:59Z</time></trkpt>
      <trkpt lat="24.765295" lon="110.43945"><ele>124</ele><time>2026-01-25T03:38:18Z</time></trkpt>
      <trkpt lat="24.765102" lon="110.440375"><ele>122</ele><time>2026-01-25T03:39:26Z</time></trkpt>
      <trkpt lat="24.765262" lon="110.440649"><ele>123</ele><time>2026-01-25T03:39:51Z</time></trkpt>
      <trkpt lat="24.765013" lon="110.441063"><ele>123</ele><time>2026-01-25T03:40:28Z</time></trkpt>
      <trkpt lat="24.764843" lon="110.441696"><ele>123</ele><time>2026-01-25T03:41:24Z</time></trkpt>
      <trkpt lat="24.764424" lon="110.442694"><ele>123</ele><time>2026-01-25T03:42:46Z</time></trkpt>
      <trkpt lat="24.764154" lon="110.443099"><ele>124</ele><time>2026-01-25T03:43:22Z</time></trkpt>
      <trkpt lat="24.763917" lon="110.443333"><ele>124</ele><time>2026-01-25T03:43:47Z</time></trkpt>
      <trkpt lat="24.763275" lon="110.443754"><ele>124</ele><time>2026-01-25T03:44:55Z</time></trkpt>
      <trkpt lat="24.762891" lon="110.443885"><ele>124</ele><time>2026-01-25T03:45:29Z</time></trkpt>
      <trkpt lat="24.762651" lon="110.444121"><ele>123</ele><time>2026-01-25T03:45:56Z</time></trkpt>
      <trkpt lat="24.762271" lon="110.444156"><ele>123</ele><time>2026-01-25T03:46:27Z</time></trkpt>
      <trkpt lat="24.762253" lon="110.444367"><ele>123</ele><time>2026-01-25T03:46:42Z</time></trkpt>
      <trkpt lat="24.762774" lon="110.445051"><ele>125</ele><time>2026-01-25T03:47:51Z</time></trkpt>
      <trkpt lat="24.76277" lon="110.445145"><ele>124</ele><time>2026-01-25T03:48:01Z</time></trkpt>
      <trkpt lat="24.762519" lon="110.445326"><ele>125</ele><time>2026-01-25T03:48:28Z</time></trkpt>
      <trkpt lat="24.761286" lon="110.445885"><ele>124</ele><time>2026-01-25T03:50:14Z</time></trkpt>
      <trkpt lat="24.761136" lon="110.446281"><ele>124</ele><time>2026-01-25T03:50:48Z</time></trkpt>
      <trkpt lat="24.760618" lon="110.447034"><ele>123</ele><time>2026-01-25T03:52:00Z</time></trkpt>
      <trkpt lat="24.759805" lon="110.447487"><ele>123</ele><time>2026-01-25T03:53:25Z</time></trkpt>
      <trkpt lat="24.759457" lon="110.447384"><ele>125</ele><time>2026-01-25T03:53:54Z</time></trkpt>
      <trkpt lat="24.759121" lon="110.447193"><ele>124</ele><time>2026-01-25T03:54:22Z</time></trkpt>
      <trkpt lat="24.758764" lon="110.446711"><ele>124</ele><time>2026-01-25T03:55:06Z</time></trkpt>
      <trkpt lat="24.758607" lon="110.446838"><ele>123</ele><time>2026-01-25T03:55:20Z</time></trkpt>
      <trkpt lat="24.758411" lon="110.446761"><ele>124</ele><time>2026-01-25T03:55:36Z</time></trkpt>
      <trkpt lat="24.758115" lon="110.446857"><ele>122</ele><time>2026-01-25T03:56:00Z</time></trkpt>
      <trkpt lat="24.757554" lon="110.447382"><ele>122</ele><time>2026-01-25T03:56:55Z</time></trkpt>
      <trkpt lat="24.757024" lon="110.448054"><ele>121</ele><time>2026-01-25T03:57:59Z</time></trkpt>
      <trkpt lat="24.756932" lon="110.4483"><ele>121</ele><time>2026-01-25T03:58:20Z</time></trkpt>
      <trkpt lat="24.75675" lon="110.448483"><ele>123</ele><time>2026-01-25T03:58:41Z</time></trkpt>
      <trkpt lat="24.756506" lon="110.44849"><ele>123</ele><time>2026-01-25T03:59:03Z</time></trkpt>
      <trkpt lat="24.756067" lon="110.448619"><ele>123</ele><time>2026-01-25T03:59:43Z</time></trkpt>
      <trkpt lat="24.755697" lon="110.448896"><ele>122</ele><time>2026-01-25T04:00:20Z</time></trkpt>
      <trkpt lat="24.755364" lon="110.449311"><ele>122</ele><time>2026-01-25T04:01:02Z</time></trkpt>
      <trkpt lat="24.755357" lon="110.449715"><ele>121</ele><time>2026-01-25T04:01:33Z</time></trkpt>
      <trkpt lat="24.755285" lon="110.449976"><ele>124</ele><time>2026-01-25T04:01:55Z</time></trkpt>
      <trkpt lat="24.755094" lon="110.450168"><ele>123</ele><time>2026-01-25T04:02:17Z</time></trkpt>
      <trkpt lat="24.75486" lon="110.450581"><ele>122</ele><time>2026-01-25T04:02:55Z</time></trkpt>
      <trkpt lat="24.754817" lon="110.450819"><ele>122</ele><time>2026-01-25T04:03:11Z</time></trkpt>
      <trkpt lat="24.754695" lon="110.450992"><ele>122</ele><time>2026-01-25T04:03:29Z</time></trkpt>
      <trkpt lat="24.75451" lon="110.451102"><ele>123</ele><time>2026-01-25T04:03:45Z</time></trkpt>
      <trkpt lat="24.754075" lon="110.451773"><ele>121</ele><time>2026-01-25T04:04:48Z</time></trkpt>
      <trkpt lat="24.753999" lon="110.452251"><ele>122</ele><time>2026-01-25T04:05:24Z</time></trkpt>
      <trkpt lat="24.753655" lon="110.452464"><ele>123</ele><time>2026-01-25T04:05:56Z</time></trkpt>
      <trkpt lat="24.753394" lon="110.452976"><ele>123</ele><time>2026-01-25T04:06:40Z</time></trkpt>
      <trkpt lat="24.753228" lon="110.453084"><ele>122</ele><time>2026-01-25T04:06:57Z</time></trkpt>
      <trkpt lat="24.753094" lon="110.453346"><ele>122</ele><time>2026-01-25T04:07:19Z</time></trkpt>
      <trkpt lat="24.753041" lon="110.453612"><ele>123</ele><time>2026-01-25T04:07:41Z</time></trkpt>
      <trkpt lat="24.752447" lon="110.454498"><ele>122</ele><time>2026-01-25T04:09:02Z</time></trkpt>
      <trkpt lat="24.752279" lon="110.454843"><ele>121</ele><time>2026-01-25T04:09:31Z</time></trkpt>
      <trkpt lat="24.752089" lon="110.455697"><ele>122</ele><time>2026-01-25T04:10:33Z</time></trkpt>
      <trkpt lat="24.752049" lon="110.456748"><ele>123</ele><time>2026-01-25T04:11:48Z</time></trkpt>
      <trkpt lat="24.752102" lon="110.456963"><ele>123</ele><time>2026-01-25T04:12:10Z</time></trkpt>
      <trkpt lat="24.752009" lon="110.457366"><ele>122</ele><time>2026-01-25T04:12:40Z</time></trkpt>
      <trkpt lat="24.752102" lon="110.45748"><ele>122</ele><time>2026-01-25T04:20:25Z</time></trkpt>
      <trkpt lat="24.751939" lon="110.457435"><ele>124</ele><time>2026-01-25T04:20:53Z</time></trkpt>
      <trkpt lat="24.751623" lon="110.457625"><ele>123</ele><time>2026-01-25T04:21:25Z</time></trkpt>
      <trkpt lat="24.751064" lon="110.458156"><ele>124</ele><time>2026-01-25T04:22:23Z</time></trkpt>
      <trkpt lat="24.750901" lon="110.458435"><ele>123</ele><time>2026-01-25T04:22:47Z</time></trkpt>
      <trkpt lat="24.750481" lon="110.458591"><ele>122</ele><time>2026-01-25T04:23:24Z</time></trkpt>
      <trkpt lat="24.750001" lon="110.459015"><ele>121</ele><time>2026-01-25T04:24:13Z</time></trkpt>
      <trkpt lat="24.749492" lon="110.459575"><ele>121</ele><time>2026-01-25T04:25:11Z</time></trkpt>
      <trkpt lat="24.749503" lon="110.459876"><ele>121</ele><time>2026-01-25T04:25:31Z</time></trkpt>
      <trkpt lat="24.748945" lon="110.460928"><ele>123</ele><time>2026-01-25T04:26:55Z</time></trkpt>
      <trkpt lat="24.748815" lon="110.461483"><ele>120</ele><time>2026-01-25T04:27:37Z</time></trkpt>
      <trkpt lat="24.748734" lon="110.461517"><ele>121</ele><time>2026-01-25T04:27:45Z</time></trkpt>
      <trkpt lat="24.748551" lon="110.461422"><ele>121</ele><time>2026-01-25T04:28:01Z</time></trkpt>
      <trkpt lat="24.748294" lon="110.461469"><ele>121</ele><time>2026-01-25T04:28:22Z</time></trkpt>
      <trkpt lat="24.747945" lon="110.461804"><ele>121</ele><time>2026-01-25T04:28:58Z</time></trkpt>
      <trkpt lat="24.747616" lon="110.462521"><ele>121</ele><time>2026-01-25T04:30:02Z</time></trkpt>
      <trkpt lat="24.747619" lon="110.462795"><ele>121</ele><time>2026-01-25T04:30:22Z</time></trkpt>
      <trkpt lat="24.747545" lon="110.462961"><ele>120</ele><time>2026-01-25T04:30:34Z</time></trkpt>
      <trkpt lat="24.747148" lon="110.463415"><ele>120</ele><time>2026-01-25T04:31:18Z</time></trkpt>
      <trkpt lat="24.747044" lon="110.463707"><ele>119</ele><time>2026-01-25T04:31:42Z</time></trkpt>
      <trkpt lat="24.746613" lon="110.464221"><ele>119</ele><time>2026-01-25T04:32:30Z</time></trkpt>
      <trkpt lat="24.746523" lon="110.464547"><ele>119</ele><time>2026-01-25T04:32:54Z</time></trkpt>
      <trkpt lat="24.746312" lon="110.464874"><ele>119</ele><time>2026-01-25T04:33:22Z</time></trkpt>
      <trkpt lat="24.745838" lon="110.465362"><ele>119</ele><time>2026-01-25T04:34:15Z</time></trkpt>
      <trkpt lat="24.74551" lon="110.465808"><ele>118</ele><time>2026-01-25T04:34:53Z</time></trkpt>
      <trkpt lat="24.74544" lon="110.466176"><ele>119</ele><time>2026-01-25T04:35:22Z</time></trkpt>
      <trkpt lat="24.745666" lon="110.466484"><ele>121</ele><time>2026-01-25T04:35:47Z</time></trkpt>
      <trkpt lat="24.745789" lon="110.466471"><ele>120</ele><time>2026-01-25T04:35:57Z</time></trkpt>
      <trkpt lat="24.745948" lon="110.466589"><ele>121</ele><time>2026-01-25T04:36:15Z</time></trkpt>
      <trkpt lat="24.745904" lon="110.46679"><ele>121</ele><time>2026-01-25T04:36:36Z</time></trkpt>
      <trkpt lat="24.745626" lon="110.466789"><ele>120</ele><time>2026-01-25T04:37:05Z</time></trkpt>
      <trkpt lat="24.745229" lon="110.467282"><ele>118</ele><time>2026-01-25T04:37:53Z</time></trkpt>
      <trkpt lat="24.745068" lon="110.467187"><ele>120</ele><time>2026-01-25T04:38:13Z</time></trkpt>
      <trkpt lat="24.744737" lon="110.467126"><ele>120</ele><time>2026-01-25T04:38:41Z</time></trkpt>
      <trkpt lat="24.7444" lon="110.467489"><ele>119</ele><time>2026-01-25T04:39:15Z</time></trkpt>
      <trkpt lat="24.744115" lon="110.467937"><ele>120</ele><time>2026-01-25T04:39:54Z</time></trkpt>
      <trkpt lat="24.74387" lon="110.468672"><ele>119</ele><time>2026-01-25T04:40:51Z</time></trkpt>
      <trkpt lat="24.743827" lon="110.469119"><ele>116</ele><time>2026-01-25T04:41:26Z</time></trkpt>
      <trkpt lat="24.743913" lon="110.469586"><ele>118</ele><time>2026-01-25T04:41:56Z</time></trkpt>
      <trkpt lat="24.744033" lon="110.469839"><ele>120</ele><time>2026-01-25T04:42:20Z</time></trkpt>
      <trkpt lat="24.744178" lon="110.46998"><ele>119</ele><time>2026-01-25T04:42:36Z</time></trkpt>
      <trkpt lat="24.744318" lon="110.470685"><ele>119</ele><time>2026-01-25T04:43:23Z</time></trkpt>
      <trkpt lat="24.744255" lon="110.471032"><ele>120</ele><time>2026-01-25T04:43:47Z</time></trkpt>
      <trkpt lat="24.744389" lon="110.471287"><ele>119</ele><time>2026-01-25T04:44:07Z</time></trkpt>
      <trkpt lat="24.744421" lon="110.471519"><ele>120</ele><time>2026-01-25T04:44:23Z</time></trkpt>
      <trkpt lat="24.744328" lon="110.471843"><ele>120</ele><time>2026-01-25T04:44:47Z</time></trkpt>
      <trkpt lat="24.74448" lon="110.472519"><ele>120</ele><time>2026-01-25T04:45:32Z</time></trkpt>
      <trkpt lat="24.744587" lon="110.472655"><ele>121</ele><time>2026-01-25T04:45:44Z</time></trkpt>
      <trkpt lat="24.744563" lon="110.473286"><ele>120</ele><time>2026-01-25T04:46:28Z</time></trkpt>
      <trkpt lat="24.744803" lon="110.474292"><ele>119</ele><time>2026-01-25T04:47:41Z</time></trkpt>
      <trkpt lat="24.744774" lon="110.474451"><ele>118</ele><time>2026-01-25T04:47:55Z</time></trkpt>
      <trkpt lat="24.74435" lon="110.475231"><ele>120</ele><time>2026-01-25T04:49:04Z</time></trkpt>
      <trkpt lat="24.744388" lon="110.475455"><ele>121</ele><time>2026-01-25T04:49:21Z</time></trkpt>
      <trkpt lat="24.744305" lon="110.475617"><ele>120</ele><time>2026-01-25T04:49:34Z</time></trkpt>
      <trkpt lat="24.744327" lon="110.475787"><ele>120</ele><time>2026-01-25T04:49:47Z</time></trkpt>
      <trkpt lat="24.744029" lon="110.475757"><ele>117</ele><time>2026-01-25T04:50:38Z</time></trkpt>
      <trkpt lat="24.743854" lon="110.475883"><ele>119</ele><time>2026-01-25T04:50:57Z</time></trkpt>
      <trkpt lat="24.743062" lon="110.476127"><ele>119</ele><time>2026-01-25T04:52:08Z</time></trkpt>
      <trkpt lat="24.742293" lon="110.476717"><ele>118</ele><time>2026-01-25T04:53:26Z</time></trkpt>
      <trkpt lat="24.742031" lon="110.477054"><ele>118</ele><time>2026-01-25T04:54:00Z</time></trkpt>
      <trkpt lat="24.741977" lon="110.477052"><ele>119</ele><time>2026-01-25T04:54:05Z</time></trkpt>
      <trkpt lat="24.741389" lon="110.476326"><ele>120</ele><time>2026-01-25T04:55:20Z</time></trkpt>
      <trkpt lat="24.741253" lon="110.476358"><ele>120</ele><time>2026-01-25T04:55:31Z</time></trkpt>
      <trkpt lat="24.74104" lon="110.476716"><ele>119</ele><time>2026-01-25T04:56:03Z</time></trkpt>
      <trkpt lat="24.740855" lon="110.476902"><ele>120</ele><time>2026-01-25T04:56:26Z</time></trkpt>
      <trkpt lat="24.740802" lon="110.477057"><ele>122</ele><time>2026-01-25T04:56:37Z</time></trkpt>
      <trkpt lat="24.740812" lon="110.477528"><ele>125</ele><time>2026-01-25T04:57:09Z</time></trkpt>
      <trkpt lat="24.740914" lon="110.477782"><ele>122</ele><time>2026-01-25T04:57:31Z</time></trkpt>
      <trkpt lat="24.740892" lon="110.478055"><ele>120</ele><time>2026-01-25T04:57:52Z</time></trkpt>
      <trkpt lat="24.740981" lon="110.478309"><ele>120</ele><time>2026-01-25T04:58:13Z</time></trkpt>
      <trkpt lat="24.740899" lon="110.478631"><ele>119</ele><time>2026-01-25T04:58:38Z</time></trkpt>
      <trkpt lat="24.740477" lon="110.478815"><ele>126</ele><time>2026-01-25T04:59:15Z</time></trkpt>
      <trkpt lat="24.740402" lon="110.479202"><ele>126</ele><time>2026-01-25T04:59:42Z</time></trkpt>
      <trkpt lat="24.740278" lon="110.479373"><ele>126</ele><time>2026-01-25T04:59:59Z</time></trkpt>
      <trkpt lat="24.740014" lon="110.479529"><ele>127</ele><time>2026-01-25T05:00:23Z</time></trkpt>
      <trkpt lat="24.739665" lon="110.479553"><ele>127</ele><time>2026-01-25T05:00:52Z</time></trkpt>
      <trkpt lat="24.73856" lon="110.480689"><ele>120</ele><time>2026-01-25T05:03:01Z</time></trkpt>
      <trkpt lat="24.738088" lon="110.481057"><ele>122</ele><time>2026-01-25T05:03:48Z</time></trkpt>
      <trkpt lat="24.737747" lon="110.481202"><ele>122</ele><time>2026-01-25T05:04:21Z</time></trkpt>
      <trkpt lat="24.737532" lon="110.481615"><ele>120</ele><time>2026-01-25T05:04:57Z</time></trkpt>
      <trkpt lat="24.737784" lon="110.481893"><ele>121</ele><time>2026-01-25T05:05:32Z</time></trkpt>
      <trkpt lat="24.737768" lon="110.482065"><ele>121</ele><time>2026-01-25T05:05:43Z</time></trkpt>
      <trkpt lat="24.737554" lon="110.482371"><ele>121</ele><time>2026-01-25T05:06:10Z</time></trkpt>
      <trkpt lat="24.737303" lon="110.482562"><ele>121</ele><time>2026-01-25T05:06:35Z</time></trkpt>
      <trkpt lat="24.737142" lon="110.482985"><ele>120</ele><time>2026-01-25T05:07:08Z</time></trkpt>
      <trkpt lat="24.736935" lon="110.483205"><ele>120</ele><time>2026-01-25T05:07:38Z</time></trkpt>
    </trkseg>
  </trk>
</gpx>
