<?xml version="1.0" encoding="UTF-8"?>
<gpx version="1.1" creator="MyWorld" xmlns="http://www.topografix.com/GPX/1/1">
  <metadata><name>衢州江郎山</name></metadata>
  <trk>
    <name>衢州江郎山</name>
    <trkseg>
      <trkpt lat="28.533397" lon="118.565776"><ele>426</ele><time>2026-01-03T00:45:14Z</time></trkpt>
      <trkpt lat="28.533271" lon="118.565685"><ele>425</ele><time>2026-01-03T00:45:28Z</time></trkpt>
      <trkpt lat="28.533264" lon="118.565444"><ele>431</ele><time>2026-01-03T00:45:43Z</time></trkpt>
      <trkpt lat="28.533079" lon="118.56516"><ele>431</ele><time>2026-01-03T00:46:09Z</time></trkpt>
      <trkpt lat="28.532673" lon="118.564928"><ele>435</ele><time>2026-01-03T00:46:46Z</time></trkpt>
      <trkpt lat="28.532576" lon="118.564806"><ele>435</ele><time>2026-01-03T00:46:58Z</time></trkpt>
      <trkpt lat="28.532602" lon="118.564678"><ele>434</ele><time>2026-01-03T00:47:07Z</time></trkpt>
      <trkpt lat="28.532822" lon="118.564442"><ele>427</ele><time>2026-01-03T00:47:31Z</time></trkpt>
      <trkpt lat="28.533021" lon="118.564097"><ele>427</ele><time>2026-01-03T00:48:01Z</time></trkpt>
      <trkpt lat="28.533011" lon="118.563985"><ele>425</ele><time>2026-01-03T00:48:10Z</time></trkpt>
      <trkpt lat="28.532909" lon="118.56409"><ele>431</ele><time>2026-01-03T00:48:37Z</time></trkpt>
      <trkpt lat="28.532705" lon="118.564084"><ele>439</ele><time>2026-01-03T00:49:05Z</time></trkpt>
      <trkpt lat="28.532561" lon="118.564157"><ele>447</ele><time>2026-01-03T00:49:32Z</time></trkpt>
      <trkpt lat="28.532086" lon="118.564538"><ele>460</ele><time>2026-01-03T00:51:02Z</time></trkpt>
      <trkpt lat="28.531997" lon="118.564503"><ele>463</ele><time>2026-01-03T00:51:16Z</time></trkpt>
      <trkpt lat="28.531907" lon="118.564378"><ele>462</ele><time>2026-01-03T00:52:00Z</time></trkpt>
      <trkpt lat="28.531884" lon="118.564133"><ele>462</ele><time>2026-01-03T00:52:16Z</time></trkpt>
      <trkpt lat="28.531863" lon="118.564235"><ele>460</ele><time>2026-01-03T00:52:19Z</time></trkpt>
      <trkpt lat="28.531944" lon="118.564228"><ele>459</ele><time>2026-01-03T00:52:20Z</time></trkpt>
      <trkpt lat="28.531931" lon="118.564059"><ele>457</ele><time>2026-01-03T00:52:39Z</time></trkpt>
      <trkpt lat="28.531688" lon="118.563652"><ele>459</ele><time>2026-01-03T00:53:29Z</time></trkpt>
      <trkpt lat="28.531386" lon="118.56361"><ele>469</ele><time>2026-01-03T00:53:57Z</time></trkpt>
      <trkpt lat="28.531368" lon="118.563557"><ele>470</ele><time>2026-01-03T00:54:12Z</time></trkpt>
      <trkpt lat="28.531301" lon="118.563618"><ele>473</ele><time>2026-01-03T00:54:26Z</time></trkpt>
      <trkpt lat="28.531015" lon="118.563377"><ele>475</ele><time>2026-01-03T00:56:13Z</time></trkpt>
      <trkpt lat="28.531233" lon="118.56303"><ele>474</ele><time>2026-01-03T00:57:19Z</time></trkpt>
      <trkpt lat="28.531285" lon="118.562765"><ele>477</ele><time>2026-01-03T00:57:53Z</time></trkpt>
      <trkpt lat="28.5312" lon="118.562775"><ele>478</ele><time>2026-01-03T00:58:05Z</time></trkpt>
      <trkpt lat="28.530518" lon="118.563378"><ele>490</ele><time>2026-01-03T01:00:06Z</time></trkpt>
      <trkpt lat="28.530422" lon="118.563552"><ele>498</ele><time>2026-01-03T01:01:05Z</time></trkpt>
      <trkpt lat="28.530329" lon="118.563516"><ele>497</ele><time>2026-01-03T01:01:19Z</time></trkpt>
      <trkpt lat="28.530234" lon="118.563557"><ele>496</ele><time>2026-01-03T01:01:34Z</time></trkpt>
      <trkpt lat="28.530259" lon="118.563603"><ele>498</ele><time>2026-01-03T01:01:43Z</time></trkpt>
      <trkpt lat="28.530172" lon="118.56355"><ele>499</ele><time>2026-01-03T01:01:52Z</time></trkpt>
      <trkpt lat="28.529991" lon="118.563593"><ele>501</ele><time>2026-01-03T01:02:13Z</time></trkpt>
      <trkpt lat="28.529903" lon="118.563691"><ele>505</ele><time>2026-01-03T01:02:31Z</time></trkpt>
      <trkpt lat="28.529653" lon="118.563657"><ele>506</ele><time>2026-01-03T01:02:54Z</time></trkpt>
      <trkpt lat="28.529332" lon="118.563463"><ele>505</ele><time>2026-01-03T01:03:20Z</time></trkpt>
      <trkpt lat="28.529358" lon="118.563597"><ele>504</ele><time>2026-01-03T01:03:28Z</time></trkpt>
      <trkpt lat="28.528763" lon="118.563054"><ele>493</ele><time>2026-01-03T01:04:04Z</time></trkpt>
      <trkpt lat="28.528784" lon="118.563119"><ele>492</ele><time>2026-01-03T01:04:05Z</time></trkpt>
      <trkpt lat="28.528525" lon="118.562936"><ele>487</ele><time>2026-01-03T01:04:21Z</time></trkpt>
      <trkpt lat="28.528393" lon="118.562999"><ele>485</ele><time>2026-01-03T01:04:42Z</time></trkpt>
      <trkpt lat="28.52835" lon="118.562958"><ele>486</ele><time>2026-01-03T01:04:44Z</time></trkpt>
      <trkpt lat="28.528761" lon="118.563849"><ele>513</ele><time>2026-01-03T01:05:22Z</time></trkpt>
      <trkpt lat="28.528638" lon="118.563642"><ele>525</ele><time>2026-01-03T01:05:41Z</time></trkpt>
      <trkpt lat="28.528931" lon="118.564318"><ele>541</ele><time>2026-01-03T01:06:18Z</time></trkpt>
      <trkpt lat="28.528891" lon="118.564347"><ele>543</ele><time>2026-01-03T01:06:28Z</time></trkpt>
      <trkpt lat="28.528985" lon="118.564678"><ele>560</ele><time>2026-01-03T01:06:52Z</time></trkpt>
      <trkpt lat="28.528855" lon="118.564566"><ele>565</ele><time>2026-01-03T01:07:04Z</time></trkpt>
      <trkpt lat="28.528891" lon="118.564792"><ele>574</ele><time>2026-01-03T01:07:52Z</time></trkpt>
      <trkpt lat="28.528701" lon="118.564723"><ele>584</ele><time>2026-01-03T01:08:52Z</time></trkpt>
      <trkpt lat="28.528697" lon="118.564872"><ele>585</ele><time>2026-01-03T01:09:25Z</time></trkpt>
      <trkpt lat="28.528623" lon="118.564804"><ele>588</ele><time>2026-01-03T01:09:30Z</time></trkpt>
      <trkpt lat="28.52871" lon="118.564833"><ele>588</ele><time>2026-01-03T01:09:38Z</time></trkpt>
      <trkpt lat="28.528681" lon="118.564997"><ele>590</ele><time>2026-01-03T01:09:50Z</time></trkpt>
      <trkpt lat="28.528447" lon="118.565168"><ele>590</ele><time>2026-01-03T01:11:01Z</time></trkpt>
      <trkpt lat="28.528541" lon="118.565126"><ele>590</ele><time>2026-01-03T01:11:58Z</time></trkpt>
      <trkpt lat="28.528535" lon="118.56501"><ele>590</ele><time>2026-01-03T01:12:20Z</time></trkpt>
      <trkpt lat="28.528727" lon="118.565249"><ele>593</ele><time>2026-01-03T01:14:14Z</time></trkpt>
      <trkpt lat="28.528795" lon="118.56556"><ele>605</ele><time>2026-01-03T01:16:12Z</time></trkpt>
      <trkpt lat="28.528768" lon="118.565872"><ele>614</ele><time>2026-01-03T01:17:17Z</time></trkpt>
      <trkpt lat="28.528917" lon="118.566031"><ele>615</ele><time>2026-01-03T01:18:28Z</time></trkpt>
      <trkpt lat="28.529092" lon="118.566027"><ele>613</ele><time>2026-01-03T01:19:09Z</time></trkpt>
      <trkpt lat="28.529124" lon="118.565631"><ele>613</ele><time>2026-01-03T01:20:26Z</time></trkpt>
      <trkpt lat="28.52918" lon="118.56577"><ele>618</ele><time>2026-01-03T01:21:04Z</time></trkpt>
      <trkpt lat="28.529402" lon="118.565832"><ele>614</ele><time>2026-01-03T01:22:15Z</time></trkpt>
      <trkpt lat="28.529396" lon="118.565999"><ele>611</ele><time>2026-01-03T01:22:31Z</time></trkpt>
      <trkpt lat="28.529383" lon="118.565837"><ele>611</ele><time>2026-01-03T01:22:54Z</time></trkpt>
      <trkpt lat="28.529577" lon="118.565724"><ele>614</ele><time>2026-01-03T01:23:56Z</time></trkpt>
      <trkpt lat="28.529765" lon="118.566051"><ele>607</ele><time>2026-01-03T01:25:01Z</time></trkpt>
      <trkpt lat="28.530126" lon="118.566082"><ele>603</ele><time>2026-01-03T01:25:24Z</time></trkpt>
      <trkpt lat="28.530054" lon="118.56629"><ele>601</ele><time>2026-01-03T01:25:38Z</time></trkpt>
      <trkpt lat="28.529833" lon="118.566307"><ele>615</ele><time>2026-01-03T01:26:06Z</time></trkpt>
      <trkpt lat="28.529818" lon="118.566192"><ele>610</ele><time>2026-01-03T01:26:27Z</time></trkpt>
      <trkpt lat="28.529761" lon="118.566361"><ele>622</ele><time>2026-01-03T01:27:02Z</time></trkpt>
      <trkpt lat="28.529862" lon="118.566283"><ele>617</ele><time>2026-01-03T01:27:10Z</time></trkpt>
      <trkpt lat="28.529765" lon="118.56622"><ele>636</ele><time>2026-01-03T01:27:26Z</time></trkpt>
      <trkpt lat="28.529985" lon="118.566179"><ele>621</ele><time>2026-01-03T01:28:00Z</time></trkpt>
      <trkpt lat="28.529882" lon="118.566338"><ele>651</ele><time>2026-01-03T01:28:28Z</time></trkpt>
      <trkpt lat="28.529322" lon="118.566609"><ele>727</ele><time>2026-01-03T01:28:53Z</time></trkpt>
      <trkpt lat="28.529451" lon="118.56656"><ele>753</ele><time>2026-01-03T01:29:42Z</time></trkpt>
      <trkpt lat="28.529313" lon="118.566576"><ele>753</ele><time>2026-01-03T01:30:04Z</time></trkpt>
      <trkpt lat="28.529203" lon="118.566464"><ele>763</ele><time>2026-01-03T01:30:35Z</time></trkpt>
      <trkpt lat="28.529172" lon="118.566364"><ele>767</ele><time>2026-01-03T01:30:57Z</time></trkpt>
      <trkpt lat="28.529304" lon="118.566419"><ele>773</ele><time>2026-01-03T01:31:25Z</time></trkpt>
      <trkpt lat="28.529323" lon="118.56637"><ele>774</ele><time>2026-01-03T01:31:41Z</time></trkpt>
      <trkpt lat="28.529193" lon="118.566294"><ele>775</ele><time>2026-01-03T01:32:41Z</time></trkpt>
      <trkpt lat="28.529249" lon="118.566212"><ele>774</ele><time>2026-01-03T01:33:30Z</time></trkpt>
      <trkpt lat="28.529586" lon="118.566154"><ele>778</ele><time>2026-01-03T01:34:18Z</time></trkpt>
      <trkpt lat="28.529866" lon="118.565926"><ele>782</ele><time>2026-01-03T01:35:06Z</time></trkpt>
      <trkpt lat="28.529833" lon="118.565849"><ele>783</ele><time>2026-01-03T01:35:22Z</time></trkpt>
      <trkpt lat="28.529669" lon="118.56593"><ele>798</ele><time>2026-01-03T01:36:26Z</time></trkpt>
      <trkpt lat="28.529588" lon="118.565877"><ele>803</ele><time>2026-01-03T01:36:53Z</time></trkpt>
      <trkpt lat="28.529395" lon="118.565891"><ele>814</ele><time>2026-01-03T01:37:52Z</time></trkpt>
      <trkpt lat="28.52935" lon="118.56587"><ele>815</ele><time>2026-01-03T01:38:00Z</time></trkpt>
      <trkpt lat="28.529359" lon="118.565764"><ele>815</ele><time>2026-01-03T01:38:22Z</time></trkpt>
      <trkpt lat="28.529455" lon="118.56577"><ele>814</ele><time>2026-01-03T01:39:01Z</time></trkpt>
      <trkpt lat="28.529398" lon="118.565736"><ele>815</ele><time>2026-01-03T01:39:04Z</time></trkpt>
      <trkpt lat="28.529352" lon="118.565738"><ele>818</ele><time>2026-01-03T01:39:34Z</time></trkpt>
      <trkpt lat="28.529344" lon="118.565869"><ele>819</ele><time>2026-01-03T01:39:42Z</time></trkpt>
      <trkpt lat="28.529344" lon="118.565715"><ele>816</ele><time>2026-01-03T01:41:14Z</time></trkpt>
      <trkpt lat="28.52934" lon="118.565825"><ele>817</ele><time>2026-01-03T01:57:43Z</time></trkpt>
      <trkpt lat="28.529402" lon="118.565889"><ele>817</ele><time>2026-01-03T01:57:58Z</time></trkpt>
      <trkpt lat="28.52972" lon="118.56594"><ele>797</ele><time>2026-01-03T01:59:41Z</time></trkpt>
      <trkpt lat="28.52976" lon="118.565843"><ele>789</ele><time>2026-01-03T02:00:06Z</time></trkpt>
      <trkpt lat="28.529835" lon="118.565841"><ele>784</ele><time>2026-01-03T02:00:40Z</time></trkpt>
      <trkpt lat="28.529735" lon="118.565418"><ele>763</ele><time>2026-01-03T02:02:34Z</time></trkpt>
      <trkpt lat="28.529667" lon="118.565333"><ele>762</ele><time>2026-01-03T02:02:46Z</time></trkpt>
      <trkpt lat="28.529533" lon="118.565273"><ele>760</ele><time>2026-01-03T02:03:06Z</time></trkpt>
      <trkpt lat="28.529343" lon="118.565454"><ele>763</ele><time>2026-01-03T02:03:45Z</time></trkpt>
      <trkpt lat="28.52912" lon="118.565553"><ele>774</ele><time>2026-01-03T02:04:31Z</time></trkpt>
      <trkpt lat="28.529006" lon="118.565725"><ele>785</ele><time>2026-01-03T02:04:58Z</time></trkpt>
      <trkpt lat="28.529058" lon="118.565884"><ele>785</ele><time>2026-01-03T02:05:12Z</time></trkpt>
      <trkpt lat="28.529279" lon="118.566086"><ele>778</ele><time>2026-01-03T02:06:12Z</time></trkpt>
      <trkpt lat="28.529229" lon="118.56623"><ele>777</ele><time>2026-01-03T02:06:38Z</time></trkpt>
      <trkpt lat="28.529314" lon="118.566348"><ele>773</ele><time>2026-01-03T02:07:16Z</time></trkpt>
      <trkpt lat="28.529185" lon="118.566285"><ele>767</ele><time>2026-01-03T02:08:06Z</time></trkpt>
      <trkpt lat="28.529237" lon="118.566432"><ele>761</ele><time>2026-01-03T02:09:04Z</time></trkpt>
      <trkpt lat="28.529442" lon="118.566564"><ele>757</ele><time>2026-01-03T02:09:42Z</time></trkpt>
      <trkpt lat="28.529415" lon="118.566607"><ele>754</ele><time>2026-01-03T02:10:26Z</time></trkpt>
      <trkpt lat="28.529369" lon="118.566509"><ele>749</ele><time>2026-01-03T02:10:37Z</time></trkpt>
      <trkpt lat="28.529486" lon="118.566597"><ele>743</ele><time>2026-01-03T02:11:07Z</time></trkpt>
      <trkpt lat="28.529674" lon="118.566586"><ele>736</ele><time>2026-01-03T02:11:51Z</time></trkpt>
      <trkpt lat="28.529739" lon="118.566508"><ele>724</ele><time>2026-01-03T02:12:26Z</time></trkpt>
      <trkpt lat="28.529695" lon="118.566422"><ele>719</ele><time>2026-01-03T02:12:59Z</time></trkpt>
      <trkpt lat="28.52986" lon="118.566543"><ele>704</ele><time>2026-01-03T02:14:46Z</time></trkpt>
      <trkpt lat="28.529758" lon="118.566464"><ele>699</ele><time>2026-01-03T02:15:42Z</time></trkpt>
      <trkpt lat="28.529897" lon="118.566415"><ele>699</ele><time>2026-01-03T02:16:26Z</time></trkpt>
      <trkpt lat="28.529579" lon="118.566418"><ele>698</ele><time>2026-01-03T02:17:39Z</time></trkpt>
      <trkpt lat="28.529895" lon="118.566268"><ele>697</ele><time>2026-01-03T02:17:52Z</time></trkpt>
      <trkpt lat="28.529666" lon="118.566313"><ele>697</ele><time>2026-01-03T02:17:56Z</time></trkpt>
      <trkpt lat="28.52981" lon="118.566397"><ele>700</ele><time>2026-01-03T02:18:20Z</time></trkpt>
      <trkpt lat="28.529976" lon="118.566394"><ele>700</ele><time>2026-01-03T02:18:46Z</time></trkpt>
      <trkpt lat="28.529974" lon="118.566339"><ele>681</ele><time>2026-01-03T02:19:51Z</time></trkpt>
      <trkpt lat="28.530028" lon="118.566341"><ele>683</ele><time>2026-01-03T02:20:01Z</time></trkpt>
      <trkpt lat="28.529936" lon="118.566364"><ele>672</ele><time>2026-01-03T02:20:36Z</time></trkpt>
      <trkpt lat="28.529969" lon="118.566328"><ele>667</ele><time>2026-01-03T02:20:49Z</time></trkpt>
      <trkpt lat="28.530099" lon="118.56638"><ele>667</ele><time>2026-01-03T02:21:14Z</time></trkpt>
      <trkpt lat="28.530196" lon="118.566266"><ele>646</ele><time>2026-01-03T02:22:30Z</time></trkpt>
      <trkpt lat="28.530328" lon="118.566236"><ele>632</ele><time>2026-01-03T02:23:17Z</time></trkpt>
      <trkpt lat="28.530414" lon="118.566039"><ele>628</ele><time>2026-01-03T02:23:53Z</time></trkpt>
      <trkpt lat="28.530631" lon="118.565958"><ele>606</ele><time>2026-01-03T02:26:17Z</time></trkpt>
      <trkpt lat="28.530565" lon="118.566057"><ele>598</ele><time>2026-01-03T02:27:31Z</time></trkpt>
      <trkpt lat="28.5306" lon="118.565928"><ele>571</ele><time>2026-01-03T02:27:57Z</time></trkpt>
      <trkpt lat="28.530675" lon="118.565991"><ele>584</ele><time>2026-01-03T02:28:23Z</time></trkpt>
      <trkpt lat="28.530767" lon="118.565827"><ele>559</ele><time>2026-01-03T02:29:03Z</time></trkpt>
      <trkpt lat="28.530871" lon="118.565821"><ele>563</ele><time>2026-01-03T02:29:36Z</time></trkpt>
      <trkpt lat="28.530994" lon="118.565659"><ele>559</ele><time>2026-01-03T02:30:23Z</time></trkpt>
      <trkpt lat="28.530649" lon="118.566145"><ele>559</ele><time>2026-01-03T02:31:56Z</time></trkpt>
      <trkpt lat="28.530868" lon="118.566047"><ele>550</ele><time>2026-01-03T02:32:46Z</time></trkpt>
      <trkpt lat="28.531015" lon="118.565901"><ele>542</ele><time>2026-01-03T02:33:28Z</time></trkpt>
      <trkpt lat="28.531146" lon="118.56567"><ele>534</ele><time>2026-01-03T02:34:22Z</time></trkpt>
      <trkpt lat="28.531159" lon="118.56528"><ele>532</ele><time>2026-01-03T02:35:19Z</time></trkpt>
      <trkpt lat="28.531278" lon="118.564866"><ele>520</ele><time>2026-01-03T02:36:23Z</time></trkpt>
      <trkpt lat="28.531333" lon="118.564379"><ele>509</ele><time>2026-01-03T02:37:36Z</time></trkpt>
      <trkpt lat="28.531466" lon="118.56434"><ele>505</ele><time>2026-01-03T02:38:26Z</time></trkpt>
      <trkpt lat="28.531468" lon="118.564235"><ele>500</ele><time>2026-01-03T02:38:44Z</time></trkpt>
      <trkpt lat="28.531557" lon="118.56437"><ele>496</ele><time>2026-01-03T02:39:08Z</time></trkpt>
      <trkpt lat="28.531517" lon="118.564448"><ele>497</ele><time>2026-01-03T02:39:25Z</time></trkpt>
      <trkpt lat="28.531553" lon="118.564608"><ele>493</ele><time>2026-01-03T02:40:02Z</time></trkpt>
      <trkpt lat="28.531698" lon="118.56482"><ele>483</ele><time>2026-01-03T02:40:50Z</time></trkpt>
      <trkpt lat="28.531831" lon="118.564752"><ele>477</ele><time>2026-01-03T02:41:07Z</time></trkpt>
      <trkpt lat="28.531903" lon="118.564552"><ele>471</ele><time>2026-01-03T02:41:49Z</time></trkpt>
      <trkpt lat="28.532095" lon="118.564519"><ele>462</ele><time>2026-01-03T02:42:23Z</time></trkpt>
      <trkpt lat="28.532567" lon="118.56413"><ele>446</ele><time>2026-01-03T02:43:41Z</time></trkpt>
      <trkpt lat="28.532905" lon="118.564075"><ele>435</ele><time>2026-01-03T02:44:24Z</time></trkpt>
      <trkpt lat="28.532983" lon="118.56394"><ele>429</ele><time>2026-01-03T02:44:45Z</time></trkpt>
      <trkpt lat="28.533109" lon="118.563976"><ele>429</ele><time>2026-01-03T02:44:59Z</time></trkpt>
      <trkpt lat="28.533259" lon="118.563763"><ele>421</ele><time>2026-01-03T02:45:35Z</time></trkpt>
      <trkpt lat="28.533195" lon="118.56344"><ele>415</ele><time>2026-01-03T02:46:15Z</time></trkpt>
      <trkpt lat="28.533271" lon="118.563266"><ele>410</ele><time>2026-01-03T02:46:55Z</time></trkpt>
      <trkpt lat="28.533192" lon="118.563216"><ele>406</ele><time>2026-01-03T02:47:08Z</time></trkpt>
      <trkpt lat="28.533214" lon="118.563115"><ele>403</ele><time>2026-01-03T02:47:26Z</time></trkpt>
      <trkpt lat="28.533421" lon="118.563003"><ele>389</ele><time>2026-01-03T02:48:06Z</time></trkpt>
      <trkpt lat="28.533558" lon="118.563029"><ele>382</ele><time>2026-01-03T02:48:28Z</time></trkpt>
      <trkpt lat="28.533594" lon="118.562927"><ele>378</ele><time>2026-01-03T02:48:51Z</time></trkpt>
      <trkpt lat="28.533678" lon="118.56296"><ele>375</ele><time>2026-01-03T02:49:05Z</time></trkpt>
      <trkpt lat="28.533668" lon="118.562854"><ele>370</ele><time>2026-01-03T02:49:23Z</time></trkpt>
      <trkpt lat="28.53376" lon="118.562797"><ele>364</ele><time>2026-01-03T02:49:52Z</time></trkpt>
      <trkpt lat="28.53395" lon="118.562915"><ele>362</ele><time>2026-01-03T02:50:29Z</time></trkpt>
      <trkpt lat="28.533958" lon="118.562757"><ele>355</ele><time>2026-01-03T02:50:49Z</time></trkpt>
      <trkpt lat="28.534002" lon="118.562746"><ele>353</ele><time>2026-01-03T02:51:06Z</time></trkpt>
      <trkpt lat="28.534148" lon="118.562922"><ele>341</ele><time>2026-01-03T02:53:07Z</time></trkpt>
      <trkpt lat="28.534206" lon="118.562773"><ele>338</ele><time>2026-01-03T02:53:26Z</time></trkpt>
      <trkpt lat="28.534225" lon="118.562825"><ele>337</ele><time>2026-01-03T02:53:35Z</time></trkpt>
      <trkpt lat="28.53431" lon="118.562692"><ele>332</ele><time>2026-01-03T02:54:01Z</time></trkpt>
      <trkpt lat="28.534238" lon="118.56243"><ele>329</ele><time>2026-01-03T02:54:32Z</time></trkpt>
      <trkpt lat="28.534411" lon="118.562383"><ele>321</ele><time>2026-01-03T02:55:07Z</time></trkpt>
      <trkpt lat="28.534553" lon="118.562151"><ele>319</ele><time>2026-01-03T02:55:42Z</time></trkpt>
      <trkpt lat="28.534618" lon="118.56187"><ele>312</ele><time>2026-01-03T02:56:14Z</time></trkpt>
      <trkpt lat="28.534746" lon="118.561829"><ele>311</ele><time>2026-01-03T02:57:19Z</time></trkpt>
    </trkseg>
  </trk>
</gpx>
