<?xml version="1.0" encoding="UTF-8"?>
<gpx version="1.1" creator="MyWorld" xmlns="http://www.topografix.com/GPX/1/1">
  <metadata><name>杭州 Relo 越野跑</name></metadata>
  <trk>
    <name>杭州 Relo 越野跑</name>
    <trkseg>
      <trkpt lat="30.220599" lon="120.162466"><ele>21</ele><time>2026-03-08T00:45:56Z</time></trkpt>
      <trkpt lat="30.220716" lon="120.162238"><ele>22</ele><time>2026-03-08T00:46:51Z</time></trkpt>
      <trkpt lat="30.220637" lon="120.161719"><ele>24</ele><time>2026-03-08T00:47:14Z</time></trkpt>
      <trkpt lat="30.220776" lon="120.161398"><ele>25</ele><time>2026-03-08T00:47:27Z</time></trkpt>
      <trkpt lat="30.22088" lon="120.160885"><ele>26</ele><time>2026-03-08T00:47:48Z</time></trkpt>
      <trkpt lat="30.220699" lon="120.159908"><ele>32</ele><time>2026-03-08T00:48:25Z</time></trkpt>
      <trkpt lat="30.220751" lon="120.159656"><ele>33</ele><time>2026-03-08T00:48:37Z</time></trkpt>
      <trkpt lat="30.2209" lon="120.159457"><ele>34</ele><time>2026-03-08T00:48:48Z</time></trkpt>
      <trkpt lat="30.220821" lon="120.15878"><ele>39</ele><time>2026-03-08T00:49:18Z</time></trkpt>
      <trkpt lat="30.221115" lon="120.158208"><ele>50</ele><time>2026-03-08T00:49:51Z</time></trkpt>
      <trkpt lat="30.221308" lon="120.157558"><ele>59</ele><time>2026-03-08T00:50:21Z</time></trkpt>
      <trkpt lat="30.2213" lon="120.15717"><ele>58</ele><time>2026-03-08T00:50:40Z</time></trkpt>
      <trkpt lat="30.221183" lon="120.156687"><ele>62</ele><time>2026-03-08T00:51:03Z</time></trkpt>
      <trkpt lat="30.221334" lon="120.155633"><ele>75</ele><time>2026-03-08T00:52:03Z</time></trkpt>
      <trkpt lat="30.221424" lon="120.154463"><ele>89</ele><time>2026-03-08T00:53:09Z</time></trkpt>
      <trkpt lat="30.221353" lon="120.154049"><ele>97</ele><time>2026-03-08T00:53:37Z</time></trkpt>
      <trkpt lat="30.221182" lon="120.153622"><ele>108</ele><time>2026-03-08T00:54:18Z</time></trkpt>
      <trkpt lat="30.221191" lon="120.153456"><ele>113</ele><time>2026-03-08T00:54:37Z</time></trkpt>
      <trkpt lat="30.22124" lon="120.153366"><ele>114</ele><time>2026-03-08T00:54:50Z</time></trkpt>
      <trkpt lat="30.221528" lon="120.153263"><ele>119</ele><time>2026-03-08T00:55:18Z</time></trkpt>
      <trkpt lat="30.221819" lon="120.153466"><ele>119</ele><time>2026-03-08T00:55:43Z</time></trkpt>
      <trkpt lat="30.222411" lon="120.15354"><ele>127</ele><time>2026-03-08T00:56:19Z</time></trkpt>
      <trkpt lat="30.222375" lon="120.153443"><ele>131</ele><time>2026-03-08T00:56:47Z</time></trkpt>
      <trkpt lat="30.222483" lon="120.15332"><ele>138</ele><time>2026-03-08T00:57:16Z</time></trkpt>
      <trkpt lat="30.222355" lon="120.153245"><ele>139</ele><time>2026-03-08T00:57:39Z</time></trkpt>
      <trkpt lat="30.222406" lon="120.153001"><ele>144</ele><time>2026-03-08T00:58:02Z</time></trkpt>
      <trkpt lat="30.221933" lon="120.152713"><ele>149</ele><time>2026-03-08T00:58:39Z</time></trkpt>
      <trkpt lat="30.221875" lon="120.152385"><ele>150</ele><time>2026-03-08T00:58:53Z</time></trkpt>
      <trkpt lat="30.22194" lon="120.151911"><ele>147</ele><time>2026-03-08T00:59:15Z</time></trkpt>
      <trkpt lat="30.22153" lon="120.15166"><ele>147</ele><time>2026-03-08T00:59:32Z</time></trkpt>
      <trkpt lat="30.221225" lon="120.151372"><ele>154</ele><time>2026-03-08T00:59:50Z</time></trkpt>
      <trkpt lat="30.221276" lon="120.151077"><ele>151</ele><time>2026-03-08T01:00:08Z</time></trkpt>
      <trkpt lat="30.22113" lon="120.150591"><ele>152</ele><time>2026-03-08T01:00:28Z</time></trkpt>
      <trkpt lat="30.220869" lon="120.150526"><ele>155</ele><time>2026-03-08T01:00:49Z</time></trkpt>
      <trkpt lat="30.220346" lon="120.15009"><ele>149</ele><time>2026-03-08T01:01:34Z</time></trkpt>
      <trkpt lat="30.220213" lon="120.150049"><ele>150</ele><time>2026-03-08T01:01:43Z</time></trkpt>
      <trkpt lat="30.219911" lon="120.149716"><ele>145</ele><time>2026-03-08T01:01:57Z</time></trkpt>
      <trkpt lat="30.219734" lon="120.149416"><ele>138</ele><time>2026-03-08T01:02:08Z</time></trkpt>
      <trkpt lat="30.219698" lon="120.14929"><ele>135</ele><time>2026-03-08T01:02:15Z</time></trkpt>
      <trkpt lat="30.219758" lon="120.149201"><ele>131</ele><time>2026-03-08T01:02:21Z</time></trkpt>
      <trkpt lat="30.219998" lon="120.14919"><ele>121</ele><time>2026-03-08T01:02:37Z</time></trkpt>
      <trkpt lat="30.219902" lon="120.149037"><ele>118</ele><time>2026-03-08T01:02:50Z</time></trkpt>
      <trkpt lat="30.22" lon="120.148881"><ele>113</ele><time>2026-03-08T01:03:02Z</time></trkpt>
      <trkpt lat="30.219978" lon="120.148741"><ele>108</ele><time>2026-03-08T01:03:15Z</time></trkpt>
      <trkpt lat="30.21985" lon="120.148587"><ele>104</ele><time>2026-03-08T01:03:26Z</time></trkpt>
      <trkpt lat="30.21963" lon="120.148056"><ele>90</ele><time>2026-03-08T01:03:55Z</time></trkpt>
      <trkpt lat="30.219484" lon="120.147943"><ele>91</ele><time>2026-03-08T01:04:03Z</time></trkpt>
      <trkpt lat="30.219184" lon="120.147944"><ele>92</ele><time>2026-03-08T01:04:16Z</time></trkpt>
      <trkpt lat="30.219065" lon="120.147854"><ele>91</ele><time>2026-03-08T01:04:22Z</time></trkpt>
      <trkpt lat="30.218995" lon="120.14719"><ele>96</ele><time>2026-03-08T01:04:50Z</time></trkpt>
      <trkpt lat="30.218766" lon="120.146263"><ele>99</ele><time>2026-03-08T01:05:30Z</time></trkpt>
      <trkpt lat="30.21817" lon="120.145562"><ele>110</ele><time>2026-03-08T01:06:22Z</time></trkpt>
      <trkpt lat="30.217994" lon="120.145057"><ele>116</ele><time>2026-03-08T01:07:06Z</time></trkpt>
      <trkpt lat="30.21811" lon="120.144758"><ele>123</ele><time>2026-03-08T01:07:33Z</time></trkpt>
      <trkpt lat="30.217927" lon="120.144337"><ele>129</ele><time>2026-03-08T01:08:03Z</time></trkpt>
      <trkpt lat="30.217764" lon="120.144123"><ele>130</ele><time>2026-03-08T01:08:20Z</time></trkpt>
      <trkpt lat="30.217972" lon="120.144049"><ele>125</ele><time>2026-03-08T01:08:43Z</time></trkpt>
      <trkpt lat="30.217878" lon="120.143801"><ele>122</ele><time>2026-03-08T01:08:57Z</time></trkpt>
      <trkpt lat="30.218182" lon="120.14348"><ele>112</ele><time>2026-03-08T01:09:28Z</time></trkpt>
      <trkpt lat="30.218295" lon="120.143469"><ele>110</ele><time>2026-03-08T01:09:38Z</time></trkpt>
      <trkpt lat="30.218474" lon="120.143587"><ele>106</ele><time>2026-03-08T01:09:51Z</time></trkpt>
      <trkpt lat="30.218606" lon="120.143775"><ele>98</ele><time>2026-03-08T01:10:03Z</time></trkpt>
      <trkpt lat="30.218875" lon="120.143918"><ele>91</ele><time>2026-03-08T01:10:24Z</time></trkpt>
      <trkpt lat="30.219042" lon="120.144121"><ele>86</ele><time>2026-03-08T01:10:37Z</time></trkpt>
      <trkpt lat="30.219315" lon="120.143923"><ele>85</ele><time>2026-03-08T01:10:50Z</time></trkpt>
      <trkpt lat="30.220166" lon="120.143712"><ele>83</ele><time>2026-03-08T01:11:25Z</time></trkpt>
      <trkpt lat="30.220856" lon="120.143291"><ele>84</ele><time>2026-03-08T01:12:01Z</time></trkpt>
      <trkpt lat="30.221079" lon="120.143028"><ele>85</ele><time>2026-03-08T01:12:17Z</time></trkpt>
      <trkpt lat="30.220671" lon="120.141558"><ele>98</ele><time>2026-03-08T01:13:32Z</time></trkpt>
      <trkpt lat="30.220149" lon="120.140593"><ele>105</ele><time>2026-03-08T01:14:25Z</time></trkpt>
      <trkpt lat="30.219507" lon="120.139693"><ele>112</ele><time>2026-03-08T01:15:21Z</time></trkpt>
      <trkpt lat="30.218191" lon="120.13825"><ele>123</ele><time>2026-03-08T01:17:06Z</time></trkpt>
      <trkpt lat="30.218208" lon="120.138145"><ele>121</ele><time>2026-03-08T01:17:11Z</time></trkpt>
      <trkpt lat="30.218564" lon="120.137929"><ele>107</ele><time>2026-03-08T01:17:38Z</time></trkpt>
      <trkpt lat="30.218724" lon="120.137617"><ele>105</ele><time>2026-03-08T01:17:56Z</time></trkpt>
      <trkpt lat="30.218383" lon="120.13735"><ele>107</ele><time>2026-03-08T01:18:19Z</time></trkpt>
      <trkpt lat="30.218391" lon="120.136952"><ele>106</ele><time>2026-03-08T01:18:36Z</time></trkpt>
      <trkpt lat="30.218441" lon="120.13685"><ele>105</ele><time>2026-03-08T01:18:40Z</time></trkpt>
      <trkpt lat="30.218595" lon="120.136796"><ele>104</ele><time>2026-03-08T01:18:46Z</time></trkpt>
      <trkpt lat="30.219097" lon="120.136824"><ele>106</ele><time>2026-03-08T01:19:04Z</time></trkpt>
      <trkpt lat="30.219297" lon="120.136447"><ele>103</ele><time>2026-03-08T01:19:20Z</time></trkpt>
      <trkpt lat="30.219619" lon="120.136298"><ele>101</ele><time>2026-03-08T01:19:31Z</time></trkpt>
      <trkpt lat="30.2197" lon="120.136132"><ele>100</ele><time>2026-03-08T01:19:40Z</time></trkpt>
      <trkpt lat="30.219627" lon="120.135912"><ele>94</ele><time>2026-03-08T01:19:51Z</time></trkpt>
      <trkpt lat="30.21968" lon="120.135757"><ele>94</ele><time>2026-03-08T01:19:57Z</time></trkpt>
      <trkpt lat="30.2196" lon="120.1355"><ele>91</ele><time>2026-03-08T01:20:12Z</time></trkpt>
      <trkpt lat="30.219593" lon="120.135104"><ele>89</ele><time>2026-03-08T01:20:24Z</time></trkpt>
      <trkpt lat="30.219457" lon="120.13501"><ele>87</ele><time>2026-03-08T01:20:33Z</time></trkpt>
      <trkpt lat="30.219339" lon="120.134818"><ele>78</ele><time>2026-03-08T01:20:46Z</time></trkpt>
      <trkpt lat="30.219384" lon="120.134425"><ele>73</ele><time>2026-03-08T01:21:01Z</time></trkpt>
      <trkpt lat="30.219312" lon="120.134286"><ele>72</ele><time>2026-03-08T01:21:08Z</time></trkpt>
      <trkpt lat="30.219078" lon="120.13413"><ele>69</ele><time>2026-03-08T01:21:18Z</time></trkpt>
      <trkpt lat="30.218972" lon="120.133884"><ele>69</ele><time>2026-03-08T01:21:26Z</time></trkpt>
      <trkpt lat="30.218968" lon="120.133733"><ele>69</ele><time>2026-03-08T01:21:31Z</time></trkpt>
      <trkpt lat="30.219117" lon="120.133506"><ele>67</ele><time>2026-03-08T01:21:46Z</time></trkpt>
      <trkpt lat="30.218998" lon="120.133325"><ele>62</ele><time>2026-03-08T01:22:01Z</time></trkpt>
      <trkpt lat="30.218659" lon="120.133094"><ele>50</ele><time>2026-03-08T01:22:23Z</time></trkpt>
      <trkpt lat="30.218349" lon="120.132754"><ele>42</ele><time>2026-03-08T01:22:37Z</time></trkpt>
      <trkpt lat="30.218283" lon="120.13253"><ele>39</ele><time>2026-03-08T01:22:43Z</time></trkpt>
      <trkpt lat="30.218242" lon="120.131803"><ele>35</ele><time>2026-03-08T01:23:03Z</time></trkpt>
      <trkpt lat="30.21846" lon="120.131196"><ele>31</ele><time>2026-03-08T01:23:21Z</time></trkpt>
      <trkpt lat="30.218464" lon="120.131007"><ele>29</ele><time>2026-03-08T01:23:27Z</time></trkpt>
      <trkpt lat="30.218593" lon="120.130965"><ele>29</ele><time>2026-03-08T01:23:47Z</time></trkpt>
      <trkpt lat="30.21866" lon="120.130775"><ele>30</ele><time>2026-03-08T01:23:56Z</time></trkpt>
      <trkpt lat="30.218745" lon="120.130014"><ele>30</ele><time>2026-03-08T01:24:20Z</time></trkpt>
      <trkpt lat="30.219539" lon="120.128863"><ele>33</ele><time>2026-03-08T01:25:09Z</time></trkpt>
      <trkpt lat="30.221319" lon="120.126922"><ele>40</ele><time>2026-03-08T01:26:53Z</time></trkpt>
      <trkpt lat="30.221478" lon="120.126013"><ele>39</ele><time>2026-03-08T01:27:31Z</time></trkpt>
      <trkpt lat="30.221379" lon="120.12579"><ele>43</ele><time>2026-03-08T01:27:47Z</time></trkpt>
      <trkpt lat="30.221" lon="120.125379"><ele>48</ele><time>2026-03-08T01:28:26Z</time></trkpt>
      <trkpt lat="30.220676" lon="120.125425"><ele>49</ele><time>2026-03-08T01:28:49Z</time></trkpt>
      <trkpt lat="30.220603" lon="120.125577"><ele>50</ele><time>2026-03-08T01:28:57Z</time></trkpt>
      <trkpt lat="30.220638" lon="120.125758"><ele>52</ele><time>2026-03-08T01:29:21Z</time></trkpt>
      <trkpt lat="30.220599" lon="120.125844"><ele>53</ele><time>2026-03-08T01:29:45Z</time></trkpt>
      <trkpt lat="30.220129" lon="120.125852"><ele>68</ele><time>2026-03-08T01:30:18Z</time></trkpt>
      <trkpt lat="30.219623" lon="120.125614"><ele>73</ele><time>2026-03-08T01:30:55Z</time></trkpt>
      <trkpt lat="30.219377" lon="120.125326"><ele>75</ele><time>2026-03-08T01:31:16Z</time></trkpt>
      <trkpt lat="30.219117" lon="120.125182"><ele>83</ele><time>2026-03-08T01:31:40Z</time></trkpt>
      <trkpt lat="30.218951" lon="120.125274"><ele>90</ele><time>2026-03-08T01:32:13Z</time></trkpt>
      <trkpt lat="30.218865" lon="120.125416"><ele>97</ele><time>2026-03-08T01:32:41Z</time></trkpt>
      <trkpt lat="30.218715" lon="120.125465"><ele>99</ele><time>2026-03-08T01:32:59Z</time></trkpt>
      <trkpt lat="30.218193" lon="120.125237"><ele>113</ele><time>2026-03-08T01:34:06Z</time></trkpt>
      <trkpt lat="30.217975" lon="120.124867"><ele>126</ele><time>2026-03-08T01:35:15Z</time></trkpt>
      <trkpt lat="30.217678" lon="120.123932"><ele>132</ele><time>2026-03-08T01:36:27Z</time></trkpt>
      <trkpt lat="30.217747" lon="120.123278"><ele>135</ele><time>2026-03-08T01:36:56Z</time></trkpt>
      <trkpt lat="30.217631" lon="120.122865"><ele>134</ele><time>2026-03-08T01:37:16Z</time></trkpt>
      <trkpt lat="30.217693" lon="120.12255"><ele>135</ele><time>2026-03-08T01:37:27Z</time></trkpt>
      <trkpt lat="30.217822" lon="120.122335"><ele>136</ele><time>2026-03-08T01:37:37Z</time></trkpt>
      <trkpt lat="30.218409" lon="120.12205"><ele>126</ele><time>2026-03-08T01:38:09Z</time></trkpt>
      <trkpt lat="30.218498" lon="120.121824"><ele>122</ele><time>2026-03-08T01:38:24Z</time></trkpt>
      <trkpt lat="30.218982" lon="120.121384"><ele>99</ele><time>2026-03-08T01:39:39Z</time></trkpt>
      <trkpt lat="30.218645" lon="120.121234"><ele>110</ele><time>2026-03-08T01:40:23Z</time></trkpt>
      <trkpt lat="30.218504" lon="120.120934"><ele>117</ele><time>2026-03-08T01:41:16Z</time></trkpt>
      <trkpt lat="30.218504" lon="120.120765"><ele>120</ele><time>2026-03-08T01:41:39Z</time></trkpt>
      <trkpt lat="30.218596" lon="120.12067"><ele>120</ele><time>2026-03-08T01:41:47Z</time></trkpt>
      <trkpt lat="30.218533" lon="120.120136"><ele>126</ele><time>2026-03-08T01:42:45Z</time></trkpt>
      <trkpt lat="30.218435" lon="120.119985"><ele>126</ele><time>2026-03-08T01:42:59Z</time></trkpt>
      <trkpt lat="30.21821" lon="120.119837"><ele>133</ele><time>2026-03-08T01:43:19Z</time></trkpt>
      <trkpt lat="30.218339" lon="120.119011"><ele>121</ele><time>2026-03-08T01:43:51Z</time></trkpt>
      <trkpt lat="30.218247" lon="120.118925"><ele>118</ele><time>2026-03-08T01:43:58Z</time></trkpt>
      <trkpt lat="30.217961" lon="120.118886"><ele>120</ele><time>2026-03-08T01:44:09Z</time></trkpt>
      <trkpt lat="30.217915" lon="120.118827"><ele>121</ele><time>2026-03-08T01:44:13Z</time></trkpt>
      <trkpt lat="30.217932" lon="120.11857"><ele>117</ele><time>2026-03-08T01:44:27Z</time></trkpt>
      <trkpt lat="30.218024" lon="120.118461"><ele>113</ele><time>2026-03-08T01:44:33Z</time></trkpt>
      <trkpt lat="30.21849" lon="120.118462"><ele>101</ele><time>2026-03-08T01:44:50Z</time></trkpt>
      <trkpt lat="30.218517" lon="120.118382"><ele>99</ele><time>2026-03-08T01:44:53Z</time></trkpt>
      <trkpt lat="30.218448" lon="120.11812"><ele>99</ele><time>2026-03-08T01:45:02Z</time></trkpt>
      <trkpt lat="30.218573" lon="120.117996"><ele>99</ele><time>2026-03-08T01:45:09Z</time></trkpt>
      <trkpt lat="30.218993" lon="120.117875"><ele>95</ele><time>2026-03-08T01:45:25Z</time></trkpt>
      <trkpt lat="30.219469" lon="120.117838"><ele>91</ele><time>2026-03-08T01:45:44Z</time></trkpt>
      <trkpt lat="30.219558" lon="120.117758"><ele>91</ele><time>2026-03-08T01:45:49Z</time></trkpt>
      <trkpt lat="30.219491" lon="120.116865"><ele>102</ele><time>2026-03-08T01:46:24Z</time></trkpt>
      <trkpt lat="30.219656" lon="120.116402"><ele>105</ele><time>2026-03-08T01:46:44Z</time></trkpt>
      <trkpt lat="30.21951" lon="120.115881"><ele>110</ele><time>2026-03-08T01:47:09Z</time></trkpt>
      <trkpt lat="30.219556" lon="120.114939"><ele>118</ele><time>2026-03-08T01:48:02Z</time></trkpt>
      <trkpt lat="30.219504" lon="120.114244"><ele>125</ele><time>2026-03-08T01:48:37Z</time></trkpt>
      <trkpt lat="30.219537" lon="120.113811"><ele>128</ele><time>2026-03-08T01:49:03Z</time></trkpt>
      <trkpt lat="30.219631" lon="120.113503"><ele>130</ele><time>2026-03-08T01:49:16Z</time></trkpt>
      <trkpt lat="30.21983" lon="120.113378"><ele>130</ele><time>2026-03-08T01:49:28Z</time></trkpt>
      <trkpt lat="30.220059" lon="120.113533"><ele>132</ele><time>2026-03-08T01:49:41Z</time></trkpt>
      <trkpt lat="30.220316" lon="120.114119"><ele>135</ele><time>2026-03-08T01:50:05Z</time></trkpt>
      <trkpt lat="30.220466" lon="120.114636"><ele>139</ele><time>2026-03-08T01:50:36Z</time></trkpt>
      <trkpt lat="30.22061" lon="120.114873"><ele>142</ele><time>2026-03-08T01:50:52Z</time></trkpt>
      <trkpt lat="30.220921" lon="120.114731"><ele>153</ele><time>2026-03-08T01:51:53Z</time></trkpt>
      <trkpt lat="30.220904" lon="120.114292"><ele>155</ele><time>2026-03-08T01:52:10Z</time></trkpt>
      <trkpt lat="30.220686" lon="120.113042"><ele>162</ele><time>2026-03-08T01:53:02Z</time></trkpt>
      <trkpt lat="30.220397" lon="120.112284"><ele>163</ele><time>2026-03-08T01:53:43Z</time></trkpt>
      <trkpt lat="30.220417" lon="120.112092"><ele>163</ele><time>2026-03-08T01:53:49Z</time></trkpt>
      <trkpt lat="30.220513" lon="120.112022"><ele>166</ele><time>2026-03-08T01:53:54Z</time></trkpt>
      <trkpt lat="30.220847" lon="120.112081"><ele>171</ele><time>2026-03-08T01:54:12Z</time></trkpt>
      <trkpt lat="30.221623" lon="120.111946"><ele>170</ele><time>2026-03-08T01:54:58Z</time></trkpt>
      <trkpt lat="30.222146" lon="120.111673"><ele>166</ele><time>2026-03-08T01:55:19Z</time></trkpt>
      <trkpt lat="30.222314" lon="120.111505"><ele>164</ele><time>2026-03-08T01:55:27Z</time></trkpt>
      <trkpt lat="30.222408" lon="120.111001"><ele>160</ele><time>2026-03-08T01:55:43Z</time></trkpt>
      <trkpt lat="30.222833" lon="120.110544"><ele>155</ele><time>2026-03-08T01:56:01Z</time></trkpt>
      <trkpt lat="30.222816" lon="120.110326"><ele>154</ele><time>2026-03-08T01:56:07Z</time></trkpt>
      <trkpt lat="30.222544" lon="120.109895"><ele>153</ele><time>2026-03-08T01:56:21Z</time></trkpt>
      <trkpt lat="30.222434" lon="120.109452"><ele>148</ele><time>2026-03-08T01:56:33Z</time></trkpt>
      <trkpt lat="30.222509" lon="120.109071"><ele>142</ele><time>2026-03-08T01:56:43Z</time></trkpt>
      <trkpt lat="30.22288" lon="120.108485"><ele>139</ele><time>2026-03-08T01:57:03Z</time></trkpt>
      <trkpt lat="30.222992" lon="120.108174"><ele>137</ele><time>2026-03-08T01:57:14Z</time></trkpt>
      <trkpt lat="30.222985" lon="120.107677"><ele>135</ele><time>2026-03-08T01:57:31Z</time></trkpt>
      <trkpt lat="30.222868" lon="120.106762"><ele>129</ele><time>2026-03-08T01:57:57Z</time></trkpt>
      <trkpt lat="30.222743" lon="120.10654"><ele>125</ele><time>2026-03-08T01:58:05Z</time></trkpt>
      <trkpt lat="30.222402" lon="120.10619"><ele>124</ele><time>2026-03-08T01:58:19Z</time></trkpt>
      <trkpt lat="30.222247" lon="120.105884"><ele>124</ele><time>2026-03-08T01:58:29Z</time></trkpt>
      <trkpt lat="30.22219" lon="120.105548"><ele>124</ele><time>2026-03-08T01:58:39Z</time></trkpt>
      <trkpt lat="30.222208" lon="120.105062"><ele>123</ele><time>2026-03-08T01:58:55Z</time></trkpt>
      <trkpt lat="30.22169" lon="120.104447"><ele>119</ele><time>2026-03-08T01:59:24Z</time></trkpt>
      <trkpt lat="30.221394" lon="120.103868"><ele>117</ele><time>2026-03-08T01:59:44Z</time></trkpt>
      <trkpt lat="30.221258" lon="120.103321"><ele>116</ele><time>2026-03-08T02:00:00Z</time></trkpt>
      <trkpt lat="30.221238" lon="120.102202"><ele>99</ele><time>2026-03-08T02:00:32Z</time></trkpt>
      <trkpt lat="30.220943" lon="120.102008"><ele>97</ele><time>2026-03-08T02:00:44Z</time></trkpt>
      <trkpt lat="30.220387" lon="120.102031"><ele>94</ele><time>2026-03-08T02:01:02Z</time></trkpt>
      <trkpt lat="30.220088" lon="120.101533"><ele>96</ele><time>2026-03-08T02:01:28Z</time></trkpt>
      <trkpt lat="30.219953" lon="120.101513"><ele>97</ele><time>2026-03-08T02:01:42Z</time></trkpt>
      <trkpt lat="30.219811" lon="120.101321"><ele>99</ele><time>2026-03-08T02:01:56Z</time></trkpt>
      <trkpt lat="30.219746" lon="120.100867"><ele>102</ele><time>2026-03-08T02:02:23Z</time></trkpt>
      <trkpt lat="30.219757" lon="120.100292"><ele>114</ele><time>2026-03-08T02:03:08Z</time></trkpt>
      <trkpt lat="30.219923" lon="120.099946"><ele>125</ele><time>2026-03-08T02:03:44Z</time></trkpt>
      <trkpt lat="30.219927" lon="120.099772"><ele>126</ele><time>2026-03-08T02:03:56Z</time></trkpt>
      <trkpt lat="30.219619" lon="120.099012"><ele>138</ele><time>2026-03-08T02:05:03Z</time></trkpt>
      <trkpt lat="30.219406" lon="120.097808"><ele>160</ele><time>2026-03-08T02:06:44Z</time></trkpt>
      <trkpt lat="30.219465" lon="120.097482"><ele>166</ele><time>2026-03-08T02:07:11Z</time></trkpt>
      <trkpt lat="30.219359" lon="120.097033"><ele>179</ele><time>2026-03-08T02:08:05Z</time></trkpt>
      <trkpt lat="30.21896" lon="120.096268"><ele>198</ele><time>2026-03-08T02:09:37Z</time></trkpt>
      <trkpt lat="30.218752" lon="120.09571"><ele>209</ele><time>2026-03-08T02:10:27Z</time></trkpt>
      <trkpt lat="30.218315" lon="120.095235"><ele>231</ele><time>2026-03-08T02:11:54Z</time></trkpt>
      <trkpt lat="30.217664" lon="120.094929"><ele>258</ele><time>2026-03-08T02:13:54Z</time></trkpt>
      <trkpt lat="30.21712" lon="120.094529"><ele>282</ele><time>2026-03-08T02:15:54Z</time></trkpt>
      <trkpt lat="30.216827" lon="120.094508"><ele>298</ele><time>2026-03-08T02:16:54Z</time></trkpt>
      <trkpt lat="30.216749" lon="120.094355"><ele>303</ele><time>2026-03-08T02:17:26Z</time></trkpt>
      <trkpt lat="30.216441" lon="120.09418"><ele>316</ele><time>2026-03-08T02:18:24Z</time></trkpt>
      <trkpt lat="30.216359" lon="120.094048"><ele>321</ele><time>2026-03-08T02:18:46Z</time></trkpt>
      <trkpt lat="30.215761" lon="120.093832"><ele>327</ele><time>2026-03-08T02:20:12Z</time></trkpt>
      <trkpt lat="30.215585" lon="120.093582"><ele>319</ele><time>2026-03-08T02:20:38Z</time></trkpt>
      <trkpt lat="30.215261" lon="120.093309"><ele>310</ele><time>2026-03-08T02:21:00Z</time></trkpt>
      <trkpt lat="30.215" lon="120.092926"><ele>309</ele><time>2026-03-08T02:21:20Z</time></trkpt>
      <trkpt lat="30.214283" lon="120.092655"><ele>293</ele><time>2026-03-08T02:21:55Z</time></trkpt>
      <trkpt lat="30.213639" lon="120.092737"><ele>280</ele><time>2026-03-08T02:22:32Z</time></trkpt>
      <trkpt lat="30.212983" lon="120.092675"><ele>255</ele><time>2026-03-08T02:23:14Z</time></trkpt>
      <trkpt lat="30.212385" lon="120.092967"><ele>252</ele><time>2026-03-08T02:23:53Z</time></trkpt>
      <trkpt lat="30.211754" lon="120.09306"><ele>250</ele><time>2026-03-08T02:24:23Z</time></trkpt>
      <trkpt lat="30.211478" lon="120.093316"><ele>259</ele><time>2026-03-08T02:24:55Z</time></trkpt>
      <trkpt lat="30.211393" lon="120.093662"><ele>263</ele><time>2026-03-08T02:25:18Z</time></trkpt>
      <trkpt lat="30.210941" lon="120.094196"><ele>265</ele><time>2026-03-08T02:26:00Z</time></trkpt>
      <trkpt lat="30.210682" lon="120.094384"><ele>262</ele><time>2026-03-08T02:26:19Z</time></trkpt>
      <trkpt lat="30.210455" lon="120.094659"><ele>265</ele><time>2026-03-08T02:26:34Z</time></trkpt>
      <trkpt lat="30.210142" lon="120.094799"><ele>267</ele><time>2026-03-08T02:26:47Z</time></trkpt>
      <trkpt lat="30.209536" lon="120.095408"><ele>274</ele><time>2026-03-08T02:27:32Z</time></trkpt>
      <trkpt lat="30.209246" lon="120.095498"><ele>277</ele><time>2026-03-08T02:27:57Z</time></trkpt>
      <trkpt lat="30.209043" lon="120.09543"><ele>276</ele><time>2026-03-08T02:28:12Z</time></trkpt>
      <trkpt lat="30.208726" lon="120.095098"><ele>278</ele><time>2026-03-08T02:28:32Z</time></trkpt>
      <trkpt lat="30.208325" lon="120.095076"><ele>283</ele><time>2026-03-08T02:28:54Z</time></trkpt>
      <trkpt lat="30.208175" lon="120.09495"><ele>288</ele><time>2026-03-08T02:29:02Z</time></trkpt>
      <trkpt lat="30.207965" lon="120.094043"><ele>290</ele><time>2026-03-08T02:29:54Z</time></trkpt>
      <trkpt lat="30.207822" lon="120.093991"><ele>292</ele><time>2026-03-08T02:30:07Z</time></trkpt>
      <trkpt lat="30.207332" lon="120.094216"><ele>306</ele><time>2026-03-08T02:30:45Z</time></trkpt>
      <trkpt lat="30.206977" lon="120.094141"><ele>308</ele><time>2026-03-08T02:31:13Z</time></trkpt>
      <trkpt lat="30.20651" lon="120.09372"><ele>313</ele><time>2026-03-08T02:32:02Z</time></trkpt>
      <trkpt lat="30.20635" lon="120.093337"><ele>313</ele><time>2026-03-08T02:32:28Z</time></trkpt>
      <trkpt lat="30.2061" lon="120.093177"><ele>312</ele><time>2026-03-08T02:32:46Z</time></trkpt>
      <trkpt lat="30.206" lon="120.093192"><ele>313</ele><time>2026-03-08T02:32:54Z</time></trkpt>
      <trkpt lat="30.205746" lon="120.093477"><ele>322</ele><time>2026-03-08T02:33:13Z</time></trkpt>
      <trkpt lat="30.20531" lon="120.093476"><ele>327</ele><time>2026-03-08T02:33:40Z</time></trkpt>
      <trkpt lat="30.205052" lon="120.093398"><ele>330</ele><time>2026-03-08T02:33:54Z</time></trkpt>
      <trkpt lat="30.20474" lon="120.093076"><ele>331</ele><time>2026-03-08T02:34:18Z</time></trkpt>
      <trkpt lat="30.204725" lon="120.092781"><ele>331</ele><time>2026-03-08T02:34:30Z</time></trkpt>
      <trkpt lat="30.204665" lon="120.092657"><ele>328</ele><time>2026-03-08T02:34:35Z</time></trkpt>
      <trkpt lat="30.204291" lon="120.092488"><ele>328</ele><time>2026-03-08T02:34:52Z</time></trkpt>
      <trkpt lat="30.204194" lon="120.092333"><ele>328</ele><time>2026-03-08T02:35:00Z</time></trkpt>
      <trkpt lat="30.203936" lon="120.092366"><ele>331</ele><time>2026-03-08T02:35:16Z</time></trkpt>
      <trkpt lat="30.203595" lon="120.092243"><ele>330</ele><time>2026-03-08T02:35:40Z</time></trkpt>
      <trkpt lat="30.203375" lon="120.092343"><ele>329</ele><time>2026-03-08T02:35:52Z</time></trkpt>
      <trkpt lat="30.203159" lon="120.092635"><ele>324</ele><time>2026-03-08T02:36:08Z</time></trkpt>
      <trkpt lat="30.202664" lon="120.092661"><ele>323</ele><time>2026-03-08T02:36:30Z</time></trkpt>
      <trkpt lat="30.202416" lon="120.092545"><ele>318</ele><time>2026-03-08T02:36:50Z</time></trkpt>
      <trkpt lat="30.201398" lon="120.093755"><ele>325</ele><time>2026-03-08T02:37:58Z</time></trkpt>
      <trkpt lat="30.201309" lon="120.093757"><ele>325</ele><time>2026-03-08T02:38:05Z</time></trkpt>
      <trkpt lat="30.201104" lon="120.093602"><ele>326</ele><time>2026-03-08T02:38:22Z</time></trkpt>
      <trkpt lat="30.200915" lon="120.093632"><ele>324</ele><time>2026-03-08T02:38:35Z</time></trkpt>
      <trkpt lat="30.200349" lon="120.093851"><ele>316</ele><time>2026-03-08T02:39:04Z</time></trkpt>
      <trkpt lat="30.199423" lon="120.094391"><ele>333</ele><time>2026-03-08T02:40:21Z</time></trkpt>
      <trkpt lat="30.199263" lon="120.09443"><ele>336</ele><time>2026-03-08T02:40:33Z</time></trkpt>
      <trkpt lat="30.19907" lon="120.094767"><ele>341</ele><time>2026-03-08T02:41:02Z</time></trkpt>
      <trkpt lat="30.198838" lon="120.094913"><ele>342</ele><time>2026-03-08T02:41:20Z</time></trkpt>
      <trkpt lat="30.197914" lon="120.094952"><ele>342</ele><time>2026-03-08T02:42:08Z</time></trkpt>
      <trkpt lat="30.197677" lon="120.095226"><ele>343</ele><time>2026-03-08T02:42:26Z</time></trkpt>
      <trkpt lat="30.197521" lon="120.095222"><ele>343</ele><time>2026-03-08T02:42:36Z</time></trkpt>
      <trkpt lat="30.197374" lon="120.095377"><ele>341</ele><time>2026-03-08T02:42:47Z</time></trkpt>
      <trkpt lat="30.196999" lon="120.095484"><ele>333</ele><time>2026-03-08T02:43:05Z</time></trkpt>
      <trkpt lat="30.197411" lon="120.095721"><ele>329</ele><time>2026-03-08T02:43:29Z</time></trkpt>
      <trkpt lat="30.197448" lon="120.095818"><ele>329</ele><time>2026-03-08T02:43:34Z</time></trkpt>
      <trkpt lat="30.197471" lon="120.096902"><ele>302</ele><time>2026-03-08T02:44:13Z</time></trkpt>
      <trkpt lat="30.197336" lon="120.0976"><ele>288</ele><time>2026-03-08T02:44:50Z</time></trkpt>
      <trkpt lat="30.196972" lon="120.098585"><ele>260</ele><time>2026-03-08T02:46:00Z</time></trkpt>
      <trkpt lat="30.196628" lon="120.098967"><ele>255</ele><time>2026-03-08T02:46:17Z</time></trkpt>
      <trkpt lat="30.196648" lon="120.099333"><ele>250</ele><time>2026-03-08T02:46:32Z</time></trkpt>
      <trkpt lat="30.196475" lon="120.099752"><ele>245</ele><time>2026-03-08T02:46:52Z</time></trkpt>
      <trkpt lat="30.196178" lon="120.100151"><ele>221</ele><time>2026-03-08T02:47:57Z</time></trkpt>
      <trkpt lat="30.196045" lon="120.100174"><ele>218</ele><time>2026-03-08T02:48:08Z</time></trkpt>
      <trkpt lat="30.196086" lon="120.100284"><ele>211</ele><time>2026-03-08T02:48:22Z</time></trkpt>
      <trkpt lat="30.195894" lon="120.100331"><ele>208</ele><time>2026-03-08T02:48:37Z</time></trkpt>
      <trkpt lat="30.195667" lon="120.100807"><ele>185</ele><time>2026-03-08T02:49:34Z</time></trkpt>
      <trkpt lat="30.195218" lon="120.100914"><ele>173</ele><time>2026-03-08T02:50:07Z</time></trkpt>
      <trkpt lat="30.194047" lon="120.101833"><ele>145</ele><time>2026-03-08T02:51:26Z</time></trkpt>
      <trkpt lat="30.193504" lon="120.101623"><ele>141</ele><time>2026-03-08T02:51:59Z</time></trkpt>
      <trkpt lat="30.193175" lon="120.101746"><ele>139</ele><time>2026-03-08T02:52:15Z</time></trkpt>
      <trkpt lat="30.192761" lon="120.102045"><ele>129</ele><time>2026-03-08T02:52:43Z</time></trkpt>
      <trkpt lat="30.192592" lon="120.102436"><ele>126</ele><time>2026-03-08T02:52:58Z</time></trkpt>
      <trkpt lat="30.192187" lon="120.102583"><ele>118</ele><time>2026-03-08T02:53:12Z</time></trkpt>
      <trkpt lat="30.192098" lon="120.102956"><ele>116</ele><time>2026-03-08T02:53:24Z</time></trkpt>
      <trkpt lat="30.191816" lon="120.103036"><ele>111</ele><time>2026-03-08T02:53:38Z</time></trkpt>
      <trkpt lat="30.191299" lon="120.103431"><ele>98</ele><time>2026-03-08T02:54:07Z</time></trkpt>
      <trkpt lat="30.190426" lon="120.10378"><ele>79</ele><time>2026-03-08T02:55:11Z</time></trkpt>
      <trkpt lat="30.190079" lon="120.104013"><ele>72</ele><time>2026-03-08T02:55:27Z</time></trkpt>
      <trkpt lat="30.189921" lon="120.104402"><ele>65</ele><time>2026-03-08T02:55:52Z</time></trkpt>
      <trkpt lat="30.190074" lon="120.104598"><ele>59</ele><time>2026-03-08T02:56:10Z</time></trkpt>
      <trkpt lat="30.189962" lon="120.104787"><ele>61</ele><time>2026-03-08T02:56:18Z</time></trkpt>
      <trkpt lat="30.18972" lon="120.104883"><ele>56</ele><time>2026-03-08T02:56:28Z</time></trkpt>
      <trkpt lat="30.189472" lon="120.104837"><ele>58</ele><time>2026-03-08T02:56:43Z</time></trkpt>
      <trkpt lat="30.189442" lon="120.105083"><ele>56</ele><time>2026-03-08T02:56:58Z</time></trkpt>
      <trkpt lat="30.189491" lon="120.105365"><ele>55</ele><time>2026-03-08T02:57:12Z</time></trkpt>
      <trkpt lat="30.189267" lon="120.105949"><ele>53</ele><time>2026-03-08T02:57:33Z</time></trkpt>
      <trkpt lat="30.18926" lon="120.106466"><ele>49</ele><time>2026-03-08T02:57:53Z</time></trkpt>
      <trkpt lat="30.189062" lon="120.106945"><ele>46</ele><time>2026-03-08T02:58:15Z</time></trkpt>
      <trkpt lat="30.189084" lon="120.107136"><ele>45</ele><time>2026-03-08T02:58:23Z</time></trkpt>
      <trkpt lat="30.189268" lon="120.107379"><ele>39</ele><time>2026-03-08T02:58:39Z</time></trkpt>
      <trkpt lat="30.189248" lon="120.107558"><ele>35</ele><time>2026-03-08T02:58:50Z</time></trkpt>
      <trkpt lat="30.189381" lon="120.108035"><ele>27</ele><time>2026-03-08T02:59:14Z</time></trkpt>
      <trkpt lat="30.189278" lon="120.108571"><ele>15</ele><time>2026-03-08T02:59:42Z</time></trkpt>
      <trkpt lat="30.189206" lon="120.10866"><ele>17</ele><time>2026-03-08T03:01:13Z</time></trkpt>
      <trkpt lat="30.189226" lon="120.108607"><ele>16</ele><time>2026-03-08T03:01:37Z</time></trkpt>
      <trkpt lat="30.18926" lon="120.108642"><ele>15</ele><time>2026-03-08T03:02:14Z</time></trkpt>
      <trkpt lat="30.189349" lon="120.108966"><ele>16</ele><time>2026-03-08T03:02:42Z</time></trkpt>
      <trkpt lat="30.189328" lon="120.110308"><ele>14</ele><time>2026-03-08T03:03:26Z</time></trkpt>
      <trkpt lat="30.189559" lon="120.110907"><ele>13</ele><time>2026-03-08T03:03:59Z</time></trkpt>
      <trkpt lat="30.189737" lon="120.111641"><ele>14</ele><time>2026-03-08T03:04:25Z</time></trkpt>
      <trkpt lat="30.190065" lon="120.112395"><ele>13</ele><time>2026-03-08T03:04:54Z</time></trkpt>
      <trkpt lat="30.190136" lon="120.112714"><ele>13</ele><time>2026-03-08T03:05:09Z</time></trkpt>
      <trkpt lat="30.190726" lon="120.112472"><ele>14</ele><time>2026-03-08T03:05:36Z</time></trkpt>
      <trkpt lat="30.191495" lon="120.112362"><ele>13</ele><time>2026-03-08T03:06:08Z</time></trkpt>
      <trkpt lat="30.191713" lon="120.112381"><ele>14</ele><time>2026-03-08T03:06:19Z</time></trkpt>
      <trkpt lat="30.191917" lon="120.112584"><ele>14</ele><time>2026-03-08T03:06:35Z</time></trkpt>
      <trkpt lat="30.192097" lon="120.112637"><ele>13</ele><time>2026-03-08T03:06:44Z</time></trkpt>
      <trkpt lat="30.193425" lon="120.112342"><ele>15</ele><time>2026-03-08T03:07:40Z</time></trkpt>
      <trkpt lat="30.193571" lon="120.112237"><ele>15</ele><time>2026-03-08T03:07:48Z</time></trkpt>
      <trkpt lat="30.193734" lon="120.111992"><ele>18</ele><time>2026-03-08T03:08:00Z</time></trkpt>
      <trkpt lat="30.194285" lon="120.111526"><ele>19</ele><time>2026-03-08T03:08:29Z</time></trkpt>
      <trkpt lat="30.194599" lon="120.111098"><ele>18</ele><time>2026-03-08T03:08:51Z</time></trkpt>
      <trkpt lat="30.195008" lon="120.110865"><ele>17</ele><time>2026-03-08T03:09:12Z</time></trkpt>
      <trkpt lat="30.195184" lon="120.110585"><ele>17</ele><time>2026-03-08T03:09:27Z</time></trkpt>
      <trkpt lat="30.195739" lon="120.110266"><ele>19</ele><time>2026-03-08T03:09:54Z</time></trkpt>
      <trkpt lat="30.196561" lon="120.110096"><ele>22</ele><time>2026-03-08T03:10:30Z</time></trkpt>
      <trkpt lat="30.197213" lon="120.109312"><ele>25</ele><time>2026-03-08T03:11:15Z</time></trkpt>
      <trkpt lat="30.197618" lon="120.109085"><ele>24</ele><time>2026-03-08T03:11:33Z</time></trkpt>
      <trkpt lat="30.198088" lon="120.108969"><ele>22</ele><time>2026-03-08T03:11:54Z</time></trkpt>
      <trkpt lat="30.198497" lon="120.109014"><ele>21</ele><time>2026-03-08T03:12:12Z</time></trkpt>
      <trkpt lat="30.198783" lon="120.108951"><ele>23</ele><time>2026-03-08T03:12:25Z</time></trkpt>
      <trkpt lat="30.199011" lon="120.109174"><ele>25</ele><time>2026-03-08T03:12:38Z</time></trkpt>
      <trkpt lat="30.199171" lon="120.109494"><ele>27</ele><time>2026-03-08T03:13:00Z</time></trkpt>
      <trkpt lat="30.199683" lon="120.10995"><ele>37</ele><time>2026-03-08T03:13:39Z</time></trkpt>
      <trkpt lat="30.199933" lon="120.109975"><ele>41</ele><time>2026-03-08T03:13:50Z</time></trkpt>
      <trkpt lat="30.200255" lon="120.110227"><ele>53</ele><time>2026-03-08T03:14:15Z</time></trkpt>
      <trkpt lat="30.200501" lon="120.110156"><ele>59</ele><time>2026-03-08T03:14:34Z</time></trkpt>
      <trkpt lat="30.200699" lon="120.110174"><ele>65</ele><time>2026-03-08T03:14:46Z</time></trkpt>
      <trkpt lat="30.200839" lon="120.11028"><ele>71</ele><time>2026-03-08T03:14:59Z</time></trkpt>
      <trkpt lat="30.200942" lon="120.110215"><ele>72</ele><time>2026-03-08T03:15:13Z</time></trkpt>
      <trkpt lat="30.201062" lon="120.110244"><ele>75</ele><time>2026-03-08T03:15:22Z</time></trkpt>
      <trkpt lat="30.201249" lon="120.110392"><ele>77</ele><time>2026-03-08T03:15:36Z</time></trkpt>
      <trkpt lat="30.201431" lon="120.110399"><ele>76</ele><time>2026-03-08T03:16:01Z</time></trkpt>
      <trkpt lat="30.202194" lon="120.110869"><ele>85</ele><time>2026-03-08T03:17:14Z</time></trkpt>
      <trkpt lat="30.202456" lon="120.110877"><ele>92</ele><time>2026-03-08T03:17:37Z</time></trkpt>
      <trkpt lat="30.202597" lon="120.111025"><ele>98</ele><time>2026-03-08T03:17:58Z</time></trkpt>
      <trkpt lat="30.203111" lon="120.111718"><ele>106</ele><time>2026-03-08T03:19:11Z</time></trkpt>
      <trkpt lat="30.203324" lon="120.111874"><ele>110</ele><time>2026-03-08T03:19:35Z</time></trkpt>
      <trkpt lat="30.203398" lon="120.112115"><ele>106</ele><time>2026-03-08T03:19:56Z</time></trkpt>
      <trkpt lat="30.203522" lon="120.112245"><ele>100</ele><time>2026-03-08T03:20:10Z</time></trkpt>
      <trkpt lat="30.203613" lon="120.112514"><ele>99</ele><time>2026-03-08T03:20:33Z</time></trkpt>
      <trkpt lat="30.203787" lon="120.112751"><ele>104</ele><time>2026-03-08T03:20:54Z</time></trkpt>
      <trkpt lat="30.203758" lon="120.112919"><ele>108</ele><time>2026-03-08T03:21:13Z</time></trkpt>
      <trkpt lat="30.203831" lon="120.113111"><ele>110</ele><time>2026-03-08T03:21:33Z</time></trkpt>
      <trkpt lat="30.203685" lon="120.113396"><ele>124</ele><time>2026-03-08T03:22:16Z</time></trkpt>
      <trkpt lat="30.20383" lon="120.113381"><ele>125</ele><time>2026-03-08T03:22:31Z</time></trkpt>
      <trkpt lat="30.203954" lon="120.113453"><ele>120</ele><time>2026-03-08T03:22:40Z</time></trkpt>
      <trkpt lat="30.204158" lon="120.113845"><ele>120</ele><time>2026-03-08T03:23:07Z</time></trkpt>
      <trkpt lat="30.203882" lon="120.114263"><ele>140</ele><time>2026-03-08T03:23:55Z</time></trkpt>
      <trkpt lat="30.204043" lon="120.11422"><ele>141</ele><time>2026-03-08T03:24:17Z</time></trkpt>
      <trkpt lat="30.204155" lon="120.114311"><ele>137</ele><time>2026-03-08T03:24:28Z</time></trkpt>
      <trkpt lat="30.204246" lon="120.114664"><ele>144</ele><time>2026-03-08T03:25:00Z</time></trkpt>
      <trkpt lat="30.204189" lon="120.115004"><ele>154</ele><time>2026-03-08T03:25:32Z</time></trkpt>
      <trkpt lat="30.204308" lon="120.11505"><ele>155</ele><time>2026-03-08T03:25:45Z</time></trkpt>
      <trkpt lat="30.204369" lon="120.115332"><ele>166</ele><time>2026-03-08T03:26:15Z</time></trkpt>
      <trkpt lat="30.204622" lon="120.115594"><ele>177</ele><time>2026-03-08T03:27:10Z</time></trkpt>
      <trkpt lat="30.204834" lon="120.115539"><ele>177</ele><time>2026-03-08T03:27:38Z</time></trkpt>
      <trkpt lat="30.205012" lon="120.115662"><ele>185</ele><time>2026-03-08T03:28:09Z</time></trkpt>
      <trkpt lat="30.205136" lon="120.115583"><ele>187</ele><time>2026-03-08T03:28:30Z</time></trkpt>
      <trkpt lat="30.20539" lon="120.11559"><ele>194</ele><time>2026-03-08T03:29:07Z</time></trkpt>
      <trkpt lat="30.205428" lon="120.115526"><ele>196</ele><time>2026-03-08T03:29:24Z</time></trkpt>
      <trkpt lat="30.205451" lon="120.115669"><ele>200</ele><time>2026-03-08T03:29:38Z</time></trkpt>
      <trkpt lat="30.205282" lon="120.115804"><ele>200</ele><time>2026-03-08T03:30:04Z</time></trkpt>
      <trkpt lat="30.20528" lon="120.11591"><ele>201</ele><time>2026-03-08T03:30:27Z</time></trkpt>
      <trkpt lat="30.20572" lon="120.115981"><ele>212</ele><time>2026-03-08T03:31:36Z</time></trkpt>
      <trkpt lat="30.205913" lon="120.115937"><ele>220</ele><time>2026-03-08T03:32:07Z</time></trkpt>
      <trkpt lat="30.206242" lon="120.116082"><ele>220</ele><time>2026-03-08T03:32:41Z</time></trkpt>
      <trkpt lat="30.20649" lon="120.115965"><ele>214</ele><time>2026-03-08T03:33:03Z</time></trkpt>
      <trkpt lat="30.207843" lon="120.115774"><ele>186</ele><time>2026-03-08T03:34:25Z</time></trkpt>
      <trkpt lat="30.208041" lon="120.115586"><ele>181</ele><time>2026-03-08T03:34:42Z</time></trkpt>
      <trkpt lat="30.208855" lon="120.115653"><ele>177</ele><time>2026-03-08T03:35:37Z</time></trkpt>
      <trkpt lat="30.20903" lon="120.115813"><ele>173</ele><time>2026-03-08T03:35:52Z</time></trkpt>
      <trkpt lat="30.209289" lon="120.116228"><ele>171</ele><time>2026-03-08T03:36:18Z</time></trkpt>
      <trkpt lat="30.210129" lon="120.116581"><ele>157</ele><time>2026-03-08T03:37:09Z</time></trkpt>
      <trkpt lat="30.21045" lon="120.116939"><ele>144</ele><time>2026-03-08T03:37:47Z</time></trkpt>
      <trkpt lat="30.210325" lon="120.116969"><ele>144</ele><time>2026-03-08T03:37:56Z</time></trkpt>
      <trkpt lat="30.209805" lon="120.116862"><ele>141</ele><time>2026-03-08T03:38:20Z</time></trkpt>
      <trkpt lat="30.209519" lon="120.116902"><ele>141</ele><time>2026-03-08T03:38:32Z</time></trkpt>
      <trkpt lat="30.209403" lon="120.117103"><ele>137</ele><time>2026-03-08T03:38:42Z</time></trkpt>
      <trkpt lat="30.209137" lon="120.117304"><ele>131</ele><time>2026-03-08T03:39:02Z</time></trkpt>
      <trkpt lat="30.209012" lon="120.117684"><ele>117</ele><time>2026-03-08T03:39:31Z</time></trkpt>
      <trkpt lat="30.209033" lon="120.118032"><ele>112</ele><time>2026-03-08T03:39:55Z</time></trkpt>
      <trkpt lat="30.20892" lon="120.11875"><ele>93</ele><time>2026-03-08T03:40:45Z</time></trkpt>
      <trkpt lat="30.209043" lon="120.119111"><ele>78</ele><time>2026-03-08T03:41:26Z</time></trkpt>
      <trkpt lat="30.209204" lon="120.118991"><ele>76</ele><time>2026-03-08T03:41:43Z</time></trkpt>
      <trkpt lat="30.209327" lon="120.11908"><ele>79</ele><time>2026-03-08T03:41:52Z</time></trkpt>
      <trkpt lat="30.20928" lon="120.119416"><ele>78</ele><time>2026-03-08T03:42:04Z</time></trkpt>
      <trkpt lat="30.209333" lon="120.119627"><ele>75</ele><time>2026-03-08T03:42:13Z</time></trkpt>
      <trkpt lat="30.209266" lon="120.119737"><ele>75</ele><time>2026-03-08T03:42:20Z</time></trkpt>
      <trkpt lat="30.209407" lon="120.120652"><ele>70</ele><time>2026-03-08T03:43:02Z</time></trkpt>
      <trkpt lat="30.209366" lon="120.121007"><ele>64</ele><time>2026-03-08T03:43:16Z</time></trkpt>
      <trkpt lat="30.209427" lon="120.121419"><ele>64</ele><time>2026-03-08T03:43:35Z</time></trkpt>
      <trkpt lat="30.209278" lon="120.122287"><ele>64</ele><time>2026-03-08T03:44:06Z</time></trkpt>
      <trkpt lat="30.209293" lon="120.122846"><ele>63</ele><time>2026-03-08T03:44:26Z</time></trkpt>
      <trkpt lat="30.208854" lon="120.124708"><ele>51</ele><time>2026-03-08T03:45:44Z</time></trkpt>
      <trkpt lat="30.208433" lon="120.125354"><ele>46</ele><time>2026-03-08T03:46:15Z</time></trkpt>
      <trkpt lat="30.208367" lon="120.125863"><ele>45</ele><time>2026-03-08T03:46:34Z</time></trkpt>
      <trkpt lat="30.208071" lon="120.126539"><ele>38</ele><time>2026-03-08T03:46:58Z</time></trkpt>
      <trkpt lat="30.208184" lon="120.12719"><ele>38</ele><time>2026-03-08T03:47:18Z</time></trkpt>
      <trkpt lat="30.208155" lon="120.127376"><ele>36</ele><time>2026-03-08T03:47:24Z</time></trkpt>
      <trkpt lat="30.207779" lon="120.127816"><ele>32</ele><time>2026-03-08T03:47:41Z</time></trkpt>
      <trkpt lat="30.207578" lon="120.128433"><ele>32</ele><time>2026-03-08T03:48:04Z</time></trkpt>
      <trkpt lat="30.207401" lon="120.128666"><ele>29</ele><time>2026-03-08T03:48:16Z</time></trkpt>
      <trkpt lat="30.207545" lon="120.128662"><ele>29</ele><time>2026-03-08T03:49:26Z</time></trkpt>
      <trkpt lat="30.207353" lon="120.128665"><ele>26</ele><time>2026-03-08T03:51:20Z</time></trkpt>
      <trkpt lat="30.20718" lon="120.12881"><ele>26</ele><time>2026-03-08T03:51:35Z</time></trkpt>
      <trkpt lat="30.206802" lon="120.129413"><ele>26</ele><time>2026-03-08T03:52:01Z</time></trkpt>
      <trkpt lat="30.206603" lon="120.129908"><ele>23</ele><time>2026-03-08T03:52:23Z</time></trkpt>
      <trkpt lat="30.206396" lon="120.131521"><ele>18</ele><time>2026-03-08T03:53:20Z</time></trkpt>
      <trkpt lat="30.206519" lon="120.131722"><ele>16</ele><time>2026-03-08T03:53:29Z</time></trkpt>
      <trkpt lat="30.206863" lon="120.131858"><ele>17</ele><time>2026-03-08T03:53:44Z</time></trkpt>
      <trkpt lat="30.206994" lon="120.131843"><ele>18</ele><time>2026-03-08T03:53:52Z</time></trkpt>
      <trkpt lat="30.207075" lon="120.132004"><ele>19</ele><time>2026-03-08T03:54:03Z</time></trkpt>
      <trkpt lat="30.207124" lon="120.132368"><ele>15</ele><time>2026-03-08T03:54:16Z</time></trkpt>
      <trkpt lat="30.207092" lon="120.132529"><ele>15</ele><time>2026-03-08T03:54:22Z</time></trkpt>
      <trkpt lat="30.20677" lon="120.13284"><ele>19</ele><time>2026-03-08T03:54:40Z</time></trkpt>
      <trkpt lat="30.206656" lon="120.133127"><ele>18</ele><time>2026-03-08T03:54:55Z</time></trkpt>
      <trkpt lat="30.206882" lon="120.133262"><ele>23</ele><time>2026-03-08T03:55:31Z</time></trkpt>
      <trkpt lat="30.206938" lon="120.133353"><ele>27</ele><time>2026-03-08T03:55:45Z</time></trkpt>
      <trkpt lat="30.206958" lon="120.133638"><ele>30</ele><time>2026-03-08T03:56:19Z</time></trkpt>
      <trkpt lat="30.207056" lon="120.133739"><ele>35</ele><time>2026-03-08T03:56:50Z</time></trkpt>
      <trkpt lat="30.207345" lon="120.133709"><ele>50</ele><time>2026-03-08T03:58:16Z</time></trkpt>
      <trkpt lat="30.20746" lon="120.1338"><ele>60</ele><time>2026-03-08T03:59:02Z</time></trkpt>
      <trkpt lat="30.20776" lon="120.133823"><ele>71</ele><time>2026-03-08T04:00:00Z</time></trkpt>
      <trkpt lat="30.208363" lon="120.133636"><ele>85</ele><time>2026-03-08T04:01:06Z</time></trkpt>
      <trkpt lat="30.208699" lon="120.133428"><ele>97</ele><time>2026-03-08T04:02:02Z</time></trkpt>
      <trkpt lat="30.209124" lon="120.1333"><ele>108</ele><time>2026-03-08T04:02:53Z</time></trkpt>
      <trkpt lat="30.209614" lon="120.133295"><ele>119</ele><time>2026-03-08T04:03:51Z</time></trkpt>
      <trkpt lat="30.209812" lon="120.133137"><ele>123</ele><time>2026-03-08T04:04:21Z</time></trkpt>
      <trkpt lat="30.209913" lon="120.132963"><ele>128</ele><time>2026-03-08T04:04:45Z</time></trkpt>
      <trkpt lat="30.210081" lon="120.132868"><ele>131</ele><time>2026-03-08T04:05:11Z</time></trkpt>
      <trkpt lat="30.210395" lon="120.132707"><ele>139</ele><time>2026-03-08T04:05:55Z</time></trkpt>
      <trkpt lat="30.210773" lon="120.132659"><ele>139</ele><time>2026-03-08T04:06:24Z</time></trkpt>
      <trkpt lat="30.210976" lon="120.132498"><ele>133</ele><time>2026-03-08T04:07:08Z</time></trkpt>
      <trkpt lat="30.211156" lon="120.132444"><ele>124</ele><time>2026-03-08T04:08:02Z</time></trkpt>
      <trkpt lat="30.21135" lon="120.132549"><ele>112</ele><time>2026-03-08T04:09:07Z</time></trkpt>
      <trkpt lat="30.211617" lon="120.133139"><ele>96</ele><time>2026-03-08T04:10:34Z</time></trkpt>
      <trkpt lat="30.211967" lon="120.133242"><ele>84</ele><time>2026-03-08T04:11:08Z</time></trkpt>
      <trkpt lat="30.212192" lon="120.133164"><ele>83</ele><time>2026-03-08T04:11:17Z</time></trkpt>
      <trkpt lat="30.21245" lon="120.132973"><ele>80</ele><time>2026-03-08T04:11:29Z</time></trkpt>
      <trkpt lat="30.212553" lon="120.132987"><ele>79</ele><time>2026-03-08T04:11:33Z</time></trkpt>
      <trkpt lat="30.212857" lon="120.133312"><ele>81</ele><time>2026-03-08T04:11:50Z</time></trkpt>
      <trkpt lat="30.213034" lon="120.133903"><ele>74</ele><time>2026-03-08T04:12:28Z</time></trkpt>
      <trkpt lat="30.213135" lon="120.133899"><ele>75</ele><time>2026-03-08T04:12:40Z</time></trkpt>
      <trkpt lat="30.213933" lon="120.133451"><ele>78</ele><time>2026-03-08T04:13:24Z</time></trkpt>
      <trkpt lat="30.214113" lon="120.13373"><ele>75</ele><time>2026-03-08T04:13:41Z</time></trkpt>
      <trkpt lat="30.214667" lon="120.133793"><ele>71</ele><time>2026-03-08T04:14:21Z</time></trkpt>
      <trkpt lat="30.214926" lon="120.134012"><ele>67</ele><time>2026-03-08T04:14:40Z</time></trkpt>
      <trkpt lat="30.215014" lon="120.134299"><ele>68</ele><time>2026-03-08T04:14:54Z</time></trkpt>
      <trkpt lat="30.215516" lon="120.134328"><ele>56</ele><time>2026-03-08T04:15:21Z</time></trkpt>
      <trkpt lat="30.215627" lon="120.134455"><ele>54</ele><time>2026-03-08T04:15:28Z</time></trkpt>
      <trkpt lat="30.215932" lon="120.134596"><ele>53</ele><time>2026-03-08T04:15:48Z</time></trkpt>
      <trkpt lat="30.216065" lon="120.134937"><ele>57</ele><time>2026-03-08T04:16:14Z</time></trkpt>
      <trkpt lat="30.2163" lon="120.135182"><ele>64</ele><time>2026-03-08T04:16:39Z</time></trkpt>
      <trkpt lat="30.216402" lon="120.136096"><ele>77</ele><time>2026-03-08T04:18:06Z</time></trkpt>
      <trkpt lat="30.216376" lon="120.136285"><ele>82</ele><time>2026-03-08T04:18:25Z</time></trkpt>
      <trkpt lat="30.216193" lon="120.136553"><ele>88</ele><time>2026-03-08T04:18:59Z</time></trkpt>
      <trkpt lat="30.21613" lon="120.136814"><ele>94</ele><time>2026-03-08T04:19:39Z</time></trkpt>
      <trkpt lat="30.216008" lon="120.136901"><ele>99</ele><time>2026-03-08T04:19:59Z</time></trkpt>
      <trkpt lat="30.215496" lon="120.136895"><ele>100</ele><time>2026-03-08T04:20:37Z</time></trkpt>
      <trkpt lat="30.215225" lon="120.137054"><ele>109</ele><time>2026-03-08T04:21:22Z</time></trkpt>
      <trkpt lat="30.215037" lon="120.137399"><ele>120</ele><time>2026-03-08T04:22:20Z</time></trkpt>
      <trkpt lat="30.214997" lon="120.137663"><ele>128</ele><time>2026-03-08T04:22:58Z</time></trkpt>
      <trkpt lat="30.21502" lon="120.137769"><ele>131</ele><time>2026-03-08T04:23:15Z</time></trkpt>
      <trkpt lat="30.215112" lon="120.137708"><ele>135</ele><time>2026-03-08T04:23:32Z</time></trkpt>
      <trkpt lat="30.215183" lon="120.137751"><ele>136</ele><time>2026-03-08T04:23:43Z</time></trkpt>
      <trkpt lat="30.2152" lon="120.138039"><ele>142</ele><time>2026-03-08T04:24:06Z</time></trkpt>
      <trkpt lat="30.21489" lon="120.138466"><ele>141</ele><time>2026-03-08T04:24:40Z</time></trkpt>
      <trkpt lat="30.214845" lon="120.138704"><ele>141</ele><time>2026-03-08T04:24:57Z</time></trkpt>
      <trkpt lat="30.21492" lon="120.140284"><ele>144</ele><time>2026-03-08T04:26:29Z</time></trkpt>
      <trkpt lat="30.215031" lon="120.140791"><ele>145</ele><time>2026-03-08T04:26:55Z</time></trkpt>
      <trkpt lat="30.214814" lon="120.140735"><ele>134</ele><time>2026-03-08T04:27:14Z</time></trkpt>
      <trkpt lat="30.214762" lon="120.140892"><ele>129</ele><time>2026-03-08T04:27:27Z</time></trkpt>
      <trkpt lat="30.21475" lon="120.141558"><ele>118</ele><time>2026-03-08T04:28:01Z</time></trkpt>
      <trkpt lat="30.214839" lon="120.141839"><ele>118</ele><time>2026-03-08T04:28:19Z</time></trkpt>
      <trkpt lat="30.214801" lon="120.142166"><ele>111</ele><time>2026-03-08T04:28:36Z</time></trkpt>
      <trkpt lat="30.214883" lon="120.142563"><ele>111</ele><time>2026-03-08T04:28:56Z</time></trkpt>
      <trkpt lat="30.214873" lon="120.142832"><ele>109</ele><time>2026-03-08T04:29:07Z</time></trkpt>
      <trkpt lat="30.215595" lon="120.143838"><ele>99</ele><time>2026-03-08T04:30:22Z</time></trkpt>
      <trkpt lat="30.215467" lon="120.144061"><ele>87</ele><time>2026-03-08T04:30:43Z</time></trkpt>
      <trkpt lat="30.215324" lon="120.144036"><ele>86</ele><time>2026-03-08T04:30:53Z</time></trkpt>
      <trkpt lat="30.21537" lon="120.14412"><ele>81</ele><time>2026-03-08T04:31:06Z</time></trkpt>
      <trkpt lat="30.214862" lon="120.144132"><ele>70</ele><time>2026-03-08T04:31:39Z</time></trkpt>
      <trkpt lat="30.214735" lon="120.144288"><ele>61</ele><time>2026-03-08T04:32:01Z</time></trkpt>
      <trkpt lat="30.214682" lon="120.144641"><ele>53</ele><time>2026-03-08T04:32:20Z</time></trkpt>
      <trkpt lat="30.2146" lon="120.144636"><ele>53</ele><time>2026-03-08T04:32:27Z</time></trkpt>
      <trkpt lat="30.214571" lon="120.144779"><ele>48</ele><time>2026-03-08T04:32:43Z</time></trkpt>
      <trkpt lat="30.21398" lon="120.145614"><ele>17</ele><time>2026-03-08T04:33:53Z</time></trkpt>
      <trkpt lat="30.213714" lon="120.145761"><ele>16</ele><time>2026-03-08T04:34:08Z</time></trkpt>
      <trkpt lat="30.213324" lon="120.147104"><ele>19</ele><time>2026-03-08T04:35:10Z</time></trkpt>
      <trkpt lat="30.213363" lon="120.147223"><ele>17</ele><time>2026-03-08T04:35:18Z</time></trkpt>
      <trkpt lat="30.213466" lon="120.147265"><ele>15</ele><time>2026-03-08T04:35:27Z</time></trkpt>
      <trkpt lat="30.213562" lon="120.147416"><ele>15</ele><time>2026-03-08T04:35:37Z</time></trkpt>
      <trkpt lat="30.213942" lon="120.148416"><ele>13</ele><time>2026-03-08T04:36:30Z</time></trkpt>
      <trkpt lat="30.213674" lon="120.14866"><ele>16</ele><time>2026-03-08T04:36:44Z</time></trkpt>
      <trkpt lat="30.213737" lon="120.148787"><ele>17</ele><time>2026-03-08T04:36:56Z</time></trkpt>
      <trkpt lat="30.21369" lon="120.148861"><ele>18</ele><time>2026-03-08T04:37:01Z</time></trkpt>
      <trkpt lat="30.212975" lon="120.149218"><ele>18</ele><time>2026-03-08T04:37:49Z</time></trkpt>
      <trkpt lat="30.212845" lon="120.149348"><ele>16</ele><time>2026-03-08T04:38:04Z</time></trkpt>
      <trkpt lat="30.213527" lon="120.14992"><ele>20</ele><time>2026-03-08T04:38:58Z</time></trkpt>
      <trkpt lat="30.214142" lon="120.150612"><ele>31</ele><time>2026-03-08T04:39:57Z</time></trkpt>
      <trkpt lat="30.214556" lon="120.151322"><ele>34</ele><time>2026-03-08T04:40:50Z</time></trkpt>
      <trkpt lat="30.214521" lon="120.151522"><ele>36</ele><time>2026-03-08T04:41:02Z</time></trkpt>
      <trkpt lat="30.214635" lon="120.151903"><ele>45</ele><time>2026-03-08T04:41:36Z</time></trkpt>
      <trkpt lat="30.215112" lon="120.152397"><ele>58</ele><time>2026-03-08T04:42:49Z</time></trkpt>
      <trkpt lat="30.215124" lon="120.1525"><ele>61</ele><time>2026-03-08T04:42:57Z</time></trkpt>
      <trkpt lat="30.215046" lon="120.152655"><ele>66</ele><time>2026-03-08T04:43:12Z</time></trkpt>
      <trkpt lat="30.215273" lon="120.15267"><ele>69</ele><time>2026-03-08T04:43:40Z</time></trkpt>
      <trkpt lat="30.215606" lon="120.152871"><ele>79</ele><time>2026-03-08T04:44:36Z</time></trkpt>
      <trkpt lat="30.21572" lon="120.153044"><ele>83</ele><time>2026-03-08T04:45:05Z</time></trkpt>
      <trkpt lat="30.215904" lon="120.152994"><ele>90</ele><time>2026-03-08T04:45:29Z</time></trkpt>
      <trkpt lat="30.216907" lon="120.153774"><ele>124</ele><time>2026-03-08T04:48:31Z</time></trkpt>
      <trkpt lat="30.217179" lon="120.153847"><ele>135</ele><time>2026-03-08T04:49:17Z</time></trkpt>
      <trkpt lat="30.217869" lon="120.154202"><ele>144</ele><time>2026-03-08T04:50:43Z</time></trkpt>
      <trkpt lat="30.21843" lon="120.154566"><ele>136</ele><time>2026-03-08T04:51:15Z</time></trkpt>
      <trkpt lat="30.218467" lon="120.154678"><ele>134</ele><time>2026-03-08T04:51:25Z</time></trkpt>
      <trkpt lat="30.218383" lon="120.15481"><ele>131</ele><time>2026-03-08T04:51:38Z</time></trkpt>
      <trkpt lat="30.218424" lon="120.154964"><ele>134</ele><time>2026-03-08T04:51:50Z</time></trkpt>
      <trkpt lat="30.218306" lon="120.155346"><ele>132</ele><time>2026-03-08T04:52:09Z</time></trkpt>
      <trkpt lat="30.21845" lon="120.155731"><ele>126</ele><time>2026-03-08T04:52:31Z</time></trkpt>
      <trkpt lat="30.218496" lon="120.156204"><ele>119</ele><time>2026-03-08T04:52:53Z</time></trkpt>
      <trkpt lat="30.218401" lon="120.157143"><ele>103</ele><time>2026-03-08T04:53:44Z</time></trkpt>
      <trkpt lat="30.218566" lon="120.157765"><ele>95</ele><time>2026-03-08T04:54:28Z</time></trkpt>
      <trkpt lat="30.218778" lon="120.158126"><ele>94</ele><time>2026-03-08T04:54:50Z</time></trkpt>
      <trkpt lat="30.218841" lon="120.15843"><ele>95</ele><time>2026-03-08T04:55:02Z</time></trkpt>
      <trkpt lat="30.218759" lon="120.158908"><ele>93</ele><time>2026-03-08T04:55:30Z</time></trkpt>
      <trkpt lat="30.218567" lon="120.159226"><ele>90</ele><time>2026-03-08T04:55:47Z</time></trkpt>
      <trkpt lat="30.218477" lon="120.159518"><ele>88</ele><time>2026-03-08T04:56:02Z</time></trkpt>
      <trkpt lat="30.218422" lon="120.160281"><ele>81</ele><time>2026-03-08T04:56:40Z</time></trkpt>
      <trkpt lat="30.218524" lon="120.160389"><ele>79</ele><time>2026-03-08T04:56:53Z</time></trkpt>
      <trkpt lat="30.218769" lon="120.161034"><ele>69</ele><time>2026-03-08T04:57:34Z</time></trkpt>
      <trkpt lat="30.218941" lon="120.161134"><ele>65</ele><time>2026-03-08T04:57:50Z</time></trkpt>
      <trkpt lat="30.219141" lon="120.161394"><ele>51</ele><time>2026-03-08T04:58:14Z</time></trkpt>
      <trkpt lat="30.219365" lon="120.161884"><ele>38</ele><time>2026-03-08T04:58:45Z</time></trkpt>
      <trkpt lat="30.219525" lon="120.162489"><ele>33</ele><time>2026-03-08T04:59:05Z</time></trkpt>
      <trkpt lat="30.21968" lon="120.162494"><ele>31</ele><time>2026-03-08T04:59:12Z</time></trkpt>
      <trkpt lat="30.220139" lon="120.162318"><ele>26</ele><time>2026-03-08T04:59:31Z</time></trkpt>
      <trkpt lat="30.220511" lon="120.16239"><ele>23</ele><time>2026-03-08T04:59:54Z</time></trkpt>
      <trkpt lat="30.22073" lon="120.162196"><ele>24</ele><time>2026-03-08T05:00:06Z</time></trkpt>
      <trkpt lat="30.220761" lon="120.162319"><ele>23</ele><time>2026-03-08T05:00:12Z</time></trkpt>
      <trkpt lat="30.220685" lon="120.162449"><ele>22</ele><time>2026-03-08T05:00:17Z</time></trkpt>
      <trkpt lat="30.22052" lon="120.162578"><ele>24</ele><time>2026-03-08T05:00:30Z</time></trkpt>
      <trkpt lat="30.220381" lon="120.162545"><ele>25</ele><time>2026-03-08T05:01:28Z</time></trkpt>
      <trkpt lat="30.220369" lon="120.162591"><ele>22</ele><time>2026-03-08T05:02:16Z</time></trkpt>
    </trkseg>
  </trk>
</gpx>
