<?xml version="1.0" encoding="UTF-8"?>
<gpx version="1.1" creator="MyWorld" xmlns="http://www.topografix.com/GPX/1/1">
  <metadata><name>杭州径山</name></metadata>
  <trk>
    <name>杭州径山</name>
    <trkseg>
      <trkpt lat="30.396681" lon="119.78779"><ele>73</ele><time>2026-03-20T02:44:29Z</time></trkpt>
      <trkpt lat="30.396652" lon="119.787564"><ele>74</ele><time>2026-03-20T02:44:49Z</time></trkpt>
      <trkpt lat="30.396453" lon="119.787102"><ele>79</ele><time>2026-03-20T02:45:36Z</time></trkpt>
      <trkpt lat="30.396056" lon="119.78652"><ele>83</ele><time>2026-03-20T02:46:36Z</time></trkpt>
      <trkpt lat="30.3958" lon="119.78598"><ele>86</ele><time>2026-03-20T02:47:27Z</time></trkpt>
      <trkpt lat="30.395645" lon="119.78586"><ele>87</ele><time>2026-03-20T02:47:55Z</time></trkpt>
      <trkpt lat="30.394035" lon="119.783471"><ele>96</ele><time>2026-03-20T02:52:06Z</time></trkpt>
      <trkpt lat="30.393273" lon="119.78278"><ele>104</ele><time>2026-03-20T02:53:43Z</time></trkpt>
      <trkpt lat="30.392905" lon="119.78261"><ele>109</ele><time>2026-03-20T02:54:38Z</time></trkpt>
      <trkpt lat="30.392215" lon="119.781877"><ele>119</ele><time>2026-03-20T02:56:29Z</time></trkpt>
      <trkpt lat="30.391355" lon="119.781378"><ele>128</ele><time>2026-03-20T02:58:10Z</time></trkpt>
      <trkpt lat="30.390986" lon="119.780962"><ele>131</ele><time>2026-03-20T02:59:11Z</time></trkpt>
      <trkpt lat="30.390064" lon="119.78032"><ele>146</ele><time>2026-03-20T03:01:52Z</time></trkpt>
      <trkpt lat="30.38986" lon="119.779746"><ele>154</ele><time>2026-03-20T03:03:22Z</time></trkpt>
      <trkpt lat="30.389471" lon="119.779293"><ele>166</ele><time>2026-03-20T03:04:48Z</time></trkpt>
      <trkpt lat="30.389278" lon="119.77911"><ele>173</ele><time>2026-03-20T03:05:28Z</time></trkpt>
      <trkpt lat="30.389194" lon="119.77917"><ele>176</ele><time>2026-03-20T03:05:50Z</time></trkpt>
      <trkpt lat="30.389261" lon="119.779135"><ele>174</ele><time>2026-03-20T03:06:11Z</time></trkpt>
      <trkpt lat="30.389237" lon="119.779092"><ele>173</ele><time>2026-03-20T03:06:16Z</time></trkpt>
      <trkpt lat="30.3889" lon="119.778818"><ele>183</ele><time>2026-03-20T03:07:11Z</time></trkpt>
      <trkpt lat="30.3886" lon="119.77846"><ele>196</ele><time>2026-03-20T03:08:11Z</time></trkpt>
      <trkpt lat="30.388251" lon="119.778262"><ele>199</ele><time>2026-03-20T03:10:27Z</time></trkpt>
      <trkpt lat="30.388281" lon="119.778169"><ele>205</ele><time>2026-03-20T03:12:42Z</time></trkpt>
      <trkpt lat="30.388224" lon="119.778082"><ele>208</ele><time>2026-03-20T03:12:56Z</time></trkpt>
      <trkpt lat="30.388203" lon="119.778136"><ele>207</ele><time>2026-03-20T03:13:51Z</time></trkpt>
      <trkpt lat="30.38822" lon="119.778087"><ele>207</ele><time>2026-03-20T03:14:38Z</time></trkpt>
      <trkpt lat="30.387018" lon="119.777187"><ele>203</ele><time>2026-03-20T03:17:36Z</time></trkpt>
      <trkpt lat="30.386703" lon="119.776781"><ele>198</ele><time>2026-03-20T03:18:15Z</time></trkpt>
      <trkpt lat="30.386022" lon="119.775576"><ele>187</ele><time>2026-03-20T03:20:01Z</time></trkpt>
      <trkpt lat="30.385715" lon="119.775516"><ele>187</ele><time>2026-03-20T03:20:29Z</time></trkpt>
      <trkpt lat="30.385474" lon="119.775641"><ele>190</ele><time>2026-03-20T03:20:52Z</time></trkpt>
      <trkpt lat="30.384867" lon="119.775561"><ele>186</ele><time>2026-03-20T03:21:42Z</time></trkpt>
      <trkpt lat="30.384531" lon="119.775393"><ele>185</ele><time>2026-03-20T03:22:16Z</time></trkpt>
      <trkpt lat="30.383975" lon="119.775502"><ele>183</ele><time>2026-03-20T03:23:07Z</time></trkpt>
      <trkpt lat="30.383113" lon="119.774554"><ele>208</ele><time>2026-03-20T03:28:23Z</time></trkpt>
      <trkpt lat="30.382786" lon="119.774505"><ele>213</ele><time>2026-03-20T03:29:02Z</time></trkpt>
      <trkpt lat="30.382684" lon="119.774324"><ele>223</ele><time>2026-03-20T03:29:36Z</time></trkpt>
      <trkpt lat="30.382553" lon="119.774539"><ele>231</ele><time>2026-03-20T03:30:06Z</time></trkpt>
      <trkpt lat="30.382464" lon="119.774218"><ele>236</ele><time>2026-03-20T03:31:05Z</time></trkpt>
      <trkpt lat="30.382318" lon="119.773993"><ele>244</ele><time>2026-03-20T03:31:44Z</time></trkpt>
      <trkpt lat="30.382213" lon="119.773515"><ele>253</ele><time>2026-03-20T03:32:47Z</time></trkpt>
      <trkpt lat="30.382019" lon="119.773308"><ele>254</ele><time>2026-03-20T03:34:05Z</time></trkpt>
      <trkpt lat="30.381284" lon="119.773099"><ele>273</ele><time>2026-03-20T03:35:22Z</time></trkpt>
      <trkpt lat="30.381383" lon="119.772359"><ele>278</ele><time>2026-03-20T03:36:37Z</time></trkpt>
      <trkpt lat="30.381063" lon="119.772198"><ele>279</ele><time>2026-03-20T03:37:07Z</time></trkpt>
      <trkpt lat="30.380996" lon="119.771752"><ele>270</ele><time>2026-03-20T03:37:53Z</time></trkpt>
      <trkpt lat="30.381068" lon="119.772157"><ele>275</ele><time>2026-03-20T03:38:29Z</time></trkpt>
      <trkpt lat="30.381366" lon="119.77228"><ele>278</ele><time>2026-03-20T03:38:57Z</time></trkpt>
      <trkpt lat="30.381417" lon="119.772379"><ele>279</ele><time>2026-03-20T03:39:05Z</time></trkpt>
      <trkpt lat="30.381284" lon="119.773103"><ele>276</ele><time>2026-03-20T03:39:51Z</time></trkpt>
      <trkpt lat="30.381918" lon="119.773254"><ele>252</ele><time>2026-03-20T03:41:51Z</time></trkpt>
      <trkpt lat="30.382459" lon="119.773718"><ele>259</ele><time>2026-03-20T03:43:30Z</time></trkpt>
      <trkpt lat="30.382394" lon="119.773279"><ele>265</ele><time>2026-03-20T03:44:39Z</time></trkpt>
      <trkpt lat="30.382198" lon="119.77303"><ele>276</ele><time>2026-03-20T03:47:01Z</time></trkpt>
      <trkpt lat="30.382313" lon="119.772821"><ele>281</ele><time>2026-03-20T03:47:23Z</time></trkpt>
      <trkpt lat="30.381788" lon="119.772612"><ele>297</ele><time>2026-03-20T03:50:26Z</time></trkpt>
      <trkpt lat="30.381798" lon="119.772273"><ele>302</ele><time>2026-03-20T03:50:57Z</time></trkpt>
      <trkpt lat="30.38167" lon="119.771781"><ele>307</ele><time>2026-03-20T03:52:04Z</time></trkpt>
      <trkpt lat="30.381684" lon="119.771306"><ele>321</ele><time>2026-03-20T03:52:43Z</time></trkpt>
      <trkpt lat="30.381817" lon="119.771166"><ele>332</ele><time>2026-03-20T03:54:45Z</time></trkpt>
      <trkpt lat="30.381833" lon="119.771383"><ele>333</ele><time>2026-03-20T03:58:01Z</time></trkpt>
      <trkpt lat="30.382" lon="119.771323"><ele>334</ele><time>2026-03-20T03:58:39Z</time></trkpt>
      <trkpt lat="30.381962" lon="119.771522"><ele>339</ele><time>2026-03-20T03:59:21Z</time></trkpt>
      <trkpt lat="30.38205" lon="119.771673"><ele>342</ele><time>2026-03-20T03:59:35Z</time></trkpt>
      <trkpt lat="30.382084" lon="119.771629"><ele>344</ele><time>2026-03-20T03:59:46Z</time></trkpt>
      <trkpt lat="30.382076" lon="119.771508"><ele>347</ele><time>2026-03-20T04:00:07Z</time></trkpt>
      <trkpt lat="30.382177" lon="119.771317"><ele>351</ele><time>2026-03-20T04:00:38Z</time></trkpt>
      <trkpt lat="30.382248" lon="119.770461"><ele>369</ele><time>2026-03-20T04:02:23Z</time></trkpt>
      <trkpt lat="30.382291" lon="119.770355"><ele>370</ele><time>2026-03-20T04:02:50Z</time></trkpt>
      <trkpt lat="30.382335" lon="119.77037"><ele>372</ele><time>2026-03-20T04:04:30Z</time></trkpt>
      <trkpt lat="30.382545" lon="119.769712"><ele>391</ele><time>2026-03-20T04:10:24Z</time></trkpt>
      <trkpt lat="30.382529" lon="119.769207"><ele>398</ele><time>2026-03-20T04:11:27Z</time></trkpt>
      <trkpt lat="30.382857" lon="119.768886"><ele>412</ele><time>2026-03-20T04:12:31Z</time></trkpt>
      <trkpt lat="30.383017" lon="119.768484"><ele>417</ele><time>2026-03-20T04:15:34Z</time></trkpt>
      <trkpt lat="30.383044" lon="119.768041"><ele>432</ele><time>2026-03-20T04:16:39Z</time></trkpt>
      <trkpt lat="30.383133" lon="119.767779"><ele>435</ele><time>2026-03-20T04:17:27Z</time></trkpt>
      <trkpt lat="30.383197" lon="119.767695"><ele>439</ele><time>2026-03-20T04:17:43Z</time></trkpt>
      <trkpt lat="30.383398" lon="119.767642"><ele>451</ele><time>2026-03-20T04:18:45Z</time></trkpt>
      <trkpt lat="30.383439" lon="119.767459"><ele>453</ele><time>2026-03-20T04:19:00Z</time></trkpt>
      <trkpt lat="30.383224" lon="119.767065"><ele>460</ele><time>2026-03-20T04:19:45Z</time></trkpt>
      <trkpt lat="30.383148" lon="119.76668"><ele>466</ele><time>2026-03-20T04:20:38Z</time></trkpt>
      <trkpt lat="30.383105" lon="119.766281"><ele>477</ele><time>2026-03-20T04:21:25Z</time></trkpt>
      <trkpt lat="30.3832" lon="119.766092"><ele>481</ele><time>2026-03-20T04:21:48Z</time></trkpt>
      <trkpt lat="30.383216" lon="119.765762"><ele>487</ele><time>2026-03-20T04:22:33Z</time></trkpt>
      <trkpt lat="30.382703" lon="119.765066"><ele>501</ele><time>2026-03-20T04:24:10Z</time></trkpt>
      <trkpt lat="30.382579" lon="119.764308"><ele>510</ele><time>2026-03-20T04:25:25Z</time></trkpt>
      <trkpt lat="30.382146" lon="119.764067"><ele>522</ele><time>2026-03-20T04:26:23Z</time></trkpt>
      <trkpt lat="30.382202" lon="119.763994"><ele>516</ele><time>2026-03-20T04:26:50Z</time></trkpt>
      <trkpt lat="30.382156" lon="119.763961"><ele>512</ele><time>2026-03-20T04:27:14Z</time></trkpt>
      <trkpt lat="30.382173" lon="119.763868"><ele>509</ele><time>2026-03-20T04:28:30Z</time></trkpt>
      <trkpt lat="30.381921" lon="119.763988"><ele>510</ele><time>2026-03-20T04:29:28Z</time></trkpt>
      <trkpt lat="30.382089" lon="119.76396"><ele>508</ele><time>2026-03-20T04:29:40Z</time></trkpt>
      <trkpt lat="30.382123" lon="119.764088"><ele>512</ele><time>2026-03-20T04:30:09Z</time></trkpt>
      <trkpt lat="30.382171" lon="119.763736"><ele>509</ele><time>2026-03-20T04:31:06Z</time></trkpt>
      <trkpt lat="30.382107" lon="119.763993"><ele>520</ele><time>2026-03-20T04:33:13Z</time></trkpt>
      <trkpt lat="30.38182" lon="119.763472"><ele>522</ele><time>2026-03-20T04:36:04Z</time></trkpt>
      <trkpt lat="30.381804" lon="119.76298"><ele>520</ele><time>2026-03-20T04:37:03Z</time></trkpt>
      <trkpt lat="30.382042" lon="119.762751"><ele>522</ele><time>2026-03-20T04:37:42Z</time></trkpt>
      <trkpt lat="30.38212" lon="119.762551"><ele>523</ele><time>2026-03-20T04:38:06Z</time></trkpt>
      <trkpt lat="30.381886" lon="119.762138"><ele>525</ele><time>2026-03-20T04:38:52Z</time></trkpt>
      <trkpt lat="30.381908" lon="119.761749"><ele>520</ele><time>2026-03-20T04:41:26Z</time></trkpt>
      <trkpt lat="30.381803" lon="119.761608"><ele>522</ele><time>2026-03-20T04:41:42Z</time></trkpt>
      <trkpt lat="30.381822" lon="119.761389"><ele>526</ele><time>2026-03-20T04:42:04Z</time></trkpt>
      <trkpt lat="30.381954" lon="119.761262"><ele>529</ele><time>2026-03-20T04:43:59Z</time></trkpt>
      <trkpt lat="30.381899" lon="119.761271"><ele>529</ele><time>2026-03-20T04:44:47Z</time></trkpt>
      <trkpt lat="30.381915" lon="119.761219"><ele>529</ele><time>2026-03-20T04:46:20Z</time></trkpt>
      <trkpt lat="30.382272" lon="119.761128"><ele>527</ele><time>2026-03-20T04:47:50Z</time></trkpt>
      <trkpt lat="30.382121" lon="119.761127"><ele>528</ele><time>2026-03-20T04:47:55Z</time></trkpt>
      <trkpt lat="30.38201" lon="119.760876"><ele>526</ele><time>2026-03-20T04:48:32Z</time></trkpt>
      <trkpt lat="30.382127" lon="119.760908"><ele>526</ele><time>2026-03-20T04:48:40Z</time></trkpt>
      <trkpt lat="30.38217" lon="119.760801"><ele>527</ele><time>2026-03-20T04:48:52Z</time></trkpt>
      <trkpt lat="30.382273" lon="119.760774"><ele>524</ele><time>2026-03-20T04:49:08Z</time></trkpt>
      <trkpt lat="30.382379" lon="119.76086"><ele>529</ele><time>2026-03-20T04:49:38Z</time></trkpt>
      <trkpt lat="30.382665" lon="119.760789"><ele>531</ele><time>2026-03-20T04:50:45Z</time></trkpt>
      <trkpt lat="30.382746" lon="119.76073"><ele>525</ele><time>2026-03-20T04:51:25Z</time></trkpt>
      <trkpt lat="30.382707" lon="119.760545"><ele>524</ele><time>2026-03-20T04:53:28Z</time></trkpt>
      <trkpt lat="30.382798" lon="119.76043"><ele>526</ele><time>2026-03-20T04:54:24Z</time></trkpt>
      <trkpt lat="30.382518" lon="119.759914"><ele>526</ele><time>2026-03-20T04:56:04Z</time></trkpt>
      <trkpt lat="30.382474" lon="119.759966"><ele>525</ele><time>2026-03-20T04:56:16Z</time></trkpt>
      <trkpt lat="30.382495" lon="119.760103"><ele>524</ele><time>2026-03-20T04:56:25Z</time></trkpt>
      <trkpt lat="30.382611" lon="119.760281"><ele>525</ele><time>2026-03-20T04:57:39Z</time></trkpt>
      <trkpt lat="30.382592" lon="119.760187"><ele>525</ele><time>2026-03-20T04:57:48Z</time></trkpt>
      <trkpt lat="30.382521" lon="119.760207"><ele>525</ele><time>2026-03-20T04:57:56Z</time></trkpt>
      <trkpt lat="30.382636" lon="119.760228"><ele>526</ele><time>2026-03-20T04:58:13Z</time></trkpt>
      <trkpt lat="30.382527" lon="119.760228"><ele>525</ele><time>2026-03-20T04:58:55Z</time></trkpt>
      <trkpt lat="30.382622" lon="119.76026"><ele>525</ele><time>2026-03-20T05:00:32Z</time></trkpt>
      <trkpt lat="30.382543" lon="119.760247"><ele>525</ele><time>2026-03-20T05:00:49Z</time></trkpt>
      <trkpt lat="30.382659" lon="119.760248"><ele>525</ele><time>2026-03-20T05:08:24Z</time></trkpt>
      <trkpt lat="30.382159" lon="119.76009"><ele>516</ele><time>2026-03-20T06:18:10Z</time></trkpt>
      <trkpt lat="30.382097" lon="119.760173"><ele>527</ele><time>2026-03-20T06:18:42Z</time></trkpt>
      <trkpt lat="30.382026" lon="119.75997"><ele>531</ele><time>2026-03-20T06:22:15Z</time></trkpt>
      <trkpt lat="30.381611" lon="119.759769"><ele>537</ele><time>2026-03-20T06:23:18Z</time></trkpt>
      <trkpt lat="30.381087" lon="119.760089"><ele>535</ele><time>2026-03-20T06:24:30Z</time></trkpt>
      <trkpt lat="30.380865" lon="119.760505"><ele>532</ele><time>2026-03-20T06:25:26Z</time></trkpt>
      <trkpt lat="30.380773" lon="119.760361"><ele>528</ele><time>2026-03-20T06:25:58Z</time></trkpt>
      <trkpt lat="30.380792" lon="119.760241"><ele>528</ele><time>2026-03-20T06:26:09Z</time></trkpt>
      <trkpt lat="30.380278" lon="119.760024"><ele>523</ele><time>2026-03-20T06:27:30Z</time></trkpt>
      <trkpt lat="30.380325" lon="119.759853"><ele>519</ele><time>2026-03-20T06:27:58Z</time></trkpt>
      <trkpt lat="30.380305" lon="119.760012"><ele>519</ele><time>2026-03-20T06:28:02Z</time></trkpt>
      <trkpt lat="30.380411" lon="119.760113"><ele>521</ele><time>2026-03-20T06:28:17Z</time></trkpt>
      <trkpt lat="30.38037" lon="119.760196"><ele>523</ele><time>2026-03-20T06:28:38Z</time></trkpt>
      <trkpt lat="30.380212" lon="119.760058"><ele>526</ele><time>2026-03-20T06:29:02Z</time></trkpt>
      <trkpt lat="30.380076" lon="119.760098"><ele>525</ele><time>2026-03-20T06:29:17Z</time></trkpt>
      <trkpt lat="30.380189" lon="119.76002"><ele>522</ele><time>2026-03-20T06:30:09Z</time></trkpt>
      <trkpt lat="30.380337" lon="119.760174"><ele>526</ele><time>2026-03-20T06:30:30Z</time></trkpt>
    </trkseg>
  </trk>
</gpx>
