<?xml version="1.0" encoding="UTF-8"?>
<gpx version="1.1" creator="MyWorld" xmlns="http://www.topografix.com/GPX/1/1">
  <metadata><name>松花湖越野跑 30 公里</name></metadata>
  <trk>
    <name>松花湖越野跑 30 公里</name>
    <trkseg>
      <trkpt lat="43.682821" lon="126.620297"><ele>330</ele><time>2026-09-05T00:30:11Z</time></trkpt>
      <trkpt lat="43.683172" lon="126.619975"><ele>330</ele><time>2026-09-05T00:30:55Z</time></trkpt>
      <trkpt lat="43.683258" lon="126.619555"><ele>331</ele><time>2026-09-05T00:31:11Z</time></trkpt>
      <trkpt lat="43.683418" lon="126.619301"><ele>332</ele><time>2026-09-05T00:31:23Z</time></trkpt>
      <trkpt lat="43.683549" lon="126.619236"><ele>332</ele><time>2026-09-05T00:31:29Z</time></trkpt>
      <trkpt lat="43.684205" lon="126.61916"><ele>328</ele><time>2026-09-05T00:31:55Z</time></trkpt>
      <trkpt lat="43.684311" lon="126.619023"><ele>326</ele><time>2026-09-05T00:32:01Z</time></trkpt>
      <trkpt lat="43.684449" lon="126.61851"><ele>324</ele><time>2026-09-05T00:32:13Z</time></trkpt>
      <trkpt lat="43.684746" lon="126.618393"><ele>325</ele><time>2026-09-05T00:32:28Z</time></trkpt>
      <trkpt lat="43.684864" lon="126.618065"><ele>323</ele><time>2026-09-05T00:32:38Z</time></trkpt>
      <trkpt lat="43.684806" lon="126.617311"><ele>323</ele><time>2026-09-05T00:32:56Z</time></trkpt>
      <trkpt lat="43.684881" lon="126.617086"><ele>323</ele><time>2026-09-05T00:33:02Z</time></trkpt>
      <trkpt lat="43.685081" lon="126.61676"><ele>321</ele><time>2026-09-05T00:33:12Z</time></trkpt>
      <trkpt lat="43.685278" lon="126.616591"><ele>320</ele><time>2026-09-05T00:33:20Z</time></trkpt>
      <trkpt lat="43.685994" lon="126.616454"><ele>314</ele><time>2026-09-05T00:33:42Z</time></trkpt>
      <trkpt lat="43.686238" lon="126.616341"><ele>314</ele><time>2026-09-05T00:33:50Z</time></trkpt>
      <trkpt lat="43.686273" lon="126.616018"><ele>313</ele><time>2026-09-05T00:33:58Z</time></trkpt>
      <trkpt lat="43.686043" lon="126.61518"><ele>312</ele><time>2026-09-05T00:34:18Z</time></trkpt>
      <trkpt lat="43.685947" lon="126.613674"><ele>313</ele><time>2026-09-05T00:34:54Z</time></trkpt>
      <trkpt lat="43.685838" lon="126.613607"><ele>315</ele><time>2026-09-05T00:34:59Z</time></trkpt>
      <trkpt lat="43.685421" lon="126.613639"><ele>318</ele><time>2026-09-05T00:35:13Z</time></trkpt>
      <trkpt lat="43.685285" lon="126.613572"><ele>319</ele><time>2026-09-05T00:35:19Z</time></trkpt>
      <trkpt lat="43.685004" lon="126.613076"><ele>322</ele><time>2026-09-05T00:35:38Z</time></trkpt>
      <trkpt lat="43.684339" lon="126.612188"><ele>330</ele><time>2026-09-05T00:36:23Z</time></trkpt>
      <trkpt lat="43.683391" lon="126.610696"><ele>343</ele><time>2026-09-05T00:37:33Z</time></trkpt>
      <trkpt lat="43.682819" lon="126.610403"><ele>352</ele><time>2026-09-05T00:38:09Z</time></trkpt>
      <trkpt lat="43.682616" lon="126.610194"><ele>355</ele><time>2026-09-05T00:38:26Z</time></trkpt>
      <trkpt lat="43.682396" lon="126.610158"><ele>358</ele><time>2026-09-05T00:38:37Z</time></trkpt>
      <trkpt lat="43.682124" lon="126.6102"><ele>364</ele><time>2026-09-05T00:38:55Z</time></trkpt>
      <trkpt lat="43.681783" lon="126.6104"><ele>372</ele><time>2026-09-05T00:39:25Z</time></trkpt>
      <trkpt lat="43.681333" lon="126.610427"><ele>383</ele><time>2026-09-05T00:40:11Z</time></trkpt>
      <trkpt lat="43.6808" lon="126.610614"><ele>397</ele><time>2026-09-05T00:41:05Z</time></trkpt>
      <trkpt lat="43.680615" lon="126.610609"><ele>403</ele><time>2026-09-05T00:41:25Z</time></trkpt>
      <trkpt lat="43.680543" lon="126.610547"><ele>405</ele><time>2026-09-05T00:41:32Z</time></trkpt>
      <trkpt lat="43.680487" lon="126.610063"><ele>405</ele><time>2026-09-05T00:41:45Z</time></trkpt>
      <trkpt lat="43.680512" lon="126.60965"><ele>404</ele><time>2026-09-05T00:41:55Z</time></trkpt>
      <trkpt lat="43.680682" lon="126.608832"><ele>403</ele><time>2026-09-05T00:42:22Z</time></trkpt>
      <trkpt lat="43.680719" lon="126.608346"><ele>404</ele><time>2026-09-05T00:42:36Z</time></trkpt>
      <trkpt lat="43.68064" lon="126.606722"><ele>408</ele><time>2026-09-05T00:43:26Z</time></trkpt>
      <trkpt lat="43.680489" lon="126.605317"><ele>402</ele><time>2026-09-05T00:44:07Z</time></trkpt>
      <trkpt lat="43.680245" lon="126.604314"><ele>399</ele><time>2026-09-05T00:44:37Z</time></trkpt>
      <trkpt lat="43.680198" lon="126.60367"><ele>395</ele><time>2026-09-05T00:44:55Z</time></trkpt>
      <trkpt lat="43.680112" lon="126.603482"><ele>395</ele><time>2026-09-05T00:45:04Z</time></trkpt>
      <trkpt lat="43.679916" lon="126.603556"><ele>399</ele><time>2026-09-05T00:45:21Z</time></trkpt>
      <trkpt lat="43.679373" lon="126.603594"><ele>412</ele><time>2026-09-05T00:46:19Z</time></trkpt>
      <trkpt lat="43.678562" lon="126.60391"><ele>438</ele><time>2026-09-05T00:47:54Z</time></trkpt>
      <trkpt lat="43.677702" lon="126.604033"><ele>461</ele><time>2026-09-05T00:49:25Z</time></trkpt>
      <trkpt lat="43.677496" lon="126.604007"><ele>466</ele><time>2026-09-05T00:49:47Z</time></trkpt>
      <trkpt lat="43.676757" lon="126.603401"><ele>487</ele><time>2026-09-05T00:51:35Z</time></trkpt>
      <trkpt lat="43.676456" lon="126.603029"><ele>500</ele><time>2026-09-05T00:52:35Z</time></trkpt>
      <trkpt lat="43.676028" lon="126.602112"><ele>535</ele><time>2026-09-05T00:54:51Z</time></trkpt>
      <trkpt lat="43.675802" lon="126.601735"><ele>547</ele><time>2026-09-05T00:55:44Z</time></trkpt>
      <trkpt lat="43.675379" lon="126.601488"><ele>563</ele><time>2026-09-05T00:57:03Z</time></trkpt>
      <trkpt lat="43.674585" lon="126.601556"><ele>587</ele><time>2026-09-05T00:59:03Z</time></trkpt>
      <trkpt lat="43.674341" lon="126.601689"><ele>590</ele><time>2026-09-05T00:59:37Z</time></trkpt>
      <trkpt lat="43.674194" lon="126.601882"><ele>594</ele><time>2026-09-05T00:59:52Z</time></trkpt>
      <trkpt lat="43.673939" lon="126.602494"><ele>600</ele><time>2026-09-05T01:00:31Z</time></trkpt>
      <trkpt lat="43.673755" lon="126.603294"><ele>604</ele><time>2026-09-05T01:01:03Z</time></trkpt>
      <trkpt lat="43.673336" lon="126.604643"><ele>623</ele><time>2026-09-05T01:02:40Z</time></trkpt>
      <trkpt lat="43.673137" lon="126.60646"><ele>649</ele><time>2026-09-05T01:04:49Z</time></trkpt>
      <trkpt lat="43.672962" lon="126.60719"><ele>667</ele><time>2026-09-05T01:05:59Z</time></trkpt>
      <trkpt lat="43.672896" lon="126.607736"><ele>680</ele><time>2026-09-05T01:06:59Z</time></trkpt>
      <trkpt lat="43.672653" lon="126.60887"><ele>712</ele><time>2026-09-05T01:09:04Z</time></trkpt>
      <trkpt lat="43.672522" lon="126.609036"><ele>716</ele><time>2026-09-05T01:09:29Z</time></trkpt>
      <trkpt lat="43.672223" lon="126.60926"><ele>720</ele><time>2026-09-05T01:10:01Z</time></trkpt>
      <trkpt lat="43.67203" lon="126.609639"><ele>724</ele><time>2026-09-05T01:10:29Z</time></trkpt>
      <trkpt lat="43.672036" lon="126.609829"><ele>724</ele><time>2026-09-05T01:10:39Z</time></trkpt>
      <trkpt lat="43.672122" lon="126.609968"><ele>725</ele><time>2026-09-05T01:10:47Z</time></trkpt>
      <trkpt lat="43.672472" lon="126.609891"><ele>721</ele><time>2026-09-05T01:11:04Z</time></trkpt>
      <trkpt lat="43.672874" lon="126.610038"><ele>712</ele><time>2026-09-05T01:11:20Z</time></trkpt>
      <trkpt lat="43.672943" lon="126.610118"><ele>711</ele><time>2026-09-05T01:11:24Z</time></trkpt>
      <trkpt lat="43.672945" lon="126.610492"><ele>706</ele><time>2026-09-05T01:11:35Z</time></trkpt>
      <trkpt lat="43.672776" lon="126.61095"><ele>698</ele><time>2026-09-05T01:11:50Z</time></trkpt>
      <trkpt lat="43.67286" lon="126.611327"><ele>690</ele><time>2026-09-05T01:12:06Z</time></trkpt>
      <trkpt lat="43.672855" lon="126.611643"><ele>683</ele><time>2026-09-05T01:12:17Z</time></trkpt>
      <trkpt lat="43.672608" lon="126.612122"><ele>675</ele><time>2026-09-05T01:12:40Z</time></trkpt>
      <trkpt lat="43.672064" lon="126.612531"><ele>669</ele><time>2026-09-05T01:13:02Z</time></trkpt>
      <trkpt lat="43.671775" lon="126.612948"><ele>664</ele><time>2026-09-05T01:13:18Z</time></trkpt>
      <trkpt lat="43.671579" lon="126.613356"><ele>664</ele><time>2026-09-05T01:13:32Z</time></trkpt>
      <trkpt lat="43.671388" lon="126.613988"><ele>657</ele><time>2026-09-05T01:13:53Z</time></trkpt>
      <trkpt lat="43.670837" lon="126.61477"><ele>647</ele><time>2026-09-05T01:14:23Z</time></trkpt>
      <trkpt lat="43.670708" lon="126.614841"><ele>648</ele><time>2026-09-05T01:14:29Z</time></trkpt>
      <trkpt lat="43.670168" lon="126.614851"><ele>660</ele><time>2026-09-05T01:15:09Z</time></trkpt>
      <trkpt lat="43.670054" lon="126.614958"><ele>661</ele><time>2026-09-05T01:15:21Z</time></trkpt>
      <trkpt lat="43.66999" lon="126.614945"><ele>661</ele><time>2026-09-05T01:15:34Z</time></trkpt>
      <trkpt lat="43.669973" lon="126.614894"><ele>661</ele><time>2026-09-05T01:15:38Z</time></trkpt>
      <trkpt lat="43.670077" lon="126.614557"><ele>666</ele><time>2026-09-05T01:16:08Z</time></trkpt>
      <trkpt lat="43.670019" lon="126.614501"><ele>670</ele><time>2026-09-05T01:16:18Z</time></trkpt>
      <trkpt lat="43.669762" lon="126.614547"><ele>671</ele><time>2026-09-05T01:16:38Z</time></trkpt>
      <trkpt lat="43.669693" lon="126.614411"><ele>673</ele><time>2026-09-05T01:16:48Z</time></trkpt>
      <trkpt lat="43.669873" lon="126.614007"><ele>680</ele><time>2026-09-05T01:17:23Z</time></trkpt>
      <trkpt lat="43.66985" lon="126.613803"><ele>684</ele><time>2026-09-05T01:17:36Z</time></trkpt>
      <trkpt lat="43.669323" lon="126.61387"><ele>692</ele><time>2026-09-05T01:18:14Z</time></trkpt>
      <trkpt lat="43.669236" lon="126.613843"><ele>693</ele><time>2026-09-05T01:18:22Z</time></trkpt>
      <trkpt lat="43.669178" lon="126.61375"><ele>695</ele><time>2026-09-05T01:18:30Z</time></trkpt>
      <trkpt lat="43.669202" lon="126.613624"><ele>698</ele><time>2026-09-05T01:18:40Z</time></trkpt>
      <trkpt lat="43.669461" lon="126.613184"><ele>703</ele><time>2026-09-05T01:19:16Z</time></trkpt>
      <trkpt lat="43.669517" lon="126.612986"><ele>705</ele><time>2026-09-05T01:19:30Z</time></trkpt>
      <trkpt lat="43.669485" lon="126.612865"><ele>709</ele><time>2026-09-05T01:19:40Z</time></trkpt>
      <trkpt lat="43.668906" lon="126.612958"><ele>715</ele><time>2026-09-05T01:20:27Z</time></trkpt>
      <trkpt lat="43.668677" lon="126.612923"><ele>727</ele><time>2026-09-05T01:20:44Z</time></trkpt>
      <trkpt lat="43.668381" lon="126.612996"><ele>725</ele><time>2026-09-05T01:21:00Z</time></trkpt>
      <trkpt lat="43.667906" lon="126.613244"><ele>722</ele><time>2026-09-05T01:21:29Z</time></trkpt>
      <trkpt lat="43.66754" lon="126.613655"><ele>724</ele><time>2026-09-05T01:21:59Z</time></trkpt>
      <trkpt lat="43.666813" lon="126.614126"><ele>742</ele><time>2026-09-05T01:23:19Z</time></trkpt>
      <trkpt lat="43.666365" lon="126.614606"><ele>755</ele><time>2026-09-05T01:24:14Z</time></trkpt>
      <trkpt lat="43.666055" lon="126.614837"><ele>764</ele><time>2026-09-05T01:24:54Z</time></trkpt>
      <trkpt lat="43.665765" lon="126.615252"><ele>774</ele><time>2026-09-05T01:25:37Z</time></trkpt>
      <trkpt lat="43.665248" lon="126.615553"><ele>786</ele><time>2026-09-05T01:26:36Z</time></trkpt>
      <trkpt lat="43.665048" lon="126.615756"><ele>790</ele><time>2026-09-05T01:27:06Z</time></trkpt>
      <trkpt lat="43.664508" lon="126.61587"><ele>806</ele><time>2026-09-05T01:28:08Z</time></trkpt>
      <trkpt lat="43.66385" lon="126.616202"><ele>827</ele><time>2026-09-05T01:29:44Z</time></trkpt>
      <trkpt lat="43.663524" lon="126.616243"><ele>837</ele><time>2026-09-05T01:30:34Z</time></trkpt>
      <trkpt lat="43.663265" lon="126.616362"><ele>844</ele><time>2026-09-05T01:31:06Z</time></trkpt>
      <trkpt lat="43.662342" lon="126.617245"><ele>860</ele><time>2026-09-05T01:32:39Z</time></trkpt>
      <trkpt lat="43.66158" lon="126.61834"><ele>883</ele><time>2026-09-05T01:34:32Z</time></trkpt>
      <trkpt lat="43.661469" lon="126.618411"><ele>885</ele><time>2026-09-05T01:34:43Z</time></trkpt>
      <trkpt lat="43.661165" lon="126.618459"><ele>893</ele><time>2026-09-05T01:35:06Z</time></trkpt>
      <trkpt lat="43.661026" lon="126.619131"><ele>899</ele><time>2026-09-05T01:37:08Z</time></trkpt>
      <trkpt lat="43.660742" lon="126.61942"><ele>903</ele><time>2026-09-05T01:37:34Z</time></trkpt>
      <trkpt lat="43.660434" lon="126.619847"><ele>910</ele><time>2026-09-05T01:38:06Z</time></trkpt>
      <trkpt lat="43.660302" lon="126.619725"><ele>913</ele><time>2026-09-05T01:38:19Z</time></trkpt>
      <trkpt lat="43.660159" lon="126.619781"><ele>913</ele><time>2026-09-05T01:38:28Z</time></trkpt>
      <trkpt lat="43.659998" lon="126.619761"><ele>913</ele><time>2026-09-05T01:38:35Z</time></trkpt>
      <trkpt lat="43.659819" lon="126.619638"><ele>914</ele><time>2026-09-05T01:38:43Z</time></trkpt>
      <trkpt lat="43.659682" lon="126.619462"><ele>911</ele><time>2026-09-05T01:38:52Z</time></trkpt>
      <trkpt lat="43.659276" lon="126.619352"><ele>912</ele><time>2026-09-05T01:39:13Z</time></trkpt>
      <trkpt lat="43.659021" lon="126.619148"><ele>918</ele><time>2026-09-05T01:39:33Z</time></trkpt>
      <trkpt lat="43.65867" lon="126.619196"><ele>925</ele><time>2026-09-05T01:40:11Z</time></trkpt>
      <trkpt lat="43.658433" lon="126.619478"><ele>932</ele><time>2026-09-05T01:40:41Z</time></trkpt>
      <trkpt lat="43.658237" lon="126.619289"><ele>934</ele><time>2026-09-05T01:40:58Z</time></trkpt>
      <trkpt lat="43.658053" lon="126.61921"><ele>932</ele><time>2026-09-05T01:41:14Z</time></trkpt>
      <trkpt lat="43.657761" lon="126.618832"><ele>919</ele><time>2026-09-05T01:41:42Z</time></trkpt>
      <trkpt lat="43.657648" lon="126.61845"><ele>907</ele><time>2026-09-05T01:42:03Z</time></trkpt>
      <trkpt lat="43.657484" lon="126.618291"><ele>899</ele><time>2026-09-05T01:42:15Z</time></trkpt>
      <trkpt lat="43.657234" lon="126.617866"><ele>881</ele><time>2026-09-05T01:42:43Z</time></trkpt>
      <trkpt lat="43.656427" lon="126.617259"><ele>873</ele><time>2026-09-05T01:43:29Z</time></trkpt>
      <trkpt lat="43.656096" lon="126.616729"><ele>870</ele><time>2026-09-05T01:43:54Z</time></trkpt>
      <trkpt lat="43.655706" lon="126.616403"><ele>868</ele><time>2026-09-05T01:44:23Z</time></trkpt>
      <trkpt lat="43.655423" lon="126.616451"><ele>865</ele><time>2026-09-05T01:44:47Z</time></trkpt>
      <trkpt lat="43.655085" lon="126.616672"><ele>856</ele><time>2026-09-05T01:45:19Z</time></trkpt>
      <trkpt lat="43.654634" lon="126.616467"><ele>841</ele><time>2026-09-05T01:45:53Z</time></trkpt>
      <trkpt lat="43.654235" lon="126.616554"><ele>836</ele><time>2026-09-05T01:46:17Z</time></trkpt>
      <trkpt lat="43.653933" lon="126.616303"><ele>838</ele><time>2026-09-05T01:46:38Z</time></trkpt>
      <trkpt lat="43.653485" lon="126.616251"><ele>838</ele><time>2026-09-05T01:47:07Z</time></trkpt>
      <trkpt lat="43.652978" lon="126.616433"><ele>831</ele><time>2026-09-05T01:47:40Z</time></trkpt>
      <trkpt lat="43.652666" lon="126.616469"><ele>826</ele><time>2026-09-05T01:47:56Z</time></trkpt>
      <trkpt lat="43.652283" lon="126.616392"><ele>818</ele><time>2026-09-05T01:48:33Z</time></trkpt>
      <trkpt lat="43.651668" lon="126.616391"><ele>809</ele><time>2026-09-05T01:49:09Z</time></trkpt>
      <trkpt lat="43.651505" lon="126.616319"><ele>804</ele><time>2026-09-05T01:49:20Z</time></trkpt>
      <trkpt lat="43.651181" lon="126.61639"><ele>798</ele><time>2026-09-05T01:49:36Z</time></trkpt>
      <trkpt lat="43.650908" lon="126.616356"><ele>797</ele><time>2026-09-05T01:49:45Z</time></trkpt>
      <trkpt lat="43.650817" lon="126.616407"><ele>794</ele><time>2026-09-05T01:49:49Z</time></trkpt>
      <trkpt lat="43.650462" lon="126.61686"><ele>793</ele><time>2026-09-05T01:50:11Z</time></trkpt>
      <trkpt lat="43.650296" lon="126.616848"><ele>798</ele><time>2026-09-05T01:50:20Z</time></trkpt>
      <trkpt lat="43.649996" lon="126.617054"><ele>798</ele><time>2026-09-05T01:50:38Z</time></trkpt>
      <trkpt lat="43.649663" lon="126.617127"><ele>801</ele><time>2026-09-05T01:50:53Z</time></trkpt>
      <trkpt lat="43.649337" lon="126.617097"><ele>799</ele><time>2026-09-05T01:51:12Z</time></trkpt>
      <trkpt lat="43.649063" lon="126.617162"><ele>797</ele><time>2026-09-05T01:51:25Z</time></trkpt>
      <trkpt lat="43.648306" lon="126.617984"><ele>800</ele><time>2026-09-05T01:52:04Z</time></trkpt>
      <trkpt lat="43.647715" lon="126.617859"><ele>802</ele><time>2026-09-05T01:52:36Z</time></trkpt>
      <trkpt lat="43.647249" lon="126.61799"><ele>803</ele><time>2026-09-05T01:52:56Z</time></trkpt>
      <trkpt lat="43.646838" lon="126.618005"><ele>805</ele><time>2026-09-05T01:53:12Z</time></trkpt>
      <trkpt lat="43.646297" lon="126.618365"><ele>808</ele><time>2026-09-05T01:53:50Z</time></trkpt>
      <trkpt lat="43.645475" lon="126.618388"><ele>805</ele><time>2026-09-05T01:54:26Z</time></trkpt>
      <trkpt lat="43.644917" lon="126.618614"><ele>805</ele><time>2026-09-05T01:54:50Z</time></trkpt>
      <trkpt lat="43.644642" lon="126.618604"><ele>807</ele><time>2026-09-05T01:55:03Z</time></trkpt>
      <trkpt lat="43.644107" lon="126.618946"><ele>811</ele><time>2026-09-05T01:55:33Z</time></trkpt>
      <trkpt lat="43.643764" lon="126.619382"><ele>811</ele><time>2026-09-05T01:55:55Z</time></trkpt>
      <trkpt lat="43.643499" lon="126.619522"><ele>809</ele><time>2026-09-05T01:56:09Z</time></trkpt>
      <trkpt lat="43.642832" lon="126.61951"><ele>806</ele><time>2026-09-05T01:56:45Z</time></trkpt>
      <trkpt lat="43.642434" lon="126.619346"><ele>803</ele><time>2026-09-05T01:57:13Z</time></trkpt>
      <trkpt lat="43.642165" lon="126.619332"><ele>802</ele><time>2026-09-05T01:57:27Z</time></trkpt>
      <trkpt lat="43.64157" lon="126.619687"><ele>788</ele><time>2026-09-05T01:58:04Z</time></trkpt>
      <trkpt lat="43.641409" lon="126.619657"><ele>787</ele><time>2026-09-05T01:58:11Z</time></trkpt>
      <trkpt lat="43.640839" lon="126.619263"><ele>779</ele><time>2026-09-05T01:58:38Z</time></trkpt>
      <trkpt lat="43.640745" lon="126.619087"><ele>777</ele><time>2026-09-05T01:58:45Z</time></trkpt>
      <trkpt lat="43.64074" lon="126.618875"><ele>776</ele><time>2026-09-05T01:58:51Z</time></trkpt>
      <trkpt lat="43.640818" lon="126.618477"><ele>776</ele><time>2026-09-05T01:59:05Z</time></trkpt>
      <trkpt lat="43.641004" lon="126.618303"><ele>772</ele><time>2026-09-05T01:59:17Z</time></trkpt>
      <trkpt lat="43.641045" lon="126.618108"><ele>768</ele><time>2026-09-05T01:59:24Z</time></trkpt>
      <trkpt lat="43.64085" lon="126.617763"><ele>762</ele><time>2026-09-05T01:59:39Z</time></trkpt>
      <trkpt lat="43.64067" lon="126.617556"><ele>757</ele><time>2026-09-05T01:59:49Z</time></trkpt>
      <trkpt lat="43.640564" lon="126.617316"><ele>749</ele><time>2026-09-05T01:59:58Z</time></trkpt>
      <trkpt lat="43.640268" lon="126.617033"><ele>738</ele><time>2026-09-05T02:00:15Z</time></trkpt>
      <trkpt lat="43.640076" lon="126.616926"><ele>730</ele><time>2026-09-05T02:00:27Z</time></trkpt>
      <trkpt lat="43.639872" lon="126.616557"><ele>715</ele><time>2026-09-05T02:00:44Z</time></trkpt>
      <trkpt lat="43.639771" lon="126.616234"><ele>708</ele><time>2026-09-05T02:01:04Z</time></trkpt>
      <trkpt lat="43.639612" lon="126.616007"><ele>697</ele><time>2026-09-05T02:01:21Z</time></trkpt>
      <trkpt lat="43.639575" lon="126.615664"><ele>683</ele><time>2026-09-05T02:01:44Z</time></trkpt>
      <trkpt lat="43.639771" lon="126.615184"><ele>669</ele><time>2026-09-05T02:02:11Z</time></trkpt>
      <trkpt lat="43.639543" lon="126.615083"><ele>660</ele><time>2026-09-05T02:02:27Z</time></trkpt>
      <trkpt lat="43.639482" lon="126.614873"><ele>655</ele><time>2026-09-05T02:02:43Z</time></trkpt>
      <trkpt lat="43.639271" lon="126.614782"><ele>648</ele><time>2026-09-05T02:03:01Z</time></trkpt>
      <trkpt lat="43.639071" lon="126.614513"><ele>640</ele><time>2026-09-05T02:03:22Z</time></trkpt>
      <trkpt lat="43.638642" lon="126.614143"><ele>625</ele><time>2026-09-05T02:03:56Z</time></trkpt>
      <trkpt lat="43.638332" lon="126.614229"><ele>618</ele><time>2026-09-05T02:04:20Z</time></trkpt>
      <trkpt lat="43.638145" lon="126.614132"><ele>608</ele><time>2026-09-05T02:04:37Z</time></trkpt>
      <trkpt lat="43.638111" lon="126.614066"><ele>607</ele><time>2026-09-05T02:04:43Z</time></trkpt>
      <trkpt lat="43.638133" lon="126.613776"><ele>596</ele><time>2026-09-05T02:04:58Z</time></trkpt>
      <trkpt lat="43.637945" lon="126.613523"><ele>585</ele><time>2026-09-05T02:05:16Z</time></trkpt>
      <trkpt lat="43.637618" lon="126.613483"><ele>574</ele><time>2026-09-05T02:05:38Z</time></trkpt>
      <trkpt lat="43.637415" lon="126.613071"><ele>563</ele><time>2026-09-05T02:05:56Z</time></trkpt>
      <trkpt lat="43.63734" lon="126.612797"><ele>557</ele><time>2026-09-05T02:06:08Z</time></trkpt>
      <trkpt lat="43.636956" lon="126.612169"><ele>539</ele><time>2026-09-05T02:06:36Z</time></trkpt>
      <trkpt lat="43.636803" lon="126.61165"><ele>529</ele><time>2026-09-05T02:06:54Z</time></trkpt>
      <trkpt lat="43.636633" lon="126.611428"><ele>521</ele><time>2026-09-05T02:07:06Z</time></trkpt>
      <trkpt lat="43.636518" lon="126.611138"><ele>515</ele><time>2026-09-05T02:07:18Z</time></trkpt>
      <trkpt lat="43.636312" lon="126.610831"><ele>507</ele><time>2026-09-05T02:07:37Z</time></trkpt>
      <trkpt lat="43.636137" lon="126.610673"><ele>503</ele><time>2026-09-05T02:07:49Z</time></trkpt>
      <trkpt lat="43.635803" lon="126.61015"><ele>491</ele><time>2026-09-05T02:08:16Z</time></trkpt>
      <trkpt lat="43.635642" lon="126.609584"><ele>482</ele><time>2026-09-05T02:08:39Z</time></trkpt>
      <trkpt lat="43.635598" lon="126.608798"><ele>478</ele><time>2026-09-05T02:09:06Z</time></trkpt>
      <trkpt lat="43.635495" lon="126.608298"><ele>472</ele><time>2026-09-05T02:09:23Z</time></trkpt>
      <trkpt lat="43.635287" lon="126.607912"><ele>469</ele><time>2026-09-05T02:09:36Z</time></trkpt>
      <trkpt lat="43.635258" lon="126.607375"><ele>462</ele><time>2026-09-05T02:09:52Z</time></trkpt>
      <trkpt lat="43.635054" lon="126.606964"><ele>460</ele><time>2026-09-05T02:10:07Z</time></trkpt>
      <trkpt lat="43.634674" lon="126.606511"><ele>455</ele><time>2026-09-05T02:10:25Z</time></trkpt>
      <trkpt lat="43.634381" lon="126.60624"><ele>453</ele><time>2026-09-05T02:10:37Z</time></trkpt>
      <trkpt lat="43.634284" lon="126.606246"><ele>453</ele><time>2026-09-05T02:10:41Z</time></trkpt>
      <trkpt lat="43.634089" lon="126.606649"><ele>453</ele><time>2026-09-05T02:10:53Z</time></trkpt>
      <trkpt lat="43.633902" lon="126.606915"><ele>450</ele><time>2026-09-05T02:11:04Z</time></trkpt>
      <trkpt lat="43.632954" lon="126.607779"><ele>440</ele><time>2026-09-05T02:11:48Z</time></trkpt>
      <trkpt lat="43.63224" lon="126.608258"><ele>430</ele><time>2026-09-05T02:12:16Z</time></trkpt>
      <trkpt lat="43.631331" lon="126.60848"><ele>427</ele><time>2026-09-05T02:12:50Z</time></trkpt>
      <trkpt lat="43.630603" lon="126.60889"><ele>422</ele><time>2026-09-05T02:13:21Z</time></trkpt>
      <trkpt lat="43.630553" lon="126.609077"><ele>419</ele><time>2026-09-05T02:13:27Z</time></trkpt>
      <trkpt lat="43.630736" lon="126.609594"><ele>421</ele><time>2026-09-05T02:13:44Z</time></trkpt>
      <trkpt lat="43.6308" lon="126.610049"><ele>420</ele><time>2026-09-05T02:14:00Z</time></trkpt>
      <trkpt lat="43.630768" lon="126.610163"><ele>419</ele><time>2026-09-05T02:14:05Z</time></trkpt>
      <trkpt lat="43.630376" lon="126.610858"><ele>414</ele><time>2026-09-05T02:14:36Z</time></trkpt>
      <trkpt lat="43.630268" lon="126.611235"><ele>412</ele><time>2026-09-05T02:14:46Z</time></trkpt>
      <trkpt lat="43.630033" lon="126.61168"><ele>410</ele><time>2026-09-05T02:15:00Z</time></trkpt>
      <trkpt lat="43.629852" lon="126.611877"><ele>406</ele><time>2026-09-05T02:15:09Z</time></trkpt>
      <trkpt lat="43.629577" lon="126.611983"><ele>403</ele><time>2026-09-05T02:15:19Z</time></trkpt>
      <trkpt lat="43.629382" lon="126.612329"><ele>403</ele><time>2026-09-05T02:15:31Z</time></trkpt>
      <trkpt lat="43.629102" lon="126.612562"><ele>401</ele><time>2026-09-05T02:15:43Z</time></trkpt>
      <trkpt lat="43.628982" lon="126.612925"><ele>399</ele><time>2026-09-05T02:15:53Z</time></trkpt>
      <trkpt lat="43.628727" lon="126.613424"><ele>394</ele><time>2026-09-05T02:16:08Z</time></trkpt>
      <trkpt lat="43.62863" lon="126.613914"><ele>394</ele><time>2026-09-05T02:16:22Z</time></trkpt>
      <trkpt lat="43.628287" lon="126.614419"><ele>391</ele><time>2026-09-05T02:16:40Z</time></trkpt>
      <trkpt lat="43.627826" lon="126.615373"><ele>388</ele><time>2026-09-05T02:17:12Z</time></trkpt>
      <trkpt lat="43.627594" lon="126.616124"><ele>387</ele><time>2026-09-05T02:17:33Z</time></trkpt>
      <trkpt lat="43.627441" lon="126.617052"><ele>385</ele><time>2026-09-05T02:18:00Z</time></trkpt>
      <trkpt lat="43.627198" lon="126.617688"><ele>382</ele><time>2026-09-05T02:18:18Z</time></trkpt>
      <trkpt lat="43.626825" lon="126.618903"><ele>378</ele><time>2026-09-05T02:18:57Z</time></trkpt>
      <trkpt lat="43.626535" lon="126.619395"><ele>375</ele><time>2026-09-05T02:19:13Z</time></trkpt>
      <trkpt lat="43.626155" lon="126.619662"><ele>370</ele><time>2026-09-05T02:19:30Z</time></trkpt>
      <trkpt lat="43.626082" lon="126.619766"><ele>369</ele><time>2026-09-05T02:19:34Z</time></trkpt>
      <trkpt lat="43.626063" lon="126.619904"><ele>370</ele><time>2026-09-05T02:19:38Z</time></trkpt>
      <trkpt lat="43.626206" lon="126.62076"><ele>370</ele><time>2026-09-05T02:19:59Z</time></trkpt>
      <trkpt lat="43.626075" lon="126.622121"><ele>363</ele><time>2026-09-05T02:20:35Z</time></trkpt>
      <trkpt lat="43.626073" lon="126.623508"><ele>364</ele><time>2026-09-05T02:21:15Z</time></trkpt>
      <trkpt lat="43.626122" lon="126.623868"><ele>364</ele><time>2026-09-05T02:21:32Z</time></trkpt>
      <trkpt lat="43.626159" lon="126.623811"><ele>365</ele><time>2026-09-05T02:21:39Z</time></trkpt>
      <trkpt lat="43.626256" lon="126.623825"><ele>366</ele><time>2026-09-05T02:22:13Z</time></trkpt>
      <trkpt lat="43.626169" lon="126.623835"><ele>365</ele><time>2026-09-05T02:22:49Z</time></trkpt>
      <trkpt lat="43.625618" lon="126.624723"><ele>365</ele><time>2026-09-05T02:23:19Z</time></trkpt>
      <trkpt lat="43.625226" lon="126.625246"><ele>364</ele><time>2026-09-05T02:23:39Z</time></trkpt>
      <trkpt lat="43.625012" lon="126.625839"><ele>364</ele><time>2026-09-05T02:23:55Z</time></trkpt>
      <trkpt lat="43.625106" lon="126.625849"><ele>364</ele><time>2026-09-05T02:24:01Z</time></trkpt>
      <trkpt lat="43.625336" lon="126.625567"><ele>367</ele><time>2026-09-05T02:24:15Z</time></trkpt>
      <trkpt lat="43.625492" lon="126.625501"><ele>368</ele><time>2026-09-05T02:24:24Z</time></trkpt>
      <trkpt lat="43.625783" lon="126.625711"><ele>370</ele><time>2026-09-05T02:24:43Z</time></trkpt>
      <trkpt lat="43.626531" lon="126.626015"><ele>375</ele><time>2026-09-05T02:25:36Z</time></trkpt>
      <trkpt lat="43.627491" lon="126.626578"><ele>381</ele><time>2026-09-05T02:26:36Z</time></trkpt>
      <trkpt lat="43.627609" lon="126.626716"><ele>383</ele><time>2026-09-05T02:26:43Z</time></trkpt>
      <trkpt lat="43.627726" lon="126.627095"><ele>385</ele><time>2026-09-05T02:27:01Z</time></trkpt>
      <trkpt lat="43.627852" lon="126.62722"><ele>388</ele><time>2026-09-05T02:27:10Z</time></trkpt>
      <trkpt lat="43.62824" lon="126.627268"><ele>391</ele><time>2026-09-05T02:27:30Z</time></trkpt>
      <trkpt lat="43.628791" lon="126.627222"><ele>393</ele><time>2026-09-05T02:28:04Z</time></trkpt>
      <trkpt lat="43.629228" lon="126.627672"><ele>398</ele><time>2026-09-05T02:28:46Z</time></trkpt>
      <trkpt lat="43.629567" lon="126.62783"><ele>399</ele><time>2026-09-05T02:29:03Z</time></trkpt>
      <trkpt lat="43.629822" lon="126.627616"><ele>399</ele><time>2026-09-05T02:29:19Z</time></trkpt>
      <trkpt lat="43.630741" lon="126.627507"><ele>414</ele><time>2026-09-05T02:30:31Z</time></trkpt>
      <trkpt lat="43.631294" lon="126.627209"><ele>419</ele><time>2026-09-05T02:31:13Z</time></trkpt>
      <trkpt lat="43.63207" lon="126.627065"><ele>431</ele><time>2026-09-05T02:32:09Z</time></trkpt>
      <trkpt lat="43.632549" lon="126.626767"><ele>439</ele><time>2026-09-05T02:32:51Z</time></trkpt>
      <trkpt lat="43.63279" lon="126.626781"><ele>441</ele><time>2026-09-05T02:33:11Z</time></trkpt>
      <trkpt lat="43.63323" lon="126.626938"><ele>445</ele><time>2026-09-05T02:33:37Z</time></trkpt>
      <trkpt lat="43.633578" lon="126.626797"><ele>452</ele><time>2026-09-05T02:34:08Z</time></trkpt>
      <trkpt lat="43.633776" lon="126.626811"><ele>455</ele><time>2026-09-05T02:34:28Z</time></trkpt>
      <trkpt lat="43.634239" lon="126.626683"><ele>464</ele><time>2026-09-05T02:35:14Z</time></trkpt>
      <trkpt lat="43.634403" lon="126.626716"><ele>465</ele><time>2026-09-05T02:35:25Z</time></trkpt>
      <trkpt lat="43.634855" lon="126.626955"><ele>468</ele><time>2026-09-05T02:35:59Z</time></trkpt>
      <trkpt lat="43.635404" lon="126.626949"><ele>474</ele><time>2026-09-05T02:36:23Z</time></trkpt>
      <trkpt lat="43.635872" lon="126.627103"><ele>474</ele><time>2026-09-05T02:36:51Z</time></trkpt>
      <trkpt lat="43.636434" lon="126.627113"><ele>482</ele><time>2026-09-05T02:37:30Z</time></trkpt>
      <trkpt lat="43.636631" lon="126.627254"><ele>485</ele><time>2026-09-05T02:37:50Z</time></trkpt>
      <trkpt lat="43.636851" lon="126.627265"><ele>488</ele><time>2026-09-05T02:38:08Z</time></trkpt>
      <trkpt lat="43.637127" lon="126.627396"><ele>492</ele><time>2026-09-05T02:38:34Z</time></trkpt>
      <trkpt lat="43.637643" lon="126.627448"><ele>505</ele><time>2026-09-05T02:39:27Z</time></trkpt>
      <trkpt lat="43.638169" lon="126.627639"><ele>515</ele><time>2026-09-05T02:40:24Z</time></trkpt>
      <trkpt lat="43.638413" lon="126.627791"><ele>517</ele><time>2026-09-05T02:40:46Z</time></trkpt>
      <trkpt lat="43.638798" lon="126.628289"><ele>525</ele><time>2026-09-05T02:41:34Z</time></trkpt>
      <trkpt lat="43.639239" lon="126.628435"><ele>531</ele><time>2026-09-05T02:42:06Z</time></trkpt>
      <trkpt lat="43.639442" lon="126.628608"><ele>536</ele><time>2026-09-05T02:42:24Z</time></trkpt>
      <trkpt lat="43.639544" lon="126.628608"><ele>538</ele><time>2026-09-05T02:42:33Z</time></trkpt>
      <trkpt lat="43.639707" lon="126.62848"><ele>541</ele><time>2026-09-05T02:42:54Z</time></trkpt>
      <trkpt lat="43.639991" lon="126.627898"><ele>554</ele><time>2026-09-05T02:43:57Z</time></trkpt>
      <trkpt lat="43.640273" lon="126.627604"><ele>565</ele><time>2026-09-05T02:44:47Z</time></trkpt>
      <trkpt lat="43.640528" lon="126.62724"><ele>576</ele><time>2026-09-05T02:45:36Z</time></trkpt>
      <trkpt lat="43.640703" lon="126.626759"><ele>587</ele><time>2026-09-05T02:46:33Z</time></trkpt>
      <trkpt lat="43.640967" lon="126.626369"><ele>602</ele><time>2026-09-05T02:47:43Z</time></trkpt>
      <trkpt lat="43.641212" lon="126.625832"><ele>614</ele><time>2026-09-05T02:49:04Z</time></trkpt>
      <trkpt lat="43.64115" lon="126.625696"><ele>615</ele><time>2026-09-05T02:49:19Z</time></trkpt>
      <trkpt lat="43.640961" lon="126.625672"><ele>616</ele><time>2026-09-05T02:49:39Z</time></trkpt>
      <trkpt lat="43.640799" lon="126.625534"><ele>617</ele><time>2026-09-05T02:49:54Z</time></trkpt>
      <trkpt lat="43.640462" lon="126.624729"><ele>635</ele><time>2026-09-05T02:51:22Z</time></trkpt>
      <trkpt lat="43.640048" lon="126.624224"><ele>652</ele><time>2026-09-05T02:52:41Z</time></trkpt>
      <trkpt lat="43.640003" lon="126.624067"><ele>659</ele><time>2026-09-05T02:53:12Z</time></trkpt>
      <trkpt lat="43.640347" lon="126.623817"><ele>661</ele><time>2026-09-05T02:53:52Z</time></trkpt>
      <trkpt lat="43.640858" lon="126.623318"><ele>679</ele><time>2026-09-05T02:55:19Z</time></trkpt>
      <trkpt lat="43.641023" lon="126.623235"><ele>681</ele><time>2026-09-05T02:55:37Z</time></trkpt>
      <trkpt lat="43.641302" lon="126.623231"><ele>684</ele><time>2026-09-05T02:55:57Z</time></trkpt>
      <trkpt lat="43.641785" lon="126.623425"><ele>688</ele><time>2026-09-05T02:56:40Z</time></trkpt>
      <trkpt lat="43.642221" lon="126.623514"><ele>688</ele><time>2026-09-05T02:57:13Z</time></trkpt>
      <trkpt lat="43.642584" lon="126.623687"><ele>696</ele><time>2026-09-05T02:57:53Z</time></trkpt>
      <trkpt lat="43.642866" lon="126.624121"><ele>705</ele><time>2026-09-05T02:58:34Z</time></trkpt>
      <trkpt lat="43.643306" lon="126.624962"><ele>716</ele><time>2026-09-05T02:59:42Z</time></trkpt>
      <trkpt lat="43.643687" lon="126.625422"><ele>728</ele><time>2026-09-05T03:00:37Z</time></trkpt>
      <trkpt lat="43.643792" lon="126.626037"><ele>732</ele><time>2026-09-05T03:01:15Z</time></trkpt>
      <trkpt lat="43.643978" lon="126.626446"><ele>735</ele><time>2026-09-05T03:01:46Z</time></trkpt>
      <trkpt lat="43.644583" lon="126.627078"><ele>728</ele><time>2026-09-05T03:03:27Z</time></trkpt>
      <trkpt lat="43.64483" lon="126.627425"><ele>723</ele><time>2026-09-05T03:03:42Z</time></trkpt>
      <trkpt lat="43.644977" lon="126.627455"><ele>715</ele><time>2026-09-05T03:03:50Z</time></trkpt>
      <trkpt lat="43.645269" lon="126.627738"><ele>704</ele><time>2026-09-05T03:04:15Z</time></trkpt>
      <trkpt lat="43.645396" lon="126.627737"><ele>698</ele><time>2026-09-05T03:04:24Z</time></trkpt>
      <trkpt lat="43.645715" lon="126.62814"><ele>683</ele><time>2026-09-05T03:04:51Z</time></trkpt>
      <trkpt lat="43.646041" lon="126.628298"><ele>669</ele><time>2026-09-05T03:05:15Z</time></trkpt>
      <trkpt lat="43.646162" lon="126.628476"><ele>664</ele><time>2026-09-05T03:05:36Z</time></trkpt>
      <trkpt lat="43.646416" lon="126.62855"><ele>653</ele><time>2026-09-05T03:06:03Z</time></trkpt>
      <trkpt lat="43.646743" lon="126.628838"><ele>642</ele><time>2026-09-05T03:06:27Z</time></trkpt>
      <trkpt lat="43.646956" lon="126.628944"><ele>638</ele><time>2026-09-05T03:06:42Z</time></trkpt>
      <trkpt lat="43.6472" lon="126.629275"><ele>630</ele><time>2026-09-05T03:07:05Z</time></trkpt>
      <trkpt lat="43.6477" lon="126.629265"><ele>608</ele><time>2026-09-05T03:07:49Z</time></trkpt>
      <trkpt lat="43.648271" lon="126.629898"><ele>594</ele><time>2026-09-05T03:08:21Z</time></trkpt>
      <trkpt lat="43.648921" lon="126.630061"><ele>571</ele><time>2026-09-05T03:09:03Z</time></trkpt>
      <trkpt lat="43.649271" lon="126.63053"><ele>564</ele><time>2026-09-05T03:09:29Z</time></trkpt>
      <trkpt lat="43.649502" lon="126.630632"><ele>556</ele><time>2026-09-05T03:09:45Z</time></trkpt>
      <trkpt lat="43.64957" lon="126.630461"><ele>551</ele><time>2026-09-05T03:09:54Z</time></trkpt>
      <trkpt lat="43.649595" lon="126.630043"><ele>545</ele><time>2026-09-05T03:10:06Z</time></trkpt>
      <trkpt lat="43.649444" lon="126.629173"><ele>539</ele><time>2026-09-05T03:10:35Z</time></trkpt>
      <trkpt lat="43.649555" lon="126.628897"><ele>529</ele><time>2026-09-05T03:10:54Z</time></trkpt>
      <trkpt lat="43.649744" lon="126.628986"><ele>524</ele><time>2026-09-05T03:11:11Z</time></trkpt>
      <trkpt lat="43.649866" lon="126.629153"><ele>517</ele><time>2026-09-05T03:11:19Z</time></trkpt>
      <trkpt lat="43.649994" lon="126.629481"><ele>515</ele><time>2026-09-05T03:11:35Z</time></trkpt>
      <trkpt lat="43.650293" lon="126.6299"><ele>509</ele><time>2026-09-05T03:11:56Z</time></trkpt>
      <trkpt lat="43.650458" lon="126.630034"><ele>505</ele><time>2026-09-05T03:12:09Z</time></trkpt>
      <trkpt lat="43.65083" lon="126.630196"><ele>497</ele><time>2026-09-05T03:12:32Z</time></trkpt>
      <trkpt lat="43.651298" lon="126.630694"><ele>477</ele><time>2026-09-05T03:12:58Z</time></trkpt>
      <trkpt lat="43.651566" lon="126.631344"><ele>468</ele><time>2026-09-05T03:13:28Z</time></trkpt>
      <trkpt lat="43.651716" lon="126.632245"><ele>457</ele><time>2026-09-05T03:13:58Z</time></trkpt>
      <trkpt lat="43.651989" lon="126.632738"><ele>452</ele><time>2026-09-05T03:14:16Z</time></trkpt>
      <trkpt lat="43.652125" lon="126.63335"><ele>449</ele><time>2026-09-05T03:14:35Z</time></trkpt>
      <trkpt lat="43.652241" lon="126.633618"><ele>440</ele><time>2026-09-05T03:14:47Z</time></trkpt>
      <trkpt lat="43.652167" lon="126.634309"><ele>436</ele><time>2026-09-05T03:15:06Z</time></trkpt>
      <trkpt lat="43.652201" lon="126.634827"><ele>430</ele><time>2026-09-05T03:15:20Z</time></trkpt>
      <trkpt lat="43.652164" lon="126.63526"><ele>433</ele><time>2026-09-05T03:15:33Z</time></trkpt>
      <trkpt lat="43.652281" lon="126.635944"><ele>426</ele><time>2026-09-05T03:15:53Z</time></trkpt>
      <trkpt lat="43.652257" lon="126.636404"><ele>423</ele><time>2026-09-05T03:16:07Z</time></trkpt>
      <trkpt lat="43.652392" lon="126.636957"><ele>422</ele><time>2026-09-05T03:16:25Z</time></trkpt>
      <trkpt lat="43.652458" lon="126.637514"><ele>416</ele><time>2026-09-05T03:16:41Z</time></trkpt>
      <trkpt lat="43.65236" lon="126.638103"><ele>413</ele><time>2026-09-05T03:16:59Z</time></trkpt>
      <trkpt lat="43.652364" lon="126.638412"><ele>411</ele><time>2026-09-05T03:17:07Z</time></trkpt>
      <trkpt lat="43.65248" lon="126.638925"><ele>408</ele><time>2026-09-05T03:17:21Z</time></trkpt>
      <trkpt lat="43.652576" lon="126.640098"><ele>401</ele><time>2026-09-05T03:17:55Z</time></trkpt>
      <trkpt lat="43.652707" lon="126.640733"><ele>398</ele><time>2026-09-05T03:18:13Z</time></trkpt>
      <trkpt lat="43.652962" lon="126.641249"><ele>393</ele><time>2026-09-05T03:18:31Z</time></trkpt>
      <trkpt lat="43.653109" lon="126.642595"><ele>383</ele><time>2026-09-05T03:19:11Z</time></trkpt>
      <trkpt lat="43.65336" lon="126.643437"><ele>379</ele><time>2026-09-05T03:19:37Z</time></trkpt>
      <trkpt lat="43.653465" lon="126.643964"><ele>376</ele><time>2026-09-05T03:19:53Z</time></trkpt>
      <trkpt lat="43.653335" lon="126.644636"><ele>373</ele><time>2026-09-05T03:20:14Z</time></trkpt>
      <trkpt lat="43.653289" lon="126.64517"><ele>371</ele><time>2026-09-05T03:20:32Z</time></trkpt>
      <trkpt lat="43.653068" lon="126.645445"><ele>368</ele><time>2026-09-05T03:20:45Z</time></trkpt>
      <trkpt lat="43.652968" lon="126.645663"><ele>368</ele><time>2026-09-05T03:20:53Z</time></trkpt>
      <trkpt lat="43.653096" lon="126.647558"><ele>360</ele><time>2026-09-05T03:21:45Z</time></trkpt>
      <trkpt lat="43.652874" lon="126.649184"><ele>356</ele><time>2026-09-05T03:22:32Z</time></trkpt>
      <trkpt lat="43.652619" lon="126.650263"><ele>351</ele><time>2026-09-05T03:23:02Z</time></trkpt>
      <trkpt lat="43.652402" lon="126.650776"><ele>348</ele><time>2026-09-05T03:23:18Z</time></trkpt>
      <trkpt lat="43.652359" lon="126.651312"><ele>346</ele><time>2026-09-05T03:23:32Z</time></trkpt>
      <trkpt lat="43.652178" lon="126.652102"><ele>344</ele><time>2026-09-05T03:23:54Z</time></trkpt>
      <trkpt lat="43.65226" lon="126.652284"><ele>345</ele><time>2026-09-05T03:24:00Z</time></trkpt>
      <trkpt lat="43.652565" lon="126.652594"><ele>344</ele><time>2026-09-05T03:24:14Z</time></trkpt>
      <trkpt lat="43.65283" lon="126.653101"><ele>341</ele><time>2026-09-05T03:24:33Z</time></trkpt>
      <trkpt lat="43.653046" lon="126.653328"><ele>342</ele><time>2026-09-05T03:24:43Z</time></trkpt>
      <trkpt lat="43.653274" lon="126.65342"><ele>342</ele><time>2026-09-05T03:27:10Z</time></trkpt>
      <trkpt lat="43.653821" lon="126.653252"><ele>340</ele><time>2026-09-05T03:27:50Z</time></trkpt>
      <trkpt lat="43.654304" lon="126.653298"><ele>337</ele><time>2026-09-05T03:28:08Z</time></trkpt>
      <trkpt lat="43.654563" lon="126.65325"><ele>336</ele><time>2026-09-05T03:28:18Z</time></trkpt>
      <trkpt lat="43.655707" lon="126.652895"><ele>335</ele><time>2026-09-05T03:29:03Z</time></trkpt>
      <trkpt lat="43.656171" lon="126.652696"><ele>336</ele><time>2026-09-05T03:29:25Z</time></trkpt>
      <trkpt lat="43.657293" lon="126.652395"><ele>340</ele><time>2026-09-05T03:30:34Z</time></trkpt>
      <trkpt lat="43.658531" lon="126.651368"><ele>346</ele><time>2026-09-05T03:31:48Z</time></trkpt>
      <trkpt lat="43.659693" lon="126.650681"><ele>347</ele><time>2026-09-05T03:32:49Z</time></trkpt>
      <trkpt lat="43.659917" lon="126.650745"><ele>346</ele><time>2026-09-05T03:33:01Z</time></trkpt>
      <trkpt lat="43.660153" lon="126.650956"><ele>344</ele><time>2026-09-05T03:33:11Z</time></trkpt>
      <trkpt lat="43.660476" lon="126.651678"><ele>348</ele><time>2026-09-05T03:33:39Z</time></trkpt>
      <trkpt lat="43.661169" lon="126.652353"><ele>352</ele><time>2026-09-05T03:34:21Z</time></trkpt>
      <trkpt lat="43.661221" lon="126.652199"><ele>352</ele><time>2026-09-05T03:34:29Z</time></trkpt>
      <trkpt lat="43.661259" lon="126.651694"><ele>349</ele><time>2026-09-05T03:34:41Z</time></trkpt>
      <trkpt lat="43.661317" lon="126.651568"><ele>349</ele><time>2026-09-05T03:34:45Z</time></trkpt>
      <trkpt lat="43.661578" lon="126.651292"><ele>347</ele><time>2026-09-05T03:34:58Z</time></trkpt>
      <trkpt lat="43.661756" lon="126.650813"><ele>349</ele><time>2026-09-05T03:35:14Z</time></trkpt>
      <trkpt lat="43.661871" lon="126.650178"><ele>353</ele><time>2026-09-05T03:35:50Z</time></trkpt>
      <trkpt lat="43.661889" lon="126.64973"><ele>358</ele><time>2026-09-05T03:36:15Z</time></trkpt>
      <trkpt lat="43.662024" lon="126.649122"><ele>363</ele><time>2026-09-05T03:36:51Z</time></trkpt>
      <trkpt lat="43.661919" lon="126.648841"><ele>367</ele><time>2026-09-05T03:37:13Z</time></trkpt>
      <trkpt lat="43.661892" lon="126.64855"><ele>371</ele><time>2026-09-05T03:37:33Z</time></trkpt>
      <trkpt lat="43.661998" lon="126.648141"><ele>373</ele><time>2026-09-05T03:37:57Z</time></trkpt>
      <trkpt lat="43.662036" lon="126.647719"><ele>378</ele><time>2026-09-05T03:38:31Z</time></trkpt>
      <trkpt lat="43.662328" lon="126.64724"><ele>382</ele><time>2026-09-05T03:39:02Z</time></trkpt>
      <trkpt lat="43.662328" lon="126.647055"><ele>385</ele><time>2026-09-05T03:39:16Z</time></trkpt>
      <trkpt lat="43.662395" lon="126.646816"><ele>387</ele><time>2026-09-05T03:39:32Z</time></trkpt>
      <trkpt lat="43.66247" lon="126.645776"><ele>403</ele><time>2026-09-05T03:40:44Z</time></trkpt>
      <trkpt lat="43.662398" lon="126.64523"><ele>410</ele><time>2026-09-05T03:41:21Z</time></trkpt>
      <trkpt lat="43.662409" lon="126.644983"><ele>413</ele><time>2026-09-05T03:41:41Z</time></trkpt>
      <trkpt lat="43.662621" lon="126.64403"><ele>426</ele><time>2026-09-05T03:42:49Z</time></trkpt>
      <trkpt lat="43.662596" lon="126.643236"><ele>436</ele><time>2026-09-05T03:43:50Z</time></trkpt>
      <trkpt lat="43.662748" lon="126.642335"><ele>455</ele><time>2026-09-05T03:45:10Z</time></trkpt>
      <trkpt lat="43.662885" lon="126.642057"><ele>460</ele><time>2026-09-05T03:45:39Z</time></trkpt>
      <trkpt lat="43.662968" lon="126.641718"><ele>465</ele><time>2026-09-05T03:46:02Z</time></trkpt>
      <trkpt lat="43.663276" lon="126.641446"><ele>471</ele><time>2026-09-05T03:46:43Z</time></trkpt>
      <trkpt lat="43.663335" lon="126.641322"><ele>475</ele><time>2026-09-05T03:46:55Z</time></trkpt>
      <trkpt lat="43.663391" lon="126.64104"><ele>482</ele><time>2026-09-05T03:47:25Z</time></trkpt>
      <trkpt lat="43.663365" lon="126.640694"><ele>494</ele><time>2026-09-05T03:48:05Z</time></trkpt>
      <trkpt lat="43.663395" lon="126.640409"><ele>500</ele><time>2026-09-05T03:48:35Z</time></trkpt>
      <trkpt lat="43.663555" lon="126.639806"><ele>514</ele><time>2026-09-05T03:49:47Z</time></trkpt>
      <trkpt lat="43.663561" lon="126.639552"><ele>520</ele><time>2026-09-05T03:50:16Z</time></trkpt>
      <trkpt lat="43.663774" lon="126.63915"><ele>527</ele><time>2026-09-05T03:51:06Z</time></trkpt>
      <trkpt lat="43.66403" lon="126.638956"><ele>531</ele><time>2026-09-05T03:51:40Z</time></trkpt>
      <trkpt lat="43.66414" lon="126.638925"><ele>532</ele><time>2026-09-05T03:51:51Z</time></trkpt>
      <trkpt lat="43.664742" lon="126.639251"><ele>539</ele><time>2026-09-05T03:52:50Z</time></trkpt>
      <trkpt lat="43.665015" lon="126.639777"><ele>538</ele><time>2026-09-05T03:53:36Z</time></trkpt>
      <trkpt lat="43.665544" lon="126.640106"><ele>523</ele><time>2026-09-05T03:54:07Z</time></trkpt>
      <trkpt lat="43.665816" lon="126.640408"><ele>520</ele><time>2026-09-05T03:54:21Z</time></trkpt>
      <trkpt lat="43.666257" lon="126.640773"><ele>515</ele><time>2026-09-05T03:54:54Z</time></trkpt>
      <trkpt lat="43.666741" lon="126.640987"><ele>514</ele><time>2026-09-05T03:55:21Z</time></trkpt>
      <trkpt lat="43.667013" lon="126.641267"><ele>519</ele><time>2026-09-05T03:55:54Z</time></trkpt>
      <trkpt lat="43.667488" lon="126.641403"><ele>515</ele><time>2026-09-05T03:56:23Z</time></trkpt>
      <trkpt lat="43.667623" lon="126.641578"><ele>512</ele><time>2026-09-05T03:56:32Z</time></trkpt>
      <trkpt lat="43.667779" lon="126.641964"><ele>508</ele><time>2026-09-05T03:56:49Z</time></trkpt>
      <trkpt lat="43.668214" lon="126.642646"><ele>498</ele><time>2026-09-05T03:57:24Z</time></trkpt>
      <trkpt lat="43.668821" lon="126.643169"><ele>490</ele><time>2026-09-05T03:58:21Z</time></trkpt>
      <trkpt lat="43.669038" lon="126.644064"><ele>473</ele><time>2026-09-05T03:58:57Z</time></trkpt>
      <trkpt lat="43.66927" lon="126.644645"><ele>464</ele><time>2026-09-05T03:59:23Z</time></trkpt>
      <trkpt lat="43.669405" lon="126.644799"><ele>459</ele><time>2026-09-05T03:59:33Z</time></trkpt>
      <trkpt lat="43.669562" lon="126.64474"><ele>461</ele><time>2026-09-05T03:59:44Z</time></trkpt>
      <trkpt lat="43.669663" lon="126.644769"><ele>458</ele><time>2026-09-05T03:59:50Z</time></trkpt>
      <trkpt lat="43.669886" lon="126.644967"><ele>454</ele><time>2026-09-05T04:00:03Z</time></trkpt>
      <trkpt lat="43.670181" lon="126.645342"><ele>452</ele><time>2026-09-05T04:00:29Z</time></trkpt>
      <trkpt lat="43.67035" lon="126.645211"><ele>448</ele><time>2026-09-05T04:00:50Z</time></trkpt>
      <trkpt lat="43.670777" lon="126.644573"><ele>418</ele><time>2026-09-05T04:01:34Z</time></trkpt>
      <trkpt lat="43.670957" lon="126.644404"><ele>410</ele><time>2026-09-05T04:01:47Z</time></trkpt>
      <trkpt lat="43.671226" lon="126.644474"><ele>401</ele><time>2026-09-05T04:02:03Z</time></trkpt>
      <trkpt lat="43.672157" lon="126.644358"><ele>379</ele><time>2026-09-05T04:02:50Z</time></trkpt>
      <trkpt lat="43.672528" lon="126.644195"><ele>371</ele><time>2026-09-05T04:03:11Z</time></trkpt>
      <trkpt lat="43.672788" lon="126.643987"><ele>367</ele><time>2026-09-05T04:03:26Z</time></trkpt>
      <trkpt lat="43.673379" lon="126.644096"><ele>358</ele><time>2026-09-05T04:03:55Z</time></trkpt>
      <trkpt lat="43.673675" lon="126.644084"><ele>356</ele><time>2026-09-05T04:04:07Z</time></trkpt>
      <trkpt lat="43.673939" lon="126.644162"><ele>349</ele><time>2026-09-05T04:04:20Z</time></trkpt>
      <trkpt lat="43.674405" lon="126.644107"><ele>337</ele><time>2026-09-05T04:04:45Z</time></trkpt>
      <trkpt lat="43.675203" lon="126.644592"><ele>331</ele><time>2026-09-05T04:05:18Z</time></trkpt>
      <trkpt lat="43.675498" lon="126.644673"><ele>327</ele><time>2026-09-05T04:05:30Z</time></trkpt>
      <trkpt lat="43.675587" lon="126.644635"><ele>326</ele><time>2026-09-05T04:05:35Z</time></trkpt>
      <trkpt lat="43.675565" lon="126.644399"><ele>325</ele><time>2026-09-05T04:05:42Z</time></trkpt>
      <trkpt lat="43.675373" lon="126.643819"><ele>327</ele><time>2026-09-05T04:06:14Z</time></trkpt>
      <trkpt lat="43.674847" lon="126.643053"><ele>329</ele><time>2026-09-05T04:07:08Z</time></trkpt>
      <trkpt lat="43.67471" lon="126.642338"><ele>332</ele><time>2026-09-05T04:07:43Z</time></trkpt>
      <trkpt lat="43.674595" lon="126.641976"><ele>334</ele><time>2026-09-05T04:08:01Z</time></trkpt>
      <trkpt lat="43.673748" lon="126.640528"><ele>342</ele><time>2026-09-05T04:09:47Z</time></trkpt>
      <trkpt lat="43.673546" lon="126.640037"><ele>345</ele><time>2026-09-05T04:10:16Z</time></trkpt>
      <trkpt lat="43.673443" lon="126.639619"><ele>346</ele><time>2026-09-05T04:10:39Z</time></trkpt>
      <trkpt lat="43.673436" lon="126.639123"><ele>351</ele><time>2026-09-05T04:11:05Z</time></trkpt>
      <trkpt lat="43.673317" lon="126.638874"><ele>352</ele><time>2026-09-05T04:11:20Z</time></trkpt>
      <trkpt lat="43.673043" lon="126.637959"><ele>358</ele><time>2026-09-05T04:12:12Z</time></trkpt>
      <trkpt lat="43.672793" lon="126.637555"><ele>359</ele><time>2026-09-05T04:12:39Z</time></trkpt>
      <trkpt lat="43.672548" lon="126.637443"><ele>360</ele><time>2026-09-05T04:12:57Z</time></trkpt>
      <trkpt lat="43.6724" lon="126.63719"><ele>362</ele><time>2026-09-05T04:13:14Z</time></trkpt>
      <trkpt lat="43.672197" lon="126.63698"><ele>363</ele><time>2026-09-05T04:13:34Z</time></trkpt>
      <trkpt lat="43.671913" lon="126.636438"><ele>369</ele><time>2026-09-05T04:14:08Z</time></trkpt>
      <trkpt lat="43.671539" lon="126.636085"><ele>374</ele><time>2026-09-05T04:14:44Z</time></trkpt>
      <trkpt lat="43.671447" lon="126.635766"><ele>377</ele><time>2026-09-05T04:15:04Z</time></trkpt>
      <trkpt lat="43.671283" lon="126.63547"><ele>380</ele><time>2026-09-05T04:15:27Z</time></trkpt>
      <trkpt lat="43.67089" lon="126.635238"><ele>385</ele><time>2026-09-05T04:16:00Z</time></trkpt>
      <trkpt lat="43.670544" lon="126.6349"><ele>390</ele><time>2026-09-05T04:16:37Z</time></trkpt>
      <trkpt lat="43.670436" lon="126.634543"><ele>395</ele><time>2026-09-05T04:17:05Z</time></trkpt>
      <trkpt lat="43.670423" lon="126.634276"><ele>397</ele><time>2026-09-05T04:17:23Z</time></trkpt>
      <trkpt lat="43.670749" lon="126.634582"><ele>394</ele><time>2026-09-05T04:17:43Z</time></trkpt>
      <trkpt lat="43.670893" lon="126.634619"><ele>395</ele><time>2026-09-05T04:17:51Z</time></trkpt>
      <trkpt lat="43.671043" lon="126.634469"><ele>394</ele><time>2026-09-05T04:18:07Z</time></trkpt>
      <trkpt lat="43.670852" lon="126.634589"><ele>395</ele><time>2026-09-05T04:18:34Z</time></trkpt>
      <trkpt lat="43.671041" lon="126.634497"><ele>395</ele><time>2026-09-05T04:20:04Z</time></trkpt>
      <trkpt lat="43.671054" lon="126.634396"><ele>394</ele><time>2026-09-05T04:20:15Z</time></trkpt>
      <trkpt lat="43.671035" lon="126.634465"><ele>395</ele><time>2026-09-05T04:20:25Z</time></trkpt>
      <trkpt lat="43.671064" lon="126.634472"><ele>394</ele><time>2026-09-05T04:20:47Z</time></trkpt>
      <trkpt lat="43.671071" lon="126.634317"><ele>395</ele><time>2026-09-05T04:20:57Z</time></trkpt>
      <trkpt lat="43.671004" lon="126.634115"><ele>396</ele><time>2026-09-05T04:21:06Z</time></trkpt>
      <trkpt lat="43.6708" lon="126.633938"><ele>399</ele><time>2026-09-05T04:21:24Z</time></trkpt>
      <trkpt lat="43.670496" lon="126.63348"><ele>406</ele><time>2026-09-05T04:22:02Z</time></trkpt>
      <trkpt lat="43.670096" lon="126.633018"><ele>413</ele><time>2026-09-05T04:22:48Z</time></trkpt>
      <trkpt lat="43.669604" lon="126.632717"><ele>420</ele><time>2026-09-05T04:23:34Z</time></trkpt>
      <trkpt lat="43.669272" lon="126.632755"><ele>419</ele><time>2026-09-05T04:23:58Z</time></trkpt>
      <trkpt lat="43.669188" lon="126.632618"><ele>424</ele><time>2026-09-05T04:24:12Z</time></trkpt>
      <trkpt lat="43.669129" lon="126.632351"><ele>428</ele><time>2026-09-05T04:24:35Z</time></trkpt>
      <trkpt lat="43.668651" lon="126.63175"><ele>457</ele><time>2026-09-05T04:26:27Z</time></trkpt>
      <trkpt lat="43.66859" lon="126.631595"><ele>459</ele><time>2026-09-05T04:26:47Z</time></trkpt>
      <trkpt lat="43.668599" lon="126.630984"><ele>468</ele><time>2026-09-05T04:27:41Z</time></trkpt>
      <trkpt lat="43.668404" lon="126.630305"><ele>489</ele><time>2026-09-05T04:29:21Z</time></trkpt>
      <trkpt lat="43.667358" lon="126.628913"><ele>552</ele><time>2026-09-05T04:34:42Z</time></trkpt>
      <trkpt lat="43.666921" lon="126.62783"><ele>577</ele><time>2026-09-05T04:37:19Z</time></trkpt>
      <trkpt lat="43.665871" lon="126.625902"><ele>634</ele><time>2026-09-05T04:42:27Z</time></trkpt>
      <trkpt lat="43.66574" lon="126.625744"><ele>643</ele><time>2026-09-05T04:43:07Z</time></trkpt>
      <trkpt lat="43.665638" lon="126.625296"><ele>647</ele><time>2026-09-05T04:43:54Z</time></trkpt>
      <trkpt lat="43.665461" lon="126.625373"><ele>655</ele><time>2026-09-05T04:44:44Z</time></trkpt>
      <trkpt lat="43.664973" lon="126.625914"><ele>674</ele><time>2026-09-05T04:46:44Z</time></trkpt>
      <trkpt lat="43.664456" lon="126.625978"><ele>700</ele><time>2026-09-05T04:48:55Z</time></trkpt>
      <trkpt lat="43.664094" lon="126.626269"><ele>721</ele><time>2026-09-05T04:50:35Z</time></trkpt>
      <trkpt lat="43.663881" lon="126.626307"><ele>728</ele><time>2026-09-05T04:51:35Z</time></trkpt>
      <trkpt lat="43.663637" lon="126.626442"><ele>740</ele><time>2026-09-05T04:52:55Z</time></trkpt>
      <trkpt lat="43.6628" lon="126.626418"><ele>771</ele><time>2026-09-05T04:55:57Z</time></trkpt>
      <trkpt lat="43.662515" lon="126.626255"><ele>779</ele><time>2026-09-05T04:56:47Z</time></trkpt>
      <trkpt lat="43.662357" lon="126.626016"><ele>783</ele><time>2026-09-05T04:57:17Z</time></trkpt>
      <trkpt lat="43.662192" lon="126.62559"><ele>789</ele><time>2026-09-05T04:58:07Z</time></trkpt>
      <trkpt lat="43.661862" lon="126.625084"><ele>802</ele><time>2026-09-05T04:59:27Z</time></trkpt>
      <trkpt lat="43.66164" lon="126.624548"><ele>817</ele><time>2026-09-05T05:00:57Z</time></trkpt>
      <trkpt lat="43.661445" lon="126.623905"><ele>838</ele><time>2026-09-05T05:03:02Z</time></trkpt>
      <trkpt lat="43.661048" lon="126.623095"><ele>864</ele><time>2026-09-05T05:05:42Z</time></trkpt>
      <trkpt lat="43.660873" lon="126.622841"><ele>873</ele><time>2026-09-05T05:06:30Z</time></trkpt>
      <trkpt lat="43.660867" lon="126.622703"><ele>874</ele><time>2026-09-05T05:06:42Z</time></trkpt>
      <trkpt lat="43.660957" lon="126.622536"><ele>877</ele><time>2026-09-05T05:07:28Z</time></trkpt>
      <trkpt lat="43.661121" lon="126.622507"><ele>877</ele><time>2026-09-05T05:07:47Z</time></trkpt>
      <trkpt lat="43.661246" lon="126.62264"><ele>874</ele><time>2026-09-05T05:08:06Z</time></trkpt>
      <trkpt lat="43.661275" lon="126.622583"><ele>874</ele><time>2026-09-05T05:08:16Z</time></trkpt>
      <trkpt lat="43.661257" lon="126.622263"><ele>880</ele><time>2026-09-05T05:08:38Z</time></trkpt>
      <trkpt lat="43.661389" lon="126.621545"><ele>886</ele><time>2026-09-05T05:09:33Z</time></trkpt>
      <trkpt lat="43.661528" lon="126.621148"><ele>886</ele><time>2026-09-05T05:09:58Z</time></trkpt>
      <trkpt lat="43.661603" lon="126.620767"><ele>887</ele><time>2026-09-05T05:10:20Z</time></trkpt>
      <trkpt lat="43.661632" lon="126.62003"><ele>890</ele><time>2026-09-05T05:11:04Z</time></trkpt>
      <trkpt lat="43.661567" lon="126.619809"><ele>893</ele><time>2026-09-05T05:11:20Z</time></trkpt>
      <trkpt lat="43.661397" lon="126.61958"><ele>894</ele><time>2026-09-05T05:11:43Z</time></trkpt>
      <trkpt lat="43.661372" lon="126.619453"><ele>895</ele><time>2026-09-05T05:11:51Z</time></trkpt>
      <trkpt lat="43.661416" lon="126.618934"><ele>892</ele><time>2026-09-05T05:12:20Z</time></trkpt>
      <trkpt lat="43.661527" lon="126.618703"><ele>890</ele><time>2026-09-05T05:12:32Z</time></trkpt>
      <trkpt lat="43.661429" lon="126.618806"><ele>892</ele><time>2026-09-05T05:12:51Z</time></trkpt>
      <trkpt lat="43.661407" lon="126.618912"><ele>892</ele><time>2026-09-05T05:12:57Z</time></trkpt>
      <trkpt lat="43.661323" lon="126.618931"><ele>893</ele><time>2026-09-05T05:13:21Z</time></trkpt>
      <trkpt lat="43.661406" lon="126.618975"><ele>891</ele><time>2026-09-05T05:13:45Z</time></trkpt>
      <trkpt lat="43.661451" lon="126.618908"><ele>890</ele><time>2026-09-05T05:14:15Z</time></trkpt>
      <trkpt lat="43.661463" lon="126.618702"><ele>891</ele><time>2026-09-05T05:14:32Z</time></trkpt>
      <trkpt lat="43.661541" lon="126.618658"><ele>893</ele><time>2026-09-05T05:15:10Z</time></trkpt>
      <trkpt lat="43.66142" lon="126.618634"><ele>890</ele><time>2026-09-05T05:16:05Z</time></trkpt>
      <trkpt lat="43.661432" lon="126.619236"><ele>891</ele><time>2026-09-05T05:16:29Z</time></trkpt>
      <trkpt lat="43.661466" lon="126.619289"><ele>891</ele><time>2026-09-05T05:16:39Z</time></trkpt>
      <trkpt lat="43.66184" lon="126.619182"><ele>877</ele><time>2026-09-05T05:17:10Z</time></trkpt>
      <trkpt lat="43.662299" lon="126.619216"><ele>854</ele><time>2026-09-05T05:17:58Z</time></trkpt>
      <trkpt lat="43.662743" lon="126.619421"><ele>832</ele><time>2026-09-05T05:18:49Z</time></trkpt>
      <trkpt lat="43.663459" lon="126.619425"><ele>804</ele><time>2026-09-05T05:19:59Z</time></trkpt>
      <trkpt lat="43.664597" lon="126.61962"><ele>768</ele><time>2026-09-05T05:21:26Z</time></trkpt>
      <trkpt lat="43.66529" lon="126.619847"><ele>740</ele><time>2026-09-05T05:22:17Z</time></trkpt>
      <trkpt lat="43.665523" lon="126.619871"><ele>730</ele><time>2026-09-05T05:22:36Z</time></trkpt>
      <trkpt lat="43.665743" lon="126.620017"><ele>721</ele><time>2026-09-05T05:23:01Z</time></trkpt>
      <trkpt lat="43.666527" lon="126.620135"><ele>697</ele><time>2026-09-05T05:24:18Z</time></trkpt>
      <trkpt lat="43.666703" lon="126.62024"><ele>688</ele><time>2026-09-05T05:24:40Z</time></trkpt>
      <trkpt lat="43.667977" lon="126.620278"><ele>643</ele><time>2026-09-05T05:26:34Z</time></trkpt>
      <trkpt lat="43.668685" lon="126.62056"><ele>620</ele><time>2026-09-05T05:27:18Z</time></trkpt>
      <trkpt lat="43.669347" lon="126.620956"><ele>601</ele><time>2026-09-05T05:28:03Z</time></trkpt>
      <trkpt lat="43.669759" lon="126.621282"><ele>590</ele><time>2026-09-05T05:28:33Z</time></trkpt>
      <trkpt lat="43.670047" lon="126.62159"><ele>584</ele><time>2026-09-05T05:28:54Z</time></trkpt>
      <trkpt lat="43.670184" lon="126.62166"><ele>581</ele><time>2026-09-05T05:29:03Z</time></trkpt>
      <trkpt lat="43.670452" lon="126.621483"><ele>576</ele><time>2026-09-05T05:29:28Z</time></trkpt>
      <trkpt lat="43.670692" lon="126.620726"><ele>573</ele><time>2026-09-05T05:29:51Z</time></trkpt>
      <trkpt lat="43.671117" lon="126.619895"><ele>567</ele><time>2026-09-05T05:30:28Z</time></trkpt>
      <trkpt lat="43.671309" lon="126.61968"><ele>564</ele><time>2026-09-05T05:30:46Z</time></trkpt>
      <trkpt lat="43.671762" lon="126.618957"><ele>557</ele><time>2026-09-05T05:31:25Z</time></trkpt>
      <trkpt lat="43.67206" lon="126.618675"><ele>549</ele><time>2026-09-05T05:31:43Z</time></trkpt>
      <trkpt lat="43.67211" lon="126.618661"><ele>547</ele><time>2026-09-05T05:31:49Z</time></trkpt>
      <trkpt lat="43.672715" lon="126.619022"><ele>527</ele><time>2026-09-05T05:32:55Z</time></trkpt>
      <trkpt lat="43.673236" lon="126.619178"><ele>511</ele><time>2026-09-05T05:33:34Z</time></trkpt>
      <trkpt lat="43.673399" lon="126.619356"><ele>504</ele><time>2026-09-05T05:33:54Z</time></trkpt>
      <trkpt lat="43.673484" lon="126.619677"><ele>502</ele><time>2026-09-05T05:34:10Z</time></trkpt>
      <trkpt lat="43.673675" lon="126.620013"><ele>493</ele><time>2026-09-05T05:34:34Z</time></trkpt>
      <trkpt lat="43.674285" lon="126.620311"><ele>477</ele><time>2026-09-05T05:35:15Z</time></trkpt>
      <trkpt lat="43.674844" lon="126.620374"><ele>462</ele><time>2026-09-05T05:35:48Z</time></trkpt>
      <trkpt lat="43.675304" lon="126.620633"><ele>451</ele><time>2026-09-05T05:36:20Z</time></trkpt>
      <trkpt lat="43.67553" lon="126.620674"><ele>441</ele><time>2026-09-05T05:36:36Z</time></trkpt>
      <trkpt lat="43.676275" lon="126.620639"><ele>427</ele><time>2026-09-05T05:37:06Z</time></trkpt>
      <trkpt lat="43.676721" lon="126.620516"><ele>421</ele><time>2026-09-05T05:37:22Z</time></trkpt>
      <trkpt lat="43.676896" lon="126.620595"><ele>416</ele><time>2026-09-05T05:37:31Z</time></trkpt>
      <trkpt lat="43.678076" lon="126.61947"><ele>398</ele><time>2026-09-05T05:38:29Z</time></trkpt>
      <trkpt lat="43.678916" lon="126.618785"><ele>388</ele><time>2026-09-05T05:39:13Z</time></trkpt>
      <trkpt lat="43.680032" lon="126.618347"><ele>377</ele><time>2026-09-05T05:39:59Z</time></trkpt>
      <trkpt lat="43.680252" lon="126.618299"><ele>373</ele><time>2026-09-05T05:40:09Z</time></trkpt>
      <trkpt lat="43.680749" lon="126.618334"><ele>364</ele><time>2026-09-05T05:40:30Z</time></trkpt>
      <trkpt lat="43.681098" lon="126.618102"><ele>365</ele><time>2026-09-05T05:40:57Z</time></trkpt>
      <trkpt lat="43.681341" lon="126.617782"><ele>364</ele><time>2026-09-05T05:41:12Z</time></trkpt>
      <trkpt lat="43.681759" lon="126.617445"><ele>360</ele><time>2026-09-05T05:41:35Z</time></trkpt>
      <trkpt lat="43.681984" lon="126.617498"><ele>357</ele><time>2026-09-05T05:41:51Z</time></trkpt>
      <trkpt lat="43.68229" lon="126.617435"><ele>352</ele><time>2026-09-05T05:42:06Z</time></trkpt>
      <trkpt lat="43.682465" lon="126.617539"><ele>348</ele><time>2026-09-05T05:42:14Z</time></trkpt>
      <trkpt lat="43.682952" lon="126.618035"><ele>340</ele><time>2026-09-05T05:42:40Z</time></trkpt>
      <trkpt lat="43.683162" lon="126.617998"><ele>337</ele><time>2026-09-05T05:42:50Z</time></trkpt>
      <trkpt lat="43.683383" lon="126.618074"><ele>335</ele><time>2026-09-05T05:43:02Z</time></trkpt>
      <trkpt lat="43.683591" lon="126.618032"><ele>333</ele><time>2026-09-05T05:43:12Z</time></trkpt>
      <trkpt lat="43.683873" lon="126.618263"><ele>330</ele><time>2026-09-05T05:43:25Z</time></trkpt>
      <trkpt lat="43.684059" lon="126.618139"><ele>328</ele><time>2026-09-05T05:43:34Z</time></trkpt>
      <trkpt lat="43.684351" lon="126.618116"><ele>331</ele><time>2026-09-05T05:43:48Z</time></trkpt>
      <trkpt lat="43.684609" lon="126.617713"><ele>324</ele><time>2026-09-05T05:44:11Z</time></trkpt>
      <trkpt lat="43.684684" lon="126.617903"><ele>325</ele><time>2026-09-05T05:44:20Z</time></trkpt>
      <trkpt lat="43.684806" lon="126.618046"><ele>327</ele><time>2026-09-05T05:44:29Z</time></trkpt>
      <trkpt lat="43.684764" lon="126.618174"><ele>325</ele><time>2026-09-05T05:44:36Z</time></trkpt>
      <trkpt lat="43.684559" lon="126.618423"><ele>325</ele><time>2026-09-05T05:44:48Z</time></trkpt>
      <trkpt lat="43.68426" lon="126.618528"><ele>326</ele><time>2026-09-05T05:45:02Z</time></trkpt>
      <trkpt lat="43.684185" lon="126.618938"><ele>327</ele><time>2026-09-05T05:45:15Z</time></trkpt>
      <trkpt lat="43.68404" lon="126.619077"><ele>329</ele><time>2026-09-05T05:45:31Z</time></trkpt>
      <trkpt lat="43.683514" lon="126.619"><ele>337</ele><time>2026-09-05T05:45:53Z</time></trkpt>
      <trkpt lat="43.683352" lon="126.619098"><ele>340</ele><time>2026-09-05T05:46:00Z</time></trkpt>
      <trkpt lat="43.683239" lon="126.619365"><ele>333</ele><time>2026-09-05T05:46:06Z</time></trkpt>
      <trkpt lat="43.683148" lon="126.619934"><ele>331</ele><time>2026-09-05T05:46:20Z</time></trkpt>
      <trkpt lat="43.682773" lon="126.620238"><ele>333</ele><time>2026-09-05T05:46:40Z</time></trkpt>
      <trkpt lat="43.682895" lon="126.620401"><ele>333</ele><time>2026-09-05T05:47:00Z</time></trkpt>
      <trkpt lat="43.682984" lon="126.620413"><ele>331</ele><time>2026-09-05T05:47:08Z</time></trkpt>
    </trkseg>
  </trk>
</gpx>
