<?xml version="1.0" encoding="UTF-8"?>
<gpx version="1.1" creator="MyWorld" xmlns="http://www.topografix.com/GPX/1/1">
  <metadata><name>绍兴覆卮山</name></metadata>
  <trk>
    <name>绍兴覆卮山</name>
    <trkseg>
      <trkpt lat="29.754704" lon="120.959824"><ele>255</ele><time>2026-04-26T00:59:55Z</time></trkpt>
      <trkpt lat="29.754296" lon="120.960025"><ele>261</ele><time>2026-04-26T01:00:43Z</time></trkpt>
      <trkpt lat="29.754239" lon="120.960122"><ele>263</ele><time>2026-04-26T01:00:54Z</time></trkpt>
      <trkpt lat="29.75416" lon="120.960815"><ele>272</ele><time>2026-04-26T01:01:56Z</time></trkpt>
      <trkpt lat="29.753868" lon="120.961862"><ele>276</ele><time>2026-04-26T01:03:19Z</time></trkpt>
      <trkpt lat="29.753541" lon="120.962631"><ele>282</ele><time>2026-04-26T01:04:20Z</time></trkpt>
      <trkpt lat="29.753592" lon="120.96321"><ele>280</ele><time>2026-04-26T01:05:01Z</time></trkpt>
      <trkpt lat="29.753441" lon="120.963722"><ele>283</ele><time>2026-04-26T01:05:43Z</time></trkpt>
      <trkpt lat="29.753083" lon="120.964296"><ele>281</ele><time>2026-04-26T01:06:44Z</time></trkpt>
      <trkpt lat="29.752714" lon="120.964597"><ele>281</ele><time>2026-04-26T01:07:20Z</time></trkpt>
      <trkpt lat="29.752646" lon="120.964522"><ele>282</ele><time>2026-04-26T01:07:34Z</time></trkpt>
      <trkpt lat="29.752649" lon="120.964852"><ele>286</ele><time>2026-04-26T01:08:36Z</time></trkpt>
      <trkpt lat="29.752327" lon="120.96539"><ele>289</ele><time>2026-04-26T01:09:35Z</time></trkpt>
      <trkpt lat="29.752249" lon="120.966171"><ele>293</ele><time>2026-04-26T01:10:42Z</time></trkpt>
      <trkpt lat="29.751675" lon="120.966926"><ele>296</ele><time>2026-04-26T01:11:49Z</time></trkpt>
      <trkpt lat="29.751356" lon="120.967784"><ele>313</ele><time>2026-04-26T01:13:13Z</time></trkpt>
      <trkpt lat="29.751109" lon="120.967764"><ele>312</ele><time>2026-04-26T01:13:35Z</time></trkpt>
      <trkpt lat="29.751007" lon="120.967946"><ele>317</ele><time>2026-04-26T01:14:00Z</time></trkpt>
      <trkpt lat="29.750958" lon="120.968226"><ele>325</ele><time>2026-04-26T01:14:34Z</time></trkpt>
      <trkpt lat="29.751072" lon="120.968599"><ele>334</ele><time>2026-04-26T01:15:15Z</time></trkpt>
      <trkpt lat="29.751061" lon="120.968994"><ele>344</ele><time>2026-04-26T01:16:02Z</time></trkpt>
      <trkpt lat="29.751248" lon="120.969181"><ele>347</ele><time>2026-04-26T01:16:30Z</time></trkpt>
      <trkpt lat="29.750962" lon="120.970069"><ele>373</ele><time>2026-04-26T01:18:27Z</time></trkpt>
      <trkpt lat="29.751031" lon="120.970279"><ele>375</ele><time>2026-04-26T01:18:56Z</time></trkpt>
      <trkpt lat="29.750969" lon="120.970499"><ele>382</ele><time>2026-04-26T01:19:27Z</time></trkpt>
      <trkpt lat="29.751045" lon="120.970647"><ele>384</ele><time>2026-04-26T01:19:45Z</time></trkpt>
      <trkpt lat="29.751007" lon="120.970806"><ele>390</ele><time>2026-04-26T01:20:09Z</time></trkpt>
      <trkpt lat="29.750633" lon="120.971255"><ele>408</ele><time>2026-04-26T01:21:25Z</time></trkpt>
      <trkpt lat="29.750587" lon="120.971416"><ele>412</ele><time>2026-04-26T01:21:45Z</time></trkpt>
      <trkpt lat="29.750689" lon="120.97184"><ele>426</ele><time>2026-04-26T01:23:06Z</time></trkpt>
      <trkpt lat="29.750669" lon="120.972053"><ele>437</ele><time>2026-04-26T01:23:45Z</time></trkpt>
      <trkpt lat="29.750281" lon="120.972682"><ele>459</ele><time>2026-04-26T01:28:05Z</time></trkpt>
      <trkpt lat="29.750102" lon="120.973172"><ele>474</ele><time>2026-04-26T01:29:33Z</time></trkpt>
      <trkpt lat="29.749068" lon="120.973702"><ele>497</ele><time>2026-04-26T01:31:33Z</time></trkpt>
      <trkpt lat="29.748705" lon="120.973691"><ele>500</ele><time>2026-04-26T01:33:31Z</time></trkpt>
      <trkpt lat="29.748389" lon="120.973803"><ele>515</ele><time>2026-04-26T01:34:59Z</time></trkpt>
      <trkpt lat="29.748209" lon="120.974079"><ele>529</ele><time>2026-04-26T01:36:30Z</time></trkpt>
      <trkpt lat="29.747724" lon="120.974543"><ele>556</ele><time>2026-04-26T01:39:50Z</time></trkpt>
      <trkpt lat="29.747334" lon="120.974729"><ele>577</ele><time>2026-04-26T01:41:31Z</time></trkpt>
      <trkpt lat="29.746843" lon="120.974822"><ele>593</ele><time>2026-04-26T01:43:41Z</time></trkpt>
      <trkpt lat="29.746768" lon="120.97489"><ele>596</ele><time>2026-04-26T01:43:53Z</time></trkpt>
      <trkpt lat="29.746764" lon="120.974998"><ele>598</ele><time>2026-04-26T01:44:07Z</time></trkpt>
      <trkpt lat="29.747014" lon="120.975265"><ele>598</ele><time>2026-04-26T01:44:54Z</time></trkpt>
      <trkpt lat="29.747384" lon="120.97545"><ele>596</ele><time>2026-04-26T01:45:44Z</time></trkpt>
      <trkpt lat="29.747576" lon="120.975456"><ele>601</ele><time>2026-04-26T01:46:04Z</time></trkpt>
      <trkpt lat="29.747326" lon="120.975927"><ele>618</ele><time>2026-04-26T01:49:18Z</time></trkpt>
      <trkpt lat="29.747348" lon="120.976206"><ele>629</ele><time>2026-04-26T01:50:02Z</time></trkpt>
      <trkpt lat="29.747154" lon="120.976537"><ele>638</ele><time>2026-04-26T01:50:53Z</time></trkpt>
      <trkpt lat="29.74703" lon="120.976577"><ele>641</ele><time>2026-04-26T01:51:24Z</time></trkpt>
      <trkpt lat="29.747051" lon="120.977007"><ele>652</ele><time>2026-04-26T01:52:33Z</time></trkpt>
      <trkpt lat="29.747124" lon="120.977149"><ele>652</ele><time>2026-04-26T01:52:45Z</time></trkpt>
      <trkpt lat="29.747656" lon="120.977214"><ele>657</ele><time>2026-04-26T01:53:39Z</time></trkpt>
      <trkpt lat="29.747853" lon="120.977024"><ele>658</ele><time>2026-04-26T01:54:03Z</time></trkpt>
      <trkpt lat="29.747997" lon="120.977009"><ele>659</ele><time>2026-04-26T01:54:23Z</time></trkpt>
      <trkpt lat="29.748016" lon="120.977199"><ele>670</ele><time>2026-04-26T01:55:11Z</time></trkpt>
      <trkpt lat="29.748375" lon="120.977324"><ele>673</ele><time>2026-04-26T01:55:55Z</time></trkpt>
      <trkpt lat="29.748682" lon="120.977609"><ele>684</ele><time>2026-04-26T01:57:00Z</time></trkpt>
      <trkpt lat="29.748584" lon="120.977768"><ele>699</ele><time>2026-04-26T01:58:11Z</time></trkpt>
      <trkpt lat="29.748697" lon="120.977941"><ele>707</ele><time>2026-04-26T01:58:45Z</time></trkpt>
      <trkpt lat="29.749177" lon="120.978175"><ele>729</ele><time>2026-04-26T02:00:23Z</time></trkpt>
      <trkpt lat="29.749464" lon="120.978207"><ele>730</ele><time>2026-04-26T02:01:33Z</time></trkpt>
      <trkpt lat="29.749584" lon="120.978293"><ele>736</ele><time>2026-04-26T02:01:54Z</time></trkpt>
      <trkpt lat="29.749625" lon="120.978443"><ele>742</ele><time>2026-04-26T02:02:26Z</time></trkpt>
      <trkpt lat="29.749287" lon="120.978456"><ele>749</ele><time>2026-04-26T02:04:13Z</time></trkpt>
      <trkpt lat="29.749277" lon="120.978362"><ele>750</ele><time>2026-04-26T02:04:39Z</time></trkpt>
      <trkpt lat="29.749284" lon="120.978466"><ele>745</ele><time>2026-04-26T02:06:48Z</time></trkpt>
      <trkpt lat="29.749489" lon="120.978606"><ele>755</ele><time>2026-04-26T02:07:21Z</time></trkpt>
      <trkpt lat="29.749465" lon="120.978761"><ele>761</ele><time>2026-04-26T02:07:43Z</time></trkpt>
      <trkpt lat="29.74941" lon="120.978842"><ele>764</ele><time>2026-04-26T02:07:58Z</time></trkpt>
      <trkpt lat="29.749318" lon="120.978847"><ele>765</ele><time>2026-04-26T02:08:08Z</time></trkpt>
      <trkpt lat="29.749134" lon="120.979143"><ele>781</ele><time>2026-04-26T02:09:20Z</time></trkpt>
      <trkpt lat="29.749104" lon="120.979296"><ele>789</ele><time>2026-04-26T02:09:51Z</time></trkpt>
      <trkpt lat="29.748935" lon="120.979408"><ele>793</ele><time>2026-04-26T02:10:24Z</time></trkpt>
      <trkpt lat="29.748776" lon="120.97968"><ele>795</ele><time>2026-04-26T02:11:01Z</time></trkpt>
      <trkpt lat="29.748061" lon="120.97987"><ele>807</ele><time>2026-04-26T02:12:51Z</time></trkpt>
      <trkpt lat="29.748052" lon="120.979819"><ele>808</ele><time>2026-04-26T02:12:57Z</time></trkpt>
      <trkpt lat="29.74807" lon="120.979927"><ele>808</ele><time>2026-04-26T02:13:51Z</time></trkpt>
      <trkpt lat="29.747936" lon="120.980159"><ele>807</ele><time>2026-04-26T02:14:27Z</time></trkpt>
      <trkpt lat="29.747588" lon="120.980457"><ele>815</ele><time>2026-04-26T02:15:29Z</time></trkpt>
      <trkpt lat="29.747383" lon="120.98078"><ele>824</ele><time>2026-04-26T02:16:18Z</time></trkpt>
      <trkpt lat="29.747205" lon="120.980881"><ele>830</ele><time>2026-04-26T02:16:47Z</time></trkpt>
      <trkpt lat="29.747142" lon="120.98102"><ele>839</ele><time>2026-04-26T02:17:40Z</time></trkpt>
      <trkpt lat="29.746929" lon="120.980929"><ele>842</ele><time>2026-04-26T02:18:13Z</time></trkpt>
      <trkpt lat="29.74681" lon="120.981019"><ele>849</ele><time>2026-04-26T02:18:28Z</time></trkpt>
      <trkpt lat="29.746837" lon="120.981078"><ele>852</ele><time>2026-04-26T02:18:33Z</time></trkpt>
      <trkpt lat="29.746664" lon="120.981167"><ele>856</ele><time>2026-04-26T02:19:22Z</time></trkpt>
      <trkpt lat="29.746524" lon="120.981569"><ele>866</ele><time>2026-04-26T02:21:42Z</time></trkpt>
      <trkpt lat="29.746564" lon="120.981788"><ele>870</ele><time>2026-04-26T02:22:06Z</time></trkpt>
      <trkpt lat="29.746519" lon="120.981515"><ele>864</ele><time>2026-04-26T02:22:55Z</time></trkpt>
      <trkpt lat="29.746353" lon="120.981338"><ele>858</ele><time>2026-04-26T02:23:33Z</time></trkpt>
      <trkpt lat="29.746273" lon="120.981382"><ele>854</ele><time>2026-04-26T02:23:45Z</time></trkpt>
      <trkpt lat="29.746112" lon="120.981276"><ele>847</ele><time>2026-04-26T02:24:20Z</time></trkpt>
      <trkpt lat="29.745914" lon="120.981282"><ele>843</ele><time>2026-04-26T02:24:47Z</time></trkpt>
      <trkpt lat="29.745809" lon="120.981176"><ele>834</ele><time>2026-04-26T02:26:09Z</time></trkpt>
      <trkpt lat="29.745721" lon="120.981221"><ele>832</ele><time>2026-04-26T02:26:25Z</time></trkpt>
      <trkpt lat="29.745231" lon="120.981158"><ele>809</ele><time>2026-04-26T02:27:34Z</time></trkpt>
      <trkpt lat="29.745085" lon="120.981297"><ele>801</ele><time>2026-04-26T02:28:01Z</time></trkpt>
      <trkpt lat="29.744945" lon="120.981321"><ele>796</ele><time>2026-04-26T02:28:51Z</time></trkpt>
      <trkpt lat="29.744458" lon="120.981274"><ele>771</ele><time>2026-04-26T02:30:23Z</time></trkpt>
      <trkpt lat="29.743811" lon="120.980854"><ele>753</ele><time>2026-04-26T02:31:45Z</time></trkpt>
      <trkpt lat="29.743523" lon="120.980538"><ele>746</ele><time>2026-04-26T02:32:24Z</time></trkpt>
      <trkpt lat="29.743696" lon="120.980075"><ele>738</ele><time>2026-04-26T02:33:22Z</time></trkpt>
      <trkpt lat="29.743975" lon="120.979763"><ele>732</ele><time>2026-04-26T02:34:01Z</time></trkpt>
      <trkpt lat="29.743429" lon="120.97903"><ele>732</ele><time>2026-04-26T02:35:10Z</time></trkpt>
      <trkpt lat="29.743603" lon="120.978931"><ele>732</ele><time>2026-04-26T02:35:43Z</time></trkpt>
      <trkpt lat="29.743624" lon="120.978819"><ele>732</ele><time>2026-04-26T02:35:55Z</time></trkpt>
      <trkpt lat="29.743045" lon="120.977194"><ele>704</ele><time>2026-04-26T02:38:39Z</time></trkpt>
      <trkpt lat="29.743155" lon="120.976696"><ele>699</ele><time>2026-04-26T02:39:24Z</time></trkpt>
      <trkpt lat="29.743251" lon="120.975741"><ele>696</ele><time>2026-04-26T02:40:41Z</time></trkpt>
      <trkpt lat="29.743199" lon="120.975642"><ele>697</ele><time>2026-04-26T02:40:50Z</time></trkpt>
      <trkpt lat="29.74288" lon="120.975461"><ele>689</ele><time>2026-04-26T02:41:41Z</time></trkpt>
      <trkpt lat="29.74272" lon="120.975444"><ele>686</ele><time>2026-04-26T02:41:55Z</time></trkpt>
      <trkpt lat="29.742537" lon="120.975526"><ele>681</ele><time>2026-04-26T02:42:18Z</time></trkpt>
      <trkpt lat="29.742251" lon="120.975296"><ele>666</ele><time>2026-04-26T02:43:17Z</time></trkpt>
      <trkpt lat="29.741959" lon="120.97524"><ele>664</ele><time>2026-04-26T02:43:46Z</time></trkpt>
      <trkpt lat="29.741579" lon="120.974924"><ele>662</ele><time>2026-04-26T02:44:22Z</time></trkpt>
      <trkpt lat="29.741456" lon="120.974581"><ele>660</ele><time>2026-04-26T02:44:49Z</time></trkpt>
      <trkpt lat="29.74203" lon="120.973992"><ele>662</ele><time>2026-04-26T02:45:50Z</time></trkpt>
      <trkpt lat="29.742158" lon="120.973729"><ele>666</ele><time>2026-04-26T02:46:12Z</time></trkpt>
      <trkpt lat="29.74206" lon="120.973052"><ele>661</ele><time>2026-04-26T02:47:01Z</time></trkpt>
      <trkpt lat="29.742188" lon="120.972788"><ele>661</ele><time>2026-04-26T02:47:21Z</time></trkpt>
      <trkpt lat="29.742352" lon="120.972653"><ele>660</ele><time>2026-04-26T02:47:37Z</time></trkpt>
      <trkpt lat="29.742485" lon="120.972335"><ele>660</ele><time>2026-04-26T02:48:01Z</time></trkpt>
      <trkpt lat="29.742685" lon="120.972153"><ele>659</ele><time>2026-04-26T02:48:22Z</time></trkpt>
      <trkpt lat="29.74284" lon="120.971573"><ele>656</ele><time>2026-04-26T02:49:08Z</time></trkpt>
      <trkpt lat="29.743054" lon="120.971261"><ele>657</ele><time>2026-04-26T02:49:38Z</time></trkpt>
      <trkpt lat="29.743083" lon="120.971159"><ele>658</ele><time>2026-04-26T02:49:46Z</time></trkpt>
      <trkpt lat="29.742951" lon="120.970914"><ele>658</ele><time>2026-04-26T02:50:37Z</time></trkpt>
      <trkpt lat="29.743073" lon="120.97055"><ele>658</ele><time>2026-04-26T02:51:12Z</time></trkpt>
      <trkpt lat="29.742973" lon="120.970245"><ele>656</ele><time>2026-04-26T02:52:10Z</time></trkpt>
      <trkpt lat="29.743155" lon="120.970043"><ele>656</ele><time>2026-04-26T02:52:30Z</time></trkpt>
      <trkpt lat="29.743299" lon="120.9696"><ele>653</ele><time>2026-04-26T02:53:09Z</time></trkpt>
      <trkpt lat="29.74312" lon="120.969497"><ele>652</ele><time>2026-04-26T02:53:24Z</time></trkpt>
      <trkpt lat="29.742708" lon="120.969528"><ele>656</ele><time>2026-04-26T02:54:23Z</time></trkpt>
      <trkpt lat="29.742127" lon="120.969854"><ele>662</ele><time>2026-04-26T02:55:16Z</time></trkpt>
      <trkpt lat="29.741947" lon="120.969795"><ele>665</ele><time>2026-04-26T02:55:31Z</time></trkpt>
      <trkpt lat="29.740964" lon="120.969813"><ele>672</ele><time>2026-04-26T02:56:56Z</time></trkpt>
      <trkpt lat="29.740663" lon="120.969578"><ele>677</ele><time>2026-04-26T02:57:28Z</time></trkpt>
      <trkpt lat="29.740231" lon="120.969443"><ele>673</ele><time>2026-04-26T02:58:06Z</time></trkpt>
      <trkpt lat="29.73996" lon="120.96918"><ele>679</ele><time>2026-04-26T02:58:36Z</time></trkpt>
      <trkpt lat="29.739854" lon="120.968765"><ele>678</ele><time>2026-04-26T02:59:05Z</time></trkpt>
      <trkpt lat="29.739595" lon="120.968567"><ele>671</ele><time>2026-04-26T02:59:30Z</time></trkpt>
      <trkpt lat="29.73964" lon="120.968066"><ele>675</ele><time>2026-04-26T03:00:11Z</time></trkpt>
      <trkpt lat="29.739322" lon="120.967453"><ele>668</ele><time>2026-04-26T03:01:03Z</time></trkpt>
      <trkpt lat="29.739469" lon="120.966994"><ele>667</ele><time>2026-04-26T03:01:46Z</time></trkpt>
      <trkpt lat="29.739438" lon="120.966886"><ele>666</ele><time>2026-04-26T03:01:54Z</time></trkpt>
      <trkpt lat="29.739271" lon="120.966735"><ele>667</ele><time>2026-04-26T03:02:11Z</time></trkpt>
      <trkpt lat="29.739199" lon="120.966536"><ele>667</ele><time>2026-04-26T03:02:25Z</time></trkpt>
      <trkpt lat="29.7393" lon="120.96601"><ele>663</ele><time>2026-04-26T03:03:05Z</time></trkpt>
      <trkpt lat="29.739506" lon="120.965826"><ele>659</ele><time>2026-04-26T03:03:26Z</time></trkpt>
      <trkpt lat="29.739688" lon="120.965429"><ele>652</ele><time>2026-04-26T03:04:00Z</time></trkpt>
      <trkpt lat="29.739403" lon="120.965182"><ele>647</ele><time>2026-04-26T03:04:32Z</time></trkpt>
      <trkpt lat="29.739226" lon="120.96475"><ele>647</ele><time>2026-04-26T03:05:03Z</time></trkpt>
      <trkpt lat="29.739023" lon="120.964482"><ele>638</ele><time>2026-04-26T03:05:30Z</time></trkpt>
      <trkpt lat="29.73862" lon="120.964234"><ele>631</ele><time>2026-04-26T03:06:09Z</time></trkpt>
      <trkpt lat="29.738396" lon="120.963881"><ele>631</ele><time>2026-04-26T03:06:39Z</time></trkpt>
      <trkpt lat="29.738127" lon="120.963627"><ele>629</ele><time>2026-04-26T03:07:15Z</time></trkpt>
      <trkpt lat="29.737989" lon="120.963118"><ele>634</ele><time>2026-04-26T03:07:59Z</time></trkpt>
      <trkpt lat="29.738125" lon="120.962297"><ele>623</ele><time>2026-04-26T03:09:10Z</time></trkpt>
      <trkpt lat="29.738224" lon="120.96217"><ele>622</ele><time>2026-04-26T03:09:21Z</time></trkpt>
      <trkpt lat="29.73849" lon="120.962016"><ele>615</ele><time>2026-04-26T03:09:46Z</time></trkpt>
      <trkpt lat="29.738894" lon="120.960994"><ele>601</ele><time>2026-04-26T03:11:02Z</time></trkpt>
      <trkpt lat="29.738576" lon="120.960545"><ele>592</ele><time>2026-04-26T03:11:38Z</time></trkpt>
      <trkpt lat="29.7381" lon="120.960371"><ele>580</ele><time>2026-04-26T03:12:17Z</time></trkpt>
      <trkpt lat="29.738098" lon="120.960186"><ele>581</ele><time>2026-04-26T03:12:28Z</time></trkpt>
      <trkpt lat="29.737981" lon="120.959905"><ele>581</ele><time>2026-04-26T03:12:48Z</time></trkpt>
      <trkpt lat="29.737551" lon="120.959416"><ele>578</ele><time>2026-04-26T03:13:37Z</time></trkpt>
      <trkpt lat="29.737141" lon="120.95874"><ele>582</ele><time>2026-04-26T03:14:33Z</time></trkpt>
      <trkpt lat="29.737552" lon="120.958565"><ele>578</ele><time>2026-04-26T03:15:59Z</time></trkpt>
      <trkpt lat="29.737721" lon="120.958838"><ele>565</ele><time>2026-04-26T03:16:40Z</time></trkpt>
      <trkpt lat="29.737924" lon="120.958916"><ele>563</ele><time>2026-04-26T03:17:10Z</time></trkpt>
      <trkpt lat="29.738188" lon="120.9592"><ele>559</ele><time>2026-04-26T03:17:43Z</time></trkpt>
      <trkpt lat="29.738467" lon="120.959308"><ele>551</ele><time>2026-04-26T03:18:16Z</time></trkpt>
      <trkpt lat="29.738617" lon="120.959544"><ele>541</ele><time>2026-04-26T03:18:38Z</time></trkpt>
      <trkpt lat="29.739061" lon="120.959558"><ele>527</ele><time>2026-04-26T03:19:33Z</time></trkpt>
      <trkpt lat="29.739394" lon="120.959672"><ele>513</ele><time>2026-04-26T03:20:20Z</time></trkpt>
      <trkpt lat="29.739868" lon="120.959315"><ele>495</ele><time>2026-04-26T03:21:46Z</time></trkpt>
      <trkpt lat="29.739756" lon="120.958981"><ele>484</ele><time>2026-04-26T03:22:16Z</time></trkpt>
      <trkpt lat="29.740033" lon="120.958901"><ele>475</ele><time>2026-04-26T03:22:59Z</time></trkpt>
      <trkpt lat="29.740482" lon="120.958634"><ele>464</ele><time>2026-04-26T03:24:06Z</time></trkpt>
      <trkpt lat="29.740619" lon="120.958591"><ele>458</ele><time>2026-04-26T03:24:30Z</time></trkpt>
      <trkpt lat="29.740755" lon="120.95865"><ele>455</ele><time>2026-04-26T03:24:46Z</time></trkpt>
      <trkpt lat="29.74084" lon="120.958595"><ele>450</ele><time>2026-04-26T03:25:02Z</time></trkpt>
      <trkpt lat="29.74089" lon="120.958439"><ele>445</ele><time>2026-04-26T03:25:17Z</time></trkpt>
      <trkpt lat="29.740814" lon="120.958182"><ele>443</ele><time>2026-04-26T03:25:36Z</time></trkpt>
      <trkpt lat="29.740856" lon="120.958095"><ele>442</ele><time>2026-04-26T03:25:49Z</time></trkpt>
      <trkpt lat="29.741466" lon="120.958157"><ele>429</ele><time>2026-04-26T03:27:26Z</time></trkpt>
      <trkpt lat="29.742804" lon="120.957622"><ele>394</ele><time>2026-04-26T03:30:33Z</time></trkpt>
      <trkpt lat="29.743246" lon="120.957689"><ele>385</ele><time>2026-04-26T03:32:02Z</time></trkpt>
      <trkpt lat="29.743493" lon="120.957869"><ele>376</ele><time>2026-04-26T03:32:45Z</time></trkpt>
      <trkpt lat="29.744146" lon="120.958122"><ele>362</ele><time>2026-04-26T03:33:56Z</time></trkpt>
      <trkpt lat="29.744391" lon="120.958105"><ele>355</ele><time>2026-04-26T03:34:35Z</time></trkpt>
      <trkpt lat="29.744517" lon="120.958029"><ele>353</ele><time>2026-04-26T03:34:47Z</time></trkpt>
      <trkpt lat="29.744695" lon="120.958107"><ele>348</ele><time>2026-04-26T03:35:15Z</time></trkpt>
      <trkpt lat="29.744886" lon="120.958078"><ele>342</ele><time>2026-04-26T03:35:55Z</time></trkpt>
      <trkpt lat="29.744791" lon="120.958192"><ele>345</ele><time>2026-04-26T03:36:07Z</time></trkpt>
      <trkpt lat="29.744821" lon="120.958246"><ele>344</ele><time>2026-04-26T03:36:12Z</time></trkpt>
      <trkpt lat="29.74495" lon="120.958106"><ele>340</ele><time>2026-04-26T03:37:59Z</time></trkpt>
      <trkpt lat="29.745493" lon="120.95796"><ele>334</ele><time>2026-04-26T03:38:44Z</time></trkpt>
      <trkpt lat="29.745577" lon="120.958029"><ele>334</ele><time>2026-04-26T03:38:52Z</time></trkpt>
      <trkpt lat="29.745726" lon="120.957977"><ele>322</ele><time>2026-04-26T03:39:11Z</time></trkpt>
      <trkpt lat="29.746515" lon="120.95819"><ele>301</ele><time>2026-04-26T03:40:45Z</time></trkpt>
      <trkpt lat="29.746824" lon="120.958012"><ele>297</ele><time>2026-04-26T03:41:17Z</time></trkpt>
      <trkpt lat="29.746968" lon="120.958368"><ele>288</ele><time>2026-04-26T03:42:07Z</time></trkpt>
      <trkpt lat="29.747137" lon="120.95859"><ele>274</ele><time>2026-04-26T03:43:10Z</time></trkpt>
      <trkpt lat="29.746726" lon="120.958906"><ele>272</ele><time>2026-04-26T03:44:30Z</time></trkpt>
      <trkpt lat="29.746401" lon="120.959411"><ele>273</ele><time>2026-04-26T03:45:23Z</time></trkpt>
      <trkpt lat="29.74658" lon="120.959686"><ele>274</ele><time>2026-04-26T03:45:49Z</time></trkpt>
      <trkpt lat="29.746494" lon="120.960064"><ele>274</ele><time>2026-04-26T03:46:25Z</time></trkpt>
      <trkpt lat="29.746713" lon="120.960222"><ele>267</ele><time>2026-04-26T03:47:01Z</time></trkpt>
      <trkpt lat="29.746671" lon="120.960506"><ele>265</ele><time>2026-04-26T03:47:22Z</time></trkpt>
      <trkpt lat="29.74673" lon="120.960871"><ele>267</ele><time>2026-04-26T03:47:51Z</time></trkpt>
      <trkpt lat="29.746923" lon="120.961036"><ele>265</ele><time>2026-04-26T03:48:11Z</time></trkpt>
      <trkpt lat="29.746944" lon="120.961143"><ele>266</ele><time>2026-04-26T03:48:18Z</time></trkpt>
      <trkpt lat="29.747088" lon="120.961304"><ele>269</ele><time>2026-04-26T03:48:34Z</time></trkpt>
      <trkpt lat="29.74745" lon="120.961598"><ele>260</ele><time>2026-04-26T03:49:12Z</time></trkpt>
      <trkpt lat="29.747484" lon="120.961751"><ele>260</ele><time>2026-04-26T03:49:24Z</time></trkpt>
      <trkpt lat="29.747422" lon="120.96224"><ele>259</ele><time>2026-04-26T03:50:04Z</time></trkpt>
      <trkpt lat="29.74752" lon="120.962233"><ele>258</ele><time>2026-04-26T03:50:12Z</time></trkpt>
      <trkpt lat="29.74794" lon="120.96285"><ele>249</ele><time>2026-04-26T03:51:22Z</time></trkpt>
      <trkpt lat="29.748386" lon="120.963201"><ele>249</ele><time>2026-04-26T03:52:09Z</time></trkpt>
      <trkpt lat="29.748624" lon="120.9633"><ele>247</ele><time>2026-04-26T03:52:33Z</time></trkpt>
      <trkpt lat="29.748668" lon="120.963645"><ele>247</ele><time>2026-04-26T03:53:02Z</time></trkpt>
      <trkpt lat="29.748842" lon="120.963751"><ele>247</ele><time>2026-04-26T03:53:24Z</time></trkpt>
      <trkpt lat="29.748949" lon="120.964014"><ele>246</ele><time>2026-04-26T03:54:00Z</time></trkpt>
      <trkpt lat="29.749432" lon="120.964275"><ele>243</ele><time>2026-04-26T03:54:46Z</time></trkpt>
      <trkpt lat="29.749742" lon="120.964575"><ele>243</ele><time>2026-04-26T03:55:20Z</time></trkpt>
      <trkpt lat="29.750075" lon="120.964479"><ele>244</ele><time>2026-04-26T03:55:49Z</time></trkpt>
      <trkpt lat="29.750419" lon="120.964574"><ele>245</ele><time>2026-04-26T03:56:18Z</time></trkpt>
      <trkpt lat="29.750767" lon="120.964895"><ele>244</ele><time>2026-04-26T03:56:55Z</time></trkpt>
      <trkpt lat="29.7508" lon="120.96499"><ele>243</ele><time>2026-04-26T03:57:10Z</time></trkpt>
      <trkpt lat="29.750945" lon="120.964981"><ele>248</ele><time>2026-04-26T03:57:40Z</time></trkpt>
      <trkpt lat="29.751035" lon="120.964852"><ele>247</ele><time>2026-04-26T03:58:01Z</time></trkpt>
      <trkpt lat="29.751028" lon="120.96468"><ele>246</ele><time>2026-04-26T03:58:15Z</time></trkpt>
      <trkpt lat="29.751289" lon="120.96443"><ele>246</ele><time>2026-04-26T03:59:12Z</time></trkpt>
      <trkpt lat="29.751445" lon="120.96454"><ele>248</ele><time>2026-04-26T03:59:32Z</time></trkpt>
      <trkpt lat="29.751694" lon="120.964548"><ele>250</ele><time>2026-04-26T03:59:53Z</time></trkpt>
      <trkpt lat="29.751878" lon="120.964538"><ele>254</ele><time>2026-04-26T04:00:14Z</time></trkpt>
      <trkpt lat="29.752033" lon="120.964394"><ele>255</ele><time>2026-04-26T04:00:35Z</time></trkpt>
      <trkpt lat="29.752349" lon="120.964535"><ele>268</ele><time>2026-04-26T04:01:28Z</time></trkpt>
      <trkpt lat="29.752485" lon="120.96453"><ele>274</ele><time>2026-04-26T04:02:04Z</time></trkpt>
      <trkpt lat="29.752498" lon="120.964583"><ele>273</ele><time>2026-04-26T04:02:10Z</time></trkpt>
      <trkpt lat="29.752569" lon="120.964517"><ele>277</ele><time>2026-04-26T04:02:31Z</time></trkpt>
      <trkpt lat="29.752705" lon="120.964563"><ele>282</ele><time>2026-04-26T04:03:15Z</time></trkpt>
      <trkpt lat="29.753" lon="120.964397"><ele>287</ele><time>2026-04-26T04:03:45Z</time></trkpt>
      <trkpt lat="29.753139" lon="120.964994"><ele>283</ele><time>2026-04-26T04:05:07Z</time></trkpt>
      <trkpt lat="29.753218" lon="120.965047"><ele>282</ele><time>2026-04-26T04:05:23Z</time></trkpt>
      <trkpt lat="29.753355" lon="120.964965"><ele>278</ele><time>2026-04-26T04:05:43Z</time></trkpt>
      <trkpt lat="29.753395" lon="120.965197"><ele>275</ele><time>2026-04-26T04:06:10Z</time></trkpt>
      <trkpt lat="29.753581" lon="120.965265"><ele>273</ele><time>2026-04-26T04:06:35Z</time></trkpt>
      <trkpt lat="29.754289" lon="120.964927"><ele>260</ele><time>2026-04-26T04:08:55Z</time></trkpt>
      <trkpt lat="29.754438" lon="120.965097"><ele>258</ele><time>2026-04-26T04:09:19Z</time></trkpt>
      <trkpt lat="29.754462" lon="120.964882"><ele>257</ele><time>2026-04-26T04:09:55Z</time></trkpt>
      <trkpt lat="29.754716" lon="120.964444"><ele>252</ele><time>2026-04-26T04:10:36Z</time></trkpt>
      <trkpt lat="29.754703" lon="120.96433"><ele>251</ele><time>2026-04-26T04:10:43Z</time></trkpt>
      <trkpt lat="29.754398" lon="120.963953"><ele>249</ele><time>2026-04-26T04:11:24Z</time></trkpt>
      <trkpt lat="29.754227" lon="120.963338"><ele>248</ele><time>2026-04-26T04:12:14Z</time></trkpt>
      <trkpt lat="29.754163" lon="120.962775"><ele>246</ele><time>2026-04-26T04:13:01Z</time></trkpt>
      <trkpt lat="29.754271" lon="120.961955"><ele>236</ele><time>2026-04-26T04:14:26Z</time></trkpt>
      <trkpt lat="29.754699" lon="120.960618"><ele>227</ele><time>2026-04-26T04:16:12Z</time></trkpt>
      <trkpt lat="29.754783" lon="120.960543"><ele>227</ele><time>2026-04-26T04:16:21Z</time></trkpt>
      <trkpt lat="29.754883" lon="120.960556"><ele>228</ele><time>2026-04-26T04:16:31Z</time></trkpt>
      <trkpt lat="29.75519" lon="120.960719"><ele>221</ele><time>2026-04-26T04:17:01Z</time></trkpt>
      <trkpt lat="29.755453" lon="120.960569"><ele>220</ele><time>2026-04-26T04:17:33Z</time></trkpt>
      <trkpt lat="29.755615" lon="120.960571"><ele>217</ele><time>2026-04-26T04:17:48Z</time></trkpt>
      <trkpt lat="29.755791" lon="120.960769"><ele>215</ele><time>2026-04-26T04:18:09Z</time></trkpt>
      <trkpt lat="29.756155" lon="120.960912"><ele>213</ele><time>2026-04-26T04:18:46Z</time></trkpt>
      <trkpt lat="29.756298" lon="120.960762"><ele>215</ele><time>2026-04-26T04:19:13Z</time></trkpt>
      <trkpt lat="29.756496" lon="120.959994"><ele>218</ele><time>2026-04-26T04:20:18Z</time></trkpt>
      <trkpt lat="29.756703" lon="120.959607"><ele>220</ele><time>2026-04-26T04:20:55Z</time></trkpt>
      <trkpt lat="29.75658" lon="120.959583"><ele>222</ele><time>2026-04-26T04:21:08Z</time></trkpt>
      <trkpt lat="29.756242" lon="120.960281"><ele>227</ele><time>2026-04-26T04:22:11Z</time></trkpt>
      <trkpt lat="29.756064" lon="120.960395"><ele>231</ele><time>2026-04-26T04:22:30Z</time></trkpt>
      <trkpt lat="29.755823" lon="120.960363"><ele>234</ele><time>2026-04-26T04:22:53Z</time></trkpt>
      <trkpt lat="29.755675" lon="120.960188"><ele>234</ele><time>2026-04-26T04:23:13Z</time></trkpt>
      <trkpt lat="29.755286" lon="120.960024"><ele>238</ele><time>2026-04-26T04:23:51Z</time></trkpt>
      <trkpt lat="29.755272" lon="120.959962"><ele>239</ele><time>2026-04-26T04:23:57Z</time></trkpt>
      <trkpt lat="29.755416" lon="120.959907"><ele>240</ele><time>2026-04-26T04:24:12Z</time></trkpt>
      <trkpt lat="29.755965" lon="120.960063"><ele>244</ele><time>2026-04-26T04:25:02Z</time></trkpt>
      <trkpt lat="29.755979" lon="120.960007"><ele>246</ele><time>2026-04-26T04:25:09Z</time></trkpt>
      <trkpt lat="29.755547" lon="120.959496"><ele>252</ele><time>2026-04-26T04:26:03Z</time></trkpt>
      <trkpt lat="29.755214" lon="120.95932"><ele>253</ele><time>2026-04-26T04:26:34Z</time></trkpt>
      <trkpt lat="29.754959" lon="120.959598"><ele>255</ele><time>2026-04-26T04:27:08Z</time></trkpt>
      <trkpt lat="29.754909" lon="120.959575"><ele>256</ele><time>2026-04-26T04:27:21Z</time></trkpt>
      <trkpt lat="29.755008" lon="120.959512"><ele>256</ele><time>2026-04-26T04:30:45Z</time></trkpt>
      <trkpt lat="29.755194" lon="120.959185"><ele>256</ele><time>2026-04-26T04:31:00Z</time></trkpt>
      <trkpt lat="29.755309" lon="120.959207"><ele>256</ele><time>2026-04-26T04:31:04Z</time></trkpt>
      <trkpt lat="29.755673" lon="120.959573"><ele>252</ele><time>2026-04-26T04:31:11Z</time></trkpt>
      <trkpt lat="29.755978" lon="120.959978"><ele>248</ele><time>2026-04-26T04:31:17Z</time></trkpt>
      <trkpt lat="29.756007" lon="120.960104"><ele>246</ele><time>2026-04-26T04:31:20Z</time></trkpt>
      <trkpt lat="29.7559" lon="120.960134"><ele>246</ele><time>2026-04-26T04:31:23Z</time></trkpt>
      <trkpt lat="29.755654" lon="120.959964"><ele>246</ele><time>2026-04-26T04:31:27Z</time></trkpt>
      <trkpt lat="29.755382" lon="120.959884"><ele>244</ele><time>2026-04-26T04:31:31Z</time></trkpt>
      <trkpt lat="29.755232" lon="120.959966"><ele>242</ele><time>2026-04-26T04:31:34Z</time></trkpt>
      <trkpt lat="29.755239" lon="120.960073"><ele>241</ele><time>2026-04-26T04:31:36Z</time></trkpt>
      <trkpt lat="29.755583" lon="120.960104"><ele>238</ele><time>2026-04-26T04:31:41Z</time></trkpt>
      <trkpt lat="29.755865" lon="120.960373"><ele>235</ele><time>2026-04-26T04:31:46Z</time></trkpt>
      <trkpt lat="29.756107" lon="120.960444"><ele>231</ele><time>2026-04-26T04:31:51Z</time></trkpt>
    </trkseg>
  </trk>
</gpx>
