<?xml version="1.0" encoding="UTF-8"?>
<gpx version="1.1" creator="MyWorld" xmlns="http://www.topografix.com/GPX/1/1">
  <metadata><name>大别山十字环</name></metadata>
  <trk>
    <name>大别山十字环</name>
    <trkseg>
      <trkpt lat="31.083414" lon="115.774962"><ele>1106</ele><time>2026-02-13T23:30:32Z</time></trkpt>
      <trkpt lat="31.083389" lon="115.774384"><ele>1105</ele><time>2026-02-13T23:31:00Z</time></trkpt>
      <trkpt lat="31.082841" lon="115.773532"><ele>1117</ele><time>2026-02-13T23:32:19Z</time></trkpt>
      <trkpt lat="31.082975" lon="115.773383"><ele>1129</ele><time>2026-02-13T23:33:00Z</time></trkpt>
      <trkpt lat="31.082968" lon="115.772948"><ele>1141</ele><time>2026-02-13T23:33:52Z</time></trkpt>
      <trkpt lat="31.083239" lon="115.772669"><ele>1155</ele><time>2026-02-13T23:34:39Z</time></trkpt>
      <trkpt lat="31.083696" lon="115.772377"><ele>1170</ele><time>2026-02-13T23:35:52Z</time></trkpt>
      <trkpt lat="31.083919" lon="115.772093"><ele>1167</ele><time>2026-02-13T23:36:21Z</time></trkpt>
      <trkpt lat="31.084118" lon="115.772025"><ele>1168</ele><time>2026-02-13T23:36:37Z</time></trkpt>
      <trkpt lat="31.084374" lon="115.77209"><ele>1171</ele><time>2026-02-13T23:37:00Z</time></trkpt>
      <trkpt lat="31.084465" lon="115.772028"><ele>1170</ele><time>2026-02-13T23:37:08Z</time></trkpt>
      <trkpt lat="31.084821" lon="115.771574"><ele>1171</ele><time>2026-02-13T23:37:48Z</time></trkpt>
      <trkpt lat="31.084855" lon="115.7713"><ele>1181</ele><time>2026-02-13T23:38:12Z</time></trkpt>
      <trkpt lat="31.085051" lon="115.770879"><ele>1186</ele><time>2026-02-13T23:38:51Z</time></trkpt>
      <trkpt lat="31.085562" lon="115.770347"><ele>1203</ele><time>2026-02-13T23:41:21Z</time></trkpt>
      <trkpt lat="31.085932" lon="115.770248"><ele>1218</ele><time>2026-02-13T23:42:20Z</time></trkpt>
      <trkpt lat="31.08589" lon="115.770111"><ele>1224</ele><time>2026-02-13T23:42:48Z</time></trkpt>
      <trkpt lat="31.0861" lon="115.769996"><ele>1235</ele><time>2026-02-13T23:43:40Z</time></trkpt>
      <trkpt lat="31.085982" lon="115.769537"><ele>1252</ele><time>2026-02-13T23:45:03Z</time></trkpt>
      <trkpt lat="31.086203" lon="115.769608"><ele>1259</ele><time>2026-02-13T23:45:44Z</time></trkpt>
      <trkpt lat="31.086459" lon="115.769127"><ele>1276</ele><time>2026-02-13T23:47:30Z</time></trkpt>
      <trkpt lat="31.0865" lon="115.76891"><ele>1283</ele><time>2026-02-13T23:48:12Z</time></trkpt>
      <trkpt lat="31.08659" lon="115.769013"><ele>1288</ele><time>2026-02-13T23:50:20Z</time></trkpt>
      <trkpt lat="31.086663" lon="115.768942"><ele>1295</ele><time>2026-02-13T23:50:40Z</time></trkpt>
      <trkpt lat="31.086861" lon="115.768919"><ele>1301</ele><time>2026-02-13T23:51:15Z</time></trkpt>
      <trkpt lat="31.087263" lon="115.768484"><ele>1322</ele><time>2026-02-13T23:52:46Z</time></trkpt>
      <trkpt lat="31.08754" lon="115.76845"><ele>1334</ele><time>2026-02-13T23:53:44Z</time></trkpt>
      <trkpt lat="31.087906" lon="115.768161"><ele>1350</ele><time>2026-02-13T23:55:27Z</time></trkpt>
      <trkpt lat="31.088073" lon="115.768226"><ele>1352</ele><time>2026-02-13T23:56:22Z</time></trkpt>
      <trkpt lat="31.08823" lon="115.768132"><ele>1363</ele><time>2026-02-13T23:57:15Z</time></trkpt>
      <trkpt lat="31.088385" lon="115.768222"><ele>1371</ele><time>2026-02-13T23:58:12Z</time></trkpt>
      <trkpt lat="31.088408" lon="115.768065"><ele>1377</ele><time>2026-02-13T23:58:52Z</time></trkpt>
      <trkpt lat="31.088459" lon="115.768156"><ele>1379</ele><time>2026-02-13T23:59:17Z</time></trkpt>
      <trkpt lat="31.088522" lon="115.76801"><ele>1384</ele><time>2026-02-13T23:59:52Z</time></trkpt>
      <trkpt lat="31.088598" lon="115.768065"><ele>1390</ele><time>2026-02-14T00:00:20Z</time></trkpt>
      <trkpt lat="31.088626" lon="115.768213"><ele>1394</ele><time>2026-02-14T00:00:42Z</time></trkpt>
      <trkpt lat="31.08867" lon="115.768222"><ele>1395</ele><time>2026-02-14T00:01:00Z</time></trkpt>
      <trkpt lat="31.088756" lon="115.768029"><ele>1402</ele><time>2026-02-14T00:01:41Z</time></trkpt>
      <trkpt lat="31.088806" lon="115.768127"><ele>1407</ele><time>2026-02-14T00:02:01Z</time></trkpt>
      <trkpt lat="31.088977" lon="115.768215"><ele>1416</ele><time>2026-02-14T00:03:05Z</time></trkpt>
      <trkpt lat="31.089021" lon="115.768123"><ele>1422</ele><time>2026-02-14T00:03:43Z</time></trkpt>
      <trkpt lat="31.089235" lon="115.768168"><ele>1436</ele><time>2026-02-14T00:04:54Z</time></trkpt>
      <trkpt lat="31.089209" lon="115.768065"><ele>1441</ele><time>2026-02-14T00:05:15Z</time></trkpt>
      <trkpt lat="31.089337" lon="115.768132"><ele>1444</ele><time>2026-02-14T00:05:53Z</time></trkpt>
      <trkpt lat="31.089347" lon="115.76789"><ele>1445</ele><time>2026-02-14T00:06:49Z</time></trkpt>
      <trkpt lat="31.089608" lon="115.768014"><ele>1457</ele><time>2026-02-14T00:07:29Z</time></trkpt>
      <trkpt lat="31.089853" lon="115.768277"><ele>1469</ele><time>2026-02-14T00:08:29Z</time></trkpt>
      <trkpt lat="31.090274" lon="115.768449"><ele>1475</ele><time>2026-02-14T00:09:40Z</time></trkpt>
      <trkpt lat="31.090427" lon="115.768602"><ele>1483</ele><time>2026-02-14T00:10:08Z</time></trkpt>
      <trkpt lat="31.090744" lon="115.768671"><ele>1491</ele><time>2026-02-14T00:10:59Z</time></trkpt>
      <trkpt lat="31.091008" lon="115.768831"><ele>1490</ele><time>2026-02-14T00:11:32Z</time></trkpt>
      <trkpt lat="31.091213" lon="115.769072"><ele>1487</ele><time>2026-02-14T00:12:02Z</time></trkpt>
      <trkpt lat="31.09157" lon="115.76919"><ele>1491</ele><time>2026-02-14T00:12:34Z</time></trkpt>
      <trkpt lat="31.091902" lon="115.769433"><ele>1499</ele><time>2026-02-14T00:13:16Z</time></trkpt>
      <trkpt lat="31.092126" lon="115.769745"><ele>1502</ele><time>2026-02-14T00:13:51Z</time></trkpt>
      <trkpt lat="31.092337" lon="115.769888"><ele>1504</ele><time>2026-02-14T00:14:16Z</time></trkpt>
      <trkpt lat="31.093132" lon="115.769863"><ele>1514</ele><time>2026-02-14T00:15:51Z</time></trkpt>
      <trkpt lat="31.093638" lon="115.770055"><ele>1534</ele><time>2026-02-14T00:17:07Z</time></trkpt>
      <trkpt lat="31.093834" lon="115.77025"><ele>1536</ele><time>2026-02-14T00:17:46Z</time></trkpt>
      <trkpt lat="31.094352" lon="115.770292"><ele>1547</ele><time>2026-02-14T00:18:47Z</time></trkpt>
      <trkpt lat="31.094632" lon="115.770242"><ele>1554</ele><time>2026-02-14T00:19:30Z</time></trkpt>
      <trkpt lat="31.09536" lon="115.770449"><ele>1570</ele><time>2026-02-14T00:21:29Z</time></trkpt>
      <trkpt lat="31.095799" lon="115.77066"><ele>1572</ele><time>2026-02-14T00:22:24Z</time></trkpt>
      <trkpt lat="31.096114" lon="115.771002"><ele>1583</ele><time>2026-02-14T00:23:33Z</time></trkpt>
      <trkpt lat="31.096496" lon="115.771218"><ele>1594</ele><time>2026-02-14T00:24:47Z</time></trkpt>
      <trkpt lat="31.096622" lon="115.771448"><ele>1605</ele><time>2026-02-14T00:25:33Z</time></trkpt>
      <trkpt lat="31.096712" lon="115.771402"><ele>1606</ele><time>2026-02-14T00:25:52Z</time></trkpt>
      <trkpt lat="31.096723" lon="115.771185"><ele>1614</ele><time>2026-02-14T00:26:26Z</time></trkpt>
      <trkpt lat="31.096803" lon="115.771031"><ele>1616</ele><time>2026-02-14T00:26:54Z</time></trkpt>
      <trkpt lat="31.097489" lon="115.771152"><ele>1627</ele><time>2026-02-14T00:28:22Z</time></trkpt>
      <trkpt lat="31.09785" lon="115.770932"><ele>1627</ele><time>2026-02-14T00:29:04Z</time></trkpt>
      <trkpt lat="31.098158" lon="115.770901"><ele>1624</ele><time>2026-02-14T00:29:32Z</time></trkpt>
      <trkpt lat="31.098643" lon="115.771078"><ele>1615</ele><time>2026-02-14T00:31:21Z</time></trkpt>
      <trkpt lat="31.098595" lon="115.771106"><ele>1613</ele><time>2026-02-14T00:31:55Z</time></trkpt>
      <trkpt lat="31.098852" lon="115.771342"><ele>1609</ele><time>2026-02-14T00:33:06Z</time></trkpt>
      <trkpt lat="31.099183" lon="115.771481"><ele>1606</ele><time>2026-02-14T00:33:46Z</time></trkpt>
      <trkpt lat="31.099358" lon="115.771658"><ele>1600</ele><time>2026-02-14T00:34:36Z</time></trkpt>
      <trkpt lat="31.099628" lon="115.771685"><ele>1597</ele><time>2026-02-14T00:35:07Z</time></trkpt>
      <trkpt lat="31.099838" lon="115.771864"><ele>1584</ele><time>2026-02-14T00:36:30Z</time></trkpt>
      <trkpt lat="31.100636" lon="115.771906"><ele>1589</ele><time>2026-02-14T00:37:47Z</time></trkpt>
      <trkpt lat="31.100812" lon="115.772"><ele>1585</ele><time>2026-02-14T00:38:05Z</time></trkpt>
      <trkpt lat="31.100996" lon="115.771819"><ele>1582</ele><time>2026-02-14T00:38:37Z</time></trkpt>
      <trkpt lat="31.101178" lon="115.77182"><ele>1579</ele><time>2026-02-14T00:38:55Z</time></trkpt>
      <trkpt lat="31.102462" lon="115.771151"><ele>1575</ele><time>2026-02-14T00:40:49Z</time></trkpt>
      <trkpt lat="31.103186" lon="115.77105"><ele>1583</ele><time>2026-02-14T00:41:47Z</time></trkpt>
      <trkpt lat="31.103425" lon="115.771114"><ele>1589</ele><time>2026-02-14T00:42:14Z</time></trkpt>
      <trkpt lat="31.103534" lon="115.771041"><ele>1595</ele><time>2026-02-14T00:43:01Z</time></trkpt>
      <trkpt lat="31.10358" lon="115.77113"><ele>1596</ele><time>2026-02-14T00:46:50Z</time></trkpt>
      <trkpt lat="31.103583" lon="115.770972"><ele>1603</ele><time>2026-02-14T00:51:58Z</time></trkpt>
      <trkpt lat="31.103878" lon="115.770996"><ele>1616</ele><time>2026-02-14T00:52:44Z</time></trkpt>
      <trkpt lat="31.104025" lon="115.770756"><ele>1621</ele><time>2026-02-14T00:53:26Z</time></trkpt>
      <trkpt lat="31.104102" lon="115.770822"><ele>1625</ele><time>2026-02-14T00:53:51Z</time></trkpt>
      <trkpt lat="31.104236" lon="115.770774"><ele>1631</ele><time>2026-02-14T00:54:24Z</time></trkpt>
      <trkpt lat="31.104503" lon="115.770985"><ele>1642</ele><time>2026-02-14T00:55:28Z</time></trkpt>
      <trkpt lat="31.104559" lon="115.771065"><ele>1642</ele><time>2026-02-14T00:55:37Z</time></trkpt>
      <trkpt lat="31.10459" lon="115.771464"><ele>1651</ele><time>2026-02-14T00:56:25Z</time></trkpt>
      <trkpt lat="31.104874" lon="115.771643"><ele>1658</ele><time>2026-02-14T00:57:24Z</time></trkpt>
      <trkpt lat="31.104823" lon="115.771419"><ele>1671</ele><time>2026-02-14T00:58:09Z</time></trkpt>
      <trkpt lat="31.105008" lon="115.771397"><ele>1682</ele><time>2026-02-14T00:58:59Z</time></trkpt>
      <trkpt lat="31.105116" lon="115.771314"><ele>1681</ele><time>2026-02-14T00:59:19Z</time></trkpt>
      <trkpt lat="31.105154" lon="115.771215"><ele>1681</ele><time>2026-02-14T00:59:30Z</time></trkpt>
      <trkpt lat="31.105049" lon="115.770962"><ele>1685</ele><time>2026-02-14T01:00:03Z</time></trkpt>
      <trkpt lat="31.105136" lon="115.770947"><ele>1689</ele><time>2026-02-14T01:00:26Z</time></trkpt>
      <trkpt lat="31.105209" lon="115.771015"><ele>1693</ele><time>2026-02-14T01:00:43Z</time></trkpt>
      <trkpt lat="31.105219" lon="115.770912"><ele>1698</ele><time>2026-02-14T01:01:08Z</time></trkpt>
      <trkpt lat="31.105485" lon="115.771101"><ele>1709</ele><time>2026-02-14T01:02:48Z</time></trkpt>
      <trkpt lat="31.105489" lon="115.771575"><ele>1715</ele><time>2026-02-14T01:03:30Z</time></trkpt>
      <trkpt lat="31.105637" lon="115.772051"><ele>1717</ele><time>2026-02-14T01:04:47Z</time></trkpt>
      <trkpt lat="31.105782" lon="115.772314"><ele>1722</ele><time>2026-02-14T01:05:09Z</time></trkpt>
      <trkpt lat="31.105922" lon="115.772961"><ele>1717</ele><time>2026-02-14T01:07:14Z</time></trkpt>
      <trkpt lat="31.105998" lon="115.773011"><ele>1712</ele><time>2026-02-14T01:07:28Z</time></trkpt>
      <trkpt lat="31.106274" lon="115.773672"><ele>1691</ele><time>2026-02-14T01:08:47Z</time></trkpt>
      <trkpt lat="31.106326" lon="115.77396"><ele>1685</ele><time>2026-02-14T01:09:16Z</time></trkpt>
      <trkpt lat="31.106117" lon="115.773288"><ele>1703</ele><time>2026-02-14T01:13:57Z</time></trkpt>
      <trkpt lat="31.105995" lon="115.772989"><ele>1713</ele><time>2026-02-14T01:14:40Z</time></trkpt>
      <trkpt lat="31.105915" lon="115.772934"><ele>1712</ele><time>2026-02-14T01:14:55Z</time></trkpt>
      <trkpt lat="31.105893" lon="115.772648"><ele>1720</ele><time>2026-02-14T01:15:24Z</time></trkpt>
      <trkpt lat="31.105788" lon="115.772479"><ele>1717</ele><time>2026-02-14T01:15:48Z</time></trkpt>
      <trkpt lat="31.105804" lon="115.772338"><ele>1718</ele><time>2026-02-14T01:16:12Z</time></trkpt>
      <trkpt lat="31.105682" lon="115.772169"><ele>1717</ele><time>2026-02-14T01:16:32Z</time></trkpt>
      <trkpt lat="31.105509" lon="115.771586"><ele>1712</ele><time>2026-02-14T01:17:28Z</time></trkpt>
      <trkpt lat="31.105528" lon="115.771189"><ele>1712</ele><time>2026-02-14T01:18:00Z</time></trkpt>
      <trkpt lat="31.105465" lon="115.770954"><ele>1711</ele><time>2026-02-14T01:18:20Z</time></trkpt>
      <trkpt lat="31.105561" lon="115.77058"><ele>1715</ele><time>2026-02-14T01:20:13Z</time></trkpt>
      <trkpt lat="31.105665" lon="115.770614"><ele>1711</ele><time>2026-02-14T01:20:37Z</time></trkpt>
      <trkpt lat="31.10585" lon="115.770553"><ele>1704</ele><time>2026-02-14T01:20:58Z</time></trkpt>
      <trkpt lat="31.106065" lon="115.770303"><ele>1693</ele><time>2026-02-14T01:21:32Z</time></trkpt>
      <trkpt lat="31.106029" lon="115.770015"><ele>1685</ele><time>2026-02-14T01:22:00Z</time></trkpt>
      <trkpt lat="31.10615" lon="115.76959"><ele>1673</ele><time>2026-02-14T01:22:39Z</time></trkpt>
      <trkpt lat="31.106286" lon="115.769452"><ele>1667</ele><time>2026-02-14T01:23:05Z</time></trkpt>
      <trkpt lat="31.106392" lon="115.769192"><ele>1661</ele><time>2026-02-14T01:23:30Z</time></trkpt>
      <trkpt lat="31.1065" lon="115.768723"><ele>1657</ele><time>2026-02-14T01:24:04Z</time></trkpt>
      <trkpt lat="31.106768" lon="115.768565"><ele>1652</ele><time>2026-02-14T01:24:30Z</time></trkpt>
      <trkpt lat="31.107036" lon="115.768598"><ele>1644</ele><time>2026-02-14T01:24:58Z</time></trkpt>
      <trkpt lat="31.107613" lon="115.768272"><ele>1625</ele><time>2026-02-14T01:26:02Z</time></trkpt>
      <trkpt lat="31.107743" lon="115.767747"><ele>1611</ele><time>2026-02-14T01:26:46Z</time></trkpt>
      <trkpt lat="31.108186" lon="115.767251"><ele>1609</ele><time>2026-02-14T01:27:31Z</time></trkpt>
      <trkpt lat="31.108326" lon="115.766995"><ele>1613</ele><time>2026-02-14T01:27:56Z</time></trkpt>
      <trkpt lat="31.108646" lon="115.766721"><ele>1622</ele><time>2026-02-14T01:28:42Z</time></trkpt>
      <trkpt lat="31.108692" lon="115.766462"><ele>1631</ele><time>2026-02-14T01:29:30Z</time></trkpt>
      <trkpt lat="31.108831" lon="115.766243"><ele>1639</ele><time>2026-02-14T01:30:25Z</time></trkpt>
      <trkpt lat="31.109244" lon="115.766041"><ele>1650</ele><time>2026-02-14T01:31:49Z</time></trkpt>
      <trkpt lat="31.109683" lon="115.766094"><ele>1651</ele><time>2026-02-14T01:32:36Z</time></trkpt>
      <trkpt lat="31.109824" lon="115.766022"><ele>1656</ele><time>2026-02-14T01:32:52Z</time></trkpt>
      <trkpt lat="31.110119" lon="115.765733"><ele>1660</ele><time>2026-02-14T01:33:37Z</time></trkpt>
      <trkpt lat="31.110326" lon="115.765085"><ele>1674</ele><time>2026-02-14T01:34:57Z</time></trkpt>
      <trkpt lat="31.110525" lon="115.764786"><ele>1680</ele><time>2026-02-14T01:36:31Z</time></trkpt>
      <trkpt lat="31.110614" lon="115.764788"><ele>1673</ele><time>2026-02-14T01:38:00Z</time></trkpt>
      <trkpt lat="31.110677" lon="115.764646"><ele>1669</ele><time>2026-02-14T01:38:25Z</time></trkpt>
      <trkpt lat="31.110935" lon="115.76449"><ele>1663</ele><time>2026-02-14T01:39:13Z</time></trkpt>
      <trkpt lat="31.11112" lon="115.764236"><ele>1661</ele><time>2026-02-14T01:39:45Z</time></trkpt>
      <trkpt lat="31.112023" lon="115.763639"><ele>1641</ele><time>2026-02-14T01:41:36Z</time></trkpt>
      <trkpt lat="31.112217" lon="115.763443"><ele>1641</ele><time>2026-02-14T01:41:54Z</time></trkpt>
      <trkpt lat="31.112704" lon="115.763266"><ele>1637</ele><time>2026-02-14T01:42:33Z</time></trkpt>
      <trkpt lat="31.113107" lon="115.763022"><ele>1629</ele><time>2026-02-14T01:43:11Z</time></trkpt>
      <trkpt lat="31.113453" lon="115.76294"><ele>1632</ele><time>2026-02-14T01:43:43Z</time></trkpt>
      <trkpt lat="31.11365" lon="115.762988"><ele>1631</ele><time>2026-02-14T01:44:07Z</time></trkpt>
      <trkpt lat="31.113713" lon="115.763072"><ele>1627</ele><time>2026-02-14T01:44:26Z</time></trkpt>
      <trkpt lat="31.113677" lon="115.763326"><ele>1616</ele><time>2026-02-14T01:45:17Z</time></trkpt>
      <trkpt lat="31.113998" lon="115.763598"><ele>1601</ele><time>2026-02-14T01:46:16Z</time></trkpt>
      <trkpt lat="31.11429" lon="115.763692"><ele>1591</ele><time>2026-02-14T01:46:48Z</time></trkpt>
      <trkpt lat="31.114494" lon="115.763637"><ele>1582</ele><time>2026-02-14T01:47:12Z</time></trkpt>
      <trkpt lat="31.114629" lon="115.763679"><ele>1578</ele><time>2026-02-14T01:47:24Z</time></trkpt>
      <trkpt lat="31.114798" lon="115.76363"><ele>1579</ele><time>2026-02-14T01:47:38Z</time></trkpt>
      <trkpt lat="31.114942" lon="115.763491"><ele>1582</ele><time>2026-02-14T01:48:07Z</time></trkpt>
      <trkpt lat="31.115197" lon="115.763505"><ele>1596</ele><time>2026-02-14T01:48:49Z</time></trkpt>
      <trkpt lat="31.115514" lon="115.763761"><ele>1586</ele><time>2026-02-14T01:50:06Z</time></trkpt>
      <trkpt lat="31.11556" lon="115.763908"><ele>1582</ele><time>2026-02-14T01:50:23Z</time></trkpt>
      <trkpt lat="31.115705" lon="115.764064"><ele>1578</ele><time>2026-02-14T01:50:42Z</time></trkpt>
      <trkpt lat="31.116114" lon="115.764275"><ele>1578</ele><time>2026-02-14T01:56:36Z</time></trkpt>
      <trkpt lat="31.116415" lon="115.764229"><ele>1588</ele><time>2026-02-14T01:57:27Z</time></trkpt>
      <trkpt lat="31.116672" lon="115.764103"><ele>1601</ele><time>2026-02-14T01:58:28Z</time></trkpt>
      <trkpt lat="31.116638" lon="115.764131"><ele>1601</ele><time>2026-02-14T01:59:59Z</time></trkpt>
      <trkpt lat="31.116683" lon="115.764137"><ele>1608</ele><time>2026-02-14T02:01:07Z</time></trkpt>
      <trkpt lat="31.1167" lon="115.764303"><ele>1607</ele><time>2026-02-14T02:02:38Z</time></trkpt>
      <trkpt lat="31.116825" lon="115.764405"><ele>1606</ele><time>2026-02-14T02:02:54Z</time></trkpt>
      <trkpt lat="31.117249" lon="115.764395"><ele>1599</ele><time>2026-02-14T02:03:32Z</time></trkpt>
      <trkpt lat="31.117465" lon="115.764269"><ele>1599</ele><time>2026-02-14T02:03:54Z</time></trkpt>
      <trkpt lat="31.117759" lon="115.764352"><ele>1592</ele><time>2026-02-14T02:04:29Z</time></trkpt>
      <trkpt lat="31.118115" lon="115.764302"><ele>1589</ele><time>2026-02-14T02:04:57Z</time></trkpt>
      <trkpt lat="31.118376" lon="115.764587"><ele>1581</ele><time>2026-02-14T02:05:32Z</time></trkpt>
      <trkpt lat="31.118567" lon="115.764643"><ele>1582</ele><time>2026-02-14T02:05:49Z</time></trkpt>
      <trkpt lat="31.118863" lon="115.764451"><ele>1584</ele><time>2026-02-14T02:06:27Z</time></trkpt>
      <trkpt lat="31.119003" lon="115.764188"><ele>1589</ele><time>2026-02-14T02:06:50Z</time></trkpt>
      <trkpt lat="31.118972" lon="115.764034"><ele>1594</ele><time>2026-02-14T02:07:12Z</time></trkpt>
      <trkpt lat="31.119166" lon="115.76385"><ele>1596</ele><time>2026-02-14T02:08:06Z</time></trkpt>
      <trkpt lat="31.119417" lon="115.763808"><ele>1604</ele><time>2026-02-14T02:08:31Z</time></trkpt>
      <trkpt lat="31.11948" lon="115.763725"><ele>1602</ele><time>2026-02-14T02:08:41Z</time></trkpt>
      <trkpt lat="31.119854" lon="115.763713"><ele>1591</ele><time>2026-02-14T02:09:43Z</time></trkpt>
      <trkpt lat="31.119961" lon="115.763578"><ele>1592</ele><time>2026-02-14T02:10:08Z</time></trkpt>
      <trkpt lat="31.119864" lon="115.763708"><ele>1592</ele><time>2026-02-14T02:10:40Z</time></trkpt>
      <trkpt lat="31.119672" lon="115.76375"><ele>1595</ele><time>2026-02-14T02:11:06Z</time></trkpt>
      <trkpt lat="31.119479" lon="115.763703"><ele>1602</ele><time>2026-02-14T02:11:36Z</time></trkpt>
      <trkpt lat="31.119416" lon="115.763556"><ele>1603</ele><time>2026-02-14T02:12:01Z</time></trkpt>
      <trkpt lat="31.119431" lon="115.76361"><ele>1606</ele><time>2026-02-14T02:12:24Z</time></trkpt>
      <trkpt lat="31.119255" lon="115.763687"><ele>1608</ele><time>2026-02-14T02:12:53Z</time></trkpt>
      <trkpt lat="31.118984" lon="115.764021"><ele>1598</ele><time>2026-02-14T02:13:41Z</time></trkpt>
      <trkpt lat="31.118974" lon="115.764253"><ele>1592</ele><time>2026-02-14T02:14:05Z</time></trkpt>
      <trkpt lat="31.118795" lon="115.764534"><ele>1591</ele><time>2026-02-14T02:14:36Z</time></trkpt>
      <trkpt lat="31.118599" lon="115.764686"><ele>1585</ele><time>2026-02-14T02:15:01Z</time></trkpt>
      <trkpt lat="31.118317" lon="115.764541"><ele>1586</ele><time>2026-02-14T02:15:32Z</time></trkpt>
      <trkpt lat="31.118136" lon="115.764322"><ele>1586</ele><time>2026-02-14T02:15:59Z</time></trkpt>
      <trkpt lat="31.117773" lon="115.764349"><ele>1592</ele><time>2026-02-14T02:16:31Z</time></trkpt>
      <trkpt lat="31.117485" lon="115.764269"><ele>1599</ele><time>2026-02-14T02:16:58Z</time></trkpt>
      <trkpt lat="31.117204" lon="115.764418"><ele>1599</ele><time>2026-02-14T02:17:24Z</time></trkpt>
      <trkpt lat="31.116711" lon="115.764432"><ele>1600</ele><time>2026-02-14T02:18:18Z</time></trkpt>
      <trkpt lat="31.116336" lon="115.764292"><ele>1591</ele><time>2026-02-14T02:19:00Z</time></trkpt>
      <trkpt lat="31.116155" lon="115.764293"><ele>1587</ele><time>2026-02-14T02:19:22Z</time></trkpt>
      <trkpt lat="31.115829" lon="115.764129"><ele>1582</ele><time>2026-02-14T02:19:53Z</time></trkpt>
      <trkpt lat="31.11556" lon="115.763837"><ele>1586</ele><time>2026-02-14T02:20:27Z</time></trkpt>
      <trkpt lat="31.114967" lon="115.763525"><ele>1591</ele><time>2026-02-14T02:21:27Z</time></trkpt>
      <trkpt lat="31.11465" lon="115.763675"><ele>1583</ele><time>2026-02-14T02:22:11Z</time></trkpt>
      <trkpt lat="31.114493" lon="115.763632"><ele>1586</ele><time>2026-02-14T02:22:33Z</time></trkpt>
      <trkpt lat="31.114367" lon="115.763684"><ele>1592</ele><time>2026-02-14T02:23:04Z</time></trkpt>
      <trkpt lat="31.114088" lon="115.763599"><ele>1603</ele><time>2026-02-14T02:23:55Z</time></trkpt>
      <trkpt lat="31.113761" lon="115.763345"><ele>1618</ele><time>2026-02-14T02:25:19Z</time></trkpt>
      <trkpt lat="31.113698" lon="115.763156"><ele>1628</ele><time>2026-02-14T02:26:04Z</time></trkpt>
      <trkpt lat="31.113741" lon="115.763062"><ele>1632</ele><time>2026-02-14T02:26:28Z</time></trkpt>
      <trkpt lat="31.113716" lon="115.762891"><ele>1635</ele><time>2026-02-14T02:27:04Z</time></trkpt>
      <trkpt lat="31.113556" lon="115.762788"><ele>1641</ele><time>2026-02-14T02:28:52Z</time></trkpt>
      <trkpt lat="31.113374" lon="115.762961"><ele>1640</ele><time>2026-02-14T02:34:27Z</time></trkpt>
      <trkpt lat="31.113081" lon="115.76302"><ele>1636</ele><time>2026-02-14T02:34:56Z</time></trkpt>
      <trkpt lat="31.112759" lon="115.76325"><ele>1642</ele><time>2026-02-14T02:35:40Z</time></trkpt>
      <trkpt lat="31.112275" lon="115.763412"><ele>1646</ele><time>2026-02-14T02:36:42Z</time></trkpt>
      <trkpt lat="31.111504" lon="115.764031"><ele>1657</ele><time>2026-02-14T02:38:27Z</time></trkpt>
      <trkpt lat="31.111155" lon="115.76422"><ele>1668</ele><time>2026-02-14T02:39:27Z</time></trkpt>
      <trkpt lat="31.110948" lon="115.764527"><ele>1671</ele><time>2026-02-14T02:40:05Z</time></trkpt>
      <trkpt lat="31.110803" lon="115.764556"><ele>1670</ele><time>2026-02-14T02:40:23Z</time></trkpt>
      <trkpt lat="31.110636" lon="115.764799"><ele>1678</ele><time>2026-02-14T02:41:33Z</time></trkpt>
      <trkpt lat="31.110616" lon="115.76475"><ele>1681</ele><time>2026-02-14T02:42:08Z</time></trkpt>
      <trkpt lat="31.110537" lon="115.764806"><ele>1687</ele><time>2026-02-14T02:42:31Z</time></trkpt>
      <trkpt lat="31.110314" lon="115.76519"><ele>1680</ele><time>2026-02-14T02:43:41Z</time></trkpt>
      <trkpt lat="31.110194" lon="115.765581"><ele>1676</ele><time>2026-02-14T02:44:23Z</time></trkpt>
      <trkpt lat="31.109994" lon="115.765884"><ele>1668</ele><time>2026-02-14T02:45:08Z</time></trkpt>
      <trkpt lat="31.109809" lon="115.766008"><ele>1667</ele><time>2026-02-14T02:45:26Z</time></trkpt>
      <trkpt lat="31.109229" lon="115.766032"><ele>1661</ele><time>2026-02-14T02:46:19Z</time></trkpt>
      <trkpt lat="31.108883" lon="115.766188"><ele>1650</ele><time>2026-02-14T02:46:58Z</time></trkpt>
      <trkpt lat="31.108717" lon="115.766467"><ele>1643</ele><time>2026-02-14T02:47:31Z</time></trkpt>
      <trkpt lat="31.108705" lon="115.766646"><ele>1638</ele><time>2026-02-14T02:47:58Z</time></trkpt>
      <trkpt lat="31.108623" lon="115.76677"><ele>1633</ele><time>2026-02-14T02:48:11Z</time></trkpt>
      <trkpt lat="31.108364" lon="115.766998"><ele>1626</ele><time>2026-02-14T02:48:29Z</time></trkpt>
      <trkpt lat="31.107791" lon="115.767724"><ele>1619</ele><time>2026-02-14T02:49:38Z</time></trkpt>
      <trkpt lat="31.107668" lon="115.768215"><ele>1629</ele><time>2026-02-14T02:50:26Z</time></trkpt>
      <trkpt lat="31.107118" lon="115.768582"><ele>1644</ele><time>2026-02-14T02:52:07Z</time></trkpt>
      <trkpt lat="31.10684" lon="115.768528"><ele>1654</ele><time>2026-02-14T02:52:54Z</time></trkpt>
      <trkpt lat="31.10654" lon="115.768704"><ele>1662</ele><time>2026-02-14T02:53:45Z</time></trkpt>
      <trkpt lat="31.106314" lon="115.769449"><ele>1671</ele><time>2026-02-14T02:55:10Z</time></trkpt>
      <trkpt lat="31.106164" lon="115.769551"><ele>1679</ele><time>2026-02-14T02:55:48Z</time></trkpt>
      <trkpt lat="31.106153" lon="115.76983"><ele>1686</ele><time>2026-02-14T02:56:28Z</time></trkpt>
      <trkpt lat="31.106071" lon="115.770028"><ele>1692</ele><time>2026-02-14T02:57:00Z</time></trkpt>
      <trkpt lat="31.106097" lon="115.77024"><ele>1695</ele><time>2026-02-14T02:57:38Z</time></trkpt>
      <trkpt lat="31.105879" lon="115.770545"><ele>1706</ele><time>2026-02-14T02:58:51Z</time></trkpt>
      <trkpt lat="31.105754" lon="115.770601"><ele>1709</ele><time>2026-02-14T02:59:22Z</time></trkpt>
      <trkpt lat="31.105621" lon="115.770553"><ele>1714</ele><time>2026-02-14T02:59:56Z</time></trkpt>
      <trkpt lat="31.105522" lon="115.770718"><ele>1727</ele><time>2026-02-14T03:01:22Z</time></trkpt>
      <trkpt lat="31.105527" lon="115.771483"><ele>1721</ele><time>2026-02-14T03:05:15Z</time></trkpt>
      <trkpt lat="31.105682" lon="115.772048"><ele>1725</ele><time>2026-02-14T03:06:08Z</time></trkpt>
      <trkpt lat="31.105822" lon="115.772286"><ele>1728</ele><time>2026-02-14T03:06:35Z</time></trkpt>
      <trkpt lat="31.105968" lon="115.772927"><ele>1723</ele><time>2026-02-14T03:07:52Z</time></trkpt>
      <trkpt lat="31.106332" lon="115.773731"><ele>1696</ele><time>2026-02-14T03:09:46Z</time></trkpt>
      <trkpt lat="31.106746" lon="115.775189"><ele>1667</ele><time>2026-02-14T03:12:02Z</time></trkpt>
      <trkpt lat="31.107196" lon="115.775923"><ele>1647</ele><time>2026-02-14T03:13:22Z</time></trkpt>
      <trkpt lat="31.107683" lon="115.776441"><ele>1625</ele><time>2026-02-14T03:14:50Z</time></trkpt>
      <trkpt lat="31.107172" lon="115.776211"><ele>1631</ele><time>2026-02-14T03:15:40Z</time></trkpt>
      <trkpt lat="31.106959" lon="115.776285"><ele>1620</ele><time>2026-02-14T03:16:14Z</time></trkpt>
      <trkpt lat="31.106496" lon="115.77601"><ele>1615</ele><time>2026-02-14T03:17:15Z</time></trkpt>
      <trkpt lat="31.106342" lon="115.775787"><ele>1614</ele><time>2026-02-14T03:17:47Z</time></trkpt>
      <trkpt lat="31.106134" lon="115.77516"><ele>1616</ele><time>2026-02-14T03:18:31Z</time></trkpt>
      <trkpt lat="31.106042" lon="115.775067"><ele>1616</ele><time>2026-02-14T03:18:42Z</time></trkpt>
      <trkpt lat="31.10599" lon="115.774724"><ele>1617</ele><time>2026-02-14T03:19:07Z</time></trkpt>
      <trkpt lat="31.105684" lon="115.774097"><ele>1616</ele><time>2026-02-14T03:20:00Z</time></trkpt>
      <trkpt lat="31.105542" lon="115.774171"><ele>1618</ele><time>2026-02-14T03:20:13Z</time></trkpt>
      <trkpt lat="31.105154" lon="115.773689"><ele>1608</ele><time>2026-02-14T03:21:21Z</time></trkpt>
      <trkpt lat="31.104878" lon="115.77353"><ele>1601</ele><time>2026-02-14T03:21:53Z</time></trkpt>
      <trkpt lat="31.104799" lon="115.773372"><ele>1599</ele><time>2026-02-14T03:22:08Z</time></trkpt>
      <trkpt lat="31.104558" lon="115.773317"><ele>1599</ele><time>2026-02-14T03:22:26Z</time></trkpt>
      <trkpt lat="31.104497" lon="115.773155"><ele>1599</ele><time>2026-02-14T03:22:37Z</time></trkpt>
      <trkpt lat="31.104316" lon="115.77302"><ele>1600</ele><time>2026-02-14T03:22:53Z</time></trkpt>
      <trkpt lat="31.104166" lon="115.77299"><ele>1599</ele><time>2026-02-14T03:23:09Z</time></trkpt>
      <trkpt lat="31.103975" lon="115.773166"><ele>1588</ele><time>2026-02-14T03:23:41Z</time></trkpt>
      <trkpt lat="31.103833" lon="115.773126"><ele>1579</ele><time>2026-02-14T03:24:04Z</time></trkpt>
      <trkpt lat="31.10369" lon="115.773283"><ele>1570</ele><time>2026-02-14T03:24:31Z</time></trkpt>
      <trkpt lat="31.103512" lon="115.772939"><ele>1564</ele><time>2026-02-14T03:25:16Z</time></trkpt>
      <trkpt lat="31.103371" lon="115.773224"><ele>1549</ele><time>2026-02-14T03:26:03Z</time></trkpt>
      <trkpt lat="31.103357" lon="115.77347"><ele>1547</ele><time>2026-02-14T03:26:25Z</time></trkpt>
      <trkpt lat="31.103162" lon="115.773592"><ele>1537</ele><time>2026-02-14T03:26:59Z</time></trkpt>
      <trkpt lat="31.103088" lon="115.773851"><ele>1522</ele><time>2026-02-14T03:27:57Z</time></trkpt>
      <trkpt lat="31.103023" lon="115.774209"><ele>1505</ele><time>2026-02-14T03:29:11Z</time></trkpt>
      <trkpt lat="31.103037" lon="115.774707"><ele>1486</ele><time>2026-02-14T03:30:34Z</time></trkpt>
      <trkpt lat="31.102885" lon="115.77511"><ele>1470</ele><time>2026-02-14T03:31:34Z</time></trkpt>
      <trkpt lat="31.102756" lon="115.775257"><ele>1462</ele><time>2026-02-14T03:32:08Z</time></trkpt>
      <trkpt lat="31.102716" lon="115.775933"><ele>1447</ele><time>2026-02-14T03:33:25Z</time></trkpt>
      <trkpt lat="31.102561" lon="115.776407"><ele>1434</ele><time>2026-02-14T03:34:35Z</time></trkpt>
      <trkpt lat="31.102594" lon="115.776744"><ele>1429</ele><time>2026-02-14T03:35:02Z</time></trkpt>
      <trkpt lat="31.10254" lon="115.777034"><ele>1430</ele><time>2026-02-14T03:35:31Z</time></trkpt>
      <trkpt lat="31.102203" lon="115.777806"><ele>1388</ele><time>2026-02-14T03:39:50Z</time></trkpt>
      <trkpt lat="31.102213" lon="115.778469"><ele>1351</ele><time>2026-02-14T03:42:55Z</time></trkpt>
      <trkpt lat="31.102147" lon="115.778522"><ele>1348</ele><time>2026-02-14T03:43:20Z</time></trkpt>
      <trkpt lat="31.102234" lon="115.778768"><ele>1336</ele><time>2026-02-14T03:44:05Z</time></trkpt>
      <trkpt lat="31.102115" lon="115.779104"><ele>1318</ele><time>2026-02-14T03:45:42Z</time></trkpt>
      <trkpt lat="31.102204" lon="115.779408"><ele>1293</ele><time>2026-02-14T03:46:42Z</time></trkpt>
      <trkpt lat="31.102313" lon="115.779505"><ele>1288</ele><time>2026-02-14T03:47:01Z</time></trkpt>
      <trkpt lat="31.102334" lon="115.779684"><ele>1289</ele><time>2026-02-14T03:47:19Z</time></trkpt>
      <trkpt lat="31.102301" lon="115.780338"><ele>1283</ele><time>2026-02-14T03:48:11Z</time></trkpt>
      <trkpt lat="31.10219" lon="115.780572"><ele>1272</ele><time>2026-02-14T03:48:46Z</time></trkpt>
      <trkpt lat="31.102265" lon="115.780837"><ele>1263</ele><time>2026-02-14T03:49:20Z</time></trkpt>
      <trkpt lat="31.102239" lon="115.781128"><ele>1250</ele><time>2026-02-14T03:50:12Z</time></trkpt>
      <trkpt lat="31.102105" lon="115.781443"><ele>1237</ele><time>2026-02-14T03:51:14Z</time></trkpt>
      <trkpt lat="31.102009" lon="115.781925"><ele>1218</ele><time>2026-02-14T03:52:20Z</time></trkpt>
      <trkpt lat="31.102045" lon="115.782278"><ele>1207</ele><time>2026-02-14T03:53:10Z</time></trkpt>
      <trkpt lat="31.101962" lon="115.782606"><ele>1190</ele><time>2026-02-14T03:54:08Z</time></trkpt>
      <trkpt lat="31.102036" lon="115.782809"><ele>1184</ele><time>2026-02-14T03:54:37Z</time></trkpt>
      <trkpt lat="31.101901" lon="115.782879"><ele>1178</ele><time>2026-02-14T03:55:01Z</time></trkpt>
      <trkpt lat="31.102049" lon="115.783102"><ele>1170</ele><time>2026-02-14T03:55:28Z</time></trkpt>
      <trkpt lat="31.102039" lon="115.78328"><ele>1169</ele><time>2026-02-14T03:56:08Z</time></trkpt>
      <trkpt lat="31.101943" lon="115.783409"><ele>1157</ele><time>2026-02-14T03:57:00Z</time></trkpt>
      <trkpt lat="31.101656" lon="115.783504"><ele>1143</ele><time>2026-02-14T03:57:54Z</time></trkpt>
      <trkpt lat="31.10153" lon="115.783998"><ele>1117</ele><time>2026-02-14T04:00:11Z</time></trkpt>
      <trkpt lat="31.101428" lon="115.784178"><ele>1107</ele><time>2026-02-14T04:00:47Z</time></trkpt>
      <trkpt lat="31.101349" lon="115.78413"><ele>1101</ele><time>2026-02-14T04:01:09Z</time></trkpt>
      <trkpt lat="31.101317" lon="115.784171"><ele>1098</ele><time>2026-02-14T04:01:19Z</time></trkpt>
      <trkpt lat="31.101357" lon="115.784631"><ele>1083</ele><time>2026-02-14T04:02:12Z</time></trkpt>
      <trkpt lat="31.101157" lon="115.784861"><ele>1075</ele><time>2026-02-14T04:02:46Z</time></trkpt>
      <trkpt lat="31.101107" lon="115.785083"><ele>1073</ele><time>2026-02-14T04:03:04Z</time></trkpt>
      <trkpt lat="31.100781" lon="115.785145"><ele>1060</ele><time>2026-02-14T04:03:51Z</time></trkpt>
      <trkpt lat="31.100796" lon="115.785297"><ele>1055</ele><time>2026-02-14T04:04:30Z</time></trkpt>
      <trkpt lat="31.100311" lon="115.785891"><ele>1050</ele><time>2026-02-14T04:05:34Z</time></trkpt>
      <trkpt lat="31.099963" lon="115.786435"><ele>1033</ele><time>2026-02-14T04:06:28Z</time></trkpt>
      <trkpt lat="31.099869" lon="115.786432"><ele>1027</ele><time>2026-02-14T04:06:39Z</time></trkpt>
      <trkpt lat="31.099836" lon="115.786676"><ele>1019</ele><time>2026-02-14T04:07:09Z</time></trkpt>
      <trkpt lat="31.099415" lon="115.787009"><ele>1004</ele><time>2026-02-14T04:08:00Z</time></trkpt>
      <trkpt lat="31.099437" lon="115.787275"><ele>995</ele><time>2026-02-14T04:08:42Z</time></trkpt>
      <trkpt lat="31.099314" lon="115.787297"><ele>985</ele><time>2026-02-14T04:09:06Z</time></trkpt>
      <trkpt lat="31.099252" lon="115.787563"><ele>982</ele><time>2026-02-14T04:09:34Z</time></trkpt>
      <trkpt lat="31.099027" lon="115.787763"><ele>988</ele><time>2026-02-14T04:10:05Z</time></trkpt>
      <trkpt lat="31.098904" lon="115.78807"><ele>985</ele><time>2026-02-14T04:10:31Z</time></trkpt>
      <trkpt lat="31.098402" lon="115.788476"><ele>979</ele><time>2026-02-14T04:11:27Z</time></trkpt>
      <trkpt lat="31.098212" lon="115.788513"><ele>970</ele><time>2026-02-14T04:11:50Z</time></trkpt>
      <trkpt lat="31.097922" lon="115.78881"><ele>958</ele><time>2026-02-14T04:12:35Z</time></trkpt>
      <trkpt lat="31.097496" lon="115.788925"><ele>940</ele><time>2026-02-14T04:13:37Z</time></trkpt>
      <trkpt lat="31.097411" lon="115.788893"><ele>937</ele><time>2026-02-14T04:13:48Z</time></trkpt>
      <trkpt lat="31.097482" lon="115.789101"><ele>931</ele><time>2026-02-14T04:14:29Z</time></trkpt>
      <trkpt lat="31.097635" lon="115.789292"><ele>921</ele><time>2026-02-14T04:15:11Z</time></trkpt>
      <trkpt lat="31.097547" lon="115.789329"><ele>915</ele><time>2026-02-14T04:15:29Z</time></trkpt>
      <trkpt lat="31.097515" lon="115.789425"><ele>910</ele><time>2026-02-14T04:15:47Z</time></trkpt>
      <trkpt lat="31.097299" lon="115.789382"><ele>898</ele><time>2026-02-14T04:16:23Z</time></trkpt>
      <trkpt lat="31.097298" lon="115.789523"><ele>894</ele><time>2026-02-14T04:16:46Z</time></trkpt>
      <trkpt lat="31.097248" lon="115.789518"><ele>891</ele><time>2026-02-14T04:17:00Z</time></trkpt>
      <trkpt lat="31.096888" lon="115.789294"><ele>881</ele><time>2026-02-14T04:17:42Z</time></trkpt>
      <trkpt lat="31.096696" lon="115.789343"><ele>873</ele><time>2026-02-14T04:18:11Z</time></trkpt>
      <trkpt lat="31.096477" lon="115.789214"><ele>866</ele><time>2026-02-14T04:18:36Z</time></trkpt>
    </trkseg>
  </trk>
</gpx>
