<?xml version="1.0" encoding="UTF-8"?>
<gpx version="1.1" creator="MyWorld" xmlns="http://www.topografix.com/GPX/1/1">
  <metadata><name>武汉九真山越野跑</name></metadata>
  <trk>
    <name>武汉九真山越野跑</name>
    <trkseg>
      <trkpt lat="30.500986" lon="113.912039"><ele>31</ele><time>2026-06-19T23:33:10Z</time></trkpt>
      <trkpt lat="30.50095" lon="113.911794"><ele>29</ele><time>2026-06-19T23:33:22Z</time></trkpt>
      <trkpt lat="30.500849" lon="113.911615"><ele>28</ele><time>2026-06-19T23:33:33Z</time></trkpt>
      <trkpt lat="30.500664" lon="113.911706"><ele>27</ele><time>2026-06-19T23:33:47Z</time></trkpt>
      <trkpt lat="30.500569" lon="113.911665"><ele>28</ele><time>2026-06-19T23:33:53Z</time></trkpt>
      <trkpt lat="30.500536" lon="113.911545"><ele>28</ele><time>2026-06-19T23:33:58Z</time></trkpt>
      <trkpt lat="30.500436" lon="113.91156"><ele>28</ele><time>2026-06-19T23:34:07Z</time></trkpt>
      <trkpt lat="30.50044" lon="113.911668"><ele>28</ele><time>2026-06-19T23:34:17Z</time></trkpt>
      <trkpt lat="30.500349" lon="113.911707"><ele>28</ele><time>2026-06-19T23:34:21Z</time></trkpt>
      <trkpt lat="30.500254" lon="113.911664"><ele>29</ele><time>2026-06-19T23:34:27Z</time></trkpt>
      <trkpt lat="30.500224" lon="113.911549"><ele>29</ele><time>2026-06-19T23:34:32Z</time></trkpt>
      <trkpt lat="30.500126" lon="113.911542"><ele>29</ele><time>2026-06-19T23:34:39Z</time></trkpt>
      <trkpt lat="30.500039" lon="113.911595"><ele>30</ele><time>2026-06-19T23:34:46Z</time></trkpt>
      <trkpt lat="30.500097" lon="113.911683"><ele>29</ele><time>2026-06-19T23:34:52Z</time></trkpt>
      <trkpt lat="30.500084" lon="113.91179"><ele>28</ele><time>2026-06-19T23:34:58Z</time></trkpt>
      <trkpt lat="30.499985" lon="113.91183"><ele>29</ele><time>2026-06-19T23:35:03Z</time></trkpt>
      <trkpt lat="30.49987" lon="113.91166"><ele>30</ele><time>2026-06-19T23:35:13Z</time></trkpt>
      <trkpt lat="30.499779" lon="113.911703"><ele>30</ele><time>2026-06-19T23:35:18Z</time></trkpt>
      <trkpt lat="30.499614" lon="113.91162"><ele>30</ele><time>2026-06-19T23:35:30Z</time></trkpt>
      <trkpt lat="30.499399" lon="113.91124"><ele>31</ele><time>2026-06-19T23:35:53Z</time></trkpt>
      <trkpt lat="30.499089" lon="113.911586"><ele>33</ele><time>2026-06-19T23:36:10Z</time></trkpt>
      <trkpt lat="30.498627" lon="113.911831"><ele>34</ele><time>2026-06-19T23:36:30Z</time></trkpt>
      <trkpt lat="30.498325" lon="113.912323"><ele>35</ele><time>2026-06-19T23:36:51Z</time></trkpt>
      <trkpt lat="30.4983" lon="113.91442"><ele>42</ele><time>2026-06-19T23:38:03Z</time></trkpt>
      <trkpt lat="30.498337" lon="113.915159"><ele>37</ele><time>2026-06-19T23:38:27Z</time></trkpt>
      <trkpt lat="30.498445" lon="113.915756"><ele>39</ele><time>2026-06-19T23:38:45Z</time></trkpt>
      <trkpt lat="30.498684" lon="113.916418"><ele>43</ele><time>2026-06-19T23:39:09Z</time></trkpt>
      <trkpt lat="30.498619" lon="113.916521"><ele>45</ele><time>2026-06-19T23:39:13Z</time></trkpt>
      <trkpt lat="30.498213" lon="113.916698"><ele>44</ele><time>2026-06-19T23:39:29Z</time></trkpt>
      <trkpt lat="30.496165" lon="113.917457"><ele>53</ele><time>2026-06-19T23:40:59Z</time></trkpt>
      <trkpt lat="30.495696" lon="113.917252"><ele>58</ele><time>2026-06-19T23:41:21Z</time></trkpt>
      <trkpt lat="30.495084" lon="113.91647"><ele>58</ele><time>2026-06-19T23:42:02Z</time></trkpt>
      <trkpt lat="30.494729" lon="113.915613"><ele>57</ele><time>2026-06-19T23:42:35Z</time></trkpt>
      <trkpt lat="30.494375" lon="113.91521"><ele>59</ele><time>2026-06-19T23:43:01Z</time></trkpt>
      <trkpt lat="30.494087" lon="113.915138"><ele>58</ele><time>2026-06-19T23:43:17Z</time></trkpt>
      <trkpt lat="30.494152" lon="113.914906"><ele>60</ele><time>2026-06-19T23:43:28Z</time></trkpt>
      <trkpt lat="30.49415" lon="113.914367"><ele>66</ele><time>2026-06-19T23:44:07Z</time></trkpt>
      <trkpt lat="30.494005" lon="113.914226"><ele>74</ele><time>2026-06-19T23:44:41Z</time></trkpt>
      <trkpt lat="30.493911" lon="113.913922"><ele>88</ele><time>2026-06-19T23:45:39Z</time></trkpt>
      <trkpt lat="30.493666" lon="113.913764"><ele>95</ele><time>2026-06-19T23:46:29Z</time></trkpt>
      <trkpt lat="30.493462" lon="113.913155"><ele>110</ele><time>2026-06-19T23:47:23Z</time></trkpt>
      <trkpt lat="30.493112" lon="113.913333"><ele>107</ele><time>2026-06-19T23:47:55Z</time></trkpt>
      <trkpt lat="30.493039" lon="113.913266"><ele>110</ele><time>2026-06-19T23:48:02Z</time></trkpt>
      <trkpt lat="30.492727" lon="113.912439"><ele>128</ele><time>2026-06-19T23:49:40Z</time></trkpt>
      <trkpt lat="30.492461" lon="113.912482"><ele>135</ele><time>2026-06-19T23:50:23Z</time></trkpt>
      <trkpt lat="30.492315" lon="113.912622"><ele>143</ele><time>2026-06-19T23:50:53Z</time></trkpt>
      <trkpt lat="30.492032" lon="113.912592"><ele>153</ele><time>2026-06-19T23:51:46Z</time></trkpt>
      <trkpt lat="30.491879" lon="113.912448"><ele>155</ele><time>2026-06-19T23:52:04Z</time></trkpt>
      <trkpt lat="30.491097" lon="113.912025"><ele>186</ele><time>2026-06-19T23:54:12Z</time></trkpt>
      <trkpt lat="30.490934" lon="113.911766"><ele>195</ele><time>2026-06-19T23:55:00Z</time></trkpt>
      <trkpt lat="30.49042" lon="113.911291"><ele>194</ele><time>2026-06-19T23:55:46Z</time></trkpt>
      <trkpt lat="30.49009" lon="113.910692"><ele>186</ele><time>2026-06-19T23:56:16Z</time></trkpt>
      <trkpt lat="30.489711" lon="113.910664"><ele>177</ele><time>2026-06-19T23:56:43Z</time></trkpt>
      <trkpt lat="30.489627" lon="113.910449"><ele>172</ele><time>2026-06-19T23:56:50Z</time></trkpt>
      <trkpt lat="30.489307" lon="113.910131"><ele>170</ele><time>2026-06-19T23:57:05Z</time></trkpt>
      <trkpt lat="30.489023" lon="113.909643"><ele>172</ele><time>2026-06-19T23:57:30Z</time></trkpt>
      <trkpt lat="30.488736" lon="113.909595"><ele>181</ele><time>2026-06-19T23:58:06Z</time></trkpt>
      <trkpt lat="30.488569" lon="113.909341"><ele>191</ele><time>2026-06-19T23:59:11Z</time></trkpt>
      <trkpt lat="30.488253" lon="113.909118"><ele>199</ele><time>2026-06-20T00:00:01Z</time></trkpt>
      <trkpt lat="30.488052" lon="113.909194"><ele>194</ele><time>2026-06-20T00:00:11Z</time></trkpt>
      <trkpt lat="30.487849" lon="113.909596"><ele>186</ele><time>2026-06-20T00:00:32Z</time></trkpt>
      <trkpt lat="30.487838" lon="113.910073"><ele>181</ele><time>2026-06-20T00:00:47Z</time></trkpt>
      <trkpt lat="30.487507" lon="113.910741"><ele>175</ele><time>2026-06-20T00:01:13Z</time></trkpt>
      <trkpt lat="30.487636" lon="113.91132"><ele>166</ele><time>2026-06-20T00:01:32Z</time></trkpt>
      <trkpt lat="30.487562" lon="113.9114"><ele>166</ele><time>2026-06-20T00:01:35Z</time></trkpt>
      <trkpt lat="30.487548" lon="113.911647"><ele>161</ele><time>2026-06-20T00:01:44Z</time></trkpt>
      <trkpt lat="30.487186" lon="113.912218"><ele>136</ele><time>2026-06-20T00:02:17Z</time></trkpt>
      <trkpt lat="30.48712" lon="113.912451"><ele>129</ele><time>2026-06-20T00:02:33Z</time></trkpt>
      <trkpt lat="30.486933" lon="113.912713"><ele>121</ele><time>2026-06-20T00:02:50Z</time></trkpt>
      <trkpt lat="30.486756" lon="113.912797"><ele>125</ele><time>2026-06-20T00:03:05Z</time></trkpt>
      <trkpt lat="30.486285" lon="113.913503"><ele>129</ele><time>2026-06-20T00:03:56Z</time></trkpt>
      <trkpt lat="30.486216" lon="113.913854"><ele>129</ele><time>2026-06-20T00:04:08Z</time></trkpt>
      <trkpt lat="30.48604" lon="113.91425"><ele>134</ele><time>2026-06-20T00:04:37Z</time></trkpt>
      <trkpt lat="30.485991" lon="113.91487"><ele>147</ele><time>2026-06-20T00:05:39Z</time></trkpt>
      <trkpt lat="30.485819" lon="113.915131"><ele>158</ele><time>2026-06-20T00:06:31Z</time></trkpt>
      <trkpt lat="30.485819" lon="113.915447"><ele>167</ele><time>2026-06-20T00:07:11Z</time></trkpt>
      <trkpt lat="30.485662" lon="113.915956"><ele>188</ele><time>2026-06-20T00:08:44Z</time></trkpt>
      <trkpt lat="30.485532" lon="113.916114"><ele>200</ele><time>2026-06-20T00:09:44Z</time></trkpt>
      <trkpt lat="30.485317" lon="113.916304"><ele>209</ele><time>2026-06-20T00:11:08Z</time></trkpt>
      <trkpt lat="30.485225" lon="113.916284"><ele>207</ele><time>2026-06-20T00:11:16Z</time></trkpt>
      <trkpt lat="30.484619" lon="113.916714"><ele>193</ele><time>2026-06-20T00:12:01Z</time></trkpt>
      <trkpt lat="30.484015" lon="113.917346"><ele>190</ele><time>2026-06-20T00:13:15Z</time></trkpt>
      <trkpt lat="30.483767" lon="113.917487"><ele>203</ele><time>2026-06-20T00:14:18Z</time></trkpt>
      <trkpt lat="30.483291" lon="113.917592"><ele>222</ele><time>2026-06-20T00:16:09Z</time></trkpt>
      <trkpt lat="30.48325" lon="113.917685"><ele>228</ele><time>2026-06-20T00:16:32Z</time></trkpt>
      <trkpt lat="30.48316" lon="113.917676"><ele>229</ele><time>2026-06-20T00:16:53Z</time></trkpt>
      <trkpt lat="30.483147" lon="113.917239"><ele>217</ele><time>2026-06-20T00:17:14Z</time></trkpt>
      <trkpt lat="30.483093" lon="113.917152"><ele>215</ele><time>2026-06-20T00:17:23Z</time></trkpt>
      <trkpt lat="30.48273" lon="113.916996"><ele>203</ele><time>2026-06-20T00:17:52Z</time></trkpt>
      <trkpt lat="30.482465" lon="113.917323"><ele>202</ele><time>2026-06-20T00:18:19Z</time></trkpt>
      <trkpt lat="30.482389" lon="113.917266"><ele>198</ele><time>2026-06-20T00:18:27Z</time></trkpt>
      <trkpt lat="30.482379" lon="113.916664"><ele>183</ele><time>2026-06-20T00:18:52Z</time></trkpt>
      <trkpt lat="30.482286" lon="113.916679"><ele>181</ele><time>2026-06-20T00:19:09Z</time></trkpt>
      <trkpt lat="30.482064" lon="113.916921"><ele>177</ele><time>2026-06-20T00:19:26Z</time></trkpt>
      <trkpt lat="30.48187" lon="113.916664"><ele>172</ele><time>2026-06-20T00:19:47Z</time></trkpt>
      <trkpt lat="30.48164" lon="113.916925"><ele>172</ele><time>2026-06-20T00:20:05Z</time></trkpt>
      <trkpt lat="30.481035" lon="113.917379"><ele>172</ele><time>2026-06-20T00:20:32Z</time></trkpt>
      <trkpt lat="30.480654" lon="113.917568"><ele>168</ele><time>2026-06-20T00:20:48Z</time></trkpt>
      <trkpt lat="30.480528" lon="113.917724"><ele>166</ele><time>2026-06-20T00:20:56Z</time></trkpt>
      <trkpt lat="30.480797" lon="113.918515"><ele>128</ele><time>2026-06-20T00:22:47Z</time></trkpt>
      <trkpt lat="30.480511" lon="113.91903"><ele>127</ele><time>2026-06-20T00:23:10Z</time></trkpt>
      <trkpt lat="30.480707" lon="113.919449"><ele>112</ele><time>2026-06-20T00:23:37Z</time></trkpt>
      <trkpt lat="30.4806" lon="113.920106"><ele>106</ele><time>2026-06-20T00:24:05Z</time></trkpt>
      <trkpt lat="30.480623" lon="113.92059"><ele>98</ele><time>2026-06-20T00:24:23Z</time></trkpt>
      <trkpt lat="30.480473" lon="113.921066"><ele>96</ele><time>2026-06-20T00:24:39Z</time></trkpt>
      <trkpt lat="30.480476" lon="113.9215"><ele>92</ele><time>2026-06-20T00:25:01Z</time></trkpt>
      <trkpt lat="30.480223" lon="113.921665"><ele>93</ele><time>2026-06-20T00:25:16Z</time></trkpt>
      <trkpt lat="30.480123" lon="113.921637"><ele>96</ele><time>2026-06-20T00:25:21Z</time></trkpt>
      <trkpt lat="30.480106" lon="113.921742"><ele>98</ele><time>2026-06-20T00:25:29Z</time></trkpt>
      <trkpt lat="30.480511" lon="113.923264"><ele>94</ele><time>2026-06-20T00:26:22Z</time></trkpt>
      <trkpt lat="30.48063" lon="113.923479"><ele>96</ele><time>2026-06-20T00:26:31Z</time></trkpt>
      <trkpt lat="30.480728" lon="113.924419"><ele>86</ele><time>2026-06-20T00:27:06Z</time></trkpt>
      <trkpt lat="30.48062" lon="113.924906"><ele>87</ele><time>2026-06-20T00:27:22Z</time></trkpt>
      <trkpt lat="30.480454" lon="113.925069"><ele>86</ele><time>2026-06-20T00:27:30Z</time></trkpt>
      <trkpt lat="30.480062" lon="113.9252"><ele>83</ele><time>2026-06-20T00:27:46Z</time></trkpt>
      <trkpt lat="30.479761" lon="113.925197"><ele>87</ele><time>2026-06-20T00:28:03Z</time></trkpt>
      <trkpt lat="30.479477" lon="113.925314"><ele>88</ele><time>2026-06-20T00:28:15Z</time></trkpt>
      <trkpt lat="30.479432" lon="113.925425"><ele>90</ele><time>2026-06-20T00:28:19Z</time></trkpt>
      <trkpt lat="30.479761" lon="113.926472"><ele>82</ele><time>2026-06-20T00:28:55Z</time></trkpt>
      <trkpt lat="30.479729" lon="113.926822"><ele>81</ele><time>2026-06-20T00:29:07Z</time></trkpt>
      <trkpt lat="30.479691" lon="113.926241"><ele>82</ele><time>2026-06-20T00:32:24Z</time></trkpt>
      <trkpt lat="30.479428" lon="113.925351"><ele>89</ele><time>2026-06-20T00:33:04Z</time></trkpt>
      <trkpt lat="30.479803" lon="113.925172"><ele>87</ele><time>2026-06-20T00:33:25Z</time></trkpt>
      <trkpt lat="30.4802" lon="113.925155"><ele>85</ele><time>2026-06-20T00:33:52Z</time></trkpt>
      <trkpt lat="30.480383" lon="113.925079"><ele>86</ele><time>2026-06-20T00:34:01Z</time></trkpt>
      <trkpt lat="30.480622" lon="113.924863"><ele>86</ele><time>2026-06-20T00:34:14Z</time></trkpt>
      <trkpt lat="30.480718" lon="113.924436"><ele>88</ele><time>2026-06-20T00:34:30Z</time></trkpt>
      <trkpt lat="30.480624" lon="113.923629"><ele>93</ele><time>2026-06-20T00:35:08Z</time></trkpt>
      <trkpt lat="30.480062" lon="113.921705"><ele>99</ele><time>2026-06-20T00:36:32Z</time></trkpt>
      <trkpt lat="30.480101" lon="113.92159"><ele>97</ele><time>2026-06-20T00:36:36Z</time></trkpt>
      <trkpt lat="30.480335" lon="113.921641"><ele>98</ele><time>2026-06-20T00:36:43Z</time></trkpt>
      <trkpt lat="30.480463" lon="113.921475"><ele>94</ele><time>2026-06-20T00:36:51Z</time></trkpt>
      <trkpt lat="30.48045" lon="113.920984"><ele>96</ele><time>2026-06-20T00:37:08Z</time></trkpt>
      <trkpt lat="30.480591" lon="113.920672"><ele>97</ele><time>2026-06-20T00:37:24Z</time></trkpt>
      <trkpt lat="30.48057" lon="113.919996"><ele>104</ele><time>2026-06-20T00:38:05Z</time></trkpt>
      <trkpt lat="30.480671" lon="113.91948"><ele>115</ele><time>2026-06-20T00:38:48Z</time></trkpt>
      <trkpt lat="30.480486" lon="113.918989"><ele>125</ele><time>2026-06-20T00:39:43Z</time></trkpt>
      <trkpt lat="30.480809" lon="113.918556"><ele>127</ele><time>2026-06-20T00:40:22Z</time></trkpt>
      <trkpt lat="30.480559" lon="113.917859"><ele>159</ele><time>2026-06-20T00:43:20Z</time></trkpt>
      <trkpt lat="30.480559" lon="113.917649"><ele>165</ele><time>2026-06-20T00:43:41Z</time></trkpt>
      <trkpt lat="30.480711" lon="113.917483"><ele>167</ele><time>2026-06-20T00:43:53Z</time></trkpt>
      <trkpt lat="30.481242" lon="113.917184"><ele>169</ele><time>2026-06-20T00:44:22Z</time></trkpt>
      <trkpt lat="30.481853" lon="113.91663"><ele>175</ele><time>2026-06-20T00:45:20Z</time></trkpt>
      <trkpt lat="30.482047" lon="113.91686"><ele>177</ele><time>2026-06-20T00:45:41Z</time></trkpt>
      <trkpt lat="30.482341" lon="113.916596"><ele>181</ele><time>2026-06-20T00:46:18Z</time></trkpt>
      <trkpt lat="30.482415" lon="113.916656"><ele>186</ele><time>2026-06-20T00:46:31Z</time></trkpt>
      <trkpt lat="30.482446" lon="113.917003"><ele>197</ele><time>2026-06-20T00:47:01Z</time></trkpt>
      <trkpt lat="30.482404" lon="113.917332"><ele>198</ele><time>2026-06-20T00:47:28Z</time></trkpt>
      <trkpt lat="30.482754" lon="113.916973"><ele>204</ele><time>2026-06-20T00:48:19Z</time></trkpt>
      <trkpt lat="30.483028" lon="113.917072"><ele>211</ele><time>2026-06-20T00:48:52Z</time></trkpt>
      <trkpt lat="30.483176" lon="113.917202"><ele>214</ele><time>2026-06-20T00:49:14Z</time></trkpt>
      <trkpt lat="30.483188" lon="113.917634"><ele>230</ele><time>2026-06-20T00:50:01Z</time></trkpt>
      <trkpt lat="30.484012" lon="113.917295"><ele>186</ele><time>2026-06-20T00:52:41Z</time></trkpt>
      <trkpt lat="30.484565" lon="113.916695"><ele>192</ele><time>2026-06-20T00:54:07Z</time></trkpt>
      <trkpt lat="30.485231" lon="113.916255"><ele>207</ele><time>2026-06-20T00:55:48Z</time></trkpt>
      <trkpt lat="30.485322" lon="113.916253"><ele>207</ele><time>2026-06-20T00:55:57Z</time></trkpt>
      <trkpt lat="30.485543" lon="113.916059"><ele>195</ele><time>2026-06-20T00:56:47Z</time></trkpt>
      <trkpt lat="30.485682" lon="113.915897"><ele>186</ele><time>2026-06-20T00:57:11Z</time></trkpt>
      <trkpt lat="30.485663" lon="113.915786"><ele>181</ele><time>2026-06-20T00:57:19Z</time></trkpt>
      <trkpt lat="30.485823" lon="113.91536"><ele>166</ele><time>2026-06-20T00:58:00Z</time></trkpt>
      <trkpt lat="30.48582" lon="113.915032"><ele>152</ele><time>2026-06-20T00:58:26Z</time></trkpt>
      <trkpt lat="30.485901" lon="113.914984"><ele>151</ele><time>2026-06-20T00:58:37Z</time></trkpt>
      <trkpt lat="30.48599" lon="113.914784"><ele>145</ele><time>2026-06-20T00:59:02Z</time></trkpt>
      <trkpt lat="30.485953" lon="113.914582"><ele>140</ele><time>2026-06-20T00:59:15Z</time></trkpt>
      <trkpt lat="30.486021" lon="113.914146"><ele>130</ele><time>2026-06-20T00:59:43Z</time></trkpt>
      <trkpt lat="30.486176" lon="113.913863"><ele>129</ele><time>2026-06-20T00:59:57Z</time></trkpt>
      <trkpt lat="30.486256" lon="113.913512"><ele>127</ele><time>2026-06-20T01:00:14Z</time></trkpt>
      <trkpt lat="30.48673" lon="113.912794"><ele>123</ele><time>2026-06-20T01:00:56Z</time></trkpt>
      <trkpt lat="30.487136" lon="113.912356"><ele>130</ele><time>2026-06-20T01:01:55Z</time></trkpt>
      <trkpt lat="30.487528" lon="113.911626"><ele>159</ele><time>2026-06-20T01:04:03Z</time></trkpt>
      <trkpt lat="30.487593" lon="113.911314"><ele>165</ele><time>2026-06-20T01:04:45Z</time></trkpt>
      <trkpt lat="30.487483" lon="113.910788"><ele>175</ele><time>2026-06-20T01:05:38Z</time></trkpt>
      <trkpt lat="30.487621" lon="113.910383"><ele>179</ele><time>2026-06-20T01:06:11Z</time></trkpt>
      <trkpt lat="30.487792" lon="113.910124"><ele>180</ele><time>2026-06-20T01:06:33Z</time></trkpt>
      <trkpt lat="30.487877" lon="113.909442"><ele>187</ele><time>2026-06-20T01:07:18Z</time></trkpt>
      <trkpt lat="30.488035" lon="113.909163"><ele>196</ele><time>2026-06-20T01:07:48Z</time></trkpt>
      <trkpt lat="30.488217" lon="113.909115"><ele>197</ele><time>2026-06-20T01:08:06Z</time></trkpt>
      <trkpt lat="30.488573" lon="113.909312"><ele>190</ele><time>2026-06-20T01:08:38Z</time></trkpt>
      <trkpt lat="30.488657" lon="113.909373"><ele>188</ele><time>2026-06-20T01:08:49Z</time></trkpt>
      <trkpt lat="30.488718" lon="113.90958"><ele>180</ele><time>2026-06-20T01:09:05Z</time></trkpt>
      <trkpt lat="30.489001" lon="113.909569"><ele>172</ele><time>2026-06-20T01:09:23Z</time></trkpt>
      <trkpt lat="30.489361" lon="113.910179"><ele>170</ele><time>2026-06-20T01:09:47Z</time></trkpt>
      <trkpt lat="30.489542" lon="113.9103"><ele>172</ele><time>2026-06-20T01:09:55Z</time></trkpt>
      <trkpt lat="30.489708" lon="113.910571"><ele>174</ele><time>2026-06-20T01:10:16Z</time></trkpt>
      <trkpt lat="30.490085" lon="113.910642"><ele>183</ele><time>2026-06-20T01:11:10Z</time></trkpt>
      <trkpt lat="30.490397" lon="113.911189"><ele>195</ele><time>2026-06-20T01:12:09Z</time></trkpt>
      <trkpt lat="30.490757" lon="113.911581"><ele>196</ele><time>2026-06-20T01:12:53Z</time></trkpt>
      <trkpt lat="30.490938" lon="113.91168"><ele>194</ele><time>2026-06-20T01:13:06Z</time></trkpt>
      <trkpt lat="30.491009" lon="113.911882"><ele>188</ele><time>2026-06-20T01:13:17Z</time></trkpt>
      <trkpt lat="30.491153" lon="113.912034"><ele>178</ele><time>2026-06-20T01:13:34Z</time></trkpt>
      <trkpt lat="30.491342" lon="113.912112"><ele>171</ele><time>2026-06-20T01:13:52Z</time></trkpt>
      <trkpt lat="30.491574" lon="113.912322"><ele>161</ele><time>2026-06-20T01:14:18Z</time></trkpt>
      <trkpt lat="30.491668" lon="113.912309"><ele>154</ele><time>2026-06-20T01:14:31Z</time></trkpt>
      <trkpt lat="30.492008" lon="113.912571"><ele>153</ele><time>2026-06-20T01:15:02Z</time></trkpt>
      <trkpt lat="30.492294" lon="113.912592"><ele>142</ele><time>2026-06-20T01:15:27Z</time></trkpt>
      <trkpt lat="30.492622" lon="113.912388"><ele>126</ele><time>2026-06-20T01:15:55Z</time></trkpt>
      <trkpt lat="30.492724" lon="113.912412"><ele>125</ele><time>2026-06-20T01:16:03Z</time></trkpt>
      <trkpt lat="30.492988" lon="113.913146"><ele>115</ele><time>2026-06-20T01:17:02Z</time></trkpt>
      <trkpt lat="30.493116" lon="113.913298"><ele>105</ele><time>2026-06-20T01:17:21Z</time></trkpt>
      <trkpt lat="30.493456" lon="113.913107"><ele>111</ele><time>2026-06-20T01:17:47Z</time></trkpt>
      <trkpt lat="30.493692" lon="113.91374"><ele>93</ele><time>2026-06-20T01:18:24Z</time></trkpt>
      <trkpt lat="30.49394" lon="113.913903"><ele>86</ele><time>2026-06-20T01:18:48Z</time></trkpt>
      <trkpt lat="30.494006" lon="113.914217"><ele>70</ele><time>2026-06-20T01:19:15Z</time></trkpt>
      <trkpt lat="30.494162" lon="113.914362"><ele>66</ele><time>2026-06-20T01:19:32Z</time></trkpt>
      <trkpt lat="30.494161" lon="113.914918"><ele>60</ele><time>2026-06-20T01:20:12Z</time></trkpt>
      <trkpt lat="30.494081" lon="113.915132"><ele>59</ele><time>2026-06-20T01:20:21Z</time></trkpt>
      <trkpt lat="30.494169" lon="113.915193"><ele>54</ele><time>2026-06-20T01:20:30Z</time></trkpt>
      <trkpt lat="30.494376" lon="113.915183"><ele>57</ele><time>2026-06-20T01:20:52Z</time></trkpt>
      <trkpt lat="30.494565" lon="113.915463"><ele>58</ele><time>2026-06-20T01:21:08Z</time></trkpt>
      <trkpt lat="30.494736" lon="113.915582"><ele>57</ele><time>2026-06-20T01:21:16Z</time></trkpt>
      <trkpt lat="30.495128" lon="113.916522"><ele>57</ele><time>2026-06-20T01:21:56Z</time></trkpt>
      <trkpt lat="30.495674" lon="113.917196"><ele>57</ele><time>2026-06-20T01:22:31Z</time></trkpt>
      <trkpt lat="30.496149" lon="113.917443"><ele>56</ele><time>2026-06-20T01:22:51Z</time></trkpt>
      <trkpt lat="30.497471" lon="113.916971"><ele>47</ele><time>2026-06-20T01:23:41Z</time></trkpt>
      <trkpt lat="30.498634" lon="113.916456"><ele>43</ele><time>2026-06-20T01:24:29Z</time></trkpt>
      <trkpt lat="30.498381" lon="113.915533"><ele>40</ele><time>2026-06-20T01:24:59Z</time></trkpt>
      <trkpt lat="30.498298" lon="113.914589"><ele>41</ele><time>2026-06-20T01:25:31Z</time></trkpt>
      <trkpt lat="30.498339" lon="113.912254"><ele>34</ele><time>2026-06-20T01:26:53Z</time></trkpt>
      <trkpt lat="30.498679" lon="113.911775"><ele>33</ele><time>2026-06-20T01:27:13Z</time></trkpt>
      <trkpt lat="30.49914" lon="113.911516"><ele>31</ele><time>2026-06-20T01:27:32Z</time></trkpt>
      <trkpt lat="30.499444" lon="113.911244"><ele>30</ele><time>2026-06-20T01:27:50Z</time></trkpt>
      <trkpt lat="30.499558" lon="113.911561"><ele>28</ele><time>2026-06-20T01:28:06Z</time></trkpt>
      <trkpt lat="30.499731" lon="113.911562"><ele>28</ele><time>2026-06-20T01:28:16Z</time></trkpt>
      <trkpt lat="30.499766" lon="113.911681"><ele>28</ele><time>2026-06-20T01:28:20Z</time></trkpt>
      <trkpt lat="30.499853" lon="113.911651"><ele>29</ele><time>2026-06-20T01:28:24Z</time></trkpt>
      <trkpt lat="30.499972" lon="113.911836"><ele>29</ele><time>2026-06-20T01:28:32Z</time></trkpt>
      <trkpt lat="30.500065" lon="113.911776"><ele>28</ele><time>2026-06-20T01:28:36Z</time></trkpt>
      <trkpt lat="30.500054" lon="113.911551"><ele>28</ele><time>2026-06-20T01:28:46Z</time></trkpt>
      <trkpt lat="30.500161" lon="113.911509"><ele>29</ele><time>2026-06-20T01:28:50Z</time></trkpt>
      <trkpt lat="30.50026" lon="113.911529"><ele>30</ele><time>2026-06-20T01:28:54Z</time></trkpt>
      <trkpt lat="30.500289" lon="113.911651"><ele>29</ele><time>2026-06-20T01:28:58Z</time></trkpt>
      <trkpt lat="30.500372" lon="113.911701"><ele>28</ele><time>2026-06-20T01:29:03Z</time></trkpt>
      <trkpt lat="30.500453" lon="113.911643"><ele>28</ele><time>2026-06-20T01:29:07Z</time></trkpt>
      <trkpt lat="30.500416" lon="113.911534"><ele>28</ele><time>2026-06-20T01:29:11Z</time></trkpt>
      <trkpt lat="30.500517" lon="113.911499"><ele>29</ele><time>2026-06-20T01:29:14Z</time></trkpt>
      <trkpt lat="30.500603" lon="113.911699"><ele>28</ele><time>2026-06-20T01:29:23Z</time></trkpt>
      <trkpt lat="30.50088" lon="113.91165"><ele>28</ele><time>2026-06-20T01:29:36Z</time></trkpt>
      <trkpt lat="30.500978" lon="113.911844"><ele>29</ele><time>2026-06-20T01:29:44Z</time></trkpt>
      <trkpt lat="30.501004" lon="113.912068"><ele>27</ele><time>2026-06-20T01:29:57Z</time></trkpt>
      <trkpt lat="30.501093" lon="113.912098"><ele>30</ele><time>2026-06-20T01:30:09Z</time></trkpt>
      <trkpt lat="30.501003" lon="113.912118"><ele>31</ele><time>2026-06-20T01:35:39Z</time></trkpt>
      <trkpt lat="30.500929" lon="113.911807"><ele>29</ele><time>2026-06-20T01:35:57Z</time></trkpt>
      <trkpt lat="30.500812" lon="113.911635"><ele>26</ele><time>2026-06-20T01:36:06Z</time></trkpt>
      <trkpt lat="30.500627" lon="113.911711"><ele>25</ele><time>2026-06-20T01:36:14Z</time></trkpt>
      <trkpt lat="30.500531" lon="113.91151"><ele>28</ele><time>2026-06-20T01:36:23Z</time></trkpt>
      <trkpt lat="30.500434" lon="113.911555"><ele>27</ele><time>2026-06-20T01:36:28Z</time></trkpt>
      <trkpt lat="30.500461" lon="113.911657"><ele>28</ele><time>2026-06-20T01:36:33Z</time></trkpt>
      <trkpt lat="30.500359" lon="113.911698"><ele>26</ele><time>2026-06-20T01:36:36Z</time></trkpt>
      <trkpt lat="30.500233" lon="113.911552"><ele>27</ele><time>2026-06-20T01:36:45Z</time></trkpt>
      <trkpt lat="30.500134" lon="113.911543"><ele>29</ele><time>2026-06-20T01:36:52Z</time></trkpt>
      <trkpt lat="30.500054" lon="113.9116"><ele>28</ele><time>2026-06-20T01:36:57Z</time></trkpt>
      <trkpt lat="30.500113" lon="113.911686"><ele>27</ele><time>2026-06-20T01:37:01Z</time></trkpt>
      <trkpt lat="30.500076" lon="113.911783"><ele>27</ele><time>2026-06-20T01:37:06Z</time></trkpt>
      <trkpt lat="30.49999" lon="113.911831"><ele>28</ele><time>2026-06-20T01:37:10Z</time></trkpt>
      <trkpt lat="30.499879" lon="113.911665"><ele>29</ele><time>2026-06-20T01:37:18Z</time></trkpt>
      <trkpt lat="30.499777" lon="113.911704"><ele>29</ele><time>2026-06-20T01:37:23Z</time></trkpt>
      <trkpt lat="30.499715" lon="113.911599"><ele>29</ele><time>2026-06-20T01:37:28Z</time></trkpt>
      <trkpt lat="30.499615" lon="113.911624"><ele>30</ele><time>2026-06-20T01:37:33Z</time></trkpt>
      <trkpt lat="30.499408" lon="113.911235"><ele>31</ele><time>2026-06-20T01:37:52Z</time></trkpt>
      <trkpt lat="30.499024" lon="113.91164"><ele>31</ele><time>2026-06-20T01:38:16Z</time></trkpt>
      <trkpt lat="30.498659" lon="113.911836"><ele>33</ele><time>2026-06-20T01:38:34Z</time></trkpt>
      <trkpt lat="30.498341" lon="113.912271"><ele>35</ele><time>2026-06-20T01:39:01Z</time></trkpt>
      <trkpt lat="30.498365" lon="113.913327"><ele>39</ele><time>2026-06-20T01:39:43Z</time></trkpt>
      <trkpt lat="30.498312" lon="113.914157"><ele>40</ele><time>2026-06-20T01:40:17Z</time></trkpt>
      <trkpt lat="30.498372" lon="113.915412"><ele>37</ele><time>2026-06-20T01:40:57Z</time></trkpt>
      <trkpt lat="30.498484" lon="113.915962"><ele>38</ele><time>2026-06-20T01:41:22Z</time></trkpt>
      <trkpt lat="30.498659" lon="113.916387"><ele>41</ele><time>2026-06-20T01:41:48Z</time></trkpt>
      <trkpt lat="30.498635" lon="113.916492"><ele>43</ele><time>2026-06-20T01:41:52Z</time></trkpt>
      <trkpt lat="30.497637" lon="113.916952"><ele>44</ele><time>2026-06-20T01:42:36Z</time></trkpt>
      <trkpt lat="30.496132" lon="113.917466"><ele>54</ele><time>2026-06-20T01:44:10Z</time></trkpt>
      <trkpt lat="30.495677" lon="113.917239"><ele>58</ele><time>2026-06-20T01:44:35Z</time></trkpt>
      <trkpt lat="30.495046" lon="113.916436"><ele>58</ele><time>2026-06-20T01:45:26Z</time></trkpt>
      <trkpt lat="30.494835" lon="113.915794"><ele>56</ele><time>2026-06-20T01:45:49Z</time></trkpt>
      <trkpt lat="30.494718" lon="113.915607"><ele>57</ele><time>2026-06-20T01:45:57Z</time></trkpt>
      <trkpt lat="30.494549" lon="113.915476"><ele>58</ele><time>2026-06-20T01:46:09Z</time></trkpt>
      <trkpt lat="30.49435" lon="113.915187"><ele>59</ele><time>2026-06-20T01:46:23Z</time></trkpt>
      <trkpt lat="30.494147" lon="113.915193"><ele>55</ele><time>2026-06-20T01:46:40Z</time></trkpt>
      <trkpt lat="30.493994" lon="113.915057"><ele>58</ele><time>2026-06-20T01:46:54Z</time></trkpt>
      <trkpt lat="30.494089" lon="113.915042"><ele>58</ele><time>2026-06-20T01:46:59Z</time></trkpt>
      <trkpt lat="30.494136" lon="113.914946"><ele>58</ele><time>2026-06-20T01:47:06Z</time></trkpt>
      <trkpt lat="30.494164" lon="113.914417"><ele>64</ele><time>2026-06-20T01:47:40Z</time></trkpt>
      <trkpt lat="30.493963" lon="113.914147"><ele>76</ele><time>2026-06-20T01:48:25Z</time></trkpt>
      <trkpt lat="30.493922" lon="113.913934"><ele>86</ele><time>2026-06-20T01:49:08Z</time></trkpt>
      <trkpt lat="30.493679" lon="113.913778"><ele>93</ele><time>2026-06-20T01:50:15Z</time></trkpt>
      <trkpt lat="30.493658" lon="113.913673"><ele>94</ele><time>2026-06-20T01:50:24Z</time></trkpt>
      <trkpt lat="30.493578" lon="113.913624"><ele>97</ele><time>2026-06-20T01:50:38Z</time></trkpt>
      <trkpt lat="30.493478" lon="113.91321"><ele>106</ele><time>2026-06-20T01:51:22Z</time></trkpt>
      <trkpt lat="30.49339" lon="113.913179"><ele>108</ele><time>2026-06-20T01:51:37Z</time></trkpt>
      <trkpt lat="30.493134" lon="113.913319"><ele>106</ele><time>2026-06-20T01:52:02Z</time></trkpt>
      <trkpt lat="30.493046" lon="113.913286"><ele>108</ele><time>2026-06-20T01:52:12Z</time></trkpt>
      <trkpt lat="30.492729" lon="113.912498"><ele>127</ele><time>2026-06-20T01:53:50Z</time></trkpt>
      <trkpt lat="30.492654" lon="113.912435"><ele>128</ele><time>2026-06-20T01:54:16Z</time></trkpt>
      <trkpt lat="30.492334" lon="113.912618"><ele>140</ele><time>2026-06-20T01:55:13Z</time></trkpt>
      <trkpt lat="30.492061" lon="113.912603"><ele>151</ele><time>2026-06-20T01:56:05Z</time></trkpt>
      <trkpt lat="30.491658" lon="113.912325"><ele>159</ele><time>2026-06-20T01:57:05Z</time></trkpt>
      <trkpt lat="30.49156" lon="113.912342"><ele>162</ele><time>2026-06-20T01:57:22Z</time></trkpt>
      <trkpt lat="30.491156" lon="113.912088"><ele>181</ele><time>2026-06-20T01:58:53Z</time></trkpt>
      <trkpt lat="30.490995" lon="113.911966"><ele>190</ele><time>2026-06-20T01:59:40Z</time></trkpt>
      <trkpt lat="30.490934" lon="113.91176"><ele>194</ele><time>2026-06-20T02:00:24Z</time></trkpt>
      <trkpt lat="30.490479" lon="113.911365"><ele>196</ele><time>2026-06-20T02:01:26Z</time></trkpt>
      <trkpt lat="30.490108" lon="113.91073"><ele>186</ele><time>2026-06-20T02:02:19Z</time></trkpt>
      <trkpt lat="30.489736" lon="113.910652"><ele>175</ele><time>2026-06-20T02:02:52Z</time></trkpt>
      <trkpt lat="30.489318" lon="113.910158"><ele>168</ele><time>2026-06-20T02:03:27Z</time></trkpt>
      <trkpt lat="30.489025" lon="113.909671"><ele>172</ele><time>2026-06-20T02:03:59Z</time></trkpt>
      <trkpt lat="30.488669" lon="113.90954"><ele>183</ele><time>2026-06-20T02:04:47Z</time></trkpt>
      <trkpt lat="30.488582" lon="113.909357"><ele>192</ele><time>2026-06-20T02:05:47Z</time></trkpt>
      <trkpt lat="30.488353" lon="113.909191"><ele>197</ele><time>2026-06-20T02:06:28Z</time></trkpt>
      <trkpt lat="30.488082" lon="113.909165"><ele>195</ele><time>2026-06-20T02:06:54Z</time></trkpt>
      <trkpt lat="30.487882" lon="113.909406"><ele>188</ele><time>2026-06-20T02:07:13Z</time></trkpt>
      <trkpt lat="30.487847" lon="113.910062"><ele>178</ele><time>2026-06-20T02:07:49Z</time></trkpt>
      <trkpt lat="30.487513" lon="113.910727"><ele>176</ele><time>2026-06-20T02:08:25Z</time></trkpt>
      <trkpt lat="30.487624" lon="113.911286"><ele>168</ele><time>2026-06-20T02:09:02Z</time></trkpt>
      <trkpt lat="30.487517" lon="113.911715"><ele>159</ele><time>2026-06-20T02:09:27Z</time></trkpt>
      <trkpt lat="30.487171" lon="113.912268"><ele>132</ele><time>2026-06-20T02:10:10Z</time></trkpt>
      <trkpt lat="30.487167" lon="113.912389"><ele>130</ele><time>2026-06-20T02:10:20Z</time></trkpt>
      <trkpt lat="30.486979" lon="113.912636"><ele>120</ele><time>2026-06-20T02:10:44Z</time></trkpt>
      <trkpt lat="30.486806" lon="113.912752"><ele>122</ele><time>2026-06-20T02:11:05Z</time></trkpt>
      <trkpt lat="30.486499" lon="113.913229"><ele>126</ele><time>2026-06-20T02:11:57Z</time></trkpt>
      <trkpt lat="30.486347" lon="113.913368"><ele>128</ele><time>2026-06-20T02:12:13Z</time></trkpt>
      <trkpt lat="30.48605" lon="113.914167"><ele>131</ele><time>2026-06-20T02:13:05Z</time></trkpt>
      <trkpt lat="30.485974" lon="113.914589"><ele>140</ele><time>2026-06-20T02:13:48Z</time></trkpt>
      <trkpt lat="30.486017" lon="113.914794"><ele>143</ele><time>2026-06-20T02:14:14Z</time></trkpt>
      <trkpt lat="30.485916" lon="113.91498"><ele>151</ele><time>2026-06-20T02:14:43Z</time></trkpt>
      <trkpt lat="30.485826" lon="113.915024"><ele>153</ele><time>2026-06-20T02:15:02Z</time></trkpt>
      <trkpt lat="30.48585" lon="113.915349"><ele>163</ele><time>2026-06-20T02:15:50Z</time></trkpt>
      <trkpt lat="30.485673" lon="113.915841"><ele>183</ele><time>2026-06-20T02:17:50Z</time></trkpt>
      <trkpt lat="30.485695" lon="113.915947"><ele>187</ele><time>2026-06-20T02:18:06Z</time></trkpt>
      <trkpt lat="30.485333" lon="113.916292"><ele>209</ele><time>2026-06-20T02:20:22Z</time></trkpt>
      <trkpt lat="30.485235" lon="113.916288"><ele>209</ele><time>2026-06-20T02:20:29Z</time></trkpt>
      <trkpt lat="30.48464" lon="113.916692"><ele>192</ele><time>2026-06-20T02:21:07Z</time></trkpt>
      <trkpt lat="30.484082" lon="113.917302"><ele>186</ele><time>2026-06-20T02:22:18Z</time></trkpt>
      <trkpt lat="30.483754" lon="113.9175"><ele>204</ele><time>2026-06-20T02:24:08Z</time></trkpt>
      <trkpt lat="30.48329" lon="113.917593"><ele>223</ele><time>2026-06-20T02:26:11Z</time></trkpt>
      <trkpt lat="30.483243" lon="113.917696"><ele>228</ele><time>2026-06-20T02:26:47Z</time></trkpt>
      <trkpt lat="30.483152" lon="113.91769"><ele>232</ele><time>2026-06-20T02:27:10Z</time></trkpt>
      <trkpt lat="30.483139" lon="113.917259"><ele>220</ele><time>2026-06-20T02:27:46Z</time></trkpt>
      <trkpt lat="30.482998" lon="113.917107"><ele>214</ele><time>2026-06-20T02:28:06Z</time></trkpt>
      <trkpt lat="30.482701" lon="113.91702"><ele>208</ele><time>2026-06-20T02:28:20Z</time></trkpt>
      <trkpt lat="30.48243" lon="113.917369"><ele>203</ele><time>2026-06-20T02:28:35Z</time></trkpt>
      <trkpt lat="30.482386" lon="113.917275"><ele>198</ele><time>2026-06-20T02:28:42Z</time></trkpt>
      <trkpt lat="30.482397" lon="113.916598"><ele>185</ele><time>2026-06-20T02:29:12Z</time></trkpt>
      <trkpt lat="30.482084" lon="113.916905"><ele>178</ele><time>2026-06-20T02:29:36Z</time></trkpt>
      <trkpt lat="30.481908" lon="113.91682"><ele>176</ele><time>2026-06-20T02:29:46Z</time></trkpt>
      <trkpt lat="30.481869" lon="113.916713"><ele>173</ele><time>2026-06-20T02:29:52Z</time></trkpt>
      <trkpt lat="30.481774" lon="113.916747"><ele>171</ele><time>2026-06-20T02:30:00Z</time></trkpt>
      <trkpt lat="30.481232" lon="113.917257"><ele>172</ele><time>2026-06-20T02:30:33Z</time></trkpt>
      <trkpt lat="30.480676" lon="113.917553"><ele>166</ele><time>2026-06-20T02:31:00Z</time></trkpt>
      <trkpt lat="30.480546" lon="113.917705"><ele>163</ele><time>2026-06-20T02:31:15Z</time></trkpt>
      <trkpt lat="30.480538" lon="113.91782"><ele>163</ele><time>2026-06-20T02:31:23Z</time></trkpt>
      <trkpt lat="30.480794" lon="113.918512"><ele>131</ele><time>2026-06-20T02:32:58Z</time></trkpt>
      <trkpt lat="30.480775" lon="113.918638"><ele>128</ele><time>2026-06-20T02:33:06Z</time></trkpt>
      <trkpt lat="30.480527" lon="113.918942"><ele>126</ele><time>2026-06-20T02:33:19Z</time></trkpt>
      <trkpt lat="30.4805" lon="113.919057"><ele>123</ele><time>2026-06-20T02:33:26Z</time></trkpt>
      <trkpt lat="30.480733" lon="113.919456"><ele>115</ele><time>2026-06-20T02:33:45Z</time></trkpt>
      <trkpt lat="30.480598" lon="113.920041"><ele>107</ele><time>2026-06-20T02:34:06Z</time></trkpt>
      <trkpt lat="30.48066" lon="113.92062"><ele>102</ele><time>2026-06-20T02:34:27Z</time></trkpt>
      <trkpt lat="30.480474" lon="113.921043"><ele>97</ele><time>2026-06-20T02:34:47Z</time></trkpt>
      <trkpt lat="30.480471" lon="113.921504"><ele>92</ele><time>2026-06-20T02:35:16Z</time></trkpt>
      <trkpt lat="30.480315" lon="113.92164"><ele>93</ele><time>2026-06-20T02:35:26Z</time></trkpt>
      <trkpt lat="30.480118" lon="113.921643"><ele>97</ele><time>2026-06-20T02:35:40Z</time></trkpt>
      <trkpt lat="30.480666" lon="113.92373"><ele>95</ele><time>2026-06-20T02:37:25Z</time></trkpt>
      <trkpt lat="30.480743" lon="113.924451"><ele>89</ele><time>2026-06-20T02:37:47Z</time></trkpt>
      <trkpt lat="30.480685" lon="113.924806"><ele>84</ele><time>2026-06-20T02:38:03Z</time></trkpt>
      <trkpt lat="30.480561" lon="113.924997"><ele>84</ele><time>2026-06-20T02:38:16Z</time></trkpt>
      <trkpt lat="30.480173" lon="113.925207"><ele>84</ele><time>2026-06-20T02:38:30Z</time></trkpt>
      <trkpt lat="30.479883" lon="113.925189"><ele>84</ele><time>2026-06-20T02:38:50Z</time></trkpt>
      <trkpt lat="30.479584" lon="113.925265"><ele>89</ele><time>2026-06-20T02:39:05Z</time></trkpt>
      <trkpt lat="30.479422" lon="113.925402"><ele>90</ele><time>2026-06-20T02:39:13Z</time></trkpt>
      <trkpt lat="30.479746" lon="113.926313"><ele>83</ele><time>2026-06-20T02:39:44Z</time></trkpt>
      <trkpt lat="30.479778" lon="113.926665"><ele>80</ele><time>2026-06-20T02:39:55Z</time></trkpt>
      <trkpt lat="30.479731" lon="113.926877"><ele>81</ele><time>2026-06-20T02:41:50Z</time></trkpt>
      <trkpt lat="30.479767" lon="113.926672"><ele>82</ele><time>2026-06-20T02:43:16Z</time></trkpt>
      <trkpt lat="30.479719" lon="113.926344"><ele>83</ele><time>2026-06-20T02:43:38Z</time></trkpt>
      <trkpt lat="30.479417" lon="113.925385"><ele>88</ele><time>2026-06-20T02:44:44Z</time></trkpt>
      <trkpt lat="30.479649" lon="113.92521"><ele>90</ele><time>2026-06-20T02:45:03Z</time></trkpt>
      <trkpt lat="30.480148" lon="113.92516"><ele>83</ele><time>2026-06-20T02:45:38Z</time></trkpt>
      <trkpt lat="30.480499" lon="113.924992"><ele>91</ele><time>2026-06-20T02:45:53Z</time></trkpt>
      <trkpt lat="30.480624" lon="113.924826"><ele>89</ele><time>2026-06-20T02:46:01Z</time></trkpt>
      <trkpt lat="30.480696" lon="113.924484"><ele>85</ele><time>2026-06-20T02:46:19Z</time></trkpt>
      <trkpt lat="30.480627" lon="113.923673"><ele>95</ele><time>2026-06-20T02:47:10Z</time></trkpt>
      <trkpt lat="30.480214" lon="113.922269"><ele>99</ele><time>2026-06-20T02:48:27Z</time></trkpt>
      <trkpt lat="30.480165" lon="113.921928"><ele>99</ele><time>2026-06-20T02:48:49Z</time></trkpt>
      <trkpt lat="30.480066" lon="113.921724"><ele>99</ele><time>2026-06-20T02:49:03Z</time></trkpt>
      <trkpt lat="30.480099" lon="113.921625"><ele>97</ele><time>2026-06-20T02:49:08Z</time></trkpt>
      <trkpt lat="30.480295" lon="113.92163"><ele>95</ele><time>2026-06-20T02:49:16Z</time></trkpt>
      <trkpt lat="30.480441" lon="113.92149"><ele>94</ele><time>2026-06-20T02:49:25Z</time></trkpt>
      <trkpt lat="30.480423" lon="113.921109"><ele>93</ele><time>2026-06-20T02:49:42Z</time></trkpt>
      <trkpt lat="30.480576" lon="113.920699"><ele>97</ele><time>2026-06-20T02:50:11Z</time></trkpt>
      <trkpt lat="30.480574" lon="113.919938"><ele>108</ele><time>2026-06-20T02:50:57Z</time></trkpt>
      <trkpt lat="30.480662" lon="113.919395"><ele>115</ele><time>2026-06-20T02:51:43Z</time></trkpt>
      <trkpt lat="30.480471" lon="113.919037"><ele>124</ele><time>2026-06-20T02:52:28Z</time></trkpt>
      <trkpt lat="30.480768" lon="113.918617"><ele>127</ele><time>2026-06-20T02:53:10Z</time></trkpt>
      <trkpt lat="30.480683" lon="113.918193"><ele>144</ele><time>2026-06-20T02:54:42Z</time></trkpt>
      <trkpt lat="30.48052" lon="113.917818"><ele>162</ele><time>2026-06-20T02:56:40Z</time></trkpt>
      <trkpt lat="30.480578" lon="113.917613"><ele>164</ele><time>2026-06-20T02:56:55Z</time></trkpt>
      <trkpt lat="30.481529" lon="113.916952"><ele>175</ele><time>2026-06-20T02:58:19Z</time></trkpt>
      <trkpt lat="30.481813" lon="113.916612"><ele>174</ele><time>2026-06-20T02:58:37Z</time></trkpt>
      <trkpt lat="30.48202" lon="113.91684"><ele>177</ele><time>2026-06-20T02:58:59Z</time></trkpt>
      <trkpt lat="30.482346" lon="113.916596"><ele>183</ele><time>2026-06-20T02:59:46Z</time></trkpt>
      <trkpt lat="30.482426" lon="113.916645"><ele>185</ele><time>2026-06-20T02:59:59Z</time></trkpt>
      <trkpt lat="30.482454" lon="113.91708"><ele>195</ele><time>2026-06-20T03:00:42Z</time></trkpt>
      <trkpt lat="30.482408" lon="113.917303"><ele>198</ele><time>2026-06-20T03:01:02Z</time></trkpt>
      <trkpt lat="30.482697" lon="113.91701"><ele>205</ele><time>2026-06-20T03:01:54Z</time></trkpt>
      <trkpt lat="30.483065" lon="113.917117"><ele>214</ele><time>2026-06-20T03:03:04Z</time></trkpt>
      <trkpt lat="30.483191" lon="113.917263"><ele>218</ele><time>2026-06-20T03:03:26Z</time></trkpt>
      <trkpt lat="30.483158" lon="113.9176"><ele>226</ele><time>2026-06-20T03:04:00Z</time></trkpt>
      <trkpt lat="30.483197" lon="113.917695"><ele>230</ele><time>2026-06-20T03:04:15Z</time></trkpt>
      <trkpt lat="30.483335" lon="113.917551"><ele>219</ele><time>2026-06-20T03:04:44Z</time></trkpt>
      <trkpt lat="30.483696" lon="113.917476"><ele>206</ele><time>2026-06-20T03:05:17Z</time></trkpt>
      <trkpt lat="30.48404" lon="113.917312"><ele>186</ele><time>2026-06-20T03:06:17Z</time></trkpt>
      <trkpt lat="30.484576" lon="113.916699"><ele>193</ele><time>2026-06-20T03:07:54Z</time></trkpt>
      <trkpt lat="30.485544" lon="113.916076"><ele>197</ele><time>2026-06-20T03:11:04Z</time></trkpt>
      <trkpt lat="30.485669" lon="113.915906"><ele>186</ele><time>2026-06-20T03:11:28Z</time></trkpt>
      <trkpt lat="30.485823" lon="113.915397"><ele>164</ele><time>2026-06-20T03:12:15Z</time></trkpt>
      <trkpt lat="30.485791" lon="113.915101"><ele>156</ele><time>2026-06-20T03:12:44Z</time></trkpt>
      <trkpt lat="30.485992" lon="113.914876"><ele>143</ele><time>2026-06-20T03:13:13Z</time></trkpt>
      <trkpt lat="30.485929" lon="113.914669"><ele>141</ele><time>2026-06-20T03:13:29Z</time></trkpt>
      <trkpt lat="30.486032" lon="113.914111"><ele>130</ele><time>2026-06-20T03:14:10Z</time></trkpt>
      <trkpt lat="30.486258" lon="113.913503"><ele>129</ele><time>2026-06-20T03:14:58Z</time></trkpt>
      <trkpt lat="30.486739" lon="113.912793"><ele>123</ele><time>2026-06-20T03:16:01Z</time></trkpt>
      <trkpt lat="30.486911" lon="113.912704"><ele>119</ele><time>2026-06-20T03:16:18Z</time></trkpt>
      <trkpt lat="30.487521" lon="113.911624"><ele>159</ele><time>2026-06-20T03:20:46Z</time></trkpt>
      <trkpt lat="30.487589" lon="113.911305"><ele>168</ele><time>2026-06-20T03:21:54Z</time></trkpt>
      <trkpt lat="30.48748" lon="113.910786"><ele>175</ele><time>2026-06-20T03:22:52Z</time></trkpt>
      <trkpt lat="30.487567" lon="113.910476"><ele>178</ele><time>2026-06-20T03:23:23Z</time></trkpt>
      <trkpt lat="30.487793" lon="113.910101"><ele>182</ele><time>2026-06-20T03:23:58Z</time></trkpt>
      <trkpt lat="30.487871" lon="113.909452"><ele>188</ele><time>2026-06-20T03:24:53Z</time></trkpt>
      <trkpt lat="30.488031" lon="113.909186"><ele>195</ele><time>2026-06-20T03:25:34Z</time></trkpt>
      <trkpt lat="30.48831" lon="113.909166"><ele>199</ele><time>2026-06-20T03:26:02Z</time></trkpt>
      <trkpt lat="30.48864" lon="113.909367"><ele>187</ele><time>2026-06-20T03:26:40Z</time></trkpt>
      <trkpt lat="30.488705" lon="113.909572"><ele>182</ele><time>2026-06-20T03:26:58Z</time></trkpt>
      <trkpt lat="30.488999" lon="113.909567"><ele>174</ele><time>2026-06-20T03:27:26Z</time></trkpt>
      <trkpt lat="30.489331" lon="113.91012"><ele>169</ele><time>2026-06-20T03:28:10Z</time></trkpt>
      <trkpt lat="30.489634" lon="113.910424"><ele>170</ele><time>2026-06-20T03:28:42Z</time></trkpt>
      <trkpt lat="30.489733" lon="113.910614"><ele>173</ele><time>2026-06-20T03:28:56Z</time></trkpt>
      <trkpt lat="30.490114" lon="113.910675"><ele>187</ele><time>2026-06-20T03:29:57Z</time></trkpt>
      <trkpt lat="30.490352" lon="113.911146"><ele>194</ele><time>2026-06-20T03:30:55Z</time></trkpt>
      <trkpt lat="30.490754" lon="113.911613"><ele>197</ele><time>2026-06-20T03:31:50Z</time></trkpt>
      <trkpt lat="30.490927" lon="113.911699"><ele>195</ele><time>2026-06-20T03:32:06Z</time></trkpt>
      <trkpt lat="30.490996" lon="113.911888"><ele>190</ele><time>2026-06-20T03:32:19Z</time></trkpt>
      <trkpt lat="30.491135" lon="113.912038"><ele>182</ele><time>2026-06-20T03:32:36Z</time></trkpt>
      <trkpt lat="30.491329" lon="113.912115"><ele>173</ele><time>2026-06-20T03:32:56Z</time></trkpt>
      <trkpt lat="30.49155" lon="113.912317"><ele>163</ele><time>2026-06-20T03:33:22Z</time></trkpt>
      <trkpt lat="30.491646" lon="113.912305"><ele>158</ele><time>2026-06-20T03:33:32Z</time></trkpt>
      <trkpt lat="30.492062" lon="113.912551"><ele>153</ele><time>2026-06-20T03:34:28Z</time></trkpt>
      <trkpt lat="30.492347" lon="113.912587"><ele>141</ele><time>2026-06-20T03:34:56Z</time></trkpt>
      <trkpt lat="30.49241" lon="113.912505"><ele>138</ele><time>2026-06-20T03:35:08Z</time></trkpt>
      <trkpt lat="30.492689" lon="113.912415"><ele>124</ele><time>2026-06-20T03:35:37Z</time></trkpt>
      <trkpt lat="30.49309" lon="113.91329"><ele>108</ele><time>2026-06-20T03:36:55Z</time></trkpt>
      <trkpt lat="30.493427" lon="113.913118"><ele>109</ele><time>2026-06-20T03:37:34Z</time></trkpt>
      <trkpt lat="30.493521" lon="113.91319"><ele>107</ele><time>2026-06-20T03:37:43Z</time></trkpt>
      <trkpt lat="30.493593" lon="113.913603"><ele>97</ele><time>2026-06-20T03:38:13Z</time></trkpt>
      <trkpt lat="30.493799" lon="113.913854"><ele>89</ele><time>2026-06-20T03:38:43Z</time></trkpt>
      <trkpt lat="30.493896" lon="113.913879"><ele>87</ele><time>2026-06-20T03:38:50Z</time></trkpt>
      <trkpt lat="30.494005" lon="113.914172"><ele>73</ele><time>2026-06-20T03:39:22Z</time></trkpt>
      <trkpt lat="30.494186" lon="113.914441"><ele>60</ele><time>2026-06-20T03:39:52Z</time></trkpt>
      <trkpt lat="30.494157" lon="113.914972"><ele>57</ele><time>2026-06-20T03:40:32Z</time></trkpt>
      <trkpt lat="30.494103" lon="113.915065"><ele>56</ele><time>2026-06-20T03:40:39Z</time></trkpt>
      <trkpt lat="30.494143" lon="113.915162"><ele>55</ele><time>2026-06-20T03:40:49Z</time></trkpt>
      <trkpt lat="30.494342" lon="113.915147"><ele>58</ele><time>2026-06-20T03:41:09Z</time></trkpt>
      <trkpt lat="30.494763" lon="113.915628"><ele>55</ele><time>2026-06-20T03:41:53Z</time></trkpt>
      <trkpt lat="30.495105" lon="113.916459"><ele>57</ele><time>2026-06-20T03:42:36Z</time></trkpt>
      <trkpt lat="30.495722" lon="113.91721"><ele>56</ele><time>2026-06-20T03:43:35Z</time></trkpt>
      <trkpt lat="30.496062" lon="113.917409"><ele>53</ele><time>2026-06-20T03:44:04Z</time></trkpt>
      <trkpt lat="30.496253" lon="113.917416"><ele>52</ele><time>2026-06-20T03:44:18Z</time></trkpt>
      <trkpt lat="30.496899" lon="113.917203"><ele>46</ele><time>2026-06-20T03:45:08Z</time></trkpt>
      <trkpt lat="30.498492" lon="113.916531"><ele>43</ele><time>2026-06-20T03:46:53Z</time></trkpt>
      <trkpt lat="30.498661" lon="113.916404"><ele>40</ele><time>2026-06-20T03:47:04Z</time></trkpt>
      <trkpt lat="30.498434" lon="113.915901"><ele>38</ele><time>2026-06-20T03:47:35Z</time></trkpt>
      <trkpt lat="30.498272" lon="113.914532"><ele>41</ele><time>2026-06-20T03:48:45Z</time></trkpt>
      <trkpt lat="30.498339" lon="113.912303"><ele>35</ele><time>2026-06-20T03:51:09Z</time></trkpt>
      <trkpt lat="30.498624" lon="113.911798"><ele>34</ele><time>2026-06-20T03:51:31Z</time></trkpt>
      <trkpt lat="30.499162" lon="113.911494"><ele>31</ele><time>2026-06-20T03:52:04Z</time></trkpt>
      <trkpt lat="30.499389" lon="113.911248"><ele>31</ele><time>2026-06-20T03:52:26Z</time></trkpt>
      <trkpt lat="30.499609" lon="113.91163"><ele>29</ele><time>2026-06-20T03:52:43Z</time></trkpt>
      <trkpt lat="30.4997" lon="113.91157"><ele>29</ele><time>2026-06-20T03:52:46Z</time></trkpt>
      <trkpt lat="30.499758" lon="113.911661"><ele>29</ele><time>2026-06-20T03:52:50Z</time></trkpt>
      <trkpt lat="30.499862" lon="113.911652"><ele>29</ele><time>2026-06-20T03:52:55Z</time></trkpt>
      <trkpt lat="30.499961" lon="113.911834"><ele>30</ele><time>2026-06-20T03:53:03Z</time></trkpt>
      <trkpt lat="30.500075" lon="113.911787"><ele>29</ele><time>2026-06-20T03:53:07Z</time></trkpt>
      <trkpt lat="30.500048" lon="113.911557"><ele>29</ele><time>2026-06-20T03:53:17Z</time></trkpt>
      <trkpt lat="30.500249" lon="113.911492"><ele>28</ele><time>2026-06-20T03:53:24Z</time></trkpt>
      <trkpt lat="30.50032" lon="113.911713"><ele>27</ele><time>2026-06-20T03:53:31Z</time></trkpt>
      <trkpt lat="30.500418" lon="113.91167"><ele>27</ele><time>2026-06-20T03:53:35Z</time></trkpt>
      <trkpt lat="30.50043" lon="113.911555"><ele>27</ele><time>2026-06-20T03:53:39Z</time></trkpt>
      <trkpt lat="30.500526" lon="113.911499"><ele>28</ele><time>2026-06-20T03:53:44Z</time></trkpt>
      <trkpt lat="30.500629" lon="113.911718"><ele>27</ele><time>2026-06-20T03:53:52Z</time></trkpt>
      <trkpt lat="30.500825" lon="113.911602"><ele>27</ele><time>2026-06-20T03:54:00Z</time></trkpt>
      <trkpt lat="30.500963" lon="113.91176"><ele>28</ele><time>2026-06-20T03:54:10Z</time></trkpt>
      <trkpt lat="30.501013" lon="113.91211"><ele>30</ele><time>2026-06-20T03:54:24Z</time></trkpt>
    </trkseg>
  </trk>
</gpx>
