<?xml version="1.0" encoding="UTF-8"?>
<gpx version="1.1" creator="MyWorld" xmlns="http://www.topografix.com/GPX/1/1">
  <metadata><name>萍乡武功山反穿</name></metadata>
  <trk>
    <name>萍乡武功山反穿</name>
    <trkseg>
      <trkpt lat="27.537593" lon="114.172502"><ele>561</ele><time>2026-03-15T00:11:33Z</time></trkpt>
      <trkpt lat="27.537344" lon="114.17292"><ele>573</ele><time>2026-03-15T00:12:20Z</time></trkpt>
      <trkpt lat="27.537388" lon="114.172995"><ele>570</ele><time>2026-03-15T00:13:34Z</time></trkpt>
      <trkpt lat="27.537137" lon="114.173384"><ele>581</ele><time>2026-03-15T00:14:21Z</time></trkpt>
      <trkpt lat="27.536991" lon="114.174483"><ele>589</ele><time>2026-03-15T00:15:48Z</time></trkpt>
      <trkpt lat="27.537009" lon="114.174872"><ele>592</ele><time>2026-03-15T00:16:15Z</time></trkpt>
      <trkpt lat="27.537173" lon="114.175448"><ele>603</ele><time>2026-03-15T00:17:00Z</time></trkpt>
      <trkpt lat="27.53749" lon="114.175742"><ele>613</ele><time>2026-03-15T00:17:45Z</time></trkpt>
      <trkpt lat="27.537642" lon="114.17609"><ele>619</ele><time>2026-03-15T00:18:20Z</time></trkpt>
      <trkpt lat="27.537595" lon="114.177"><ele>630</ele><time>2026-03-15T00:19:45Z</time></trkpt>
      <trkpt lat="27.537213" lon="114.17791"><ele>648</ele><time>2026-03-15T00:21:21Z</time></trkpt>
      <trkpt lat="27.537205" lon="114.178248"><ele>657</ele><time>2026-03-15T00:21:56Z</time></trkpt>
      <trkpt lat="27.537279" lon="114.178498"><ele>661</ele><time>2026-03-15T00:22:20Z</time></trkpt>
      <trkpt lat="27.537445" lon="114.178612"><ele>664</ele><time>2026-03-15T00:22:43Z</time></trkpt>
      <trkpt lat="27.537555" lon="114.178811"><ele>666</ele><time>2026-03-15T00:23:04Z</time></trkpt>
      <trkpt lat="27.537779" lon="114.179482"><ele>674</ele><time>2026-03-15T00:24:07Z</time></trkpt>
      <trkpt lat="27.537752" lon="114.179681"><ele>678</ele><time>2026-03-15T00:24:32Z</time></trkpt>
      <trkpt lat="27.53784" lon="114.180089"><ele>690</ele><time>2026-03-15T00:25:19Z</time></trkpt>
      <trkpt lat="27.537814" lon="114.180553"><ele>698</ele><time>2026-03-15T00:26:07Z</time></trkpt>
      <trkpt lat="27.53792" lon="114.181059"><ele>712</ele><time>2026-03-15T00:27:07Z</time></trkpt>
      <trkpt lat="27.537866" lon="114.181145"><ele>718</ele><time>2026-03-15T00:27:24Z</time></trkpt>
      <trkpt lat="27.537815" lon="114.181132"><ele>721</ele><time>2026-03-15T00:27:35Z</time></trkpt>
      <trkpt lat="27.537453" lon="114.180853"><ele>739</ele><time>2026-03-15T00:28:44Z</time></trkpt>
      <trkpt lat="27.537421" lon="114.181266"><ele>756</ele><time>2026-03-15T00:29:59Z</time></trkpt>
      <trkpt lat="27.537339" lon="114.181391"><ele>759</ele><time>2026-03-15T00:30:20Z</time></trkpt>
      <trkpt lat="27.537442" lon="114.181622"><ele>770</ele><time>2026-03-15T00:31:09Z</time></trkpt>
      <trkpt lat="27.537476" lon="114.181884"><ele>782</ele><time>2026-03-15T00:32:05Z</time></trkpt>
      <trkpt lat="27.537432" lon="114.18203"><ele>792</ele><time>2026-03-15T00:32:42Z</time></trkpt>
      <trkpt lat="27.537269" lon="114.182105"><ele>802</ele><time>2026-03-15T00:33:24Z</time></trkpt>
      <trkpt lat="27.537361" lon="114.182236"><ele>804</ele><time>2026-03-15T00:33:43Z</time></trkpt>
      <trkpt lat="27.537613" lon="114.182389"><ele>813</ele><time>2026-03-15T00:34:16Z</time></trkpt>
      <trkpt lat="27.537749" lon="114.182597"><ele>821</ele><time>2026-03-15T00:34:54Z</time></trkpt>
      <trkpt lat="27.53768" lon="114.182643"><ele>828</ele><time>2026-03-15T00:35:16Z</time></trkpt>
      <trkpt lat="27.537724" lon="114.182809"><ele>832</ele><time>2026-03-15T00:35:38Z</time></trkpt>
      <trkpt lat="27.53767" lon="114.183025"><ele>836</ele><time>2026-03-15T00:36:08Z</time></trkpt>
      <trkpt lat="27.537743" lon="114.18324"><ele>847</ele><time>2026-03-15T00:36:40Z</time></trkpt>
      <trkpt lat="27.537623" lon="114.183548"><ele>854</ele><time>2026-03-15T00:37:23Z</time></trkpt>
      <trkpt lat="27.537757" lon="114.18422"><ele>875</ele><time>2026-03-15T00:39:12Z</time></trkpt>
      <trkpt lat="27.537715" lon="114.184249"><ele>880</ele><time>2026-03-15T00:39:26Z</time></trkpt>
      <trkpt lat="27.537677" lon="114.184147"><ele>883</ele><time>2026-03-15T00:39:46Z</time></trkpt>
      <trkpt lat="27.537636" lon="114.184159"><ele>884</ele><time>2026-03-15T00:39:55Z</time></trkpt>
      <trkpt lat="27.537547" lon="114.18452"><ele>887</ele><time>2026-03-15T00:40:33Z</time></trkpt>
      <trkpt lat="27.537633" lon="114.184656"><ele>898</ele><time>2026-03-15T00:40:58Z</time></trkpt>
      <trkpt lat="27.53762" lon="114.184755"><ele>898</ele><time>2026-03-15T00:41:18Z</time></trkpt>
      <trkpt lat="27.537723" lon="114.184866"><ele>904</ele><time>2026-03-15T00:41:47Z</time></trkpt>
      <trkpt lat="27.537626" lon="114.185034"><ele>910</ele><time>2026-03-15T00:42:21Z</time></trkpt>
      <trkpt lat="27.537924" lon="114.185442"><ele>934</ele><time>2026-03-15T00:44:11Z</time></trkpt>
      <trkpt lat="27.537992" lon="114.185637"><ele>939</ele><time>2026-03-15T00:44:50Z</time></trkpt>
      <trkpt lat="27.537969" lon="114.185947"><ele>952</ele><time>2026-03-15T00:45:49Z</time></trkpt>
      <trkpt lat="27.537893" lon="114.186086"><ele>960</ele><time>2026-03-15T00:46:19Z</time></trkpt>
      <trkpt lat="27.537587" lon="114.186317"><ele>966</ele><time>2026-03-15T00:47:16Z</time></trkpt>
      <trkpt lat="27.537722" lon="114.186466"><ele>976</ele><time>2026-03-15T00:47:51Z</time></trkpt>
      <trkpt lat="27.53799" lon="114.186572"><ele>987</ele><time>2026-03-15T00:48:39Z</time></trkpt>
      <trkpt lat="27.537955" lon="114.186636"><ele>992</ele><time>2026-03-15T00:49:03Z</time></trkpt>
      <trkpt lat="27.538036" lon="114.186723"><ele>993</ele><time>2026-03-15T00:49:18Z</time></trkpt>
      <trkpt lat="27.538076" lon="114.186686"><ele>995</ele><time>2026-03-15T00:51:42Z</time></trkpt>
      <trkpt lat="27.538039" lon="114.186651"><ele>1002</ele><time>2026-03-15T01:00:18Z</time></trkpt>
      <trkpt lat="27.537991" lon="114.186809"><ele>1000</ele><time>2026-03-15T01:00:57Z</time></trkpt>
      <trkpt lat="27.538108" lon="114.186984"><ele>1006</ele><time>2026-03-15T01:01:30Z</time></trkpt>
      <trkpt lat="27.538149" lon="114.18721"><ele>1015</ele><time>2026-03-15T01:02:13Z</time></trkpt>
      <trkpt lat="27.538361" lon="114.187332"><ele>1022</ele><time>2026-03-15T01:03:00Z</time></trkpt>
      <trkpt lat="27.538393" lon="114.187633"><ele>1034</ele><time>2026-03-15T01:03:52Z</time></trkpt>
      <trkpt lat="27.538533" lon="114.187796"><ele>1040</ele><time>2026-03-15T01:04:20Z</time></trkpt>
      <trkpt lat="27.538576" lon="114.187992"><ele>1047</ele><time>2026-03-15T01:04:47Z</time></trkpt>
      <trkpt lat="27.53875" lon="114.188186"><ele>1056</ele><time>2026-03-15T01:05:28Z</time></trkpt>
      <trkpt lat="27.53884" lon="114.188168"><ele>1059</ele><time>2026-03-15T01:05:42Z</time></trkpt>
      <trkpt lat="27.538847" lon="114.188385"><ele>1072</ele><time>2026-03-15T01:06:23Z</time></trkpt>
      <trkpt lat="27.538776" lon="114.188522"><ele>1074</ele><time>2026-03-15T01:06:51Z</time></trkpt>
      <trkpt lat="27.539076" lon="114.18882"><ele>1082</ele><time>2026-03-15T01:07:46Z</time></trkpt>
      <trkpt lat="27.539265" lon="114.188808"><ele>1089</ele><time>2026-03-15T01:08:11Z</time></trkpt>
      <trkpt lat="27.539438" lon="114.18889"><ele>1097</ele><time>2026-03-15T01:08:43Z</time></trkpt>
      <trkpt lat="27.539671" lon="114.189325"><ele>1117</ele><time>2026-03-15T01:10:05Z</time></trkpt>
      <trkpt lat="27.539664" lon="114.189427"><ele>1120</ele><time>2026-03-15T01:10:26Z</time></trkpt>
      <trkpt lat="27.539887" lon="114.189521"><ele>1129</ele><time>2026-03-15T01:11:01Z</time></trkpt>
      <trkpt lat="27.539842" lon="114.189609"><ele>1134</ele><time>2026-03-15T01:11:24Z</time></trkpt>
      <trkpt lat="27.539996" lon="114.189818"><ele>1146</ele><time>2026-03-15T01:12:15Z</time></trkpt>
      <trkpt lat="27.539949" lon="114.189964"><ele>1154</ele><time>2026-03-15T01:12:53Z</time></trkpt>
      <trkpt lat="27.540068" lon="114.190008"><ele>1159</ele><time>2026-03-15T01:13:24Z</time></trkpt>
      <trkpt lat="27.540132" lon="114.190152"><ele>1167</ele><time>2026-03-15T01:13:47Z</time></trkpt>
      <trkpt lat="27.540192" lon="114.190081"><ele>1168</ele><time>2026-03-15T01:14:01Z</time></trkpt>
      <trkpt lat="27.540239" lon="114.190278"><ele>1177</ele><time>2026-03-15T01:14:39Z</time></trkpt>
      <trkpt lat="27.540339" lon="114.190161"><ele>1181</ele><time>2026-03-15T01:15:01Z</time></trkpt>
      <trkpt lat="27.540401" lon="114.190302"><ele>1189</ele><time>2026-03-15T01:15:40Z</time></trkpt>
      <trkpt lat="27.540535" lon="114.190131"><ele>1197</ele><time>2026-03-15T01:16:16Z</time></trkpt>
      <trkpt lat="27.54055" lon="114.190237"><ele>1204</ele><time>2026-03-15T01:16:43Z</time></trkpt>
      <trkpt lat="27.540598" lon="114.190228"><ele>1208</ele><time>2026-03-15T01:17:01Z</time></trkpt>
      <trkpt lat="27.540574" lon="114.190521"><ele>1219</ele><time>2026-03-15T01:17:52Z</time></trkpt>
      <trkpt lat="27.540676" lon="114.190413"><ele>1224</ele><time>2026-03-15T01:18:14Z</time></trkpt>
      <trkpt lat="27.540662" lon="114.190526"><ele>1227</ele><time>2026-03-15T01:18:36Z</time></trkpt>
      <trkpt lat="27.540945" lon="114.190657"><ele>1244</ele><time>2026-03-15T01:19:46Z</time></trkpt>
      <trkpt lat="27.540861" lon="114.190893"><ele>1251</ele><time>2026-03-15T01:20:40Z</time></trkpt>
      <trkpt lat="27.540937" lon="114.190861"><ele>1254</ele><time>2026-03-15T01:20:57Z</time></trkpt>
      <trkpt lat="27.540919" lon="114.190956"><ele>1260</ele><time>2026-03-15T01:21:23Z</time></trkpt>
      <trkpt lat="27.541081" lon="114.190847"><ele>1265</ele><time>2026-03-15T01:21:57Z</time></trkpt>
      <trkpt lat="27.541204" lon="114.190933"><ele>1268</ele><time>2026-03-15T01:22:19Z</time></trkpt>
      <trkpt lat="27.541363" lon="114.191133"><ele>1274</ele><time>2026-03-15T01:22:56Z</time></trkpt>
      <trkpt lat="27.54153" lon="114.191516"><ele>1289</ele><time>2026-03-15T01:24:00Z</time></trkpt>
      <trkpt lat="27.54126" lon="114.191408"><ele>1300</ele><time>2026-03-15T01:25:00Z</time></trkpt>
      <trkpt lat="27.541079" lon="114.191659"><ele>1305</ele><time>2026-03-15T01:25:35Z</time></trkpt>
      <trkpt lat="27.54118" lon="114.192103"><ele>1317</ele><time>2026-03-15T01:26:33Z</time></trkpt>
      <trkpt lat="27.541041" lon="114.192156"><ele>1321</ele><time>2026-03-15T01:26:55Z</time></trkpt>
      <trkpt lat="27.540996" lon="114.192264"><ele>1322</ele><time>2026-03-15T01:27:08Z</time></trkpt>
      <trkpt lat="27.541075" lon="114.19256"><ele>1329</ele><time>2026-03-15T01:27:42Z</time></trkpt>
      <trkpt lat="27.541003" lon="114.193449"><ele>1346</ele><time>2026-03-15T01:29:23Z</time></trkpt>
      <trkpt lat="27.540789" lon="114.193577"><ele>1347</ele><time>2026-03-15T01:29:47Z</time></trkpt>
      <trkpt lat="27.540766" lon="114.193912"><ele>1350</ele><time>2026-03-15T01:30:13Z</time></trkpt>
      <trkpt lat="27.540626" lon="114.194324"><ele>1356</ele><time>2026-03-15T01:30:51Z</time></trkpt>
      <trkpt lat="27.540347" lon="114.194719"><ele>1371</ele><time>2026-03-15T01:31:51Z</time></trkpt>
      <trkpt lat="27.540239" lon="114.194978"><ele>1371</ele><time>2026-03-15T01:32:16Z</time></trkpt>
      <trkpt lat="27.539995" lon="114.195253"><ele>1373</ele><time>2026-03-15T01:32:47Z</time></trkpt>
      <trkpt lat="27.539895" lon="114.195683"><ele>1377</ele><time>2026-03-15T01:33:29Z</time></trkpt>
      <trkpt lat="27.5396" lon="114.19587"><ele>1385</ele><time>2026-03-15T01:34:09Z</time></trkpt>
      <trkpt lat="27.539462" lon="114.196094"><ele>1394</ele><time>2026-03-15T01:34:46Z</time></trkpt>
      <trkpt lat="27.539203" lon="114.195975"><ele>1403</ele><time>2026-03-15T01:35:35Z</time></trkpt>
      <trkpt lat="27.539137" lon="114.196115"><ele>1409</ele><time>2026-03-15T01:35:58Z</time></trkpt>
      <trkpt lat="27.5389" lon="114.196285"><ele>1418</ele><time>2026-03-15T01:36:45Z</time></trkpt>
      <trkpt lat="27.538593" lon="114.196749"><ele>1422</ele><time>2026-03-15T01:37:42Z</time></trkpt>
      <trkpt lat="27.538471" lon="114.19717"><ele>1422</ele><time>2026-03-15T01:38:17Z</time></trkpt>
      <trkpt lat="27.538158" lon="114.197653"><ele>1425</ele><time>2026-03-15T01:39:09Z</time></trkpt>
      <trkpt lat="27.538032" lon="114.197754"><ele>1428</ele><time>2026-03-15T01:39:27Z</time></trkpt>
      <trkpt lat="27.537786" lon="114.198228"><ele>1436</ele><time>2026-03-15T01:40:19Z</time></trkpt>
      <trkpt lat="27.537456" lon="114.198324"><ele>1438</ele><time>2026-03-15T01:40:52Z</time></trkpt>
      <trkpt lat="27.537277" lon="114.198229"><ele>1441</ele><time>2026-03-15T01:41:12Z</time></trkpt>
      <trkpt lat="27.537024" lon="114.198331"><ele>1444</ele><time>2026-03-15T01:41:39Z</time></trkpt>
      <trkpt lat="27.53673" lon="114.198167"><ele>1448</ele><time>2026-03-15T01:42:12Z</time></trkpt>
      <trkpt lat="27.536338" lon="114.198528"><ele>1452</ele><time>2026-03-15T01:43:06Z</time></trkpt>
      <trkpt lat="27.53629" lon="114.198503"><ele>1452</ele><time>2026-03-15T01:43:12Z</time></trkpt>
      <trkpt lat="27.536304" lon="114.198345"><ele>1455</ele><time>2026-03-15T01:43:24Z</time></trkpt>
      <trkpt lat="27.536255" lon="114.19826"><ele>1455</ele><time>2026-03-15T01:43:32Z</time></trkpt>
      <trkpt lat="27.536029" lon="114.198157"><ele>1456</ele><time>2026-03-15T01:43:52Z</time></trkpt>
      <trkpt lat="27.535925" lon="114.198175"><ele>1457</ele><time>2026-03-15T01:44:01Z</time></trkpt>
      <trkpt lat="27.535835" lon="114.198563"><ele>1457</ele><time>2026-03-15T01:44:32Z</time></trkpt>
      <trkpt lat="27.535788" lon="114.19859"><ele>1457</ele><time>2026-03-15T01:44:37Z</time></trkpt>
      <trkpt lat="27.535622" lon="114.198465"><ele>1460</ele><time>2026-03-15T01:44:55Z</time></trkpt>
      <trkpt lat="27.535593" lon="114.198501"><ele>1460</ele><time>2026-03-15T01:44:59Z</time></trkpt>
      <trkpt lat="27.53562" lon="114.198785"><ele>1464</ele><time>2026-03-15T01:45:23Z</time></trkpt>
      <trkpt lat="27.535695" lon="114.198936"><ele>1466</ele><time>2026-03-15T01:45:38Z</time></trkpt>
      <trkpt lat="27.535501" lon="114.19923"><ele>1468</ele><time>2026-03-15T01:46:06Z</time></trkpt>
      <trkpt lat="27.535232" lon="114.199225"><ele>1465</ele><time>2026-03-15T01:46:28Z</time></trkpt>
      <trkpt lat="27.534938" lon="114.19904"><ele>1467</ele><time>2026-03-15T01:46:56Z</time></trkpt>
      <trkpt lat="27.534541" lon="114.199187"><ele>1455</ele><time>2026-03-15T01:47:54Z</time></trkpt>
      <trkpt lat="27.534439" lon="114.199295"><ele>1450</ele><time>2026-03-15T01:48:10Z</time></trkpt>
      <trkpt lat="27.534242" lon="114.19926"><ele>1445</ele><time>2026-03-15T01:48:26Z</time></trkpt>
      <trkpt lat="27.534051" lon="114.199372"><ele>1441</ele><time>2026-03-15T01:48:42Z</time></trkpt>
      <trkpt lat="27.533822" lon="114.19927"><ele>1435</ele><time>2026-03-15T01:49:10Z</time></trkpt>
      <trkpt lat="27.533568" lon="114.199321"><ele>1435</ele><time>2026-03-15T01:49:31Z</time></trkpt>
      <trkpt lat="27.533236" lon="114.199257"><ele>1446</ele><time>2026-03-15T01:50:12Z</time></trkpt>
      <trkpt lat="27.532866" lon="114.198927"><ele>1457</ele><time>2026-03-15T01:51:16Z</time></trkpt>
      <trkpt lat="27.532605" lon="114.198845"><ele>1468</ele><time>2026-03-15T01:52:03Z</time></trkpt>
      <trkpt lat="27.532387" lon="114.198652"><ele>1474</ele><time>2026-03-15T01:52:35Z</time></trkpt>
      <trkpt lat="27.532251" lon="114.198357"><ele>1477</ele><time>2026-03-15T01:53:10Z</time></trkpt>
      <trkpt lat="27.532029" lon="114.198236"><ele>1482</ele><time>2026-03-15T01:53:39Z</time></trkpt>
      <trkpt lat="27.531702" lon="114.19769"><ele>1493</ele><time>2026-03-15T01:54:44Z</time></trkpt>
      <trkpt lat="27.531376" lon="114.197469"><ele>1500</ele><time>2026-03-15T01:55:44Z</time></trkpt>
      <trkpt lat="27.531308" lon="114.197333"><ele>1508</ele><time>2026-03-15T01:56:10Z</time></trkpt>
      <trkpt lat="27.531003" lon="114.197102"><ele>1524</ele><time>2026-03-15T01:57:26Z</time></trkpt>
      <trkpt lat="27.530666" lon="114.197032"><ele>1530</ele><time>2026-03-15T01:58:28Z</time></trkpt>
      <trkpt lat="27.530168" lon="114.197232"><ele>1543</ele><time>2026-03-15T01:59:41Z</time></trkpt>
      <trkpt lat="27.529846" lon="114.197122"><ele>1550</ele><time>2026-03-15T02:01:19Z</time></trkpt>
      <trkpt lat="27.529766" lon="114.197001"><ele>1557</ele><time>2026-03-15T02:01:36Z</time></trkpt>
      <trkpt lat="27.529578" lon="114.197075"><ele>1561</ele><time>2026-03-15T02:02:02Z</time></trkpt>
      <trkpt lat="27.529355" lon="114.19699"><ele>1567</ele><time>2026-03-15T02:02:37Z</time></trkpt>
      <trkpt lat="27.529226" lon="114.197127"><ele>1571</ele><time>2026-03-15T02:03:00Z</time></trkpt>
      <trkpt lat="27.528851" lon="114.197107"><ele>1579</ele><time>2026-03-15T02:03:44Z</time></trkpt>
      <trkpt lat="27.528663" lon="114.197028"><ele>1584</ele><time>2026-03-15T02:04:07Z</time></trkpt>
      <trkpt lat="27.528429" lon="114.197109"><ele>1594</ele><time>2026-03-15T02:04:38Z</time></trkpt>
      <trkpt lat="27.527756" lon="114.19677"><ele>1598</ele><time>2026-03-15T02:05:57Z</time></trkpt>
      <trkpt lat="27.527628" lon="114.196606"><ele>1599</ele><time>2026-03-15T02:06:12Z</time></trkpt>
      <trkpt lat="27.527573" lon="114.196327"><ele>1600</ele><time>2026-03-15T02:06:35Z</time></trkpt>
      <trkpt lat="27.527244" lon="114.196175"><ele>1598</ele><time>2026-03-15T02:07:08Z</time></trkpt>
      <trkpt lat="27.527117" lon="114.19574"><ele>1600</ele><time>2026-03-15T02:07:40Z</time></trkpt>
      <trkpt lat="27.526945" lon="114.195536"><ele>1596</ele><time>2026-03-15T02:08:00Z</time></trkpt>
      <trkpt lat="27.526802" lon="114.194982"><ele>1600</ele><time>2026-03-15T02:08:42Z</time></trkpt>
      <trkpt lat="27.526684" lon="114.194879"><ele>1601</ele><time>2026-03-15T02:08:54Z</time></trkpt>
      <trkpt lat="27.526336" lon="114.194758"><ele>1598</ele><time>2026-03-15T02:09:22Z</time></trkpt>
      <trkpt lat="27.526177" lon="114.194805"><ele>1597</ele><time>2026-03-15T02:09:34Z</time></trkpt>
      <trkpt lat="27.525791" lon="114.195194"><ele>1591</ele><time>2026-03-15T02:10:16Z</time></trkpt>
      <trkpt lat="27.525606" lon="114.195235"><ele>1583</ele><time>2026-03-15T02:10:33Z</time></trkpt>
      <trkpt lat="27.525424" lon="114.195199"><ele>1576</ele><time>2026-03-15T02:10:50Z</time></trkpt>
      <trkpt lat="27.525113" lon="114.194814"><ele>1566</ele><time>2026-03-15T02:11:13Z</time></trkpt>
      <trkpt lat="27.524946" lon="114.194715"><ele>1563</ele><time>2026-03-15T02:11:20Z</time></trkpt>
      <trkpt lat="27.524731" lon="114.194769"><ele>1564</ele><time>2026-03-15T02:11:36Z</time></trkpt>
      <trkpt lat="27.524484" lon="114.194695"><ele>1563</ele><time>2026-03-15T02:11:55Z</time></trkpt>
      <trkpt lat="27.52414" lon="114.194754"><ele>1554</ele><time>2026-03-15T02:12:22Z</time></trkpt>
      <trkpt lat="27.524042" lon="114.194972"><ele>1555</ele><time>2026-03-15T02:12:38Z</time></trkpt>
      <trkpt lat="27.524008" lon="114.195376"><ele>1550</ele><time>2026-03-15T02:13:07Z</time></trkpt>
      <trkpt lat="27.523788" lon="114.196213"><ele>1548</ele><time>2026-03-15T02:14:06Z</time></trkpt>
      <trkpt lat="27.523415" lon="114.196535"><ele>1547</ele><time>2026-03-15T02:14:45Z</time></trkpt>
      <trkpt lat="27.523445" lon="114.196802"><ele>1552</ele><time>2026-03-15T02:15:09Z</time></trkpt>
      <trkpt lat="27.523399" lon="114.196992"><ele>1548</ele><time>2026-03-15T02:15:32Z</time></trkpt>
      <trkpt lat="27.523227" lon="114.196897"><ele>1550</ele><time>2026-03-15T02:30:35Z</time></trkpt>
      <trkpt lat="27.522936" lon="114.196853"><ele>1546</ele><time>2026-03-15T02:31:00Z</time></trkpt>
      <trkpt lat="27.522683" lon="114.196931"><ele>1544</ele><time>2026-03-15T02:31:21Z</time></trkpt>
      <trkpt lat="27.522352" lon="114.19673"><ele>1542</ele><time>2026-03-15T02:31:49Z</time></trkpt>
      <trkpt lat="27.522155" lon="114.196685"><ele>1540</ele><time>2026-03-15T02:32:03Z</time></trkpt>
      <trkpt lat="27.521759" lon="114.196323"><ele>1549</ele><time>2026-03-15T02:32:48Z</time></trkpt>
      <trkpt lat="27.521518" lon="114.195896"><ele>1556</ele><time>2026-03-15T02:33:31Z</time></trkpt>
      <trkpt lat="27.52059" lon="114.195521"><ele>1540</ele><time>2026-03-15T02:34:54Z</time></trkpt>
      <trkpt lat="27.520363" lon="114.195374"><ele>1540</ele><time>2026-03-15T02:35:13Z</time></trkpt>
      <trkpt lat="27.519754" lon="114.195329"><ele>1540</ele><time>2026-03-15T02:35:57Z</time></trkpt>
      <trkpt lat="27.519435" lon="114.195417"><ele>1539</ele><time>2026-03-15T02:36:21Z</time></trkpt>
      <trkpt lat="27.51905" lon="114.195137"><ele>1534</ele><time>2026-03-15T02:37:00Z</time></trkpt>
      <trkpt lat="27.518651" lon="114.195236"><ele>1520</ele><time>2026-03-15T02:37:55Z</time></trkpt>
      <trkpt lat="27.51826" lon="114.195251"><ele>1502</ele><time>2026-03-15T02:38:46Z</time></trkpt>
      <trkpt lat="27.517785" lon="114.194986"><ele>1483</ele><time>2026-03-15T02:39:57Z</time></trkpt>
      <trkpt lat="27.517614" lon="114.195052"><ele>1476</ele><time>2026-03-15T02:40:16Z</time></trkpt>
      <trkpt lat="27.517094" lon="114.194883"><ele>1486</ele><time>2026-03-15T02:41:12Z</time></trkpt>
      <trkpt lat="27.516946" lon="114.194899"><ele>1493</ele><time>2026-03-15T02:41:32Z</time></trkpt>
      <trkpt lat="27.51661" lon="114.195077"><ele>1509</ele><time>2026-03-15T02:42:42Z</time></trkpt>
      <trkpt lat="27.516205" lon="114.195134"><ele>1527</ele><time>2026-03-15T02:44:00Z</time></trkpt>
      <trkpt lat="27.515324" lon="114.194958"><ele>1562</ele><time>2026-03-15T02:46:44Z</time></trkpt>
      <trkpt lat="27.514842" lon="114.195165"><ele>1575</ele><time>2026-03-15T02:47:52Z</time></trkpt>
      <trkpt lat="27.51465" lon="114.195362"><ele>1576</ele><time>2026-03-15T02:48:13Z</time></trkpt>
      <trkpt lat="27.514283" lon="114.19555"><ele>1573</ele><time>2026-03-15T02:48:50Z</time></trkpt>
      <trkpt lat="27.514057" lon="114.195765"><ele>1568</ele><time>2026-03-15T02:49:14Z</time></trkpt>
      <trkpt lat="27.513867" lon="114.195742"><ele>1579</ele><time>2026-03-15T02:49:33Z</time></trkpt>
      <trkpt lat="27.513622" lon="114.195924"><ele>1590</ele><time>2026-03-15T02:50:13Z</time></trkpt>
      <trkpt lat="27.512678" lon="114.195301"><ele>1626</ele><time>2026-03-15T02:53:03Z</time></trkpt>
      <trkpt lat="27.512454" lon="114.195035"><ele>1639</ele><time>2026-03-15T02:53:58Z</time></trkpt>
      <trkpt lat="27.512366" lon="114.19467"><ele>1655</ele><time>2026-03-15T02:55:13Z</time></trkpt>
      <trkpt lat="27.512264" lon="114.1945"><ele>1659</ele><time>2026-03-15T02:55:39Z</time></trkpt>
      <trkpt lat="27.512271" lon="114.194176"><ele>1664</ele><time>2026-03-15T02:56:11Z</time></trkpt>
      <trkpt lat="27.512048" lon="114.193928"><ele>1668</ele><time>2026-03-15T02:56:39Z</time></trkpt>
      <trkpt lat="27.511696" lon="114.193739"><ele>1669</ele><time>2026-03-15T02:57:13Z</time></trkpt>
      <trkpt lat="27.51145" lon="114.193714"><ele>1673</ele><time>2026-03-15T02:57:37Z</time></trkpt>
      <trkpt lat="27.511178" lon="114.193445"><ele>1675</ele><time>2026-03-15T02:58:06Z</time></trkpt>
      <trkpt lat="27.510612" lon="114.193157"><ele>1679</ele><time>2026-03-15T02:58:56Z</time></trkpt>
      <trkpt lat="27.510216" lon="114.193277"><ele>1674</ele><time>2026-03-15T02:59:32Z</time></trkpt>
      <trkpt lat="27.509895" lon="114.193259"><ele>1673</ele><time>2026-03-15T02:59:54Z</time></trkpt>
      <trkpt lat="27.509686" lon="114.19313"><ele>1677</ele><time>2026-03-15T03:00:14Z</time></trkpt>
      <trkpt lat="27.509273" lon="114.193155"><ele>1678</ele><time>2026-03-15T03:00:54Z</time></trkpt>
      <trkpt lat="27.509088" lon="114.192968"><ele>1685</ele><time>2026-03-15T03:01:20Z</time></trkpt>
      <trkpt lat="27.508468" lon="114.19273"><ele>1698</ele><time>2026-03-15T03:02:23Z</time></trkpt>
      <trkpt lat="27.508155" lon="114.192852"><ele>1689</ele><time>2026-03-15T03:02:56Z</time></trkpt>
      <trkpt lat="27.507968" lon="114.192789"><ele>1682</ele><time>2026-03-15T03:03:38Z</time></trkpt>
      <trkpt lat="27.50783" lon="114.192841"><ele>1671</ele><time>2026-03-15T03:04:05Z</time></trkpt>
      <trkpt lat="27.507498" lon="114.193292"><ele>1644</ele><time>2026-03-15T03:05:55Z</time></trkpt>
      <trkpt lat="27.507317" lon="114.193377"><ele>1636</ele><time>2026-03-15T03:06:24Z</time></trkpt>
      <trkpt lat="27.507095" lon="114.193662"><ele>1626</ele><time>2026-03-15T03:07:05Z</time></trkpt>
      <trkpt lat="27.506919" lon="114.193736"><ele>1619</ele><time>2026-03-15T03:07:21Z</time></trkpt>
      <trkpt lat="27.506732" lon="114.193939"><ele>1611</ele><time>2026-03-15T03:07:44Z</time></trkpt>
      <trkpt lat="27.506454" lon="114.194026"><ele>1605</ele><time>2026-03-15T03:08:17Z</time></trkpt>
      <trkpt lat="27.506205" lon="114.194219"><ele>1592</ele><time>2026-03-15T03:08:53Z</time></trkpt>
      <trkpt lat="27.505767" lon="114.194214"><ele>1572</ele><time>2026-03-15T03:09:43Z</time></trkpt>
      <trkpt lat="27.505466" lon="114.194651"><ele>1553</ele><time>2026-03-15T03:10:27Z</time></trkpt>
      <trkpt lat="27.50519" lon="114.1946"><ele>1548</ele><time>2026-03-15T03:10:51Z</time></trkpt>
      <trkpt lat="27.505084" lon="114.194785"><ele>1551</ele><time>2026-03-15T03:11:47Z</time></trkpt>
      <trkpt lat="27.504949" lon="114.194861"><ele>1553</ele><time>2026-03-15T03:11:59Z</time></trkpt>
      <trkpt lat="27.504708" lon="114.195336"><ele>1538</ele><time>2026-03-15T03:13:04Z</time></trkpt>
      <trkpt lat="27.504182" lon="114.19562"><ele>1512</ele><time>2026-03-15T03:13:53Z</time></trkpt>
      <trkpt lat="27.504061" lon="114.1959"><ele>1515</ele><time>2026-03-15T03:14:14Z</time></trkpt>
      <trkpt lat="27.503815" lon="114.196169"><ele>1513</ele><time>2026-03-15T03:14:42Z</time></trkpt>
      <trkpt lat="27.503767" lon="114.196509"><ele>1521</ele><time>2026-03-15T03:15:11Z</time></trkpt>
      <trkpt lat="27.503471" lon="114.196949"><ele>1529</ele><time>2026-03-15T03:15:57Z</time></trkpt>
      <trkpt lat="27.503435" lon="114.197097"><ele>1533</ele><time>2026-03-15T03:16:16Z</time></trkpt>
      <trkpt lat="27.503373" lon="114.197172"><ele>1536</ele><time>2026-03-15T03:16:34Z</time></trkpt>
      <trkpt lat="27.503165" lon="114.19722"><ele>1548</ele><time>2026-03-15T03:17:26Z</time></trkpt>
      <trkpt lat="27.503161" lon="114.197467"><ele>1558</ele><time>2026-03-15T03:18:25Z</time></trkpt>
      <trkpt lat="27.503253" lon="114.197865"><ele>1577</ele><time>2026-03-15T03:19:56Z</time></trkpt>
      <trkpt lat="27.503226" lon="114.19802"><ele>1581</ele><time>2026-03-15T03:20:23Z</time></trkpt>
      <trkpt lat="27.50298" lon="114.198269"><ele>1589</ele><time>2026-03-15T03:23:42Z</time></trkpt>
      <trkpt lat="27.502703" lon="114.198398"><ele>1594</ele><time>2026-03-15T03:24:08Z</time></trkpt>
      <trkpt lat="27.502289" lon="114.198365"><ele>1597</ele><time>2026-03-15T03:24:48Z</time></trkpt>
      <trkpt lat="27.502104" lon="114.198471"><ele>1604</ele><time>2026-03-15T03:25:11Z</time></trkpt>
      <trkpt lat="27.501864" lon="114.198802"><ele>1614</ele><time>2026-03-15T03:25:56Z</time></trkpt>
      <trkpt lat="27.501448" lon="114.198706"><ele>1629</ele><time>2026-03-15T03:27:22Z</time></trkpt>
      <trkpt lat="27.501202" lon="114.198542"><ele>1644</ele><time>2026-03-15T03:28:16Z</time></trkpt>
      <trkpt lat="27.501129" lon="114.198618"><ele>1645</ele><time>2026-03-15T03:28:33Z</time></trkpt>
      <trkpt lat="27.501116" lon="114.198838"><ele>1651</ele><time>2026-03-15T03:29:05Z</time></trkpt>
      <trkpt lat="27.500836" lon="114.198924"><ele>1665</ele><time>2026-03-15T03:30:07Z</time></trkpt>
      <trkpt lat="27.500435" lon="114.198945"><ele>1669</ele><time>2026-03-15T03:30:52Z</time></trkpt>
      <trkpt lat="27.500139" lon="114.198825"><ele>1670</ele><time>2026-03-15T03:31:16Z</time></trkpt>
      <trkpt lat="27.499693" lon="114.198948"><ele>1669</ele><time>2026-03-15T03:31:52Z</time></trkpt>
      <trkpt lat="27.499471" lon="114.19882"><ele>1673</ele><time>2026-03-15T03:32:13Z</time></trkpt>
      <trkpt lat="27.498962" lon="114.198887"><ele>1670</ele><time>2026-03-15T03:32:56Z</time></trkpt>
      <trkpt lat="27.498772" lon="114.198761"><ele>1668</ele><time>2026-03-15T03:33:12Z</time></trkpt>
      <trkpt lat="27.497944" lon="114.198522"><ele>1660</ele><time>2026-03-15T03:34:19Z</time></trkpt>
      <trkpt lat="27.497797" lon="114.198267"><ele>1651</ele><time>2026-03-15T03:34:39Z</time></trkpt>
      <trkpt lat="27.497413" lon="114.198126"><ele>1640</ele><time>2026-03-15T03:35:17Z</time></trkpt>
      <trkpt lat="27.497422" lon="114.198024"><ele>1634</ele><time>2026-03-15T03:35:30Z</time></trkpt>
      <trkpt lat="27.497251" lon="114.197848"><ele>1624</ele><time>2026-03-15T03:36:01Z</time></trkpt>
      <trkpt lat="27.49728" lon="114.197777"><ele>1616</ele><time>2026-03-15T03:36:13Z</time></trkpt>
      <trkpt lat="27.497199" lon="114.197607"><ele>1612</ele><time>2026-03-15T03:36:35Z</time></trkpt>
      <trkpt lat="27.497015" lon="114.197669"><ele>1604</ele><time>2026-03-15T03:37:00Z</time></trkpt>
      <trkpt lat="27.4968" lon="114.197613"><ele>1595</ele><time>2026-03-15T03:37:23Z</time></trkpt>
      <trkpt lat="27.496444" lon="114.19726"><ele>1585</ele><time>2026-03-15T03:37:59Z</time></trkpt>
      <trkpt lat="27.496139" lon="114.197203"><ele>1585</ele><time>2026-03-15T03:38:24Z</time></trkpt>
      <trkpt lat="27.495884" lon="114.197286"><ele>1584</ele><time>2026-03-15T03:38:44Z</time></trkpt>
      <trkpt lat="27.495346" lon="114.197118"><ele>1575</ele><time>2026-03-15T03:39:24Z</time></trkpt>
      <trkpt lat="27.495179" lon="114.197238"><ele>1579</ele><time>2026-03-15T03:39:40Z</time></trkpt>
      <trkpt lat="27.495026" lon="114.197104"><ele>1585</ele><time>2026-03-15T03:39:59Z</time></trkpt>
      <trkpt lat="27.494606" lon="114.196928"><ele>1585</ele><time>2026-03-15T03:40:32Z</time></trkpt>
      <trkpt lat="27.494296" lon="114.197103"><ele>1589</ele><time>2026-03-15T03:41:01Z</time></trkpt>
      <trkpt lat="27.494038" lon="114.197089"><ele>1586</ele><time>2026-03-15T03:41:21Z</time></trkpt>
      <trkpt lat="27.49384" lon="114.197158"><ele>1586</ele><time>2026-03-15T03:41:34Z</time></trkpt>
      <trkpt lat="27.493648" lon="114.197084"><ele>1585</ele><time>2026-03-15T03:41:50Z</time></trkpt>
      <trkpt lat="27.493421" lon="114.197166"><ele>1577</ele><time>2026-03-15T03:42:12Z</time></trkpt>
      <trkpt lat="27.493339" lon="114.197107"><ele>1573</ele><time>2026-03-15T03:42:24Z</time></trkpt>
      <trkpt lat="27.493" lon="114.197082"><ele>1574</ele><time>2026-03-15T03:42:51Z</time></trkpt>
      <trkpt lat="27.492931" lon="114.19683"><ele>1583</ele><time>2026-03-15T03:43:29Z</time></trkpt>
      <trkpt lat="27.492731" lon="114.196833"><ele>1584</ele><time>2026-03-15T03:43:48Z</time></trkpt>
      <trkpt lat="27.492602" lon="114.196752"><ele>1579</ele><time>2026-03-15T03:44:12Z</time></trkpt>
      <trkpt lat="27.492502" lon="114.196955"><ele>1570</ele><time>2026-03-15T03:44:42Z</time></trkpt>
      <trkpt lat="27.492322" lon="114.196921"><ele>1560</ele><time>2026-03-15T03:45:14Z</time></trkpt>
      <trkpt lat="27.491897" lon="114.197272"><ele>1532</ele><time>2026-03-15T03:46:29Z</time></trkpt>
      <trkpt lat="27.491777" lon="114.197185"><ele>1525</ele><time>2026-03-15T03:46:56Z</time></trkpt>
      <trkpt lat="27.491448" lon="114.197275"><ele>1502</ele><time>2026-03-15T03:48:10Z</time></trkpt>
      <trkpt lat="27.491309" lon="114.197252"><ele>1498</ele><time>2026-03-15T03:48:28Z</time></trkpt>
      <trkpt lat="27.491209" lon="114.197059"><ele>1492</ele><time>2026-03-15T03:48:54Z</time></trkpt>
      <trkpt lat="27.490916" lon="114.196987"><ele>1481</ele><time>2026-03-15T03:49:23Z</time></trkpt>
      <trkpt lat="27.490775" lon="114.196763"><ele>1484</ele><time>2026-03-15T03:49:47Z</time></trkpt>
      <trkpt lat="27.490608" lon="114.196666"><ele>1474</ele><time>2026-03-15T03:50:19Z</time></trkpt>
      <trkpt lat="27.490507" lon="114.196365"><ele>1464</ele><time>2026-03-15T03:51:01Z</time></trkpt>
      <trkpt lat="27.490531" lon="114.196209"><ele>1456</ele><time>2026-03-15T03:51:31Z</time></trkpt>
      <trkpt lat="27.490456" lon="114.196136"><ele>1451</ele><time>2026-03-15T03:51:46Z</time></trkpt>
      <trkpt lat="27.490472" lon="114.196053"><ele>1443</ele><time>2026-03-15T03:52:16Z</time></trkpt>
      <trkpt lat="27.490249" lon="114.195598"><ele>1420</ele><time>2026-03-15T03:53:24Z</time></trkpt>
      <trkpt lat="27.490286" lon="114.19544"><ele>1419</ele><time>2026-03-15T03:53:41Z</time></trkpt>
      <trkpt lat="27.490046" lon="114.195073"><ele>1403</ele><time>2026-03-15T03:54:24Z</time></trkpt>
      <trkpt lat="27.489803" lon="114.194979"><ele>1397</ele><time>2026-03-15T03:54:41Z</time></trkpt>
      <trkpt lat="27.489597" lon="114.194775"><ele>1395</ele><time>2026-03-15T03:55:01Z</time></trkpt>
      <trkpt lat="27.489302" lon="114.194669"><ele>1395</ele><time>2026-03-15T03:55:23Z</time></trkpt>
      <trkpt lat="27.489146" lon="114.19451"><ele>1396</ele><time>2026-03-15T03:55:39Z</time></trkpt>
      <trkpt lat="27.489123" lon="114.194398"><ele>1397</ele><time>2026-03-15T03:55:47Z</time></trkpt>
      <trkpt lat="27.489092" lon="114.194489"><ele>1389</ele><time>2026-03-15T04:01:25Z</time></trkpt>
      <trkpt lat="27.489058" lon="114.194351"><ele>1392</ele><time>2026-03-15T04:12:57Z</time></trkpt>
      <trkpt lat="27.488704" lon="114.194161"><ele>1402</ele><time>2026-03-15T04:13:42Z</time></trkpt>
      <trkpt lat="27.48842" lon="114.194103"><ele>1409</ele><time>2026-03-15T04:14:31Z</time></trkpt>
      <trkpt lat="27.488129" lon="114.193825"><ele>1422</ele><time>2026-03-15T04:15:37Z</time></trkpt>
      <trkpt lat="27.488005" lon="114.193493"><ele>1430</ele><time>2026-03-15T04:16:34Z</time></trkpt>
      <trkpt lat="27.487899" lon="114.193405"><ele>1437</ele><time>2026-03-15T04:17:11Z</time></trkpt>
      <trkpt lat="27.487646" lon="114.193348"><ele>1454</ele><time>2026-03-15T04:18:34Z</time></trkpt>
      <trkpt lat="27.487558" lon="114.193441"><ele>1466</ele><time>2026-03-15T04:19:18Z</time></trkpt>
      <trkpt lat="27.487431" lon="114.193196"><ele>1476</ele><time>2026-03-15T04:20:17Z</time></trkpt>
      <trkpt lat="27.48735" lon="114.19315"><ele>1483</ele><time>2026-03-15T04:20:39Z</time></trkpt>
      <trkpt lat="27.48726" lon="114.193183"><ele>1493</ele><time>2026-03-15T04:21:09Z</time></trkpt>
      <trkpt lat="27.487128" lon="114.193055"><ele>1505</ele><time>2026-03-15T04:22:00Z</time></trkpt>
      <trkpt lat="27.486583" lon="114.192972"><ele>1536</ele><time>2026-03-15T04:24:15Z</time></trkpt>
      <trkpt lat="27.486361" lon="114.1928"><ele>1546</ele><time>2026-03-15T04:25:23Z</time></trkpt>
      <trkpt lat="27.486278" lon="114.192859"><ele>1551</ele><time>2026-03-15T04:25:42Z</time></trkpt>
      <trkpt lat="27.486193" lon="114.192835"><ele>1558</ele><time>2026-03-15T04:26:16Z</time></trkpt>
      <trkpt lat="27.485788" lon="114.192573"><ele>1577</ele><time>2026-03-15T04:28:44Z</time></trkpt>
      <trkpt lat="27.485608" lon="114.192397"><ele>1586</ele><time>2026-03-15T04:29:19Z</time></trkpt>
      <trkpt lat="27.485488" lon="114.192105"><ele>1600</ele><time>2026-03-15T04:30:28Z</time></trkpt>
      <trkpt lat="27.485291" lon="114.191875"><ele>1614</ele><time>2026-03-15T04:31:31Z</time></trkpt>
      <trkpt lat="27.484784" lon="114.19152"><ele>1631</ele><time>2026-03-15T04:32:59Z</time></trkpt>
      <trkpt lat="27.48462" lon="114.19127"><ele>1633</ele><time>2026-03-15T04:33:30Z</time></trkpt>
      <trkpt lat="27.484435" lon="114.191145"><ele>1637</ele><time>2026-03-15T04:33:52Z</time></trkpt>
      <trkpt lat="27.483868" lon="114.191003"><ele>1641</ele><time>2026-03-15T04:34:43Z</time></trkpt>
      <trkpt lat="27.482905" lon="114.190583"><ele>1632</ele><time>2026-03-15T04:36:11Z</time></trkpt>
      <trkpt lat="27.482513" lon="114.190659"><ele>1624</ele><time>2026-03-15T04:36:44Z</time></trkpt>
      <trkpt lat="27.481984" lon="114.190517"><ele>1618</ele><time>2026-03-15T04:37:32Z</time></trkpt>
      <trkpt lat="27.481807" lon="114.190612"><ele>1616</ele><time>2026-03-15T04:37:51Z</time></trkpt>
      <trkpt lat="27.48166" lon="114.190609"><ele>1615</ele><time>2026-03-15T04:38:04Z</time></trkpt>
      <trkpt lat="27.481365" lon="114.190355"><ele>1615</ele><time>2026-03-15T04:38:32Z</time></trkpt>
      <trkpt lat="27.481039" lon="114.190248"><ele>1606</ele><time>2026-03-15T04:45:58Z</time></trkpt>
      <trkpt lat="27.480861" lon="114.190117"><ele>1594</ele><time>2026-03-15T04:46:56Z</time></trkpt>
      <trkpt lat="27.480739" lon="114.189933"><ele>1587</ele><time>2026-03-15T04:47:19Z</time></trkpt>
      <trkpt lat="27.480354" lon="114.189948"><ele>1583</ele><time>2026-03-15T04:47:54Z</time></trkpt>
      <trkpt lat="27.480046" lon="114.189716"><ele>1573</ele><time>2026-03-15T04:48:33Z</time></trkpt>
      <trkpt lat="27.479853" lon="114.189664"><ele>1569</ele><time>2026-03-15T04:48:52Z</time></trkpt>
      <trkpt lat="27.479556" lon="114.189699"><ele>1565</ele><time>2026-03-15T04:49:18Z</time></trkpt>
      <trkpt lat="27.479214" lon="114.190035"><ele>1565</ele><time>2026-03-15T04:49:54Z</time></trkpt>
      <trkpt lat="27.478616" lon="114.189785"><ele>1549</ele><time>2026-03-15T04:51:05Z</time></trkpt>
      <trkpt lat="27.478501" lon="114.189888"><ele>1550</ele><time>2026-03-15T04:51:15Z</time></trkpt>
      <trkpt lat="27.478045" lon="114.189975"><ele>1538</ele><time>2026-03-15T04:51:59Z</time></trkpt>
      <trkpt lat="27.477811" lon="114.189903"><ele>1534</ele><time>2026-03-15T04:52:23Z</time></trkpt>
      <trkpt lat="27.477169" lon="114.190029"><ele>1526</ele><time>2026-03-15T04:53:15Z</time></trkpt>
      <trkpt lat="27.477073" lon="114.189831"><ele>1522</ele><time>2026-03-15T04:53:31Z</time></trkpt>
      <trkpt lat="27.476882" lon="114.189691"><ele>1512</ele><time>2026-03-15T04:53:55Z</time></trkpt>
      <trkpt lat="27.476681" lon="114.189427"><ele>1503</ele><time>2026-03-15T04:54:48Z</time></trkpt>
      <trkpt lat="27.476496" lon="114.189366"><ele>1501</ele><time>2026-03-15T04:55:04Z</time></trkpt>
      <trkpt lat="27.47637" lon="114.189175"><ele>1501</ele><time>2026-03-15T04:55:19Z</time></trkpt>
      <trkpt lat="27.476018" lon="114.188927"><ele>1507</ele><time>2026-03-15T04:55:59Z</time></trkpt>
      <trkpt lat="27.475819" lon="114.188584"><ele>1523</ele><time>2026-03-15T04:57:24Z</time></trkpt>
      <trkpt lat="27.475828" lon="114.188053"><ele>1535</ele><time>2026-03-15T04:58:42Z</time></trkpt>
      <trkpt lat="27.47566" lon="114.187783"><ele>1541</ele><time>2026-03-15T04:59:19Z</time></trkpt>
      <trkpt lat="27.47555" lon="114.187684"><ele>1547</ele><time>2026-03-15T04:59:50Z</time></trkpt>
      <trkpt lat="27.475027" lon="114.187522"><ele>1557</ele><time>2026-03-15T05:00:52Z</time></trkpt>
      <trkpt lat="27.474851" lon="114.187355"><ele>1560</ele><time>2026-03-15T05:01:16Z</time></trkpt>
      <trkpt lat="27.474871" lon="114.187249"><ele>1560</ele><time>2026-03-15T05:01:26Z</time></trkpt>
      <trkpt lat="27.475186" lon="114.186969"><ele>1575</ele><time>2026-03-15T05:02:24Z</time></trkpt>
      <trkpt lat="27.47526" lon="114.1866"><ele>1586</ele><time>2026-03-15T05:03:19Z</time></trkpt>
      <trkpt lat="27.475107" lon="114.186154"><ele>1603</ele><time>2026-03-15T05:04:54Z</time></trkpt>
      <trkpt lat="27.474955" lon="114.185308"><ele>1610</ele><time>2026-03-15T05:06:15Z</time></trkpt>
      <trkpt lat="27.475135" lon="114.184771"><ele>1609</ele><time>2026-03-15T05:06:55Z</time></trkpt>
      <trkpt lat="27.474984" lon="114.184463"><ele>1612</ele><time>2026-03-15T05:07:19Z</time></trkpt>
      <trkpt lat="27.474679" lon="114.184123"><ele>1612</ele><time>2026-03-15T05:07:55Z</time></trkpt>
      <trkpt lat="27.474451" lon="114.183348"><ele>1607</ele><time>2026-03-15T05:08:50Z</time></trkpt>
      <trkpt lat="27.4741" lon="114.182827"><ele>1615</ele><time>2026-03-15T05:09:44Z</time></trkpt>
      <trkpt lat="27.474063" lon="114.182425"><ele>1614</ele><time>2026-03-15T05:10:12Z</time></trkpt>
      <trkpt lat="27.474167" lon="114.182038"><ele>1613</ele><time>2026-03-15T05:10:40Z</time></trkpt>
      <trkpt lat="27.47415" lon="114.181861"><ele>1614</ele><time>2026-03-15T05:10:52Z</time></trkpt>
      <trkpt lat="27.474033" lon="114.18161"><ele>1611</ele><time>2026-03-15T05:11:12Z</time></trkpt>
      <trkpt lat="27.474112" lon="114.18136"><ele>1601</ele><time>2026-03-15T05:11:34Z</time></trkpt>
      <trkpt lat="27.474095" lon="114.181051"><ele>1597</ele><time>2026-03-15T05:12:02Z</time></trkpt>
      <trkpt lat="27.474014" lon="114.180847"><ele>1596</ele><time>2026-03-15T05:12:19Z</time></trkpt>
      <trkpt lat="27.473764" lon="114.180569"><ele>1603</ele><time>2026-03-15T05:12:54Z</time></trkpt>
      <trkpt lat="27.473531" lon="114.180467"><ele>1605</ele><time>2026-03-15T05:13:27Z</time></trkpt>
      <trkpt lat="27.473093" lon="114.180494"><ele>1614</ele><time>2026-03-15T05:14:20Z</time></trkpt>
      <trkpt lat="27.472697" lon="114.180422"><ele>1629</ele><time>2026-03-15T05:15:29Z</time></trkpt>
      <trkpt lat="27.472605" lon="114.180303"><ele>1634</ele><time>2026-03-15T05:15:54Z</time></trkpt>
      <trkpt lat="27.472514" lon="114.180295"><ele>1637</ele><time>2026-03-15T05:16:09Z</time></trkpt>
      <trkpt lat="27.472155" lon="114.179845"><ele>1646</ele><time>2026-03-15T05:17:15Z</time></trkpt>
      <trkpt lat="27.471877" lon="114.17993"><ele>1650</ele><time>2026-03-15T05:17:53Z</time></trkpt>
      <trkpt lat="27.47168" lon="114.179904"><ele>1652</ele><time>2026-03-15T05:18:15Z</time></trkpt>
      <trkpt lat="27.471243" lon="114.179983"><ele>1662</ele><time>2026-03-15T05:19:15Z</time></trkpt>
      <trkpt lat="27.47112" lon="114.179758"><ele>1662</ele><time>2026-03-15T05:19:39Z</time></trkpt>
      <trkpt lat="27.470901" lon="114.179772"><ele>1663</ele><time>2026-03-15T05:20:01Z</time></trkpt>
      <trkpt lat="27.470821" lon="114.179712"><ele>1664</ele><time>2026-03-15T05:20:12Z</time></trkpt>
      <trkpt lat="27.470789" lon="114.179597"><ele>1662</ele><time>2026-03-15T05:20:23Z</time></trkpt>
      <trkpt lat="27.470862" lon="114.179385"><ele>1658</ele><time>2026-03-15T05:20:40Z</time></trkpt>
      <trkpt lat="27.470811" lon="114.179305"><ele>1659</ele><time>2026-03-15T05:20:48Z</time></trkpt>
      <trkpt lat="27.470641" lon="114.179336"><ele>1662</ele><time>2026-03-15T05:21:00Z</time></trkpt>
      <trkpt lat="27.470437" lon="114.179227"><ele>1658</ele><time>2026-03-15T05:21:27Z</time></trkpt>
      <trkpt lat="27.470331" lon="114.179366"><ele>1660</ele><time>2026-03-15T05:21:41Z</time></trkpt>
      <trkpt lat="27.470069" lon="114.179386"><ele>1656</ele><time>2026-03-15T05:22:07Z</time></trkpt>
      <trkpt lat="27.469942" lon="114.179598"><ele>1663</ele><time>2026-03-15T05:22:35Z</time></trkpt>
      <trkpt lat="27.469753" lon="114.179541"><ele>1667</ele><time>2026-03-15T05:23:03Z</time></trkpt>
      <trkpt lat="27.469488" lon="114.179289"><ele>1677</ele><time>2026-03-15T05:23:51Z</time></trkpt>
      <trkpt lat="27.46934" lon="114.179231"><ele>1678</ele><time>2026-03-15T05:24:06Z</time></trkpt>
      <trkpt lat="27.4691" lon="114.179251"><ele>1678</ele><time>2026-03-15T05:24:39Z</time></trkpt>
      <trkpt lat="27.468949" lon="114.179141"><ele>1670</ele><time>2026-03-15T05:25:11Z</time></trkpt>
      <trkpt lat="27.468706" lon="114.179151"><ele>1666</ele><time>2026-03-15T05:25:35Z</time></trkpt>
      <trkpt lat="27.468468" lon="114.179062"><ele>1664</ele><time>2026-03-15T05:25:57Z</time></trkpt>
      <trkpt lat="27.467827" lon="114.178528"><ele>1646</ele><time>2026-03-15T05:27:31Z</time></trkpt>
      <trkpt lat="27.467799" lon="114.178424"><ele>1645</ele><time>2026-03-15T05:27:50Z</time></trkpt>
      <trkpt lat="27.467847" lon="114.178285"><ele>1638</ele><time>2026-03-15T05:28:20Z</time></trkpt>
      <trkpt lat="27.467715" lon="114.177978"><ele>1634</ele><time>2026-03-15T05:28:49Z</time></trkpt>
      <trkpt lat="27.467561" lon="114.17791"><ele>1627</ele><time>2026-03-15T05:29:08Z</time></trkpt>
      <trkpt lat="27.467534" lon="114.177768"><ele>1622</ele><time>2026-03-15T05:29:21Z</time></trkpt>
      <trkpt lat="27.467466" lon="114.177764"><ele>1614</ele><time>2026-03-15T05:29:38Z</time></trkpt>
      <trkpt lat="27.46739" lon="114.177578"><ele>1616</ele><time>2026-03-15T05:30:08Z</time></trkpt>
      <trkpt lat="27.466802" lon="114.177033"><ele>1593</ele><time>2026-03-15T05:31:22Z</time></trkpt>
      <trkpt lat="27.46666" lon="114.176658"><ele>1589</ele><time>2026-03-15T05:31:52Z</time></trkpt>
      <trkpt lat="27.466387" lon="114.176346"><ele>1585</ele><time>2026-03-15T05:32:26Z</time></trkpt>
      <trkpt lat="27.466165" lon="114.176248"><ele>1586</ele><time>2026-03-15T05:32:46Z</time></trkpt>
      <trkpt lat="27.46616" lon="114.176088"><ele>1586</ele><time>2026-03-15T05:33:00Z</time></trkpt>
      <trkpt lat="27.46606" lon="114.176096"><ele>1585</ele><time>2026-03-15T05:33:23Z</time></trkpt>
      <trkpt lat="27.466111" lon="114.17605"><ele>1585</ele><time>2026-03-15T05:33:28Z</time></trkpt>
      <trkpt lat="27.466141" lon="114.176119"><ele>1583</ele><time>2026-03-15T05:34:00Z</time></trkpt>
      <trkpt lat="27.466143" lon="114.176071"><ele>1583</ele><time>2026-03-15T05:34:03Z</time></trkpt>
      <trkpt lat="27.466203" lon="114.176109"><ele>1583</ele><time>2026-03-15T05:34:12Z</time></trkpt>
      <trkpt lat="27.466126" lon="114.176132"><ele>1574</ele><time>2026-03-15T05:34:34Z</time></trkpt>
      <trkpt lat="27.466178" lon="114.17613"><ele>1569</ele><time>2026-03-15T05:34:38Z</time></trkpt>
      <trkpt lat="27.466089" lon="114.176049"><ele>1562</ele><time>2026-03-15T05:35:08Z</time></trkpt>
      <trkpt lat="27.465915" lon="114.17599"><ele>1565</ele><time>2026-03-15T05:35:47Z</time></trkpt>
      <trkpt lat="27.466018" lon="114.175968"><ele>1565</ele><time>2026-03-15T05:35:55Z</time></trkpt>
      <trkpt lat="27.466084" lon="114.176165"><ele>1583</ele><time>2026-03-15T05:36:47Z</time></trkpt>
      <trkpt lat="27.466116" lon="114.176122"><ele>1580</ele><time>2026-03-15T05:37:01Z</time></trkpt>
      <trkpt lat="27.466151" lon="114.1762"><ele>1586</ele><time>2026-03-15T05:37:14Z</time></trkpt>
      <trkpt lat="27.466112" lon="114.17615"><ele>1583</ele><time>2026-03-15T05:37:24Z</time></trkpt>
      <trkpt lat="27.466197" lon="114.176161"><ele>1580</ele><time>2026-03-15T05:37:31Z</time></trkpt>
      <trkpt lat="27.466022" lon="114.176084"><ele>1580</ele><time>2026-03-15T05:37:41Z</time></trkpt>
      <trkpt lat="27.466232" lon="114.176092"><ele>1584</ele><time>2026-03-15T05:50:08Z</time></trkpt>
      <trkpt lat="27.466155" lon="114.176091"><ele>1581</ele><time>2026-03-15T05:50:44Z</time></trkpt>
      <trkpt lat="27.466286" lon="114.175873"><ele>1584</ele><time>2026-03-15T05:51:27Z</time></trkpt>
      <trkpt lat="27.466361" lon="114.175558"><ele>1584</ele><time>2026-03-15T05:51:56Z</time></trkpt>
      <trkpt lat="27.466573" lon="114.175349"><ele>1576</ele><time>2026-03-15T05:52:42Z</time></trkpt>
      <trkpt lat="27.46647" lon="114.175123"><ele>1564</ele><time>2026-03-15T05:53:34Z</time></trkpt>
      <trkpt lat="27.466622" lon="114.175016"><ele>1548</ele><time>2026-03-15T05:54:11Z</time></trkpt>
      <trkpt lat="27.466514" lon="114.174905"><ele>1541</ele><time>2026-03-15T05:54:31Z</time></trkpt>
      <trkpt lat="27.466448" lon="114.17448"><ele>1530</ele><time>2026-03-15T05:55:40Z</time></trkpt>
      <trkpt lat="27.466244" lon="114.174155"><ele>1496</ele><time>2026-03-15T05:56:55Z</time></trkpt>
      <trkpt lat="27.466246" lon="114.173996"><ele>1481</ele><time>2026-03-15T05:57:19Z</time></trkpt>
      <trkpt lat="27.466161" lon="114.173948"><ele>1474</ele><time>2026-03-15T05:57:31Z</time></trkpt>
      <trkpt lat="27.466214" lon="114.17376"><ele>1466</ele><time>2026-03-15T05:58:08Z</time></trkpt>
      <trkpt lat="27.46592" lon="114.173191"><ele>1430</ele><time>2026-03-15T05:59:45Z</time></trkpt>
      <trkpt lat="27.465835" lon="114.172865"><ele>1412</ele><time>2026-03-15T06:00:36Z</time></trkpt>
      <trkpt lat="27.465867" lon="114.172758"><ele>1405</ele><time>2026-03-15T06:00:51Z</time></trkpt>
      <trkpt lat="27.465635" lon="114.172456"><ele>1410</ele><time>2026-03-15T06:01:29Z</time></trkpt>
      <trkpt lat="27.465543" lon="114.172074"><ele>1406</ele><time>2026-03-15T06:02:05Z</time></trkpt>
      <trkpt lat="27.465338" lon="114.171852"><ele>1419</ele><time>2026-03-15T06:02:30Z</time></trkpt>
      <trkpt lat="27.465085" lon="114.171747"><ele>1409</ele><time>2026-03-15T06:02:49Z</time></trkpt>
      <trkpt lat="27.464873" lon="114.171482"><ele>1406</ele><time>2026-03-15T06:03:13Z</time></trkpt>
      <trkpt lat="27.464487" lon="114.171315"><ele>1412</ele><time>2026-03-15T06:03:45Z</time></trkpt>
      <trkpt lat="27.464317" lon="114.171394"><ele>1407</ele><time>2026-03-15T06:03:59Z</time></trkpt>
      <trkpt lat="27.463999" lon="114.171323"><ele>1405</ele><time>2026-03-15T06:04:23Z</time></trkpt>
      <trkpt lat="27.463895" lon="114.171103"><ele>1404</ele><time>2026-03-15T06:04:37Z</time></trkpt>
      <trkpt lat="27.463581" lon="114.171081"><ele>1392</ele><time>2026-03-15T06:05:06Z</time></trkpt>
      <trkpt lat="27.463526" lon="114.170968"><ele>1392</ele><time>2026-03-15T06:05:13Z</time></trkpt>
      <trkpt lat="27.463548" lon="114.17077"><ele>1393</ele><time>2026-03-15T06:05:26Z</time></trkpt>
      <trkpt lat="27.46324" lon="114.170592"><ele>1377</ele><time>2026-03-15T06:06:04Z</time></trkpt>
      <trkpt lat="27.463077" lon="114.17033"><ele>1369</ele><time>2026-03-15T06:06:24Z</time></trkpt>
      <trkpt lat="27.463138" lon="114.169894"><ele>1366</ele><time>2026-03-15T06:06:55Z</time></trkpt>
      <trkpt lat="27.462987" lon="114.169957"><ele>1368</ele><time>2026-03-15T06:07:06Z</time></trkpt>
      <trkpt lat="27.462796" lon="114.16989"><ele>1366</ele><time>2026-03-15T06:07:21Z</time></trkpt>
      <trkpt lat="27.46262" lon="114.169989"><ele>1369</ele><time>2026-03-15T06:07:35Z</time></trkpt>
      <trkpt lat="27.462478" lon="114.169967"><ele>1367</ele><time>2026-03-15T06:07:46Z</time></trkpt>
      <trkpt lat="27.462387" lon="114.16974"><ele>1357</ele><time>2026-03-15T06:08:10Z</time></trkpt>
      <trkpt lat="27.46227" lon="114.169664"><ele>1354</ele><time>2026-03-15T06:08:22Z</time></trkpt>
      <trkpt lat="27.462096" lon="114.169376"><ele>1351</ele><time>2026-03-15T06:08:40Z</time></trkpt>
      <trkpt lat="27.462149" lon="114.169131"><ele>1356</ele><time>2026-03-15T06:08:56Z</time></trkpt>
      <trkpt lat="27.462267" lon="114.16895"><ele>1355</ele><time>2026-03-15T06:09:11Z</time></trkpt>
      <trkpt lat="27.462259" lon="114.168839"><ele>1354</ele><time>2026-03-15T06:09:18Z</time></trkpt>
      <trkpt lat="27.461918" lon="114.168433"><ele>1349</ele><time>2026-03-15T06:09:59Z</time></trkpt>
      <trkpt lat="27.461942" lon="114.168149"><ele>1353</ele><time>2026-03-15T06:10:20Z</time></trkpt>
      <trkpt lat="27.462392" lon="114.167679"><ele>1354</ele><time>2026-03-15T06:11:12Z</time></trkpt>
      <trkpt lat="27.462246" lon="114.167045"><ele>1342</ele><time>2026-03-15T06:12:16Z</time></trkpt>
      <trkpt lat="27.462214" lon="114.167003"><ele>1340</ele><time>2026-03-15T06:12:22Z</time></trkpt>
      <trkpt lat="27.462083" lon="114.167067"><ele>1340</ele><time>2026-03-15T06:12:40Z</time></trkpt>
      <trkpt lat="27.461957" lon="114.166955"><ele>1341</ele><time>2026-03-15T06:12:55Z</time></trkpt>
      <trkpt lat="27.461906" lon="114.166797"><ele>1344</ele><time>2026-03-15T06:13:30Z</time></trkpt>
      <trkpt lat="27.461611" lon="114.166633"><ele>1341</ele><time>2026-03-15T06:14:19Z</time></trkpt>
      <trkpt lat="27.461464" lon="114.166795"><ele>1339</ele><time>2026-03-15T06:14:53Z</time></trkpt>
      <trkpt lat="27.461504" lon="114.166936"><ele>1339</ele><time>2026-03-15T06:14:56Z</time></trkpt>
      <trkpt lat="27.461416" lon="114.166956"><ele>1338</ele><time>2026-03-15T06:15:04Z</time></trkpt>
      <trkpt lat="27.461353" lon="114.166734"><ele>1337</ele><time>2026-03-15T06:15:10Z</time></trkpt>
      <trkpt lat="27.461213" lon="114.166634"><ele>1337</ele><time>2026-03-15T06:15:25Z</time></trkpt>
      <trkpt lat="27.461302" lon="114.166707"><ele>1334</ele><time>2026-03-15T06:15:30Z</time></trkpt>
      <trkpt lat="27.461395" lon="114.166671"><ele>1343</ele><time>2026-03-15T06:16:44Z</time></trkpt>
      <trkpt lat="27.461205" lon="114.166502"><ele>1341</ele><time>2026-03-15T06:16:56Z</time></trkpt>
    </trkseg>
  </trk>
</gpx>
