<?xml version="1.0" encoding="UTF-8"?>
<gpx version="1.1" creator="MyWorld" xmlns="http://www.topografix.com/GPX/1/1">
  <metadata><name>忻州五台山逆朝</name></metadata>
  <trk>
    <name>忻州五台山逆朝</name>
    <trkseg>
      <trkpt lat="39.056016" lon="113.659552"><ele>2515</ele><time>2026-06-26T22:09:11Z</time></trkpt>
      <trkpt lat="39.056019" lon="113.659629"><ele>2506</ele><time>2026-06-26T22:09:35Z</time></trkpt>
      <trkpt lat="39.056119" lon="113.659486"><ele>2506</ele><time>2026-06-26T22:10:40Z</time></trkpt>
      <trkpt lat="39.056227" lon="113.659244"><ele>2507</ele><time>2026-06-26T22:10:58Z</time></trkpt>
      <trkpt lat="39.056508" lon="113.657447"><ele>2515</ele><time>2026-06-26T22:12:53Z</time></trkpt>
      <trkpt lat="39.05632" lon="113.656874"><ele>2522</ele><time>2026-06-26T22:14:34Z</time></trkpt>
      <trkpt lat="39.055939" lon="113.65632"><ele>2526</ele><time>2026-06-26T22:15:22Z</time></trkpt>
      <trkpt lat="39.055626" lon="113.656372"><ele>2529</ele><time>2026-06-26T22:15:58Z</time></trkpt>
      <trkpt lat="39.054927" lon="113.656964"><ele>2543</ele><time>2026-06-26T22:17:15Z</time></trkpt>
      <trkpt lat="39.054551" lon="113.657513"><ele>2547</ele><time>2026-06-26T22:18:09Z</time></trkpt>
      <trkpt lat="39.053228" lon="113.65832"><ele>2555</ele><time>2026-06-26T22:20:10Z</time></trkpt>
      <trkpt lat="39.052493" lon="113.658264"><ele>2567</ele><time>2026-06-26T22:21:59Z</time></trkpt>
      <trkpt lat="39.05176" lon="113.658366"><ele>2580</ele><time>2026-06-26T22:23:19Z</time></trkpt>
      <trkpt lat="39.05097" lon="113.658294"><ele>2594</ele><time>2026-06-26T22:24:54Z</time></trkpt>
      <trkpt lat="39.050165" lon="113.658511"><ele>2611</ele><time>2026-06-26T22:26:40Z</time></trkpt>
      <trkpt lat="39.048395" lon="113.658671"><ele>2650</ele><time>2026-06-26T22:30:51Z</time></trkpt>
      <trkpt lat="39.047477" lon="113.658575"><ele>2667</ele><time>2026-06-26T22:32:51Z</time></trkpt>
      <trkpt lat="39.046909" lon="113.658583"><ele>2680</ele><time>2026-06-26T22:34:28Z</time></trkpt>
      <trkpt lat="39.046775" lon="113.658658"><ele>2684</ele><time>2026-06-26T22:35:04Z</time></trkpt>
      <trkpt lat="39.046063" lon="113.658618"><ele>2703</ele><time>2026-06-26T22:37:00Z</time></trkpt>
      <trkpt lat="39.045781" lon="113.658714"><ele>2708</ele><time>2026-06-26T22:37:42Z</time></trkpt>
      <trkpt lat="39.044875" lon="113.659233"><ele>2727</ele><time>2026-06-26T22:40:31Z</time></trkpt>
      <trkpt lat="39.044026" lon="113.659842"><ele>2746</ele><time>2026-06-26T22:42:36Z</time></trkpt>
      <trkpt lat="39.043377" lon="113.660025"><ele>2754</ele><time>2026-06-26T22:43:48Z</time></trkpt>
      <trkpt lat="39.04277" lon="113.660291"><ele>2769</ele><time>2026-06-26T22:45:29Z</time></trkpt>
      <trkpt lat="39.042922" lon="113.660416"><ele>2769</ele><time>2026-06-26T22:46:19Z</time></trkpt>
      <trkpt lat="39.042903" lon="113.660338"><ele>2769</ele><time>2026-06-26T22:46:23Z</time></trkpt>
      <trkpt lat="39.042953" lon="113.66029"><ele>2767</ele><time>2026-06-26T22:46:43Z</time></trkpt>
      <trkpt lat="39.042934" lon="113.660391"><ele>2767</ele><time>2026-06-26T22:48:23Z</time></trkpt>
      <trkpt lat="39.04324" lon="113.660467"><ele>2765</ele><time>2026-06-26T22:49:01Z</time></trkpt>
      <trkpt lat="39.045222" lon="113.660152"><ele>2746</ele><time>2026-06-26T22:52:51Z</time></trkpt>
      <trkpt lat="39.046388" lon="113.660031"><ele>2730</ele><time>2026-06-26T22:54:29Z</time></trkpt>
      <trkpt lat="39.046813" lon="113.660101"><ele>2725</ele><time>2026-06-26T22:55:05Z</time></trkpt>
      <trkpt lat="39.046851" lon="113.660046"><ele>2726</ele><time>2026-06-26T22:55:26Z</time></trkpt>
      <trkpt lat="39.047203" lon="113.66068"><ele>2718</ele><time>2026-06-26T22:56:51Z</time></trkpt>
      <trkpt lat="39.047284" lon="113.661044"><ele>2715</ele><time>2026-06-26T22:57:15Z</time></trkpt>
      <trkpt lat="39.047389" lon="113.661112"><ele>2713</ele><time>2026-06-26T22:57:26Z</time></trkpt>
      <trkpt lat="39.047451" lon="113.661039"><ele>2711</ele><time>2026-06-26T22:57:33Z</time></trkpt>
      <trkpt lat="39.047519" lon="113.660699"><ele>2708</ele><time>2026-06-26T22:57:54Z</time></trkpt>
      <trkpt lat="39.047507" lon="113.660051"><ele>2707</ele><time>2026-06-26T22:58:36Z</time></trkpt>
      <trkpt lat="39.047303" lon="113.659573"><ele>2706</ele><time>2026-06-26T22:59:09Z</time></trkpt>
      <trkpt lat="39.046959" lon="113.659134"><ele>2698</ele><time>2026-06-26T22:59:50Z</time></trkpt>
      <trkpt lat="39.04701" lon="113.659075"><ele>2696</ele><time>2026-06-26T22:59:55Z</time></trkpt>
      <trkpt lat="39.047623" lon="113.659361"><ele>2691</ele><time>2026-06-26T23:00:49Z</time></trkpt>
      <trkpt lat="39.047799" lon="113.659354"><ele>2685</ele><time>2026-06-26T23:01:25Z</time></trkpt>
      <trkpt lat="39.048533" lon="113.65913"><ele>2661</ele><time>2026-06-26T23:03:24Z</time></trkpt>
      <trkpt lat="39.048769" lon="113.658908"><ele>2653</ele><time>2026-06-26T23:04:06Z</time></trkpt>
      <trkpt lat="39.049058" lon="113.658761"><ele>2643</ele><time>2026-06-26T23:04:47Z</time></trkpt>
      <trkpt lat="39.049854" lon="113.658689"><ele>2625</ele><time>2026-06-26T23:06:09Z</time></trkpt>
      <trkpt lat="39.05007" lon="113.658572"><ele>2618</ele><time>2026-06-26T23:06:38Z</time></trkpt>
      <trkpt lat="39.051045" lon="113.658326"><ele>2600</ele><time>2026-06-26T23:08:09Z</time></trkpt>
      <trkpt lat="39.051991" lon="113.658382"><ele>2580</ele><time>2026-06-26T23:09:44Z</time></trkpt>
      <trkpt lat="39.052658" lon="113.658283"><ele>2568</ele><time>2026-06-26T23:10:50Z</time></trkpt>
      <trkpt lat="39.053108" lon="113.658373"><ele>2561</ele><time>2026-06-26T23:11:35Z</time></trkpt>
      <trkpt lat="39.054351" lon="113.657697"><ele>2549</ele><time>2026-06-26T23:14:08Z</time></trkpt>
      <trkpt lat="39.05462" lon="113.657485"><ele>2548</ele><time>2026-06-26T23:14:32Z</time></trkpt>
      <trkpt lat="39.054992" lon="113.656992"><ele>2545</ele><time>2026-06-26T23:15:14Z</time></trkpt>
      <trkpt lat="39.05583" lon="113.656248"><ele>2532</ele><time>2026-06-26T23:16:37Z</time></trkpt>
      <trkpt lat="39.055884" lon="113.655959"><ele>2531</ele><time>2026-06-26T23:16:58Z</time></trkpt>
      <trkpt lat="39.056047" lon="113.655871"><ele>2527</ele><time>2026-06-26T23:17:19Z</time></trkpt>
      <trkpt lat="39.056122" lon="113.655399"><ele>2535</ele><time>2026-06-26T23:18:07Z</time></trkpt>
      <trkpt lat="39.056247" lon="113.655226"><ele>2542</ele><time>2026-06-26T23:18:34Z</time></trkpt>
      <trkpt lat="39.056322" lon="113.654855"><ele>2545</ele><time>2026-06-26T23:22:47Z</time></trkpt>
      <trkpt lat="39.056451" lon="113.653825"><ele>2542</ele><time>2026-06-26T23:23:59Z</time></trkpt>
      <trkpt lat="39.056991" lon="113.652986"><ele>2537</ele><time>2026-06-26T23:25:07Z</time></trkpt>
      <trkpt lat="39.057346" lon="113.651899"><ele>2540</ele><time>2026-06-26T23:26:22Z</time></trkpt>
      <trkpt lat="39.057957" lon="113.650386"><ele>2547</ele><time>2026-06-26T23:28:25Z</time></trkpt>
      <trkpt lat="39.058043" lon="113.64958"><ele>2562</ele><time>2026-06-26T23:29:52Z</time></trkpt>
      <trkpt lat="39.058225" lon="113.648978"><ele>2570</ele><time>2026-06-26T23:30:49Z</time></trkpt>
      <trkpt lat="39.058266" lon="113.648475"><ele>2577</ele><time>2026-06-26T23:31:34Z</time></trkpt>
      <trkpt lat="39.05875" lon="113.647083"><ele>2594</ele><time>2026-06-26T23:33:54Z</time></trkpt>
      <trkpt lat="39.059353" lon="113.645972"><ele>2601</ele><time>2026-06-26T23:35:47Z</time></trkpt>
      <trkpt lat="39.060041" lon="113.644108"><ele>2599</ele><time>2026-06-26T23:37:52Z</time></trkpt>
      <trkpt lat="39.060431" lon="113.643513"><ele>2597</ele><time>2026-06-26T23:38:40Z</time></trkpt>
      <trkpt lat="39.060514" lon="113.642994"><ele>2594</ele><time>2026-06-26T23:39:13Z</time></trkpt>
      <trkpt lat="39.060926" lon="113.641478"><ele>2587</ele><time>2026-06-26T23:40:57Z</time></trkpt>
      <trkpt lat="39.061267" lon="113.640916"><ele>2586</ele><time>2026-06-26T23:41:45Z</time></trkpt>
      <trkpt lat="39.061568" lon="113.639992"><ele>2586</ele><time>2026-06-26T23:42:56Z</time></trkpt>
      <trkpt lat="39.06157" lon="113.639573"><ele>2588</ele><time>2026-06-26T23:43:26Z</time></trkpt>
      <trkpt lat="39.061868" lon="113.638408"><ele>2600</ele><time>2026-06-26T23:47:24Z</time></trkpt>
      <trkpt lat="39.061926" lon="113.637594"><ele>2604</ele><time>2026-06-26T23:48:39Z</time></trkpt>
      <trkpt lat="39.061527" lon="113.636239"><ele>2612</ele><time>2026-06-26T23:50:18Z</time></trkpt>
      <trkpt lat="39.061526" lon="113.635136"><ele>2617</ele><time>2026-06-26T23:51:27Z</time></trkpt>
      <trkpt lat="39.061669" lon="113.63453"><ele>2621</ele><time>2026-06-26T23:52:07Z</time></trkpt>
      <trkpt lat="39.062205" lon="113.633543"><ele>2622</ele><time>2026-06-26T23:53:15Z</time></trkpt>
      <trkpt lat="39.062395" lon="113.633068"><ele>2620</ele><time>2026-06-26T23:53:45Z</time></trkpt>
      <trkpt lat="39.062557" lon="113.63222"><ele>2619</ele><time>2026-06-26T23:54:34Z</time></trkpt>
      <trkpt lat="39.062682" lon="113.630956"><ele>2618</ele><time>2026-06-26T23:55:49Z</time></trkpt>
      <trkpt lat="39.062919" lon="113.630059"><ele>2616</ele><time>2026-06-26T23:56:42Z</time></trkpt>
      <trkpt lat="39.063038" lon="113.628861"><ele>2614</ele><time>2026-06-26T23:57:51Z</time></trkpt>
      <trkpt lat="39.062899" lon="113.626901"><ele>2605</ele><time>2026-06-26T23:59:44Z</time></trkpt>
      <trkpt lat="39.06246" lon="113.626508"><ele>2604</ele><time>2026-06-27T00:00:29Z</time></trkpt>
      <trkpt lat="39.061235" lon="113.625122"><ele>2606</ele><time>2026-06-27T00:02:40Z</time></trkpt>
      <trkpt lat="39.06107" lon="113.624443"><ele>2607</ele><time>2026-06-27T00:03:25Z</time></trkpt>
      <trkpt lat="39.0607" lon="113.623682"><ele>2604</ele><time>2026-06-27T00:04:22Z</time></trkpt>
      <trkpt lat="39.060465" lon="113.622985"><ele>2599</ele><time>2026-06-27T00:05:10Z</time></trkpt>
      <trkpt lat="39.060333" lon="113.6219"><ele>2594</ele><time>2026-06-27T00:06:22Z</time></trkpt>
      <trkpt lat="39.06024" lon="113.620412"><ele>2588</ele><time>2026-06-27T00:07:52Z</time></trkpt>
      <trkpt lat="39.060265" lon="113.619151"><ele>2579</ele><time>2026-06-27T00:09:12Z</time></trkpt>
      <trkpt lat="39.06041" lon="113.617566"><ele>2573</ele><time>2026-06-27T00:10:45Z</time></trkpt>
      <trkpt lat="39.060838" lon="113.615254"><ele>2571</ele><time>2026-06-27T00:13:07Z</time></trkpt>
      <trkpt lat="39.061027" lon="113.614779"><ele>2568</ele><time>2026-06-27T00:13:39Z</time></trkpt>
      <trkpt lat="39.061779" lon="113.613554"><ele>2564</ele><time>2026-06-27T00:15:52Z</time></trkpt>
      <trkpt lat="39.062434" lon="113.612765"><ele>2573</ele><time>2026-06-27T00:17:18Z</time></trkpt>
      <trkpt lat="39.06318" lon="113.612144"><ele>2581</ele><time>2026-06-27T00:18:51Z</time></trkpt>
      <trkpt lat="39.064343" lon="113.610455"><ele>2597</ele><time>2026-06-27T00:21:46Z</time></trkpt>
      <trkpt lat="39.064752" lon="113.610138"><ele>2601</ele><time>2026-06-27T00:22:34Z</time></trkpt>
      <trkpt lat="39.065436" lon="113.609885"><ele>2607</ele><time>2026-06-27T00:23:43Z</time></trkpt>
      <trkpt lat="39.065672" lon="113.609636"><ele>2606</ele><time>2026-06-27T00:24:07Z</time></trkpt>
      <trkpt lat="39.065786" lon="113.609007"><ele>2606</ele><time>2026-06-27T00:25:00Z</time></trkpt>
      <trkpt lat="39.065916" lon="113.607373"><ele>2600</ele><time>2026-06-27T00:26:40Z</time></trkpt>
      <trkpt lat="39.066105" lon="113.606638"><ele>2598</ele><time>2026-06-27T00:27:21Z</time></trkpt>
      <trkpt lat="39.066259" lon="113.605695"><ele>2599</ele><time>2026-06-27T00:28:23Z</time></trkpt>
      <trkpt lat="39.066627" lon="113.604614"><ele>2603</ele><time>2026-06-27T00:29:35Z</time></trkpt>
      <trkpt lat="39.066687" lon="113.604181"><ele>2602</ele><time>2026-06-27T00:30:03Z</time></trkpt>
      <trkpt lat="39.066692" lon="113.603104"><ele>2601</ele><time>2026-06-27T00:31:08Z</time></trkpt>
      <trkpt lat="39.066796" lon="113.602274"><ele>2604</ele><time>2026-06-27T00:32:03Z</time></trkpt>
      <trkpt lat="39.066957" lon="113.601268"><ele>2605</ele><time>2026-06-27T00:33:08Z</time></trkpt>
      <trkpt lat="39.067442" lon="113.599071"><ele>2617</ele><time>2026-06-27T00:35:41Z</time></trkpt>
      <trkpt lat="39.06745" lon="113.597914"><ele>2619</ele><time>2026-06-27T00:36:57Z</time></trkpt>
      <trkpt lat="39.067229" lon="113.596683"><ele>2628</ele><time>2026-06-27T00:38:32Z</time></trkpt>
      <trkpt lat="39.067344" lon="113.596075"><ele>2633</ele><time>2026-06-27T00:39:20Z</time></trkpt>
      <trkpt lat="39.067242" lon="113.595536"><ele>2638</ele><time>2026-06-27T00:40:02Z</time></trkpt>
      <trkpt lat="39.067336" lon="113.594845"><ele>2643</ele><time>2026-06-27T00:40:53Z</time></trkpt>
      <trkpt lat="39.067634" lon="113.594348"><ele>2649</ele><time>2026-06-27T00:41:44Z</time></trkpt>
      <trkpt lat="39.06767" lon="113.593889"><ele>2651</ele><time>2026-06-27T00:42:16Z</time></trkpt>
      <trkpt lat="39.067758" lon="113.593587"><ele>2651</ele><time>2026-06-27T00:42:40Z</time></trkpt>
      <trkpt lat="39.068049" lon="113.592706"><ele>2656</ele><time>2026-06-27T00:43:52Z</time></trkpt>
      <trkpt lat="39.068562" lon="113.591513"><ele>2670</ele><time>2026-06-27T00:45:58Z</time></trkpt>
      <trkpt lat="39.069005" lon="113.590931"><ele>2678</ele><time>2026-06-27T00:47:22Z</time></trkpt>
      <trkpt lat="39.069986" lon="113.589847"><ele>2692</ele><time>2026-06-27T00:49:51Z</time></trkpt>
      <trkpt lat="39.070803" lon="113.588345"><ele>2710</ele><time>2026-06-27T00:52:46Z</time></trkpt>
      <trkpt lat="39.071257" lon="113.586627"><ele>2730</ele><time>2026-06-27T00:55:37Z</time></trkpt>
      <trkpt lat="39.071568" lon="113.585937"><ele>2748</ele><time>2026-06-27T00:57:57Z</time></trkpt>
      <trkpt lat="39.071733" lon="113.585383"><ele>2759</ele><time>2026-06-27T01:00:05Z</time></trkpt>
      <trkpt lat="39.07185" lon="113.585295"><ele>2766</ele><time>2026-06-27T01:00:35Z</time></trkpt>
      <trkpt lat="39.071942" lon="113.584846"><ele>2776</ele><time>2026-06-27T01:01:50Z</time></trkpt>
      <trkpt lat="39.072097" lon="113.584676"><ele>2780</ele><time>2026-06-27T01:02:38Z</time></trkpt>
      <trkpt lat="39.072302" lon="113.584704"><ele>2789</ele><time>2026-06-27T01:03:17Z</time></trkpt>
      <trkpt lat="39.072528" lon="113.584415"><ele>2794</ele><time>2026-06-27T01:04:28Z</time></trkpt>
      <trkpt lat="39.072639" lon="113.584209"><ele>2803</ele><time>2026-06-27T01:05:01Z</time></trkpt>
      <trkpt lat="39.072902" lon="113.583098"><ele>2821</ele><time>2026-06-27T01:08:09Z</time></trkpt>
      <trkpt lat="39.073291" lon="113.58252"><ele>2840</ele><time>2026-06-27T01:10:22Z</time></trkpt>
      <trkpt lat="39.073323" lon="113.582376"><ele>2843</ele><time>2026-06-27T01:10:43Z</time></trkpt>
      <trkpt lat="39.073703" lon="113.582017"><ele>2855</ele><time>2026-06-27T01:12:39Z</time></trkpt>
      <trkpt lat="39.073897" lon="113.581697"><ele>2867</ele><time>2026-06-27T01:13:45Z</time></trkpt>
      <trkpt lat="39.074227" lon="113.581477"><ele>2873</ele><time>2026-06-27T01:17:50Z</time></trkpt>
      <trkpt lat="39.074478" lon="113.581126"><ele>2874</ele><time>2026-06-27T01:18:26Z</time></trkpt>
      <trkpt lat="39.074617" lon="113.580608"><ele>2878</ele><time>2026-06-27T01:19:17Z</time></trkpt>
      <trkpt lat="39.074518" lon="113.580105"><ele>2881</ele><time>2026-06-27T01:20:08Z</time></trkpt>
      <trkpt lat="39.074566" lon="113.579416"><ele>2880</ele><time>2026-06-27T01:20:59Z</time></trkpt>
      <trkpt lat="39.075632" lon="113.577581"><ele>2899</ele><time>2026-06-27T01:24:26Z</time></trkpt>
      <trkpt lat="39.076111" lon="113.576332"><ele>2916</ele><time>2026-06-27T01:26:50Z</time></trkpt>
      <trkpt lat="39.077356" lon="113.574523"><ele>2950</ele><time>2026-06-27T01:31:17Z</time></trkpt>
      <trkpt lat="39.077986" lon="113.574203"><ele>2959</ele><time>2026-06-27T01:32:51Z</time></trkpt>
      <trkpt lat="39.078308" lon="113.573883"><ele>2968</ele><time>2026-06-27T01:33:38Z</time></trkpt>
      <trkpt lat="39.079062" lon="113.572636"><ele>2985</ele><time>2026-06-27T01:35:50Z</time></trkpt>
      <trkpt lat="39.07925" lon="113.572025"><ele>2989</ele><time>2026-06-27T01:36:50Z</time></trkpt>
      <trkpt lat="39.079349" lon="113.571875"><ele>2993</ele><time>2026-06-27T01:37:11Z</time></trkpt>
      <trkpt lat="39.079327" lon="113.571646"><ele>2993</ele><time>2026-06-27T01:37:46Z</time></trkpt>
      <trkpt lat="39.079492" lon="113.571133"><ele>3009</ele><time>2026-06-27T01:39:37Z</time></trkpt>
      <trkpt lat="39.07963" lon="113.571019"><ele>3016</ele><time>2026-06-27T01:40:22Z</time></trkpt>
      <trkpt lat="39.079694" lon="113.570044"><ele>3034</ele><time>2026-06-27T01:42:31Z</time></trkpt>
      <trkpt lat="39.079823" lon="113.569388"><ele>3044</ele><time>2026-06-27T01:43:54Z</time></trkpt>
      <trkpt lat="39.079667" lon="113.568714"><ele>3051</ele><time>2026-06-27T01:45:06Z</time></trkpt>
      <trkpt lat="39.079695" lon="113.568325"><ele>3059</ele><time>2026-06-27T01:50:47Z</time></trkpt>
      <trkpt lat="39.079666" lon="113.568629"><ele>3057</ele><time>2026-06-27T02:01:19Z</time></trkpt>
      <trkpt lat="39.079564" lon="113.568008"><ele>3059</ele><time>2026-06-27T02:02:13Z</time></trkpt>
      <trkpt lat="39.079294" lon="113.567166"><ele>3057</ele><time>2026-06-27T02:03:22Z</time></trkpt>
      <trkpt lat="39.079269" lon="113.566458"><ele>3053</ele><time>2026-06-27T02:04:19Z</time></trkpt>
      <trkpt lat="39.079296" lon="113.566058"><ele>3048</ele><time>2026-06-27T02:04:46Z</time></trkpt>
      <trkpt lat="39.079732" lon="113.564439"><ele>3033</ele><time>2026-06-27T02:06:34Z</time></trkpt>
      <trkpt lat="39.079602" lon="113.564239"><ele>3031</ele><time>2026-06-27T02:06:52Z</time></trkpt>
      <trkpt lat="39.079359" lon="113.564452"><ele>3023</ele><time>2026-06-27T02:07:16Z</time></trkpt>
      <trkpt lat="39.0792" lon="113.564413"><ele>3021</ele><time>2026-06-27T02:07:31Z</time></trkpt>
      <trkpt lat="39.078312" lon="113.563336"><ele>3003</ele><time>2026-06-27T02:09:36Z</time></trkpt>
      <trkpt lat="39.078076" lon="113.56267"><ele>2999</ele><time>2026-06-27T02:10:24Z</time></trkpt>
      <trkpt lat="39.077879" lon="113.561119"><ele>2993</ele><time>2026-06-27T02:11:56Z</time></trkpt>
      <trkpt lat="39.077534" lon="113.56139"><ele>2975</ele><time>2026-06-27T02:12:28Z</time></trkpt>
      <trkpt lat="39.077233" lon="113.561951"><ele>2970</ele><time>2026-06-27T02:13:10Z</time></trkpt>
      <trkpt lat="39.077076" lon="113.562638"><ele>2961</ele><time>2026-06-27T02:13:57Z</time></trkpt>
      <trkpt lat="39.077045" lon="113.563245"><ele>2957</ele><time>2026-06-27T02:14:35Z</time></trkpt>
      <trkpt lat="39.076667" lon="113.562953"><ele>2953</ele><time>2026-06-27T02:15:13Z</time></trkpt>
      <trkpt lat="39.076389" lon="113.562938"><ele>2943</ele><time>2026-06-27T02:15:49Z</time></trkpt>
      <trkpt lat="39.075544" lon="113.562545"><ele>2920</ele><time>2026-06-27T02:17:34Z</time></trkpt>
      <trkpt lat="39.075349" lon="113.562216"><ele>2916</ele><time>2026-06-27T02:18:04Z</time></trkpt>
      <trkpt lat="39.075333" lon="113.562043"><ele>2912</ele><time>2026-06-27T02:18:19Z</time></trkpt>
      <trkpt lat="39.075079" lon="113.561886"><ele>2907</ele><time>2026-06-27T02:18:49Z</time></trkpt>
      <trkpt lat="39.074671" lon="113.561455"><ele>2895</ele><time>2026-06-27T02:19:48Z</time></trkpt>
      <trkpt lat="39.0744" lon="113.561374"><ele>2889</ele><time>2026-06-27T02:20:21Z</time></trkpt>
      <trkpt lat="39.074202" lon="113.561226"><ele>2885</ele><time>2026-06-27T02:20:42Z</time></trkpt>
      <trkpt lat="39.073726" lon="113.560664"><ele>2872</ele><time>2026-06-27T02:21:38Z</time></trkpt>
      <trkpt lat="39.073371" lon="113.560403"><ele>2866</ele><time>2026-06-27T02:22:11Z</time></trkpt>
      <trkpt lat="39.072962" lon="113.559777"><ele>2860</ele><time>2026-06-27T02:23:06Z</time></trkpt>
      <trkpt lat="39.071772" lon="113.558336"><ele>2848</ele><time>2026-06-27T02:25:24Z</time></trkpt>
      <trkpt lat="39.070484" lon="113.557148"><ele>2833</ele><time>2026-06-27T02:28:08Z</time></trkpt>
      <trkpt lat="39.069114" lon="113.555509"><ele>2823</ele><time>2026-06-27T02:30:38Z</time></trkpt>
      <trkpt lat="39.068421" lon="113.554861"><ele>2820</ele><time>2026-06-27T02:31:46Z</time></trkpt>
      <trkpt lat="39.067664" lon="113.553808"><ele>2817</ele><time>2026-06-27T02:33:16Z</time></trkpt>
      <trkpt lat="39.066201" lon="113.552708"><ele>2803</ele><time>2026-06-27T02:35:41Z</time></trkpt>
      <trkpt lat="39.06572" lon="113.552045"><ele>2796</ele><time>2026-06-27T02:36:55Z</time></trkpt>
      <trkpt lat="39.065528" lon="113.551956"><ele>2789</ele><time>2026-06-27T02:37:22Z</time></trkpt>
      <trkpt lat="39.065001" lon="113.550719"><ele>2788</ele><time>2026-06-27T02:39:01Z</time></trkpt>
      <trkpt lat="39.064662" lon="113.550389"><ele>2784</ele><time>2026-06-27T02:39:37Z</time></trkpt>
      <trkpt lat="39.06413" lon="113.549696"><ele>2784</ele><time>2026-06-27T02:40:40Z</time></trkpt>
      <trkpt lat="39.062753" lon="113.548881"><ele>2780</ele><time>2026-06-27T02:42:55Z</time></trkpt>
      <trkpt lat="39.060613" lon="113.548308"><ele>2782</ele><time>2026-06-27T02:45:48Z</time></trkpt>
      <trkpt lat="39.060258" lon="113.548154"><ele>2781</ele><time>2026-06-27T02:46:18Z</time></trkpt>
      <trkpt lat="39.060126" lon="113.54799"><ele>2780</ele><time>2026-06-27T02:46:33Z</time></trkpt>
      <trkpt lat="39.059978" lon="113.547607"><ele>2782</ele><time>2026-06-27T02:47:00Z</time></trkpt>
      <trkpt lat="39.060024" lon="113.547235"><ele>2781</ele><time>2026-06-27T02:47:24Z</time></trkpt>
      <trkpt lat="39.060017" lon="113.547157"><ele>2782</ele><time>2026-06-27T02:47:30Z</time></trkpt>
      <trkpt lat="39.059973" lon="113.547169"><ele>2783</ele><time>2026-06-27T02:47:39Z</time></trkpt>
      <trkpt lat="39.060016" lon="113.547167"><ele>2783</ele><time>2026-06-27T02:48:32Z</time></trkpt>
      <trkpt lat="39.060167" lon="113.546379"><ele>2782</ele><time>2026-06-27T02:49:23Z</time></trkpt>
      <trkpt lat="39.06005" lon="113.545559"><ele>2779</ele><time>2026-06-27T02:50:16Z</time></trkpt>
      <trkpt lat="39.059716" lon="113.544727"><ele>2779</ele><time>2026-06-27T02:51:22Z</time></trkpt>
      <trkpt lat="39.059145" lon="113.54384"><ele>2778</ele><time>2026-06-27T02:52:39Z</time></trkpt>
      <trkpt lat="39.058582" lon="113.542334"><ele>2778</ele><time>2026-06-27T02:54:20Z</time></trkpt>
      <trkpt lat="39.05844" lon="113.542109"><ele>2778</ele><time>2026-06-27T02:54:38Z</time></trkpt>
      <trkpt lat="39.057682" lon="113.541358"><ele>2769</ele><time>2026-06-27T02:55:55Z</time></trkpt>
      <trkpt lat="39.057089" lon="113.540259"><ele>2753</ele><time>2026-06-27T02:57:34Z</time></trkpt>
      <trkpt lat="39.056706" lon="113.539744"><ele>2741</ele><time>2026-06-27T02:58:29Z</time></trkpt>
      <trkpt lat="39.056396" lon="113.538784"><ele>2729</ele><time>2026-06-27T02:59:42Z</time></trkpt>
      <trkpt lat="39.055981" lon="113.538174"><ele>2720</ele><time>2026-06-27T03:00:33Z</time></trkpt>
      <trkpt lat="39.05543" lon="113.537656"><ele>2720</ele><time>2026-06-27T03:01:29Z</time></trkpt>
      <trkpt lat="39.054735" lon="113.536645"><ele>2722</ele><time>2026-06-27T03:02:56Z</time></trkpt>
      <trkpt lat="39.054404" lon="113.535932"><ele>2727</ele><time>2026-06-27T03:03:55Z</time></trkpt>
      <trkpt lat="39.053573" lon="113.534948"><ele>2732</ele><time>2026-06-27T03:05:49Z</time></trkpt>
      <trkpt lat="39.052549" lon="113.534259"><ele>2754</ele><time>2026-06-27T03:08:18Z</time></trkpt>
      <trkpt lat="39.05182" lon="113.534101"><ele>2761</ele><time>2026-06-27T03:09:32Z</time></trkpt>
      <trkpt lat="39.051542" lon="113.533947"><ele>2762</ele><time>2026-06-27T03:10:14Z</time></trkpt>
      <trkpt lat="39.051204" lon="113.533972"><ele>2768</ele><time>2026-06-27T03:11:11Z</time></trkpt>
      <trkpt lat="39.050736" lon="113.534208"><ele>2774</ele><time>2026-06-27T03:12:37Z</time></trkpt>
      <trkpt lat="39.050417" lon="113.534194"><ele>2782</ele><time>2026-06-27T03:13:51Z</time></trkpt>
      <trkpt lat="39.04991" lon="113.534335"><ele>2799</ele><time>2026-06-27T03:15:59Z</time></trkpt>
      <trkpt lat="39.049246" lon="113.53439"><ele>2815</ele><time>2026-06-27T03:18:05Z</time></trkpt>
      <trkpt lat="39.048338" lon="113.534053"><ele>2828</ele><time>2026-06-27T03:20:44Z</time></trkpt>
      <trkpt lat="39.048106" lon="113.533831"><ele>2830</ele><time>2026-06-27T03:21:20Z</time></trkpt>
      <trkpt lat="39.047745" lon="113.533702"><ele>2832</ele><time>2026-06-27T03:22:02Z</time></trkpt>
      <trkpt lat="39.047265" lon="113.533636"><ele>2834</ele><time>2026-06-27T03:23:05Z</time></trkpt>
      <trkpt lat="39.046394" lon="113.533649"><ele>2845</ele><time>2026-06-27T03:25:48Z</time></trkpt>
      <trkpt lat="39.046319" lon="113.533432"><ele>2848</ele><time>2026-06-27T03:26:21Z</time></trkpt>
      <trkpt lat="39.046799" lon="113.532975"><ele>2867</ele><time>2026-06-27T03:29:31Z</time></trkpt>
      <trkpt lat="39.04688" lon="113.532771"><ele>2877</ele><time>2026-06-27T03:30:29Z</time></trkpt>
      <trkpt lat="39.046853" lon="113.532641"><ele>2882</ele><time>2026-06-27T03:30:54Z</time></trkpt>
      <trkpt lat="39.046411" lon="113.532003"><ele>2892</ele><time>2026-06-27T03:33:01Z</time></trkpt>
      <trkpt lat="39.045576" lon="113.531451"><ele>2892</ele><time>2026-06-27T03:35:29Z</time></trkpt>
      <trkpt lat="39.045071" lon="113.530508"><ele>2892</ele><time>2026-06-27T03:37:22Z</time></trkpt>
      <trkpt lat="39.044912" lon="113.530074"><ele>2895</ele><time>2026-06-27T03:38:52Z</time></trkpt>
      <trkpt lat="39.045079" lon="113.530136"><ele>2897</ele><time>2026-06-27T03:39:27Z</time></trkpt>
      <trkpt lat="39.045334" lon="113.530084"><ele>2898</ele><time>2026-06-27T03:39:53Z</time></trkpt>
      <trkpt lat="39.04529" lon="113.530211"><ele>2898</ele><time>2026-06-27T03:40:11Z</time></trkpt>
      <trkpt lat="39.045325" lon="113.530474"><ele>2898</ele><time>2026-06-27T03:40:44Z</time></trkpt>
      <trkpt lat="39.0453" lon="113.53003"><ele>2898</ele><time>2026-06-27T03:41:43Z</time></trkpt>
      <trkpt lat="39.045372" lon="113.530088"><ele>2899</ele><time>2026-06-27T04:00:46Z</time></trkpt>
      <trkpt lat="39.045603" lon="113.529607"><ele>2898</ele><time>2026-06-27T04:01:38Z</time></trkpt>
      <trkpt lat="39.045855" lon="113.528211"><ele>2887</ele><time>2026-06-27T04:03:09Z</time></trkpt>
      <trkpt lat="39.045895" lon="113.527678"><ele>2885</ele><time>2026-06-27T04:03:42Z</time></trkpt>
      <trkpt lat="39.045577" lon="113.526487"><ele>2876</ele><time>2026-06-27T04:04:58Z</time></trkpt>
      <trkpt lat="39.04517" lon="113.52542"><ele>2869</ele><time>2026-06-27T04:06:07Z</time></trkpt>
      <trkpt lat="39.044952" lon="113.524539"><ele>2861</ele><time>2026-06-27T04:07:00Z</time></trkpt>
      <trkpt lat="39.044509" lon="113.523782"><ele>2855</ele><time>2026-06-27T04:07:53Z</time></trkpt>
      <trkpt lat="39.044287" lon="113.5232"><ele>2853</ele><time>2026-06-27T04:08:29Z</time></trkpt>
      <trkpt lat="39.043903" lon="113.5228"><ele>2847</ele><time>2026-06-27T04:09:05Z</time></trkpt>
      <trkpt lat="39.043731" lon="113.522522"><ele>2844</ele><time>2026-06-27T04:09:25Z</time></trkpt>
      <trkpt lat="39.043063" lon="113.520841"><ele>2829</ele><time>2026-06-27T04:11:16Z</time></trkpt>
      <trkpt lat="39.043058" lon="113.520642"><ele>2827</ele><time>2026-06-27T04:11:31Z</time></trkpt>
      <trkpt lat="39.042906" lon="113.520131"><ele>2824</ele><time>2026-06-27T04:12:06Z</time></trkpt>
      <trkpt lat="39.042522" lon="113.519121"><ele>2813</ele><time>2026-06-27T04:13:18Z</time></trkpt>
      <trkpt lat="39.042488" lon="113.51881"><ele>2812</ele><time>2026-06-27T04:13:36Z</time></trkpt>
      <trkpt lat="39.042584" lon="113.51844"><ele>2809</ele><time>2026-06-27T04:14:10Z</time></trkpt>
      <trkpt lat="39.042478" lon="113.517936"><ele>2809</ele><time>2026-06-27T04:14:43Z</time></trkpt>
      <trkpt lat="39.042517" lon="113.517497"><ele>2806</ele><time>2026-06-27T04:15:10Z</time></trkpt>
      <trkpt lat="39.042476" lon="113.51721"><ele>2806</ele><time>2026-06-27T04:15:28Z</time></trkpt>
      <trkpt lat="39.042347" lon="113.517035"><ele>2805</ele><time>2026-06-27T04:15:43Z</time></trkpt>
      <trkpt lat="39.042014" lon="113.516921"><ele>2803</ele><time>2026-06-27T04:16:09Z</time></trkpt>
      <trkpt lat="39.041758" lon="113.516607"><ele>2797</ele><time>2026-06-27T04:16:45Z</time></trkpt>
      <trkpt lat="39.041331" lon="113.515179"><ele>2784</ele><time>2026-06-27T04:18:42Z</time></trkpt>
      <trkpt lat="39.040363" lon="113.513836"><ele>2784</ele><time>2026-06-27T04:20:43Z</time></trkpt>
      <trkpt lat="39.039484" lon="113.513115"><ele>2782</ele><time>2026-06-27T04:22:15Z</time></trkpt>
      <trkpt lat="39.038609" lon="113.512612"><ele>2781</ele><time>2026-06-27T04:23:36Z</time></trkpt>
      <trkpt lat="39.037971" lon="113.512045"><ele>2780</ele><time>2026-06-27T04:24:38Z</time></trkpt>
      <trkpt lat="39.037834" lon="113.511817"><ele>2780</ele><time>2026-06-27T04:24:56Z</time></trkpt>
      <trkpt lat="39.037849" lon="113.511509"><ele>2781</ele><time>2026-06-27T04:25:23Z</time></trkpt>
      <trkpt lat="39.038431" lon="113.5097"><ele>2763</ele><time>2026-06-27T04:27:32Z</time></trkpt>
      <trkpt lat="39.038588" lon="113.50901"><ele>2761</ele><time>2026-06-27T04:28:17Z</time></trkpt>
      <trkpt lat="39.038936" lon="113.508197"><ele>2750</ele><time>2026-06-27T04:29:17Z</time></trkpt>
      <trkpt lat="39.039066" lon="113.50769"><ele>2744</ele><time>2026-06-27T04:30:03Z</time></trkpt>
      <trkpt lat="39.03898" lon="113.507553"><ele>2738</ele><time>2026-06-27T04:30:47Z</time></trkpt>
      <trkpt lat="39.039077" lon="113.506594"><ele>2725</ele><time>2026-06-27T04:32:09Z</time></trkpt>
      <trkpt lat="39.039036" lon="113.505712"><ele>2712</ele><time>2026-06-27T04:33:11Z</time></trkpt>
      <trkpt lat="39.038928" lon="113.505495"><ele>2707</ele><time>2026-06-27T04:33:35Z</time></trkpt>
      <trkpt lat="39.038873" lon="113.505032"><ele>2699</ele><time>2026-06-27T04:34:17Z</time></trkpt>
      <trkpt lat="39.039046" lon="113.504544"><ele>2687</ele><time>2026-06-27T04:35:11Z</time></trkpt>
      <trkpt lat="39.039041" lon="113.50449"><ele>2684</ele><time>2026-06-27T04:35:23Z</time></trkpt>
      <trkpt lat="39.038933" lon="113.504559"><ele>2683</ele><time>2026-06-27T04:35:47Z</time></trkpt>
      <trkpt lat="39.03891" lon="113.504464"><ele>2679</ele><time>2026-06-27T04:36:08Z</time></trkpt>
      <trkpt lat="39.039075" lon="113.504086"><ele>2672</ele><time>2026-06-27T04:37:08Z</time></trkpt>
      <trkpt lat="39.039357" lon="113.503096"><ele>2662</ele><time>2026-06-27T04:38:27Z</time></trkpt>
      <trkpt lat="39.039316" lon="113.502887"><ele>2658</ele><time>2026-06-27T04:38:45Z</time></trkpt>
      <trkpt lat="39.039103" lon="113.502505"><ele>2653</ele><time>2026-06-27T04:39:20Z</time></trkpt>
      <trkpt lat="39.038749" lon="113.501607"><ele>2635</ele><time>2026-06-27T04:40:38Z</time></trkpt>
      <trkpt lat="39.038622" lon="113.501008"><ele>2631</ele><time>2026-06-27T04:41:26Z</time></trkpt>
      <trkpt lat="39.038734" lon="113.500661"><ele>2632</ele><time>2026-06-27T04:45:32Z</time></trkpt>
      <trkpt lat="39.038674" lon="113.499943"><ele>2636</ele><time>2026-06-27T04:46:23Z</time></trkpt>
      <trkpt lat="39.038261" lon="113.498544"><ele>2652</ele><time>2026-06-27T04:48:17Z</time></trkpt>
      <trkpt lat="39.038033" lon="113.49796"><ele>2653</ele><time>2026-06-27T04:49:03Z</time></trkpt>
      <trkpt lat="39.037846" lon="113.497073"><ele>2663</ele><time>2026-06-27T04:50:20Z</time></trkpt>
      <trkpt lat="39.037933" lon="113.496287"><ele>2673</ele><time>2026-06-27T04:51:35Z</time></trkpt>
      <trkpt lat="39.037785" lon="113.495678"><ele>2684</ele><time>2026-06-27T04:52:50Z</time></trkpt>
      <trkpt lat="39.037919" lon="113.49453"><ele>2702</ele><time>2026-06-27T04:54:47Z</time></trkpt>
      <trkpt lat="39.038039" lon="113.494083"><ele>2709</ele><time>2026-06-27T04:55:38Z</time></trkpt>
      <trkpt lat="39.038014" lon="113.493852"><ele>2714</ele><time>2026-06-27T04:56:05Z</time></trkpt>
      <trkpt lat="39.038116" lon="113.493193"><ele>2729</ele><time>2026-06-27T04:57:24Z</time></trkpt>
      <trkpt lat="39.038022" lon="113.492631"><ele>2742</ele><time>2026-06-27T04:58:54Z</time></trkpt>
      <trkpt lat="39.03793" lon="113.492539"><ele>2746</ele><time>2026-06-27T04:59:17Z</time></trkpt>
      <trkpt lat="39.037957" lon="113.492347"><ele>2750</ele><time>2026-06-27T04:59:42Z</time></trkpt>
      <trkpt lat="39.037878" lon="113.491981"><ele>2758</ele><time>2026-06-27T05:00:33Z</time></trkpt>
      <trkpt lat="39.037567" lon="113.491443"><ele>2772</ele><time>2026-06-27T05:02:03Z</time></trkpt>
      <trkpt lat="39.037527" lon="113.491138"><ele>2780</ele><time>2026-06-27T05:02:33Z</time></trkpt>
      <trkpt lat="39.03714" lon="113.491173"><ele>2778</ele><time>2026-06-27T05:03:37Z</time></trkpt>
      <trkpt lat="39.03701" lon="113.491043"><ele>2779</ele><time>2026-06-27T05:03:54Z</time></trkpt>
      <trkpt lat="39.036966" lon="113.490565"><ele>2782</ele><time>2026-06-27T05:04:30Z</time></trkpt>
      <trkpt lat="39.037132" lon="113.490471"><ele>2780</ele><time>2026-06-27T05:05:00Z</time></trkpt>
      <trkpt lat="39.037218" lon="113.490491"><ele>2780</ele><time>2026-06-27T05:05:19Z</time></trkpt>
      <trkpt lat="39.037085" lon="113.490517"><ele>2780</ele><time>2026-06-27T05:05:31Z</time></trkpt>
      <trkpt lat="39.037106" lon="113.490574"><ele>2780</ele><time>2026-06-27T05:05:43Z</time></trkpt>
      <trkpt lat="39.037233" lon="113.490596"><ele>2780</ele><time>2026-06-27T05:05:57Z</time></trkpt>
      <trkpt lat="39.037348" lon="113.490495"><ele>2781</ele><time>2026-06-27T05:06:12Z</time></trkpt>
      <trkpt lat="39.037342" lon="113.490427"><ele>2782</ele><time>2026-06-27T05:06:49Z</time></trkpt>
      <trkpt lat="39.037171" lon="113.490575"><ele>2783</ele><time>2026-06-27T05:12:28Z</time></trkpt>
      <trkpt lat="39.036925" lon="113.490543"><ele>2782</ele><time>2026-06-27T05:12:49Z</time></trkpt>
      <trkpt lat="39.036911" lon="113.490791"><ele>2781</ele><time>2026-06-27T05:13:04Z</time></trkpt>
      <trkpt lat="39.037" lon="113.491072"><ele>2780</ele><time>2026-06-27T05:13:22Z</time></trkpt>
      <trkpt lat="39.03714" lon="113.491254"><ele>2780</ele><time>2026-06-27T05:13:37Z</time></trkpt>
      <trkpt lat="39.037547" lon="113.491395"><ele>2778</ele><time>2026-06-27T05:14:10Z</time></trkpt>
      <trkpt lat="39.037795" lon="113.49191"><ele>2768</ele><time>2026-06-27T05:14:55Z</time></trkpt>
      <trkpt lat="39.037933" lon="113.492356"><ele>2757</ele><time>2026-06-27T05:15:34Z</time></trkpt>
      <trkpt lat="39.03793" lon="113.492552"><ele>2752</ele><time>2026-06-27T05:15:49Z</time></trkpt>
      <trkpt lat="39.038014" lon="113.492646"><ele>2748</ele><time>2026-06-27T05:16:13Z</time></trkpt>
      <trkpt lat="39.038058" lon="113.492879"><ele>2743</ele><time>2026-06-27T05:16:36Z</time></trkpt>
      <trkpt lat="39.038003" lon="113.493186"><ele>2737</ele><time>2026-06-27T05:17:03Z</time></trkpt>
      <trkpt lat="39.038052" lon="113.493487"><ele>2729</ele><time>2026-06-27T05:17:42Z</time></trkpt>
      <trkpt lat="39.037998" lon="113.494249"><ele>2712</ele><time>2026-06-27T05:19:01Z</time></trkpt>
      <trkpt lat="39.037875" lon="113.494792"><ele>2704</ele><time>2026-06-27T05:19:58Z</time></trkpt>
      <trkpt lat="39.037784" lon="113.495696"><ele>2691</ele><time>2026-06-27T05:21:30Z</time></trkpt>
      <trkpt lat="39.037937" lon="113.496333"><ele>2678</ele><time>2026-06-27T05:22:57Z</time></trkpt>
      <trkpt lat="39.037827" lon="113.497016"><ele>2670</ele><time>2026-06-27T05:23:48Z</time></trkpt>
      <trkpt lat="39.037868" lon="113.4974"><ele>2664</ele><time>2026-06-27T05:24:15Z</time></trkpt>
      <trkpt lat="39.038239" lon="113.498504"><ele>2652</ele><time>2026-06-27T05:25:38Z</time></trkpt>
      <trkpt lat="39.038721" lon="113.500266"><ele>2637</ele><time>2026-06-27T05:27:58Z</time></trkpt>
      <trkpt lat="39.038687" lon="113.500776"><ele>2636</ele><time>2026-06-27T05:28:37Z</time></trkpt>
      <trkpt lat="39.038557" lon="113.501323"><ele>2634</ele><time>2026-06-27T05:31:01Z</time></trkpt>
      <trkpt lat="39.03784" lon="113.502251"><ele>2611</ele><time>2026-06-27T05:32:54Z</time></trkpt>
      <trkpt lat="39.037762" lon="113.502469"><ele>2607</ele><time>2026-06-27T05:33:23Z</time></trkpt>
      <trkpt lat="39.037601" lon="113.502538"><ele>2601</ele><time>2026-06-27T05:33:55Z</time></trkpt>
      <trkpt lat="39.037176" lon="113.503138"><ele>2587</ele><time>2026-06-27T05:35:13Z</time></trkpt>
      <trkpt lat="39.036995" lon="113.503235"><ele>2581</ele><time>2026-06-27T05:35:42Z</time></trkpt>
      <trkpt lat="39.036836" lon="113.50347"><ele>2575</ele><time>2026-06-27T05:36:15Z</time></trkpt>
      <trkpt lat="39.036628" lon="113.503483"><ele>2563</ele><time>2026-06-27T05:37:23Z</time></trkpt>
      <trkpt lat="39.036522" lon="113.503609"><ele>2563</ele><time>2026-06-27T05:37:31Z</time></trkpt>
      <trkpt lat="39.036162" lon="113.504635"><ele>2555</ele><time>2026-06-27T05:38:43Z</time></trkpt>
      <trkpt lat="39.035939" lon="113.505062"><ele>2548</ele><time>2026-06-27T05:39:16Z</time></trkpt>
      <trkpt lat="39.035662" lon="113.505912"><ele>2538</ele><time>2026-06-27T05:40:12Z</time></trkpt>
      <trkpt lat="39.034963" lon="113.507053"><ele>2530</ele><time>2026-06-27T05:41:44Z</time></trkpt>
      <trkpt lat="39.0343" lon="113.507225"><ele>2524</ele><time>2026-06-27T05:42:35Z</time></trkpt>
      <trkpt lat="39.033931" lon="113.507417"><ele>2518</ele><time>2026-06-27T05:43:05Z</time></trkpt>
      <trkpt lat="39.033598" lon="113.507692"><ele>2516</ele><time>2026-06-27T05:43:37Z</time></trkpt>
      <trkpt lat="39.033125" lon="113.507918"><ele>2511</ele><time>2026-06-27T05:44:16Z</time></trkpt>
      <trkpt lat="39.032828" lon="113.507984"><ele>2506</ele><time>2026-06-27T05:44:40Z</time></trkpt>
      <trkpt lat="39.03209" lon="113.507981"><ele>2494</ele><time>2026-06-27T05:45:42Z</time></trkpt>
      <trkpt lat="39.03102" lon="113.508151"><ele>2480</ele><time>2026-06-27T05:47:09Z</time></trkpt>
      <trkpt lat="39.030202" lon="113.508819"><ele>2464</ele><time>2026-06-27T05:48:30Z</time></trkpt>
      <trkpt lat="39.029603" lon="113.50913"><ele>2454</ele><time>2026-06-27T05:49:24Z</time></trkpt>
      <trkpt lat="39.029119" lon="113.509192"><ele>2447</ele><time>2026-06-27T05:50:06Z</time></trkpt>
      <trkpt lat="39.028974" lon="113.509047"><ele>2437</ele><time>2026-06-27T05:50:58Z</time></trkpt>
      <trkpt lat="39.028548" lon="113.508941"><ele>2425</ele><time>2026-06-27T05:51:48Z</time></trkpt>
      <trkpt lat="39.028301" lon="113.508999"><ele>2421</ele><time>2026-06-27T05:52:12Z</time></trkpt>
      <trkpt lat="39.028145" lon="113.509174"><ele>2418</ele><time>2026-06-27T05:52:36Z</time></trkpt>
      <trkpt lat="39.028128" lon="113.5099"><ele>2412</ele><time>2026-06-27T05:53:27Z</time></trkpt>
      <trkpt lat="39.028224" lon="113.510445"><ele>2410</ele><time>2026-06-27T05:54:03Z</time></trkpt>
      <trkpt lat="39.028096" lon="113.511249"><ele>2410</ele><time>2026-06-27T05:54:57Z</time></trkpt>
      <trkpt lat="39.02815" lon="113.511778"><ele>2403</ele><time>2026-06-27T05:55:39Z</time></trkpt>
      <trkpt lat="39.028092" lon="113.51203"><ele>2400</ele><time>2026-06-27T05:55:57Z</time></trkpt>
      <trkpt lat="39.027784" lon="113.512542"><ele>2397</ele><time>2026-06-27T05:56:39Z</time></trkpt>
      <trkpt lat="39.027756" lon="113.512725"><ele>2397</ele><time>2026-06-27T05:56:51Z</time></trkpt>
      <trkpt lat="39.028075" lon="113.513661"><ele>2392</ele><time>2026-06-27T05:58:01Z</time></trkpt>
      <trkpt lat="39.028115" lon="113.514159"><ele>2391</ele><time>2026-06-27T05:58:33Z</time></trkpt>
      <trkpt lat="39.028273" lon="113.514572"><ele>2391</ele><time>2026-06-27T05:59:03Z</time></trkpt>
      <trkpt lat="39.028424" lon="113.515792"><ele>2389</ele><time>2026-06-27T06:00:21Z</time></trkpt>
      <trkpt lat="39.028566" lon="113.516397"><ele>2387</ele><time>2026-06-27T06:01:00Z</time></trkpt>
      <trkpt lat="39.028769" lon="113.517922"><ele>2379</ele><time>2026-06-27T06:02:41Z</time></trkpt>
      <trkpt lat="39.028773" lon="113.518539"><ele>2377</ele><time>2026-06-27T06:03:20Z</time></trkpt>
      <trkpt lat="39.028706" lon="113.519119"><ele>2371</ele><time>2026-06-27T06:03:56Z</time></trkpt>
      <trkpt lat="39.028924" lon="113.519589"><ele>2365</ele><time>2026-06-27T06:04:30Z</time></trkpt>
      <trkpt lat="39.029467" lon="113.520347"><ele>2367</ele><time>2026-06-27T06:05:33Z</time></trkpt>
      <trkpt lat="39.029683" lon="113.520785"><ele>2364</ele><time>2026-06-27T06:06:06Z</time></trkpt>
      <trkpt lat="39.029846" lon="113.52094"><ele>2364</ele><time>2026-06-27T06:06:24Z</time></trkpt>
      <trkpt lat="39.029778" lon="113.521198"><ele>2360</ele><time>2026-06-27T06:06:42Z</time></trkpt>
      <trkpt lat="39.029818" lon="113.521375"><ele>2359</ele><time>2026-06-27T06:06:54Z</time></trkpt>
      <trkpt lat="39.030031" lon="113.521615"><ele>2357</ele><time>2026-06-27T06:07:18Z</time></trkpt>
      <trkpt lat="39.030294" lon="113.522129"><ele>2357</ele><time>2026-06-27T06:07:53Z</time></trkpt>
      <trkpt lat="39.030541" lon="113.522326"><ele>2355</ele><time>2026-06-27T06:08:17Z</time></trkpt>
      <trkpt lat="39.030548" lon="113.522435"><ele>2355</ele><time>2026-06-27T06:08:28Z</time></trkpt>
      <trkpt lat="39.03048" lon="113.522745"><ele>2353</ele><time>2026-06-27T06:08:48Z</time></trkpt>
      <trkpt lat="39.03018" lon="113.523272"><ele>2347</ele><time>2026-06-27T06:09:36Z</time></trkpt>
      <trkpt lat="39.030076" lon="113.523582"><ele>2345</ele><time>2026-06-27T06:10:17Z</time></trkpt>
      <trkpt lat="39.026945" lon="113.519094"><ele>2267</ele><time>2026-06-27T22:48:36Z</time></trkpt>
      <trkpt lat="39.027139" lon="113.519612"><ele>2273</ele><time>2026-06-27T22:49:20Z</time></trkpt>
      <trkpt lat="39.027667" lon="113.520587"><ele>2287</ele><time>2026-06-27T22:50:52Z</time></trkpt>
      <trkpt lat="39.028185" lon="113.521025"><ele>2293</ele><time>2026-06-27T22:51:51Z</time></trkpt>
      <trkpt lat="39.028826" lon="113.521421"><ele>2306</ele><time>2026-06-27T22:53:00Z</time></trkpt>
      <trkpt lat="39.029276" lon="113.522048"><ele>2314</ele><time>2026-06-27T22:54:02Z</time></trkpt>
      <trkpt lat="39.029694" lon="113.522492"><ele>2322</ele><time>2026-06-27T22:54:56Z</time></trkpt>
      <trkpt lat="39.029863" lon="113.523272"><ele>2332</ele><time>2026-06-27T22:55:55Z</time></trkpt>
      <trkpt lat="39.030131" lon="113.523383"><ele>2337</ele><time>2026-06-27T22:56:25Z</time></trkpt>
      <trkpt lat="39.030174" lon="113.523469"><ele>2339</ele><time>2026-06-27T22:56:34Z</time></trkpt>
      <trkpt lat="39.030163" lon="113.523801"><ele>2341</ele><time>2026-06-27T22:56:58Z</time></trkpt>
      <trkpt lat="39.029961" lon="113.523955"><ele>2343</ele><time>2026-06-27T22:57:21Z</time></trkpt>
      <trkpt lat="39.028957" lon="113.523444"><ele>2340</ele><time>2026-06-27T22:58:48Z</time></trkpt>
      <trkpt lat="39.028275" lon="113.52337"><ele>2339</ele><time>2026-06-27T22:59:42Z</time></trkpt>
      <trkpt lat="39.027039" lon="113.522841"><ele>2338</ele><time>2026-06-27T23:01:24Z</time></trkpt>
      <trkpt lat="39.02602" lon="113.521863"><ele>2339</ele><time>2026-06-27T23:03:22Z</time></trkpt>
      <trkpt lat="39.025278" lon="113.520017"><ele>2338</ele><time>2026-06-27T23:05:30Z</time></trkpt>
      <trkpt lat="39.024844" lon="113.519391"><ele>2338</ele><time>2026-06-27T23:06:17Z</time></trkpt>
      <trkpt lat="39.023397" lon="113.518093"><ele>2337</ele><time>2026-06-27T23:08:26Z</time></trkpt>
      <trkpt lat="39.02289" lon="113.517487"><ele>2336</ele><time>2026-06-27T23:09:17Z</time></trkpt>
      <trkpt lat="39.021785" lon="113.516635"><ele>2336</ele><time>2026-06-27T23:10:50Z</time></trkpt>
      <trkpt lat="39.020571" lon="113.515943"><ele>2336</ele><time>2026-06-27T23:12:26Z</time></trkpt>
      <trkpt lat="39.020136" lon="113.515933"><ele>2342</ele><time>2026-06-27T23:13:11Z</time></trkpt>
      <trkpt lat="39.019853" lon="113.515849"><ele>2349</ele><time>2026-06-27T23:14:22Z</time></trkpt>
      <trkpt lat="39.019251" lon="113.515513"><ele>2363</ele><time>2026-06-27T23:15:31Z</time></trkpt>
      <trkpt lat="39.018875" lon="113.515162"><ele>2372</ele><time>2026-06-27T23:16:21Z</time></trkpt>
      <trkpt lat="39.018558" lon="113.514708"><ele>2377</ele><time>2026-06-27T23:17:06Z</time></trkpt>
      <trkpt lat="39.017868" lon="113.514034"><ele>2385</ele><time>2026-06-27T23:18:29Z</time></trkpt>
      <trkpt lat="39.017012" lon="113.51268"><ele>2411</ele><time>2026-06-27T23:21:11Z</time></trkpt>
      <trkpt lat="39.016436" lon="113.511918"><ele>2420</ele><time>2026-06-27T23:22:29Z</time></trkpt>
      <trkpt lat="39.015877" lon="113.510918"><ele>2418</ele><time>2026-06-27T23:23:48Z</time></trkpt>
      <trkpt lat="39.015357" lon="113.510164"><ele>2420</ele><time>2026-06-27T23:25:33Z</time></trkpt>
      <trkpt lat="39.014897" lon="113.509217"><ele>2427</ele><time>2026-06-27T23:26:44Z</time></trkpt>
      <trkpt lat="39.014577" lon="113.508802"><ele>2433</ele><time>2026-06-27T23:27:26Z</time></trkpt>
      <trkpt lat="39.014359" lon="113.508344"><ele>2440</ele><time>2026-06-27T23:28:05Z</time></trkpt>
      <trkpt lat="39.01405" lon="113.507958"><ele>2450</ele><time>2026-06-27T23:29:00Z</time></trkpt>
      <trkpt lat="39.013369" lon="113.507389"><ele>2461</ele><time>2026-06-27T23:30:23Z</time></trkpt>
      <trkpt lat="39.012922" lon="113.506591"><ele>2457</ele><time>2026-06-27T23:31:25Z</time></trkpt>
      <trkpt lat="39.012584" lon="113.506213"><ele>2454</ele><time>2026-06-27T23:32:01Z</time></trkpt>
      <trkpt lat="39.011725" lon="113.505477"><ele>2447</ele><time>2026-06-27T23:33:22Z</time></trkpt>
      <trkpt lat="39.011335" lon="113.50491"><ele>2436</ele><time>2026-06-27T23:34:10Z</time></trkpt>
      <trkpt lat="39.01109" lon="113.504427"><ele>2432</ele><time>2026-06-27T23:35:10Z</time></trkpt>
      <trkpt lat="39.010618" lon="113.503816"><ele>2422</ele><time>2026-06-27T23:36:13Z</time></trkpt>
      <trkpt lat="39.009861" lon="113.503135"><ele>2412</ele><time>2026-06-27T23:37:31Z</time></trkpt>
      <trkpt lat="39.009447" lon="113.502667"><ele>2408</ele><time>2026-06-27T23:38:13Z</time></trkpt>
      <trkpt lat="39.009236" lon="113.501894"><ele>2392</ele><time>2026-06-27T23:40:09Z</time></trkpt>
      <trkpt lat="39.008913" lon="113.501342"><ele>2382</ele><time>2026-06-27T23:41:00Z</time></trkpt>
      <trkpt lat="39.008654" lon="113.501088"><ele>2381</ele><time>2026-06-27T23:41:29Z</time></trkpt>
      <trkpt lat="39.007105" lon="113.500464"><ele>2377</ele><time>2026-06-27T23:44:39Z</time></trkpt>
      <trkpt lat="39.006128" lon="113.500538"><ele>2370</ele><time>2026-06-27T23:46:01Z</time></trkpt>
      <trkpt lat="39.005393" lon="113.500249"><ele>2358</ele><time>2026-06-27T23:47:11Z</time></trkpt>
      <trkpt lat="39.005004" lon="113.500313"><ele>2353</ele><time>2026-06-27T23:47:50Z</time></trkpt>
      <trkpt lat="39.004704" lon="113.500176"><ele>2345</ele><time>2026-06-27T23:48:19Z</time></trkpt>
      <trkpt lat="39.00332" lon="113.499985"><ele>2331</ele><time>2026-06-27T23:50:22Z</time></trkpt>
      <trkpt lat="39.002834" lon="113.499701"><ele>2326</ele><time>2026-06-27T23:51:07Z</time></trkpt>
      <trkpt lat="39.001084" lon="113.499334"><ele>2324</ele><time>2026-06-27T23:53:37Z</time></trkpt>
      <trkpt lat="39.000643" lon="113.498672"><ele>2324</ele><time>2026-06-27T23:54:39Z</time></trkpt>
      <trkpt lat="38.999226" lon="113.497483"><ele>2354</ele><time>2026-06-27T23:57:46Z</time></trkpt>
      <trkpt lat="38.998893" lon="113.496859"><ele>2364</ele><time>2026-06-27T23:58:51Z</time></trkpt>
      <trkpt lat="38.99858" lon="113.496477"><ele>2372</ele><time>2026-06-27T23:59:45Z</time></trkpt>
      <trkpt lat="38.997664" lon="113.495751"><ele>2391</ele><time>2026-06-28T00:01:48Z</time></trkpt>
      <trkpt lat="38.99687" lon="113.495393"><ele>2400</ele><time>2026-06-28T00:03:08Z</time></trkpt>
      <trkpt lat="38.996436" lon="113.495297"><ele>2405</ele><time>2026-06-28T00:03:50Z</time></trkpt>
      <trkpt lat="38.995906" lon="113.494899"><ele>2408</ele><time>2026-06-28T00:04:49Z</time></trkpt>
      <trkpt lat="38.995222" lon="113.494539"><ele>2409</ele><time>2026-06-28T00:05:52Z</time></trkpt>
      <trkpt lat="38.994232" lon="113.494221"><ele>2415</ele><time>2026-06-28T00:07:17Z</time></trkpt>
      <trkpt lat="38.992109" lon="113.494354"><ele>2428</ele><time>2026-06-28T00:10:21Z</time></trkpt>
      <trkpt lat="38.991708" lon="113.49449"><ele>2432</ele><time>2026-06-28T00:11:00Z</time></trkpt>
      <trkpt lat="38.991665" lon="113.494444"><ele>2434</ele><time>2026-06-28T00:11:15Z</time></trkpt>
      <trkpt lat="38.991293" lon="113.494702"><ele>2434</ele><time>2026-06-28T00:17:07Z</time></trkpt>
      <trkpt lat="38.990432" lon="113.495027"><ele>2435</ele><time>2026-06-28T00:18:22Z</time></trkpt>
      <trkpt lat="38.990098" lon="113.495058"><ele>2437</ele><time>2026-06-28T00:18:49Z</time></trkpt>
      <trkpt lat="38.989796" lon="113.495242"><ele>2436</ele><time>2026-06-28T00:19:16Z</time></trkpt>
      <trkpt lat="38.989333" lon="113.495246"><ele>2435</ele><time>2026-06-28T00:19:52Z</time></trkpt>
      <trkpt lat="38.988539" lon="113.495536"><ele>2439</ele><time>2026-06-28T00:20:58Z</time></trkpt>
      <trkpt lat="38.988268" lon="113.495758"><ele>2440</ele><time>2026-06-28T00:21:25Z</time></trkpt>
      <trkpt lat="38.987693" lon="113.49574"><ele>2438</ele><time>2026-06-28T00:22:13Z</time></trkpt>
      <trkpt lat="38.987427" lon="113.495809"><ele>2435</ele><time>2026-06-28T00:22:34Z</time></trkpt>
      <trkpt lat="38.987131" lon="113.495982"><ele>2435</ele><time>2026-06-28T00:22:59Z</time></trkpt>
      <trkpt lat="38.986328" lon="113.496843"><ele>2439</ele><time>2026-06-28T00:24:20Z</time></trkpt>
      <trkpt lat="38.985421" lon="113.497256"><ele>2437</ele><time>2026-06-28T00:27:43Z</time></trkpt>
      <trkpt lat="38.984647" lon="113.497706"><ele>2434</ele><time>2026-06-28T00:28:52Z</time></trkpt>
      <trkpt lat="38.984335" lon="113.497599"><ele>2434</ele><time>2026-06-28T00:29:17Z</time></trkpt>
      <trkpt lat="38.984199" lon="113.497368"><ele>2432</ele><time>2026-06-28T00:29:39Z</time></trkpt>
      <trkpt lat="38.98408" lon="113.497399"><ele>2431</ele><time>2026-06-28T00:29:57Z</time></trkpt>
      <trkpt lat="38.983977" lon="113.497331"><ele>2429</ele><time>2026-06-28T00:30:16Z</time></trkpt>
      <trkpt lat="38.983646" lon="113.496811"><ele>2419</ele><time>2026-06-28T00:31:01Z</time></trkpt>
      <trkpt lat="38.98334" lon="113.496645"><ele>2410</ele><time>2026-06-28T00:31:40Z</time></trkpt>
      <trkpt lat="38.983201" lon="113.496604"><ele>2407</ele><time>2026-06-28T00:31:55Z</time></trkpt>
      <trkpt lat="38.982951" lon="113.496735"><ele>2402</ele><time>2026-06-28T00:32:22Z</time></trkpt>
      <trkpt lat="38.982649" lon="113.496741"><ele>2395</ele><time>2026-06-28T00:32:58Z</time></trkpt>
      <trkpt lat="38.982435" lon="113.496457"><ele>2383</ele><time>2026-06-28T00:34:00Z</time></trkpt>
      <trkpt lat="38.982069" lon="113.496288"><ele>2371</ele><time>2026-06-28T00:34:51Z</time></trkpt>
      <trkpt lat="38.981931" lon="113.495918"><ele>2371</ele><time>2026-06-28T00:35:24Z</time></trkpt>
      <trkpt lat="38.98179" lon="113.496031"><ele>2370</ele><time>2026-06-28T00:35:45Z</time></trkpt>
      <trkpt lat="38.981847" lon="113.496042"><ele>2370</ele><time>2026-06-28T00:38:31Z</time></trkpt>
      <trkpt lat="38.981903" lon="113.49627"><ele>2370</ele><time>2026-06-28T00:40:36Z</time></trkpt>
      <trkpt lat="38.981883" lon="113.496464"><ele>2367</ele><time>2026-06-28T00:40:54Z</time></trkpt>
      <trkpt lat="38.980653" lon="113.496754"><ele>2347</ele><time>2026-06-28T00:42:50Z</time></trkpt>
      <trkpt lat="38.979967" lon="113.496727"><ele>2338</ele><time>2026-06-28T00:43:50Z</time></trkpt>
      <trkpt lat="38.979522" lon="113.496862"><ele>2336</ele><time>2026-06-28T00:44:28Z</time></trkpt>
      <trkpt lat="38.978681" lon="113.49692"><ele>2333</ele><time>2026-06-28T00:45:31Z</time></trkpt>
      <trkpt lat="38.978364" lon="113.497329"><ele>2329</ele><time>2026-06-28T00:46:05Z</time></trkpt>
      <trkpt lat="38.977806" lon="113.49839"><ele>2325</ele><time>2026-06-28T00:47:19Z</time></trkpt>
      <trkpt lat="38.977588" lon="113.499016"><ele>2323</ele><time>2026-06-28T00:47:59Z</time></trkpt>
      <trkpt lat="38.977836" lon="113.500751"><ele>2322</ele><time>2026-06-28T00:49:43Z</time></trkpt>
      <trkpt lat="38.9781" lon="113.501638"><ele>2321</ele><time>2026-06-28T00:50:40Z</time></trkpt>
      <trkpt lat="38.978189" lon="113.502411"><ele>2323</ele><time>2026-06-28T00:51:25Z</time></trkpt>
      <trkpt lat="38.978395" lon="113.503284"><ele>2313</ele><time>2026-06-28T00:52:22Z</time></trkpt>
      <trkpt lat="38.978345" lon="113.503959"><ele>2305</ele><time>2026-06-28T00:53:10Z</time></trkpt>
      <trkpt lat="38.978125" lon="113.504093"><ele>2302</ele><time>2026-06-28T00:53:31Z</time></trkpt>
      <trkpt lat="38.977838" lon="113.504488"><ele>2292</ele><time>2026-06-28T00:54:07Z</time></trkpt>
      <trkpt lat="38.977664" lon="113.504825"><ele>2286</ele><time>2026-06-28T00:54:37Z</time></trkpt>
      <trkpt lat="38.977696" lon="113.504866"><ele>2285</ele><time>2026-06-28T00:54:51Z</time></trkpt>
      <trkpt lat="38.977538" lon="113.504976"><ele>2285</ele><time>2026-06-28T00:56:19Z</time></trkpt>
      <trkpt lat="38.977413" lon="113.504926"><ele>2282</ele><time>2026-06-28T00:56:41Z</time></trkpt>
      <trkpt lat="38.977206" lon="113.504651"><ele>2277</ele><time>2026-06-28T00:58:07Z</time></trkpt>
      <trkpt lat="38.977036" lon="113.504542"><ele>2276</ele><time>2026-06-28T00:58:19Z</time></trkpt>
      <trkpt lat="38.975565" lon="113.504375"><ele>2246</ele><time>2026-06-28T01:00:31Z</time></trkpt>
      <trkpt lat="38.974819" lon="113.503589"><ele>2231</ele><time>2026-06-28T01:01:52Z</time></trkpt>
      <trkpt lat="38.974226" lon="113.502711"><ele>2216</ele><time>2026-06-28T01:03:07Z</time></trkpt>
      <trkpt lat="38.973959" lon="113.502679"><ele>2212</ele><time>2026-06-28T01:03:49Z</time></trkpt>
      <trkpt lat="38.973002" lon="113.502102"><ele>2204</ele><time>2026-06-28T01:05:02Z</time></trkpt>
      <trkpt lat="38.972635" lon="113.502035"><ele>2202</ele><time>2026-06-28T01:05:29Z</time></trkpt>
      <trkpt lat="38.971148" lon="113.501395"><ele>2191</ele><time>2026-06-28T01:07:25Z</time></trkpt>
      <trkpt lat="38.970311" lon="113.501257"><ele>2188</ele><time>2026-06-28T01:08:24Z</time></trkpt>
      <trkpt lat="38.969073" lon="113.50079"><ele>2163</ele><time>2026-06-28T01:10:11Z</time></trkpt>
      <trkpt lat="38.968582" lon="113.500734"><ele>2156</ele><time>2026-06-28T01:10:53Z</time></trkpt>
      <trkpt lat="38.968102" lon="113.500439"><ele>2145</ele><time>2026-06-28T01:11:48Z</time></trkpt>
      <trkpt lat="38.967602" lon="113.50028"><ele>2142</ele><time>2026-06-28T01:12:26Z</time></trkpt>
      <trkpt lat="38.967358" lon="113.499976"><ele>2135</ele><time>2026-06-28T01:13:02Z</time></trkpt>
      <trkpt lat="38.966864" lon="113.499969"><ele>2125</ele><time>2026-06-28T01:13:49Z</time></trkpt>
      <trkpt lat="38.966521" lon="113.499884"><ele>2116</ele><time>2026-06-28T01:14:22Z</time></trkpt>
      <trkpt lat="38.966215" lon="113.499637"><ele>2110</ele><time>2026-06-28T01:14:55Z</time></trkpt>
      <trkpt lat="38.966128" lon="113.499918"><ele>2108</ele><time>2026-06-28T01:15:36Z</time></trkpt>
      <trkpt lat="38.966235" lon="113.500117"><ele>2107</ele><time>2026-06-28T01:15:53Z</time></trkpt>
      <trkpt lat="38.965918" lon="113.500056"><ele>2104</ele><time>2026-06-28T01:16:32Z</time></trkpt>
      <trkpt lat="38.965607" lon="113.500231"><ele>2102</ele><time>2026-06-28T01:17:05Z</time></trkpt>
      <trkpt lat="38.965718" lon="113.500439"><ele>2100</ele><time>2026-06-28T01:17:29Z</time></trkpt>
      <trkpt lat="38.965925" lon="113.500629"><ele>2094</ele><time>2026-06-28T01:18:00Z</time></trkpt>
      <trkpt lat="38.96583" lon="113.500897"><ele>2090</ele><time>2026-06-28T01:18:21Z</time></trkpt>
      <trkpt lat="38.96576" lon="113.501645"><ele>2059</ele><time>2026-06-28T01:19:51Z</time></trkpt>
      <trkpt lat="38.965626" lon="113.501687"><ele>2054</ele><time>2026-06-28T01:20:15Z</time></trkpt>
      <trkpt lat="38.965292" lon="113.502591"><ele>2034</ele><time>2026-06-28T01:21:43Z</time></trkpt>
      <trkpt lat="38.965576" lon="113.503237"><ele>2021</ele><time>2026-06-28T01:22:55Z</time></trkpt>
      <trkpt lat="38.966244" lon="113.503839"><ele>2012</ele><time>2026-06-28T01:24:05Z</time></trkpt>
      <trkpt lat="38.966229" lon="113.503932"><ele>2012</ele><time>2026-06-28T01:24:14Z</time></trkpt>
      <trkpt lat="38.96614" lon="113.503921"><ele>2010</ele><time>2026-06-28T01:24:49Z</time></trkpt>
      <trkpt lat="38.96587" lon="113.504246"><ele>2001</ele><time>2026-06-28T01:25:46Z</time></trkpt>
      <trkpt lat="38.965779" lon="113.504556"><ele>2001</ele><time>2026-06-28T01:26:18Z</time></trkpt>
      <trkpt lat="38.965686" lon="113.506585"><ele>1993</ele><time>2026-06-28T01:29:04Z</time></trkpt>
      <trkpt lat="38.965609" lon="113.506494"><ele>1992</ele><time>2026-06-28T01:29:48Z</time></trkpt>
      <trkpt lat="38.965343" lon="113.506521"><ele>1984</ele><time>2026-06-28T01:30:20Z</time></trkpt>
      <trkpt lat="38.965258" lon="113.506166"><ele>1981</ele><time>2026-06-28T01:30:44Z</time></trkpt>
      <trkpt lat="38.965114" lon="113.505959"><ele>1976</ele><time>2026-06-28T01:31:14Z</time></trkpt>
      <trkpt lat="38.964687" lon="113.505853"><ele>1969</ele><time>2026-06-28T01:31:47Z</time></trkpt>
      <trkpt lat="38.964427" lon="113.505387"><ele>1966</ele><time>2026-06-28T01:32:23Z</time></trkpt>
      <trkpt lat="38.964354" lon="113.505007"><ele>1962</ele><time>2026-06-28T01:32:47Z</time></trkpt>
      <trkpt lat="38.963374" lon="113.505238"><ele>1957</ele><time>2026-06-28T01:34:03Z</time></trkpt>
      <trkpt lat="38.963031" lon="113.505108"><ele>1958</ele><time>2026-06-28T01:34:29Z</time></trkpt>
      <trkpt lat="38.962737" lon="113.5049"><ele>1956</ele><time>2026-06-28T01:34:56Z</time></trkpt>
      <trkpt lat="38.96243" lon="113.50494"><ele>1955</ele><time>2026-06-28T01:35:26Z</time></trkpt>
      <trkpt lat="38.96238" lon="113.50489"><ele>1953</ele><time>2026-06-28T01:35:32Z</time></trkpt>
      <trkpt lat="38.962169" lon="113.504964"><ele>1949</ele><time>2026-06-28T01:35:50Z</time></trkpt>
      <trkpt lat="38.961849" lon="113.504782"><ele>1951</ele><time>2026-06-28T01:36:17Z</time></trkpt>
      <trkpt lat="38.961582" lon="113.504511"><ele>1950</ele><time>2026-06-28T01:36:43Z</time></trkpt>
      <trkpt lat="38.96152" lon="113.50452"><ele>1946</ele><time>2026-06-28T01:36:55Z</time></trkpt>
      <trkpt lat="38.961333" lon="113.504816"><ele>1945</ele><time>2026-06-28T01:37:32Z</time></trkpt>
      <trkpt lat="38.961139" lon="113.504901"><ele>1945</ele><time>2026-06-28T01:37:47Z</time></trkpt>
      <trkpt lat="38.960913" lon="113.50475"><ele>1952</ele><time>2026-06-28T01:38:37Z</time></trkpt>
      <trkpt lat="38.96083" lon="113.504827"><ele>1954</ele><time>2026-06-28T01:44:50Z</time></trkpt>
      <trkpt lat="38.960559" lon="113.504818"><ele>1951</ele><time>2026-06-28T01:45:14Z</time></trkpt>
      <trkpt lat="38.960166" lon="113.504629"><ele>1947</ele><time>2026-06-28T01:46:11Z</time></trkpt>
      <trkpt lat="38.960133" lon="113.504816"><ele>1946</ele><time>2026-06-28T01:46:26Z</time></trkpt>
      <trkpt lat="38.959985" lon="113.505032"><ele>1940</ele><time>2026-06-28T01:46:55Z</time></trkpt>
      <trkpt lat="38.959865" lon="113.504909"><ele>1934</ele><time>2026-06-28T01:47:16Z</time></trkpt>
      <trkpt lat="38.959342" lon="113.504743"><ele>1924</ele><time>2026-06-28T01:48:04Z</time></trkpt>
      <trkpt lat="38.959092" lon="113.504571"><ele>1923</ele><time>2026-06-28T01:48:31Z</time></trkpt>
      <trkpt lat="38.958392" lon="113.505058"><ele>1933</ele><time>2026-06-28T01:49:57Z</time></trkpt>
      <trkpt lat="38.957929" lon="113.505128"><ele>1941</ele><time>2026-06-28T01:50:50Z</time></trkpt>
      <trkpt lat="38.95762" lon="113.505306"><ele>1942</ele><time>2026-06-28T01:51:26Z</time></trkpt>
      <trkpt lat="38.957246" lon="113.505582"><ele>1946</ele><time>2026-06-28T01:52:05Z</time></trkpt>
      <trkpt lat="38.95693" lon="113.505928"><ele>1949</ele><time>2026-06-28T01:52:50Z</time></trkpt>
      <trkpt lat="38.956483" lon="113.506183"><ele>1956</ele><time>2026-06-28T01:53:49Z</time></trkpt>
      <trkpt lat="38.955979" lon="113.506287"><ele>1966</ele><time>2026-06-28T01:54:52Z</time></trkpt>
      <trkpt lat="38.955641" lon="113.50645"><ele>1974</ele><time>2026-06-28T01:55:38Z</time></trkpt>
      <trkpt lat="38.954596" lon="113.507214"><ele>1996</ele><time>2026-06-28T01:57:52Z</time></trkpt>
      <trkpt lat="38.954131" lon="113.507218"><ele>2006</ele><time>2026-06-28T01:58:46Z</time></trkpt>
      <trkpt lat="38.953868" lon="113.506983"><ele>2013</ele><time>2026-06-28T01:59:35Z</time></trkpt>
      <trkpt lat="38.953111" lon="113.507039"><ele>2032</ele><time>2026-06-28T02:01:20Z</time></trkpt>
      <trkpt lat="38.95292" lon="113.506937"><ele>2038</ele><time>2026-06-28T02:01:52Z</time></trkpt>
      <trkpt lat="38.952662" lon="113.506927"><ele>2045</ele><time>2026-06-28T02:02:34Z</time></trkpt>
      <trkpt lat="38.951749" lon="113.507314"><ele>2062</ele><time>2026-06-28T02:04:21Z</time></trkpt>
      <trkpt lat="38.951709" lon="113.507167"><ele>2063</ele><time>2026-06-28T02:04:39Z</time></trkpt>
      <trkpt lat="38.951512" lon="113.506982"><ele>2069</ele><time>2026-06-28T02:08:00Z</time></trkpt>
      <trkpt lat="38.95044" lon="113.506475"><ele>2096</ele><time>2026-06-28T02:10:28Z</time></trkpt>
      <trkpt lat="38.950201" lon="113.506025"><ele>2106</ele><time>2026-06-28T02:11:22Z</time></trkpt>
      <trkpt lat="38.950149" lon="113.50576"><ele>2108</ele><time>2026-06-28T02:11:50Z</time></trkpt>
      <trkpt lat="38.950063" lon="113.505667"><ele>2108</ele><time>2026-06-28T02:12:01Z</time></trkpt>
      <trkpt lat="38.949769" lon="113.505592"><ele>2111</ele><time>2026-06-28T02:12:28Z</time></trkpt>
      <trkpt lat="38.948993" lon="113.505583"><ele>2123</ele><time>2026-06-28T02:13:40Z</time></trkpt>
      <trkpt lat="38.948748" lon="113.505394"><ele>2131</ele><time>2026-06-28T02:14:13Z</time></trkpt>
      <trkpt lat="38.948454" lon="113.505332"><ele>2135</ele><time>2026-06-28T02:14:46Z</time></trkpt>
      <trkpt lat="38.947907" lon="113.505746"><ele>2146</ele><time>2026-06-28T02:15:55Z</time></trkpt>
      <trkpt lat="38.947613" lon="113.50613"><ele>2156</ele><time>2026-06-28T02:16:38Z</time></trkpt>
      <trkpt lat="38.946853" lon="113.50677"><ele>2165</ele><time>2026-06-28T02:18:04Z</time></trkpt>
      <trkpt lat="38.946094" lon="113.507721"><ele>2174</ele><time>2026-06-28T02:19:53Z</time></trkpt>
      <trkpt lat="38.94573" lon="113.508032"><ele>2178</ele><time>2026-06-28T02:20:32Z</time></trkpt>
      <trkpt lat="38.945119" lon="113.508953"><ele>2182</ele><time>2026-06-28T02:21:53Z</time></trkpt>
      <trkpt lat="38.943075" lon="113.511303"><ele>2184</ele><time>2026-06-28T02:25:37Z</time></trkpt>
      <trkpt lat="38.942701" lon="113.511565"><ele>2185</ele><time>2026-06-28T02:26:13Z</time></trkpt>
      <trkpt lat="38.941264" lon="113.512118"><ele>2186</ele><time>2026-06-28T02:28:09Z</time></trkpt>
      <trkpt lat="38.940319" lon="113.512908"><ele>2186</ele><time>2026-06-28T02:30:19Z</time></trkpt>
      <trkpt lat="38.938635" lon="113.513846"><ele>2185</ele><time>2026-06-28T02:32:38Z</time></trkpt>
      <trkpt lat="38.937174" lon="113.514327"><ele>2193</ele><time>2026-06-28T02:35:01Z</time></trkpt>
      <trkpt lat="38.936877" lon="113.514631"><ele>2199</ele><time>2026-06-28T02:35:45Z</time></trkpt>
      <trkpt lat="38.936006" lon="113.515202"><ele>2215</ele><time>2026-06-28T02:37:25Z</time></trkpt>
      <trkpt lat="38.935857" lon="113.515387"><ele>2218</ele><time>2026-06-28T02:37:45Z</time></trkpt>
      <trkpt lat="38.935672" lon="113.515823"><ele>2225</ele><time>2026-06-28T02:38:43Z</time></trkpt>
      <trkpt lat="38.935282" lon="113.516278"><ele>2229</ele><time>2026-06-28T02:39:34Z</time></trkpt>
      <trkpt lat="38.934833" lon="113.516949"><ele>2238</ele><time>2026-06-28T02:40:45Z</time></trkpt>
      <trkpt lat="38.934215" lon="113.517386"><ele>2247</ele><time>2026-06-28T02:42:10Z</time></trkpt>
      <trkpt lat="38.933941" lon="113.517465"><ele>2253</ele><time>2026-06-28T02:42:40Z</time></trkpt>
      <trkpt lat="38.933834" lon="113.517599"><ele>2254</ele><time>2026-06-28T02:42:58Z</time></trkpt>
      <trkpt lat="38.933708" lon="113.517646"><ele>2257</ele><time>2026-06-28T02:43:16Z</time></trkpt>
      <trkpt lat="38.931959" lon="113.517217"><ele>2258</ele><time>2026-06-28T02:45:47Z</time></trkpt>
      <trkpt lat="38.931376" lon="113.51693"><ele>2258</ele><time>2026-06-28T02:46:35Z</time></trkpt>
      <trkpt lat="38.930107" lon="113.51665"><ele>2258</ele><time>2026-06-28T02:48:07Z</time></trkpt>
      <trkpt lat="38.929002" lon="113.516197"><ele>2258</ele><time>2026-06-28T02:49:30Z</time></trkpt>
      <trkpt lat="38.928471" lon="113.516179"><ele>2259</ele><time>2026-06-28T02:50:09Z</time></trkpt>
      <trkpt lat="38.928258" lon="113.516247"><ele>2259</ele><time>2026-06-28T02:50:27Z</time></trkpt>
      <trkpt lat="38.927999" lon="113.51646"><ele>2261</ele><time>2026-06-28T02:50:51Z</time></trkpt>
      <trkpt lat="38.927872" lon="113.516666"><ele>2264</ele><time>2026-06-28T02:51:12Z</time></trkpt>
      <trkpt lat="38.927766" lon="113.516908"><ele>2265</ele><time>2026-06-28T02:51:46Z</time></trkpt>
      <trkpt lat="38.927751" lon="113.517393"><ele>2267</ele><time>2026-06-28T02:52:45Z</time></trkpt>
      <trkpt lat="38.927924" lon="113.518071"><ele>2270</ele><time>2026-06-28T02:53:33Z</time></trkpt>
      <trkpt lat="38.928347" lon="113.518861"><ele>2274</ele><time>2026-06-28T02:54:35Z</time></trkpt>
      <trkpt lat="38.928515" lon="113.519316"><ele>2275</ele><time>2026-06-28T02:55:05Z</time></trkpt>
      <trkpt lat="38.928621" lon="113.520019"><ele>2277</ele><time>2026-06-28T02:55:47Z</time></trkpt>
      <trkpt lat="38.928585" lon="113.520317"><ele>2277</ele><time>2026-06-28T02:56:05Z</time></trkpt>
      <trkpt lat="38.928653" lon="113.52131"><ele>2282</ele><time>2026-06-28T02:57:08Z</time></trkpt>
      <trkpt lat="38.928393" lon="113.52191"><ele>2284</ele><time>2026-06-28T02:57:53Z</time></trkpt>
      <trkpt lat="38.928095" lon="113.523309"><ele>2289</ele><time>2026-06-28T02:59:31Z</time></trkpt>
      <trkpt lat="38.9275" lon="113.524527"><ele>2293</ele><time>2026-06-28T03:01:12Z</time></trkpt>
      <trkpt lat="38.92665" lon="113.525631"><ele>2310</ele><time>2026-06-28T03:03:17Z</time></trkpt>
      <trkpt lat="38.926119" lon="113.526137"><ele>2322</ele><time>2026-06-28T03:04:35Z</time></trkpt>
      <trkpt lat="38.925518" lon="113.526924"><ele>2341</ele><time>2026-06-28T03:06:45Z</time></trkpt>
      <trkpt lat="38.925336" lon="113.527302"><ele>2345</ele><time>2026-06-28T03:07:21Z</time></trkpt>
      <trkpt lat="38.925115" lon="113.528153"><ele>2350</ele><time>2026-06-28T03:08:36Z</time></trkpt>
      <trkpt lat="38.924863" lon="113.528607"><ele>2354</ele><time>2026-06-28T03:09:20Z</time></trkpt>
      <trkpt lat="38.924583" lon="113.528958"><ele>2356</ele><time>2026-06-28T03:09:58Z</time></trkpt>
      <trkpt lat="38.923955" lon="113.530088"><ele>2367</ele><time>2026-06-28T03:12:21Z</time></trkpt>
      <trkpt lat="38.923635" lon="113.531879"><ele>2404</ele><time>2026-06-28T03:15:49Z</time></trkpt>
      <trkpt lat="38.923321" lon="113.532891"><ele>2425</ele><time>2026-06-28T03:17:51Z</time></trkpt>
      <trkpt lat="38.923299" lon="113.533649"><ele>2441</ele><time>2026-06-28T03:19:22Z</time></trkpt>
      <trkpt lat="38.923127" lon="113.534072"><ele>2446</ele><time>2026-06-28T03:20:11Z</time></trkpt>
      <trkpt lat="38.923232" lon="113.534122"><ele>2449</ele><time>2026-06-28T03:21:20Z</time></trkpt>
      <trkpt lat="38.923505" lon="113.534579"><ele>2452</ele><time>2026-06-28T03:22:39Z</time></trkpt>
      <trkpt lat="38.924063" lon="113.53502"><ele>2461</ele><time>2026-06-28T03:23:51Z</time></trkpt>
      <trkpt lat="38.924477" lon="113.535243"><ele>2461</ele><time>2026-06-28T03:49:19Z</time></trkpt>
      <trkpt lat="38.924739" lon="113.535593"><ele>2450</ele><time>2026-06-28T03:50:06Z</time></trkpt>
      <trkpt lat="38.924925" lon="113.535734"><ele>2446</ele><time>2026-06-28T03:50:26Z</time></trkpt>
      <trkpt lat="38.925323" lon="113.535913"><ele>2437</ele><time>2026-06-28T03:51:12Z</time></trkpt>
      <trkpt lat="38.925483" lon="113.535889"><ele>2434</ele><time>2026-06-28T03:51:27Z</time></trkpt>
      <trkpt lat="38.925783" lon="113.53598"><ele>2426</ele><time>2026-06-28T03:51:54Z</time></trkpt>
      <trkpt lat="38.926001" lon="113.536112"><ele>2421</ele><time>2026-06-28T03:52:18Z</time></trkpt>
      <trkpt lat="38.926103" lon="113.536451"><ele>2410</ele><time>2026-06-28T03:52:56Z</time></trkpt>
      <trkpt lat="38.926408" lon="113.536952"><ele>2396</ele><time>2026-06-28T03:54:00Z</time></trkpt>
      <trkpt lat="38.926823" lon="113.537317"><ele>2382</ele><time>2026-06-28T03:54:50Z</time></trkpt>
      <trkpt lat="38.927308" lon="113.537466"><ele>2372</ele><time>2026-06-28T03:55:38Z</time></trkpt>
      <trkpt lat="38.927725" lon="113.537484"><ele>2361</ele><time>2026-06-28T03:56:13Z</time></trkpt>
      <trkpt lat="38.927947" lon="113.537634"><ele>2353</ele><time>2026-06-28T03:56:37Z</time></trkpt>
      <trkpt lat="38.928189" lon="113.537653"><ele>2346</ele><time>2026-06-28T03:57:01Z</time></trkpt>
      <trkpt lat="38.930436" lon="113.538493"><ele>2327</ele><time>2026-06-28T03:59:54Z</time></trkpt>
      <trkpt lat="38.930925" lon="113.538505"><ele>2313</ele><time>2026-06-28T04:00:49Z</time></trkpt>
      <trkpt lat="38.931439" lon="113.538285"><ele>2294</ele><time>2026-06-28T04:01:43Z</time></trkpt>
      <trkpt lat="38.931782" lon="113.538389"><ele>2277</ele><time>2026-06-28T04:02:21Z</time></trkpt>
      <trkpt lat="38.93199" lon="113.538318"><ele>2271</ele><time>2026-06-28T04:02:45Z</time></trkpt>
      <trkpt lat="38.932235" lon="113.538485"><ele>2260</ele><time>2026-06-28T04:03:27Z</time></trkpt>
      <trkpt lat="38.932668" lon="113.538459"><ele>2241</ele><time>2026-06-28T04:04:20Z</time></trkpt>
      <trkpt lat="38.933048" lon="113.538755"><ele>2222</ele><time>2026-06-28T04:05:12Z</time></trkpt>
      <trkpt lat="38.933513" lon="113.53876"><ele>2204</ele><time>2026-06-28T04:05:59Z</time></trkpt>
      <trkpt lat="38.933893" lon="113.538948"><ele>2185</ele><time>2026-06-28T04:06:50Z</time></trkpt>
      <trkpt lat="38.934278" lon="113.538947"><ele>2171</ele><time>2026-06-28T04:07:32Z</time></trkpt>
      <trkpt lat="38.934622" lon="113.539091"><ele>2156</ele><time>2026-06-28T04:08:17Z</time></trkpt>
      <trkpt lat="38.935522" lon="113.539105"><ele>2121</ele><time>2026-06-28T04:12:08Z</time></trkpt>
      <trkpt lat="38.935573" lon="113.539008"><ele>2119</ele><time>2026-06-28T04:12:52Z</time></trkpt>
      <trkpt lat="38.936257" lon="113.538917"><ele>2094</ele><time>2026-06-28T04:13:45Z</time></trkpt>
      <trkpt lat="38.936546" lon="113.539012"><ele>2085</ele><time>2026-06-28T04:14:09Z</time></trkpt>
      <trkpt lat="38.93711" lon="113.538902"><ele>2065</ele><time>2026-06-28T04:14:51Z</time></trkpt>
      <trkpt lat="38.93742" lon="113.539028"><ele>2057</ele><time>2026-06-28T04:15:15Z</time></trkpt>
      <trkpt lat="38.937624" lon="113.538888"><ele>2049</ele><time>2026-06-28T04:15:29Z</time></trkpt>
      <trkpt lat="38.937995" lon="113.538855"><ele>2036</ele><time>2026-06-28T04:15:48Z</time></trkpt>
      <trkpt lat="38.938532" lon="113.538962"><ele>2014</ele><time>2026-06-28T04:16:33Z</time></trkpt>
      <trkpt lat="38.938974" lon="113.538837"><ele>1996</ele><time>2026-06-28T04:17:44Z</time></trkpt>
      <trkpt lat="38.9396" lon="113.538482"><ele>1968</ele><time>2026-06-28T04:19:04Z</time></trkpt>
      <trkpt lat="38.940206" lon="113.53838"><ele>1951</ele><time>2026-06-28T04:20:01Z</time></trkpt>
      <trkpt lat="38.94047" lon="113.538419"><ele>1944</ele><time>2026-06-28T04:20:22Z</time></trkpt>
      <trkpt lat="38.940846" lon="113.538609"><ele>1938</ele><time>2026-06-28T04:20:55Z</time></trkpt>
      <trkpt lat="38.941393" lon="113.538679"><ele>1936</ele><time>2026-06-28T04:21:40Z</time></trkpt>
      <trkpt lat="38.94157" lon="113.538925"><ele>1924</ele><time>2026-06-28T04:22:12Z</time></trkpt>
      <trkpt lat="38.941856" lon="113.539025"><ele>1913</ele><time>2026-06-28T04:22:57Z</time></trkpt>
      <trkpt lat="38.942139" lon="113.53928"><ele>1899</ele><time>2026-06-28T04:23:36Z</time></trkpt>
      <trkpt lat="38.942775" lon="113.539361"><ele>1889</ele><time>2026-06-28T04:24:41Z</time></trkpt>
      <trkpt lat="38.943415" lon="113.538931"><ele>1868</ele><time>2026-06-28T04:25:56Z</time></trkpt>
      <trkpt lat="38.943783" lon="113.5386"><ele>1857</ele><time>2026-06-28T04:26:41Z</time></trkpt>
      <trkpt lat="38.943788" lon="113.538503"><ele>1856</ele><time>2026-06-28T04:26:54Z</time></trkpt>
      <trkpt lat="38.944096" lon="113.538346"><ele>1844</ele><time>2026-06-28T04:27:41Z</time></trkpt>
      <trkpt lat="38.944191" lon="113.538185"><ele>1836</ele><time>2026-06-28T04:28:02Z</time></trkpt>
      <trkpt lat="38.944552" lon="113.538055"><ele>1824</ele><time>2026-06-28T04:28:54Z</time></trkpt>
      <trkpt lat="38.944717" lon="113.537869"><ele>1816</ele><time>2026-06-28T04:29:23Z</time></trkpt>
      <trkpt lat="38.944882" lon="113.537884"><ele>1811</ele><time>2026-06-28T04:29:38Z</time></trkpt>
      <trkpt lat="38.944953" lon="113.537785"><ele>1803</ele><time>2026-06-28T04:29:59Z</time></trkpt>
      <trkpt lat="38.945231" lon="113.537886"><ele>1796</ele><time>2026-06-28T04:30:35Z</time></trkpt>
      <trkpt lat="38.945779" lon="113.537682"><ele>1770</ele><time>2026-06-28T04:31:52Z</time></trkpt>
      <trkpt lat="38.946112" lon="113.537772"><ele>1754</ele><time>2026-06-28T04:32:38Z</time></trkpt>
      <trkpt lat="38.946437" lon="113.537506"><ele>1741</ele><time>2026-06-28T04:33:43Z</time></trkpt>
      <trkpt lat="38.946663" lon="113.537428"><ele>1734</ele><time>2026-06-28T04:34:22Z</time></trkpt>
      <trkpt lat="38.946901" lon="113.53737"><ele>1724</ele><time>2026-06-28T04:34:47Z</time></trkpt>
      <trkpt lat="38.946971" lon="113.537454"><ele>1719</ele><time>2026-06-28T04:34:59Z</time></trkpt>
      <trkpt lat="38.947079" lon="113.537337"><ele>1717</ele><time>2026-06-28T04:35:14Z</time></trkpt>
      <trkpt lat="38.947335" lon="113.537435"><ele>1706</ele><time>2026-06-28T04:35:34Z</time></trkpt>
      <trkpt lat="38.947583" lon="113.537284"><ele>1706</ele><time>2026-06-28T04:36:04Z</time></trkpt>
      <trkpt lat="38.947844" lon="113.537278"><ele>1703</ele><time>2026-06-28T04:36:25Z</time></trkpt>
      <trkpt lat="38.947956" lon="113.537072"><ele>1700</ele><time>2026-06-28T04:36:43Z</time></trkpt>
      <trkpt lat="38.948124" lon="113.537267"><ele>1699</ele><time>2026-06-28T04:37:05Z</time></trkpt>
      <trkpt lat="38.948213" lon="113.537932"><ele>1695</ele><time>2026-06-28T04:37:50Z</time></trkpt>
      <trkpt lat="38.94784" lon="113.539673"><ele>1687</ele><time>2026-06-28T04:39:36Z</time></trkpt>
    </trkseg>
  </trk>
</gpx>
