<?xml version="1.0" encoding="UTF-8"?>
<gpx version="1.1" creator="MyWorld" xmlns="http://www.topografix.com/GPX/1/1">
  <metadata><name>杭州中泰镇越野跑</name></metadata>
  <trk>
    <name>杭州中泰镇越野跑</name>
    <trkseg>
      <trkpt lat="30.248114" lon="119.890134"><ele>11</ele><time>2026-04-18T01:00:11Z</time></trkpt>
      <trkpt lat="30.247676" lon="119.889766"><ele>11</ele><time>2026-04-18T01:00:41Z</time></trkpt>
      <trkpt lat="30.247269" lon="119.889996"><ele>12</ele><time>2026-04-18T01:00:57Z</time></trkpt>
      <trkpt lat="30.246699" lon="119.889732"><ele>16</ele><time>2026-04-18T01:01:21Z</time></trkpt>
      <trkpt lat="30.245564" lon="119.890247"><ele>18</ele><time>2026-04-18T01:02:11Z</time></trkpt>
      <trkpt lat="30.244794" lon="119.890348"><ele>20</ele><time>2026-04-18T01:02:42Z</time></trkpt>
      <trkpt lat="30.244546" lon="119.890241"><ele>21</ele><time>2026-04-18T01:02:52Z</time></trkpt>
      <trkpt lat="30.24381" lon="119.88966"><ele>20</ele><time>2026-04-18T01:03:24Z</time></trkpt>
      <trkpt lat="30.243553" lon="119.889537"><ele>20</ele><time>2026-04-18T01:03:34Z</time></trkpt>
      <trkpt lat="30.243143" lon="119.889536"><ele>18</ele><time>2026-04-18T01:03:48Z</time></trkpt>
      <trkpt lat="30.242483" lon="119.889693"><ele>19</ele><time>2026-04-18T01:04:12Z</time></trkpt>
      <trkpt lat="30.241799" lon="119.889646"><ele>15</ele><time>2026-04-18T01:04:36Z</time></trkpt>
      <trkpt lat="30.241553" lon="119.889546"><ele>16</ele><time>2026-04-18T01:04:44Z</time></trkpt>
      <trkpt lat="30.241117" lon="119.889125"><ele>15</ele><time>2026-04-18T01:05:04Z</time></trkpt>
      <trkpt lat="30.240324" lon="119.888836"><ele>16</ele><time>2026-04-18T01:05:32Z</time></trkpt>
      <trkpt lat="30.240157" lon="119.888835"><ele>15</ele><time>2026-04-18T01:05:38Z</time></trkpt>
      <trkpt lat="30.239923" lon="119.888997"><ele>14</ele><time>2026-04-18T01:05:48Z</time></trkpt>
      <trkpt lat="30.23697" lon="119.885451"><ele>15</ele><time>2026-04-18T01:08:21Z</time></trkpt>
      <trkpt lat="30.236614" lon="119.885202"><ele>14</ele><time>2026-04-18T01:08:37Z</time></trkpt>
      <trkpt lat="30.236355" lon="119.884119"><ele>15</ele><time>2026-04-18T01:09:14Z</time></trkpt>
      <trkpt lat="30.236278" lon="119.884089"><ele>14</ele><time>2026-04-18T01:09:18Z</time></trkpt>
      <trkpt lat="30.235969" lon="119.884261"><ele>14</ele><time>2026-04-18T01:09:30Z</time></trkpt>
      <trkpt lat="30.235817" lon="119.884167"><ele>15</ele><time>2026-04-18T01:09:36Z</time></trkpt>
      <trkpt lat="30.235484" lon="119.883222"><ele>14</ele><time>2026-04-18T01:10:08Z</time></trkpt>
      <trkpt lat="30.23489" lon="119.882362"><ele>15</ele><time>2026-04-18T01:10:44Z</time></trkpt>
      <trkpt lat="30.233958" lon="119.88122"><ele>16</ele><time>2026-04-18T01:11:36Z</time></trkpt>
      <trkpt lat="30.233599" lon="119.880592"><ele>15</ele><time>2026-04-18T01:12:01Z</time></trkpt>
      <trkpt lat="30.232718" lon="119.881104"><ele>16</ele><time>2026-04-18T01:12:41Z</time></trkpt>
      <trkpt lat="30.232323" lon="119.88178"><ele>19</ele><time>2026-04-18T01:13:15Z</time></trkpt>
      <trkpt lat="30.232153" lon="119.881906"><ele>18</ele><time>2026-04-18T01:13:23Z</time></trkpt>
      <trkpt lat="30.231937" lon="119.88196"><ele>19</ele><time>2026-04-18T01:13:31Z</time></trkpt>
      <trkpt lat="30.231554" lon="119.881869"><ele>19</ele><time>2026-04-18T01:13:45Z</time></trkpt>
      <trkpt lat="30.230418" lon="119.881365"><ele>19</ele><time>2026-04-18T01:14:32Z</time></trkpt>
      <trkpt lat="30.229964" lon="119.881306"><ele>19</ele><time>2026-04-18T01:14:50Z</time></trkpt>
      <trkpt lat="30.229719" lon="119.881207"><ele>19</ele><time>2026-04-18T01:15:00Z</time></trkpt>
      <trkpt lat="30.2295" lon="119.881043"><ele>20</ele><time>2026-04-18T01:15:10Z</time></trkpt>
      <trkpt lat="30.229298" lon="119.880604"><ele>20</ele><time>2026-04-18T01:15:26Z</time></trkpt>
      <trkpt lat="30.228663" lon="119.880025"><ele>19</ele><time>2026-04-18T01:15:58Z</time></trkpt>
      <trkpt lat="30.22804" lon="119.87981"><ele>19</ele><time>2026-04-18T01:16:24Z</time></trkpt>
      <trkpt lat="30.227682" lon="119.879756"><ele>20</ele><time>2026-04-18T01:16:39Z</time></trkpt>
      <trkpt lat="30.227566" lon="119.87978"><ele>20</ele><time>2026-04-18T01:16:44Z</time></trkpt>
      <trkpt lat="30.227379" lon="119.87998"><ele>20</ele><time>2026-04-18T01:16:54Z</time></trkpt>
      <trkpt lat="30.227281" lon="119.879984"><ele>21</ele><time>2026-04-18T01:16:58Z</time></trkpt>
      <trkpt lat="30.226707" lon="119.87958"><ele>23</ele><time>2026-04-18T01:17:23Z</time></trkpt>
      <trkpt lat="30.22638" lon="119.87944"><ele>22</ele><time>2026-04-18T01:17:38Z</time></trkpt>
      <trkpt lat="30.226102" lon="119.879476"><ele>23</ele><time>2026-04-18T01:17:50Z</time></trkpt>
      <trkpt lat="30.225847" lon="119.879751"><ele>24</ele><time>2026-04-18T01:18:04Z</time></trkpt>
      <trkpt lat="30.225749" lon="119.879762"><ele>25</ele><time>2026-04-18T01:18:08Z</time></trkpt>
      <trkpt lat="30.22537" lon="119.879449"><ele>26</ele><time>2026-04-18T01:18:26Z</time></trkpt>
      <trkpt lat="30.224887" lon="119.879233"><ele>27</ele><time>2026-04-18T01:18:47Z</time></trkpt>
      <trkpt lat="30.224598" lon="119.879209"><ele>26</ele><time>2026-04-18T01:18:59Z</time></trkpt>
      <trkpt lat="30.224146" lon="119.879331"><ele>27</ele><time>2026-04-18T01:19:18Z</time></trkpt>
      <trkpt lat="30.223797" lon="119.879629"><ele>31</ele><time>2026-04-18T01:19:36Z</time></trkpt>
      <trkpt lat="30.223117" lon="119.879869"><ele>33</ele><time>2026-04-18T01:20:06Z</time></trkpt>
      <trkpt lat="30.222369" lon="119.879803"><ele>35</ele><time>2026-04-18T01:20:37Z</time></trkpt>
      <trkpt lat="30.221615" lon="119.880039"><ele>40</ele><time>2026-04-18T01:21:11Z</time></trkpt>
      <trkpt lat="30.221125" lon="119.879955"><ele>41</ele><time>2026-04-18T01:21:32Z</time></trkpt>
      <trkpt lat="30.220758" lon="119.879598"><ele>44</ele><time>2026-04-18T01:21:55Z</time></trkpt>
      <trkpt lat="30.220514" lon="119.879881"><ele>48</ele><time>2026-04-18T01:22:20Z</time></trkpt>
      <trkpt lat="30.21988" lon="119.880189"><ele>59</ele><time>2026-04-18T01:23:46Z</time></trkpt>
      <trkpt lat="30.219586" lon="119.880414"><ele>64</ele><time>2026-04-18T01:24:33Z</time></trkpt>
      <trkpt lat="30.219043" lon="119.880526"><ele>76</ele><time>2026-04-18T01:25:37Z</time></trkpt>
      <trkpt lat="30.21876" lon="119.880673"><ele>83</ele><time>2026-04-18T01:26:23Z</time></trkpt>
      <trkpt lat="30.218688" lon="119.881035"><ele>93</ele><time>2026-04-18T01:27:29Z</time></trkpt>
      <trkpt lat="30.218703" lon="119.881724"><ele>118</ele><time>2026-04-18T01:29:52Z</time></trkpt>
      <trkpt lat="30.218628" lon="119.881792"><ele>120</ele><time>2026-04-18T01:30:17Z</time></trkpt>
      <trkpt lat="30.21853" lon="119.882171"><ele>131</ele><time>2026-04-18T01:31:20Z</time></trkpt>
      <trkpt lat="30.218287" lon="119.882628"><ele>134</ele><time>2026-04-18T01:32:05Z</time></trkpt>
      <trkpt lat="30.218282" lon="119.88292"><ele>133</ele><time>2026-04-18T01:33:06Z</time></trkpt>
      <trkpt lat="30.218182" lon="119.883336"><ele>120</ele><time>2026-04-18T01:35:53Z</time></trkpt>
      <trkpt lat="30.217859" lon="119.883628"><ele>104</ele><time>2026-04-18T01:37:57Z</time></trkpt>
      <trkpt lat="30.217408" lon="119.884559"><ele>83</ele><time>2026-04-18T01:39:02Z</time></trkpt>
      <trkpt lat="30.216935" lon="119.88483"><ele>77</ele><time>2026-04-18T01:39:22Z</time></trkpt>
      <trkpt lat="30.21657" lon="119.885205"><ele>65</ele><time>2026-04-18T01:39:39Z</time></trkpt>
      <trkpt lat="30.216375" lon="119.884988"><ele>66</ele><time>2026-04-18T01:39:50Z</time></trkpt>
      <trkpt lat="30.216239" lon="119.884498"><ele>75</ele><time>2026-04-18T01:40:09Z</time></trkpt>
      <trkpt lat="30.215971" lon="119.883862"><ele>80</ele><time>2026-04-18T01:40:37Z</time></trkpt>
      <trkpt lat="30.215384" lon="119.883309"><ele>89</ele><time>2026-04-18T01:41:26Z</time></trkpt>
      <trkpt lat="30.215105" lon="119.883145"><ele>95</ele><time>2026-04-18T01:41:57Z</time></trkpt>
      <trkpt lat="30.214846" lon="119.882718"><ele>100</ele><time>2026-04-18T01:42:36Z</time></trkpt>
      <trkpt lat="30.214679" lon="119.882253"><ele>102</ele><time>2026-04-18T01:42:55Z</time></trkpt>
      <trkpt lat="30.21469" lon="119.881867"><ele>109</ele><time>2026-04-18T01:43:22Z</time></trkpt>
      <trkpt lat="30.214538" lon="119.881518"><ele>117</ele><time>2026-04-18T01:43:56Z</time></trkpt>
      <trkpt lat="30.214268" lon="119.881335"><ele>126</ele><time>2026-04-18T01:44:43Z</time></trkpt>
      <trkpt lat="30.213873" lon="119.881313"><ele>127</ele><time>2026-04-18T01:45:14Z</time></trkpt>
      <trkpt lat="30.213457" lon="119.880548"><ele>110</ele><time>2026-04-18T01:46:17Z</time></trkpt>
      <trkpt lat="30.213264" lon="119.880279"><ele>98</ele><time>2026-04-18T01:46:44Z</time></trkpt>
      <trkpt lat="30.213027" lon="119.880081"><ele>90</ele><time>2026-04-18T01:47:15Z</time></trkpt>
      <trkpt lat="30.212688" lon="119.879941"><ele>77</ele><time>2026-04-18T01:47:49Z</time></trkpt>
      <trkpt lat="30.212584" lon="119.880004"><ele>75</ele><time>2026-04-18T01:47:58Z</time></trkpt>
      <trkpt lat="30.212292" lon="119.879934"><ele>67</ele><time>2026-04-18T01:48:19Z</time></trkpt>
      <trkpt lat="30.211927" lon="119.880096"><ele>63</ele><time>2026-04-18T01:48:43Z</time></trkpt>
      <trkpt lat="30.211612" lon="119.880422"><ele>61</ele><time>2026-04-18T01:48:55Z</time></trkpt>
      <trkpt lat="30.211296" lon="119.881013"><ele>53</ele><time>2026-04-18T01:49:13Z</time></trkpt>
      <trkpt lat="30.211113" lon="119.881519"><ele>48</ele><time>2026-04-18T01:49:27Z</time></trkpt>
      <trkpt lat="30.211033" lon="119.881603"><ele>47</ele><time>2026-04-18T01:49:31Z</time></trkpt>
      <trkpt lat="30.21099" lon="119.881572"><ele>47</ele><time>2026-04-18T01:49:33Z</time></trkpt>
      <trkpt lat="30.210483" lon="119.880495"><ele>48</ele><time>2026-04-18T01:50:09Z</time></trkpt>
      <trkpt lat="30.210127" lon="119.879086"><ele>48</ele><time>2026-04-18T01:50:57Z</time></trkpt>
      <trkpt lat="30.209722" lon="119.878561"><ele>50</ele><time>2026-04-18T01:51:22Z</time></trkpt>
      <trkpt lat="30.208564" lon="119.876102"><ele>54</ele><time>2026-04-18T01:53:00Z</time></trkpt>
      <trkpt lat="30.208142" lon="119.875747"><ele>52</ele><time>2026-04-18T01:53:21Z</time></trkpt>
      <trkpt lat="30.208077" lon="119.875572"><ele>52</ele><time>2026-04-18T01:53:28Z</time></trkpt>
      <trkpt lat="30.208245" lon="119.875591"><ele>52</ele><time>2026-04-18T01:53:37Z</time></trkpt>
      <trkpt lat="30.208084" lon="119.875543"><ele>52</ele><time>2026-04-18T01:54:56Z</time></trkpt>
      <trkpt lat="30.207596" lon="119.874699"><ele>52</ele><time>2026-04-18T01:55:26Z</time></trkpt>
      <trkpt lat="30.207045" lon="119.874261"><ele>53</ele><time>2026-04-18T01:55:50Z</time></trkpt>
      <trkpt lat="30.206267" lon="119.873884"><ele>55</ele><time>2026-04-18T01:56:22Z</time></trkpt>
      <trkpt lat="30.204935" lon="119.872852"><ele>59</ele><time>2026-04-18T01:57:41Z</time></trkpt>
      <trkpt lat="30.203984" lon="119.872804"><ele>58</ele><time>2026-04-18T01:58:16Z</time></trkpt>
      <trkpt lat="30.203772" lon="119.872726"><ele>58</ele><time>2026-04-18T01:58:24Z</time></trkpt>
      <trkpt lat="30.203616" lon="119.872533"><ele>58</ele><time>2026-04-18T01:58:32Z</time></trkpt>
      <trkpt lat="30.20345" lon="119.871675"><ele>58</ele><time>2026-04-18T01:59:02Z</time></trkpt>
      <trkpt lat="30.203382" lon="119.871584"><ele>57</ele><time>2026-04-18T01:59:07Z</time></trkpt>
      <trkpt lat="30.20275" lon="119.871399"><ele>59</ele><time>2026-04-18T01:59:33Z</time></trkpt>
      <trkpt lat="30.201244" lon="119.870675"><ele>64</ele><time>2026-04-18T02:00:40Z</time></trkpt>
      <trkpt lat="30.20067" lon="119.870523"><ele>64</ele><time>2026-04-18T02:01:06Z</time></trkpt>
      <trkpt lat="30.200536" lon="119.87069"><ele>64</ele><time>2026-04-18T02:01:21Z</time></trkpt>
      <trkpt lat="30.200446" lon="119.870696"><ele>65</ele><time>2026-04-18T02:01:26Z</time></trkpt>
      <trkpt lat="30.200105" lon="119.870362"><ele>66</ele><time>2026-04-18T02:01:42Z</time></trkpt>
      <trkpt lat="30.200125" lon="119.870056"><ele>63</ele><time>2026-04-18T02:01:56Z</time></trkpt>
      <trkpt lat="30.199824" lon="119.86995"><ele>64</ele><time>2026-04-18T02:02:08Z</time></trkpt>
      <trkpt lat="30.199764" lon="119.869863"><ele>65</ele><time>2026-04-18T02:02:12Z</time></trkpt>
      <trkpt lat="30.199895" lon="119.869372"><ele>64</ele><time>2026-04-18T02:02:28Z</time></trkpt>
      <trkpt lat="30.199902" lon="119.869005"><ele>70</ele><time>2026-04-18T02:02:50Z</time></trkpt>
      <trkpt lat="30.199116" lon="119.868226"><ele>69</ele><time>2026-04-18T02:03:29Z</time></trkpt>
      <trkpt lat="30.198858" lon="119.868129"><ele>68</ele><time>2026-04-18T02:03:41Z</time></trkpt>
      <trkpt lat="30.198418" lon="119.867658"><ele>70</ele><time>2026-04-18T02:04:09Z</time></trkpt>
      <trkpt lat="30.197965" lon="119.867454"><ele>70</ele><time>2026-04-18T02:04:32Z</time></trkpt>
      <trkpt lat="30.197696" lon="119.867238"><ele>71</ele><time>2026-04-18T02:04:44Z</time></trkpt>
      <trkpt lat="30.197589" lon="119.867017"><ele>71</ele><time>2026-04-18T02:04:52Z</time></trkpt>
      <trkpt lat="30.197412" lon="119.866294"><ele>71</ele><time>2026-04-18T02:05:22Z</time></trkpt>
      <trkpt lat="30.197354" lon="119.865649"><ele>71</ele><time>2026-04-18T02:05:45Z</time></trkpt>
      <trkpt lat="30.197564" lon="119.865082"><ele>73</ele><time>2026-04-18T02:06:07Z</time></trkpt>
      <trkpt lat="30.197985" lon="119.864727"><ele>79</ele><time>2026-04-18T02:06:38Z</time></trkpt>
      <trkpt lat="30.198149" lon="119.864688"><ele>82</ele><time>2026-04-18T02:06:49Z</time></trkpt>
      <trkpt lat="30.198386" lon="119.864315"><ele>83</ele><time>2026-04-18T02:07:17Z</time></trkpt>
      <trkpt lat="30.198767" lon="119.864011"><ele>86</ele><time>2026-04-18T02:07:49Z</time></trkpt>
      <trkpt lat="30.198931" lon="119.863752"><ele>89</ele><time>2026-04-18T02:08:06Z</time></trkpt>
      <trkpt lat="30.198984" lon="119.863451"><ele>94</ele><time>2026-04-18T02:08:22Z</time></trkpt>
      <trkpt lat="30.199119" lon="119.863192"><ele>97</ele><time>2026-04-18T02:08:41Z</time></trkpt>
      <trkpt lat="30.199561" lon="119.862851"><ele>108</ele><time>2026-04-18T02:09:22Z</time></trkpt>
      <trkpt lat="30.199802" lon="119.862502"><ele>113</ele><time>2026-04-18T02:10:01Z</time></trkpt>
      <trkpt lat="30.199997" lon="119.862427"><ele>119</ele><time>2026-04-18T02:10:20Z</time></trkpt>
      <trkpt lat="30.200143" lon="119.862259"><ele>124</ele><time>2026-04-18T02:10:39Z</time></trkpt>
      <trkpt lat="30.200416" lon="119.862154"><ele>131</ele><time>2026-04-18T02:11:25Z</time></trkpt>
      <trkpt lat="30.200463" lon="119.861881"><ele>151</ele><time>2026-04-18T02:12:16Z</time></trkpt>
      <trkpt lat="30.200396" lon="119.861813"><ele>158</ele><time>2026-04-18T02:12:33Z</time></trkpt>
      <trkpt lat="30.200571" lon="119.861146"><ele>184</ele><time>2026-04-18T02:14:13Z</time></trkpt>
      <trkpt lat="30.200763" lon="119.861079"><ele>197</ele><time>2026-04-18T02:14:47Z</time></trkpt>
      <trkpt lat="30.200876" lon="119.860685"><ele>209</ele><time>2026-04-18T02:15:32Z</time></trkpt>
      <trkpt lat="30.201023" lon="119.860453"><ele>213</ele><time>2026-04-18T02:16:08Z</time></trkpt>
      <trkpt lat="30.201378" lon="119.860225"><ele>230</ele><time>2026-04-18T02:17:07Z</time></trkpt>
      <trkpt lat="30.201371" lon="119.860067"><ele>229</ele><time>2026-04-18T02:17:19Z</time></trkpt>
      <trkpt lat="30.201717" lon="119.859278"><ele>243</ele><time>2026-04-18T02:18:21Z</time></trkpt>
      <trkpt lat="30.201737" lon="119.859001"><ele>245</ele><time>2026-04-18T02:18:39Z</time></trkpt>
      <trkpt lat="30.201804" lon="119.858885"><ele>244</ele><time>2026-04-18T02:18:47Z</time></trkpt>
      <trkpt lat="30.201998" lon="119.858721"><ele>251</ele><time>2026-04-18T02:19:10Z</time></trkpt>
      <trkpt lat="30.202304" lon="119.85872"><ele>256</ele><time>2026-04-18T02:19:44Z</time></trkpt>
      <trkpt lat="30.202555" lon="119.858447"><ele>259</ele><time>2026-04-18T02:20:07Z</time></trkpt>
      <trkpt lat="30.202676" lon="119.858177"><ele>265</ele><time>2026-04-18T02:20:26Z</time></trkpt>
      <trkpt lat="30.203518" lon="119.857642"><ele>260</ele><time>2026-04-18T02:21:09Z</time></trkpt>
      <trkpt lat="30.203673" lon="119.85765"><ele>260</ele><time>2026-04-18T02:21:15Z</time></trkpt>
      <trkpt lat="30.203823" lon="119.857791"><ele>263</ele><time>2026-04-18T02:21:24Z</time></trkpt>
      <trkpt lat="30.204073" lon="119.857802"><ele>265</ele><time>2026-04-18T02:21:39Z</time></trkpt>
      <trkpt lat="30.204259" lon="119.857941"><ele>264</ele><time>2026-04-18T02:21:51Z</time></trkpt>
      <trkpt lat="30.204655" lon="119.8578"><ele>254</ele><time>2026-04-18T02:22:11Z</time></trkpt>
      <trkpt lat="30.204904" lon="119.857818"><ele>249</ele><time>2026-04-18T02:22:21Z</time></trkpt>
      <trkpt lat="30.205181" lon="119.858436"><ele>239</ele><time>2026-04-18T02:22:52Z</time></trkpt>
      <trkpt lat="30.205528" lon="119.858556"><ele>230</ele><time>2026-04-18T02:23:07Z</time></trkpt>
      <trkpt lat="30.205833" lon="119.858483"><ele>219</ele><time>2026-04-18T02:23:23Z</time></trkpt>
      <trkpt lat="30.206444" lon="119.85863"><ele>210</ele><time>2026-04-18T02:23:54Z</time></trkpt>
      <trkpt lat="30.206962" lon="119.858805"><ele>203</ele><time>2026-04-18T02:24:10Z</time></trkpt>
      <trkpt lat="30.207361" lon="119.859154"><ele>204</ele><time>2026-04-18T02:24:31Z</time></trkpt>
      <trkpt lat="30.207793" lon="119.85913"><ele>209</ele><time>2026-04-18T02:24:51Z</time></trkpt>
      <trkpt lat="30.208112" lon="119.859255"><ele>210</ele><time>2026-04-18T02:25:05Z</time></trkpt>
      <trkpt lat="30.208247" lon="119.859365"><ele>210</ele><time>2026-04-18T02:25:11Z</time></trkpt>
      <trkpt lat="30.208292" lon="119.859486"><ele>211</ele><time>2026-04-18T02:25:15Z</time></trkpt>
      <trkpt lat="30.208225" lon="119.860137"><ele>209</ele><time>2026-04-18T02:25:35Z</time></trkpt>
      <trkpt lat="30.208249" lon="119.860456"><ele>207</ele><time>2026-04-18T02:25:45Z</time></trkpt>
      <trkpt lat="30.208342" lon="119.860607"><ele>206</ele><time>2026-04-18T02:25:51Z</time></trkpt>
      <trkpt lat="30.20871" lon="119.860794"><ele>208</ele><time>2026-04-18T02:26:05Z</time></trkpt>
      <trkpt lat="30.209025" lon="119.860807"><ele>204</ele><time>2026-04-18T02:26:16Z</time></trkpt>
      <trkpt lat="30.209199" lon="119.860706"><ele>201</ele><time>2026-04-18T02:26:22Z</time></trkpt>
      <trkpt lat="30.209614" lon="119.860251"><ele>196</ele><time>2026-04-18T02:26:37Z</time></trkpt>
      <trkpt lat="30.209886" lon="119.860198"><ele>193</ele><time>2026-04-18T02:26:45Z</time></trkpt>
      <trkpt lat="30.210148" lon="119.860586"><ele>189</ele><time>2026-04-18T02:26:56Z</time></trkpt>
      <trkpt lat="30.210416" lon="119.86127"><ele>185</ele><time>2026-04-18T02:27:16Z</time></trkpt>
      <trkpt lat="30.211418" lon="119.861767"><ele>172</ele><time>2026-04-18T02:27:44Z</time></trkpt>
      <trkpt lat="30.211598" lon="119.861741"><ele>170</ele><time>2026-04-18T02:27:50Z</time></trkpt>
      <trkpt lat="30.211823" lon="119.861597"><ele>172</ele><time>2026-04-18T02:28:00Z</time></trkpt>
      <trkpt lat="30.212145" lon="119.861057"><ele>172</ele><time>2026-04-18T02:28:20Z</time></trkpt>
      <trkpt lat="30.212431" lon="119.861087"><ele>167</ele><time>2026-04-18T02:28:27Z</time></trkpt>
      <trkpt lat="30.212532" lon="119.861038"><ele>164</ele><time>2026-04-18T02:28:30Z</time></trkpt>
      <trkpt lat="30.212559" lon="119.860912"><ele>162</ele><time>2026-04-18T02:28:34Z</time></trkpt>
      <trkpt lat="30.212487" lon="119.860754"><ele>161</ele><time>2026-04-18T02:28:38Z</time></trkpt>
      <trkpt lat="30.211991" lon="119.860259"><ele>162</ele><time>2026-04-18T02:28:58Z</time></trkpt>
      <trkpt lat="30.211969" lon="119.859959"><ele>160</ele><time>2026-04-18T02:29:06Z</time></trkpt>
      <trkpt lat="30.212099" lon="119.859767"><ele>159</ele><time>2026-04-18T02:29:11Z</time></trkpt>
      <trkpt lat="30.212496" lon="119.859506"><ele>153</ele><time>2026-04-18T02:29:25Z</time></trkpt>
      <trkpt lat="30.212827" lon="119.858953"><ele>152</ele><time>2026-04-18T02:29:47Z</time></trkpt>
      <trkpt lat="30.21307" lon="119.858823"><ele>152</ele><time>2026-04-18T02:29:57Z</time></trkpt>
      <trkpt lat="30.213235" lon="119.858811"><ele>150</ele><time>2026-04-18T02:30:03Z</time></trkpt>
      <trkpt lat="30.213366" lon="119.858926"><ele>149</ele><time>2026-04-18T02:30:09Z</time></trkpt>
      <trkpt lat="30.213436" lon="119.859126"><ele>148</ele><time>2026-04-18T02:30:15Z</time></trkpt>
      <trkpt lat="30.213468" lon="119.859787"><ele>140</ele><time>2026-04-18T02:30:31Z</time></trkpt>
      <trkpt lat="30.213421" lon="119.86002"><ele>137</ele><time>2026-04-18T02:30:36Z</time></trkpt>
      <trkpt lat="30.213236" lon="119.860354"><ele>131</ele><time>2026-04-18T02:30:44Z</time></trkpt>
      <trkpt lat="30.21323" lon="119.860568"><ele>129</ele><time>2026-04-18T02:30:49Z</time></trkpt>
      <trkpt lat="30.213418" lon="119.861068"><ele>125</ele><time>2026-04-18T02:31:03Z</time></trkpt>
      <trkpt lat="30.213555" lon="119.862065"><ele>122</ele><time>2026-04-18T02:31:26Z</time></trkpt>
      <trkpt lat="30.213737" lon="119.862375"><ele>115</ele><time>2026-04-18T02:32:00Z</time></trkpt>
      <trkpt lat="30.214086" lon="119.862537"><ele>111</ele><time>2026-04-18T02:32:54Z</time></trkpt>
      <trkpt lat="30.214462" lon="119.862619"><ele>108</ele><time>2026-04-18T02:33:04Z</time></trkpt>
      <trkpt lat="30.214872" lon="119.862939"><ele>102</ele><time>2026-04-18T02:33:17Z</time></trkpt>
      <trkpt lat="30.215746" lon="119.863159"><ele>93</ele><time>2026-04-18T02:33:54Z</time></trkpt>
      <trkpt lat="30.216237" lon="119.863388"><ele>92</ele><time>2026-04-18T02:34:12Z</time></trkpt>
      <trkpt lat="30.216759" lon="119.863454"><ele>89</ele><time>2026-04-18T02:34:30Z</time></trkpt>
      <trkpt lat="30.217265" lon="119.863226"><ele>93</ele><time>2026-04-18T02:34:50Z</time></trkpt>
      <trkpt lat="30.217734" lon="119.863116"><ele>87</ele><time>2026-04-18T02:35:06Z</time></trkpt>
      <trkpt lat="30.218084" lon="119.862797"><ele>86</ele><time>2026-04-18T02:35:22Z</time></trkpt>
      <trkpt lat="30.218787" lon="119.862917"><ele>77</ele><time>2026-04-18T02:35:44Z</time></trkpt>
      <trkpt lat="30.219383" lon="119.862658"><ele>68</ele><time>2026-04-18T02:36:02Z</time></trkpt>
      <trkpt lat="30.219575" lon="119.862815"><ele>63</ele><time>2026-04-18T02:36:08Z</time></trkpt>
      <trkpt lat="30.21998" lon="119.863451"><ele>52</ele><time>2026-04-18T02:36:26Z</time></trkpt>
      <trkpt lat="30.220861" lon="119.862934"><ele>46</ele><time>2026-04-18T02:36:58Z</time></trkpt>
      <trkpt lat="30.221026" lon="119.86258"><ele>45</ele><time>2026-04-18T02:37:10Z</time></trkpt>
      <trkpt lat="30.221346" lon="119.862264"><ele>39</ele><time>2026-04-18T02:37:24Z</time></trkpt>
      <trkpt lat="30.221567" lon="119.86176"><ele>36</ele><time>2026-04-18T02:37:42Z</time></trkpt>
      <trkpt lat="30.222079" lon="119.861116"><ele>37</ele><time>2026-04-18T02:38:10Z</time></trkpt>
      <trkpt lat="30.222234" lon="119.860604"><ele>36</ele><time>2026-04-18T02:38:28Z</time></trkpt>
      <trkpt lat="30.223402" lon="119.860204"><ele>35</ele><time>2026-04-18T02:39:15Z</time></trkpt>
      <trkpt lat="30.223435" lon="119.860024"><ele>36</ele><time>2026-04-18T02:39:22Z</time></trkpt>
      <trkpt lat="30.223235" lon="119.85957"><ele>37</ele><time>2026-04-18T02:39:38Z</time></trkpt>
      <trkpt lat="30.223354" lon="119.858889"><ele>37</ele><time>2026-04-18T02:40:02Z</time></trkpt>
      <trkpt lat="30.223855" lon="119.858986"><ele>39</ele><time>2026-04-18T02:40:27Z</time></trkpt>
      <trkpt lat="30.224075" lon="119.858898"><ele>40</ele><time>2026-04-18T02:40:38Z</time></trkpt>
      <trkpt lat="30.224551" lon="119.858293"><ele>44</ele><time>2026-04-18T02:41:21Z</time></trkpt>
      <trkpt lat="30.224694" lon="119.857925"><ele>49</ele><time>2026-04-18T02:41:48Z</time></trkpt>
      <trkpt lat="30.224902" lon="119.857726"><ele>55</ele><time>2026-04-18T02:42:08Z</time></trkpt>
      <trkpt lat="30.225187" lon="119.857589"><ele>60</ele><time>2026-04-18T02:42:24Z</time></trkpt>
      <trkpt lat="30.225307" lon="119.857432"><ele>62</ele><time>2026-04-18T02:42:31Z</time></trkpt>
      <trkpt lat="30.225349" lon="119.857296"><ele>64</ele><time>2026-04-18T02:42:38Z</time></trkpt>
      <trkpt lat="30.225274" lon="119.856437"><ele>63</ele><time>2026-04-18T02:43:27Z</time></trkpt>
      <trkpt lat="30.225328" lon="119.856337"><ele>63</ele><time>2026-04-18T02:43:34Z</time></trkpt>
      <trkpt lat="30.225621" lon="119.85592"><ele>75</ele><time>2026-04-18T02:44:15Z</time></trkpt>
      <trkpt lat="30.226239" lon="119.855642"><ele>86</ele><time>2026-04-18T02:45:13Z</time></trkpt>
      <trkpt lat="30.226437" lon="119.855359"><ele>91</ele><time>2026-04-18T02:45:37Z</time></trkpt>
      <trkpt lat="30.226834" lon="119.854215"><ele>127</ele><time>2026-04-18T02:47:22Z</time></trkpt>
      <trkpt lat="30.22685" lon="119.853512"><ele>147</ele><time>2026-04-18T02:48:57Z</time></trkpt>
      <trkpt lat="30.226983" lon="119.852859"><ele>168</ele><time>2026-04-18T02:50:55Z</time></trkpt>
      <trkpt lat="30.226946" lon="119.852589"><ele>187</ele><time>2026-04-18T02:51:46Z</time></trkpt>
      <trkpt lat="30.226818" lon="119.852468"><ele>209</ele><time>2026-04-18T02:52:49Z</time></trkpt>
      <trkpt lat="30.226626" lon="119.85246"><ele>215</ele><time>2026-04-18T02:53:28Z</time></trkpt>
      <trkpt lat="30.226206" lon="119.852615"><ele>234</ele><time>2026-04-18T02:55:57Z</time></trkpt>
      <trkpt lat="30.225895" lon="119.852538"><ele>256</ele><time>2026-04-18T02:58:00Z</time></trkpt>
      <trkpt lat="30.225828" lon="119.852456"><ele>261</ele><time>2026-04-18T02:58:35Z</time></trkpt>
      <trkpt lat="30.225874" lon="119.852291"><ele>268</ele><time>2026-04-18T02:59:13Z</time></trkpt>
      <trkpt lat="30.225821" lon="119.852016"><ele>279</ele><time>2026-04-18T03:00:22Z</time></trkpt>
      <trkpt lat="30.22589" lon="119.851346"><ele>281</ele><time>2026-04-18T03:01:33Z</time></trkpt>
      <trkpt lat="30.226049" lon="119.850978"><ele>291</ele><time>2026-04-18T03:02:35Z</time></trkpt>
      <trkpt lat="30.226272" lon="119.850876"><ele>303</ele><time>2026-04-18T03:03:25Z</time></trkpt>
      <trkpt lat="30.226372" lon="119.850728"><ele>315</ele><time>2026-04-18T03:04:39Z</time></trkpt>
      <trkpt lat="30.226499" lon="119.850714"><ele>315</ele><time>2026-04-18T03:05:03Z</time></trkpt>
      <trkpt lat="30.227453" lon="119.851781"><ele>249</ele><time>2026-04-18T03:09:12Z</time></trkpt>
      <trkpt lat="30.227555" lon="119.852208"><ele>241</ele><time>2026-04-18T03:09:41Z</time></trkpt>
      <trkpt lat="30.227881" lon="119.852721"><ele>227</ele><time>2026-04-18T03:10:28Z</time></trkpt>
      <trkpt lat="30.227988" lon="119.853062"><ele>223</ele><time>2026-04-18T03:10:50Z</time></trkpt>
      <trkpt lat="30.228167" lon="119.853186"><ele>217</ele><time>2026-04-18T03:11:02Z</time></trkpt>
      <trkpt lat="30.2286" lon="119.853276"><ele>206</ele><time>2026-04-18T03:11:22Z</time></trkpt>
      <trkpt lat="30.228883" lon="119.853537"><ele>199</ele><time>2026-04-18T03:11:46Z</time></trkpt>
      <trkpt lat="30.228995" lon="119.853464"><ele>196</ele><time>2026-04-18T03:12:06Z</time></trkpt>
      <trkpt lat="30.229212" lon="119.853623"><ele>188</ele><time>2026-04-18T03:12:30Z</time></trkpt>
      <trkpt lat="30.229433" lon="119.853598"><ele>181</ele><time>2026-04-18T03:13:02Z</time></trkpt>
      <trkpt lat="30.229506" lon="119.853659"><ele>176</ele><time>2026-04-18T03:13:21Z</time></trkpt>
      <trkpt lat="30.229701" lon="119.853594"><ele>161</ele><time>2026-04-18T03:13:57Z</time></trkpt>
      <trkpt lat="30.229804" lon="119.853627"><ele>156</ele><time>2026-04-18T03:14:12Z</time></trkpt>
      <trkpt lat="30.229871" lon="119.853567"><ele>150</ele><time>2026-04-18T03:14:18Z</time></trkpt>
      <trkpt lat="30.230179" lon="119.853747"><ele>135</ele><time>2026-04-18T03:14:59Z</time></trkpt>
      <trkpt lat="30.230483" lon="119.853687"><ele>126</ele><time>2026-04-18T03:15:13Z</time></trkpt>
      <trkpt lat="30.230746" lon="119.853717"><ele>122</ele><time>2026-04-18T03:15:24Z</time></trkpt>
      <trkpt lat="30.230875" lon="119.853556"><ele>114</ele><time>2026-04-18T03:15:42Z</time></trkpt>
      <trkpt lat="30.231219" lon="119.853448"><ele>106</ele><time>2026-04-18T03:16:01Z</time></trkpt>
      <trkpt lat="30.231574" lon="119.85354"><ele>100</ele><time>2026-04-18T03:16:24Z</time></trkpt>
      <trkpt lat="30.232169" lon="119.85345"><ele>94</ele><time>2026-04-18T03:16:50Z</time></trkpt>
      <trkpt lat="30.232872" lon="119.853687"><ele>90</ele><time>2026-04-18T03:17:18Z</time></trkpt>
      <trkpt lat="30.233246" lon="119.853726"><ele>90</ele><time>2026-04-18T03:17:41Z</time></trkpt>
      <trkpt lat="30.233335" lon="119.85399"><ele>87</ele><time>2026-04-18T03:17:56Z</time></trkpt>
      <trkpt lat="30.233332" lon="119.854755"><ele>86</ele><time>2026-04-18T03:18:31Z</time></trkpt>
      <trkpt lat="30.233458" lon="119.854953"><ele>87</ele><time>2026-04-18T03:18:41Z</time></trkpt>
      <trkpt lat="30.23393" lon="119.854804"><ele>83</ele><time>2026-04-18T03:19:01Z</time></trkpt>
      <trkpt lat="30.234006" lon="119.854628"><ele>80</ele><time>2026-04-18T03:19:07Z</time></trkpt>
      <trkpt lat="30.234156" lon="119.854491"><ele>78</ele><time>2026-04-18T03:19:13Z</time></trkpt>
      <trkpt lat="30.234438" lon="119.854439"><ele>79</ele><time>2026-04-18T03:19:22Z</time></trkpt>
      <trkpt lat="30.2346" lon="119.854486"><ele>80</ele><time>2026-04-18T03:19:28Z</time></trkpt>
      <trkpt lat="30.234604" lon="119.854723"><ele>81</ele><time>2026-04-18T03:19:38Z</time></trkpt>
      <trkpt lat="30.234689" lon="119.854905"><ele>86</ele><time>2026-04-18T03:19:54Z</time></trkpt>
      <trkpt lat="30.234725" lon="119.856215"><ele>107</ele><time>2026-04-18T03:21:38Z</time></trkpt>
      <trkpt lat="30.234843" lon="119.857004"><ele>122</ele><time>2026-04-18T03:22:41Z</time></trkpt>
      <trkpt lat="30.235152" lon="119.857898"><ele>113</ele><time>2026-04-18T03:23:56Z</time></trkpt>
      <trkpt lat="30.235384" lon="119.858152"><ele>107</ele><time>2026-04-18T03:24:13Z</time></trkpt>
      <trkpt lat="30.235421" lon="119.858443"><ele>99</ele><time>2026-04-18T03:24:28Z</time></trkpt>
      <trkpt lat="30.235584" lon="119.858834"><ele>88</ele><time>2026-04-18T03:24:47Z</time></trkpt>
      <trkpt lat="30.235558" lon="119.858985"><ele>85</ele><time>2026-04-18T03:24:56Z</time></trkpt>
      <trkpt lat="30.235318" lon="119.859112"><ele>86</ele><time>2026-04-18T03:25:10Z</time></trkpt>
      <trkpt lat="30.235365" lon="119.859492"><ele>79</ele><time>2026-04-18T03:25:25Z</time></trkpt>
      <trkpt lat="30.235301" lon="119.85989"><ele>77</ele><time>2026-04-18T03:25:41Z</time></trkpt>
      <trkpt lat="30.23491" lon="119.85999"><ele>80</ele><time>2026-04-18T03:26:17Z</time></trkpt>
      <trkpt lat="30.234514" lon="119.860312"><ele>90</ele><time>2026-04-18T03:26:56Z</time></trkpt>
      <trkpt lat="30.234221" lon="119.860724"><ele>99</ele><time>2026-04-18T03:27:36Z</time></trkpt>
      <trkpt lat="30.233811" lon="119.860976"><ele>108</ele><time>2026-04-18T03:28:22Z</time></trkpt>
      <trkpt lat="30.233628" lon="119.860986"><ele>115</ele><time>2026-04-18T03:28:48Z</time></trkpt>
      <trkpt lat="30.233553" lon="119.861162"><ele>120</ele><time>2026-04-18T03:29:13Z</time></trkpt>
      <trkpt lat="30.233599" lon="119.861258"><ele>123</ele><time>2026-04-18T03:29:24Z</time></trkpt>
      <trkpt lat="30.233457" lon="119.861401"><ele>130</ele><time>2026-04-18T03:29:55Z</time></trkpt>
      <trkpt lat="30.233298" lon="119.861284"><ele>132</ele><time>2026-04-18T03:30:20Z</time></trkpt>
      <trkpt lat="30.233232" lon="119.861358"><ele>137</ele><time>2026-04-18T03:30:32Z</time></trkpt>
      <trkpt lat="30.233183" lon="119.861284"><ele>140</ele><time>2026-04-18T03:30:51Z</time></trkpt>
      <trkpt lat="30.233106" lon="119.861289"><ele>144</ele><time>2026-04-18T03:31:04Z</time></trkpt>
      <trkpt lat="30.232979" lon="119.860876"><ele>143</ele><time>2026-04-18T03:31:44Z</time></trkpt>
      <trkpt lat="30.232784" lon="119.861024"><ele>135</ele><time>2026-04-18T03:32:08Z</time></trkpt>
      <trkpt lat="30.232787" lon="119.860797"><ele>131</ele><time>2026-04-18T03:32:29Z</time></trkpt>
      <trkpt lat="30.232648" lon="119.860786"><ele>127</ele><time>2026-04-18T03:32:49Z</time></trkpt>
      <trkpt lat="30.232542" lon="119.860902"><ele>125</ele><time>2026-04-18T03:33:04Z</time></trkpt>
      <trkpt lat="30.232319" lon="119.860759"><ele>117</ele><time>2026-04-18T03:33:30Z</time></trkpt>
      <trkpt lat="30.231752" lon="119.86081"><ele>108</ele><time>2026-04-18T03:34:10Z</time></trkpt>
      <trkpt lat="30.231067" lon="119.861256"><ele>82</ele><time>2026-04-18T03:34:46Z</time></trkpt>
      <trkpt lat="30.230546" lon="119.861232"><ele>71</ele><time>2026-04-18T03:35:04Z</time></trkpt>
      <trkpt lat="30.229591" lon="119.861599"><ele>55</ele><time>2026-04-18T03:35:39Z</time></trkpt>
      <trkpt lat="30.229291" lon="119.861877"><ele>49</ele><time>2026-04-18T03:35:53Z</time></trkpt>
      <trkpt lat="30.228846" lon="119.862589"><ele>41</ele><time>2026-04-18T03:36:23Z</time></trkpt>
      <trkpt lat="30.228578" lon="119.863243"><ele>36</ele><time>2026-04-18T03:36:47Z</time></trkpt>
      <trkpt lat="30.228324" lon="119.863478"><ele>33</ele><time>2026-04-18T03:36:59Z</time></trkpt>
      <trkpt lat="30.228198" lon="119.863458"><ele>33</ele><time>2026-04-18T03:37:10Z</time></trkpt>
      <trkpt lat="30.228293" lon="119.863503"><ele>34</ele><time>2026-04-18T03:38:53Z</time></trkpt>
      <trkpt lat="30.228054" lon="119.863759"><ele>33</ele><time>2026-04-18T03:39:06Z</time></trkpt>
      <trkpt lat="30.228011" lon="119.864253"><ele>29</ele><time>2026-04-18T03:39:22Z</time></trkpt>
      <trkpt lat="30.227799" lon="119.864709"><ele>31</ele><time>2026-04-18T03:39:38Z</time></trkpt>
      <trkpt lat="30.227953" lon="119.864886"><ele>30</ele><time>2026-04-18T03:39:48Z</time></trkpt>
      <trkpt lat="30.228386" lon="119.86493"><ele>26</ele><time>2026-04-18T03:40:05Z</time></trkpt>
      <trkpt lat="30.228755" lon="119.865146"><ele>25</ele><time>2026-04-18T03:40:21Z</time></trkpt>
      <trkpt lat="30.229158" lon="119.866116"><ele>28</ele><time>2026-04-18T03:41:02Z</time></trkpt>
      <trkpt lat="30.229145" lon="119.866809"><ele>30</ele><time>2026-04-18T03:41:30Z</time></trkpt>
      <trkpt lat="30.229277" lon="119.867786"><ele>28</ele><time>2026-04-18T03:42:20Z</time></trkpt>
      <trkpt lat="30.229286" lon="119.868819"><ele>27</ele><time>2026-04-18T03:43:02Z</time></trkpt>
      <trkpt lat="30.229527" lon="119.870196"><ele>27</ele><time>2026-04-18T03:44:07Z</time></trkpt>
      <trkpt lat="30.22966" lon="119.872055"><ele>23</ele><time>2026-04-18T03:45:21Z</time></trkpt>
      <trkpt lat="30.229789" lon="119.87274"><ele>24</ele><time>2026-04-18T03:45:47Z</time></trkpt>
      <trkpt lat="30.230155" lon="119.873623"><ele>23</ele><time>2026-04-18T03:46:23Z</time></trkpt>
      <trkpt lat="30.23028" lon="119.874106"><ele>22</ele><time>2026-04-18T03:46:41Z</time></trkpt>
      <trkpt lat="30.230344" lon="119.875094"><ele>21</ele><time>2026-04-18T03:47:15Z</time></trkpt>
      <trkpt lat="30.23027" lon="119.875643"><ele>22</ele><time>2026-04-18T03:47:35Z</time></trkpt>
      <trkpt lat="30.23065" lon="119.877757"><ele>21</ele><time>2026-04-18T03:48:51Z</time></trkpt>
      <trkpt lat="30.230677" lon="119.877823"><ele>21</ele><time>2026-04-18T03:48:54Z</time></trkpt>
      <trkpt lat="30.230827" lon="119.877868"><ele>21</ele><time>2026-04-18T03:49:01Z</time></trkpt>
      <trkpt lat="30.231057" lon="119.878319"><ele>21</ele><time>2026-04-18T03:49:18Z</time></trkpt>
      <trkpt lat="30.231314" lon="119.8786"><ele>21</ele><time>2026-04-18T03:49:32Z</time></trkpt>
      <trkpt lat="30.231417" lon="119.879267"><ele>20</ele><time>2026-04-18T03:49:59Z</time></trkpt>
      <trkpt lat="30.231716" lon="119.8799"><ele>21</ele><time>2026-04-18T03:50:25Z</time></trkpt>
      <trkpt lat="30.231887" lon="119.880181"><ele>20</ele><time>2026-04-18T03:50:37Z</time></trkpt>
      <trkpt lat="30.232222" lon="119.880474"><ele>19</ele><time>2026-04-18T03:50:54Z</time></trkpt>
      <trkpt lat="30.232444" lon="119.880887"><ele>19</ele><time>2026-04-18T03:51:11Z</time></trkpt>
      <trkpt lat="30.232683" lon="119.88114"><ele>18</ele><time>2026-04-18T03:51:24Z</time></trkpt>
      <trkpt lat="30.233157" lon="119.880803"><ele>16</ele><time>2026-04-18T03:51:49Z</time></trkpt>
      <trkpt lat="30.233645" lon="119.880567"><ele>17</ele><time>2026-04-18T03:52:12Z</time></trkpt>
      <trkpt lat="30.233744" lon="119.880607"><ele>17</ele><time>2026-04-18T03:52:17Z</time></trkpt>
      <trkpt lat="30.234062" lon="119.881271"><ele>17</ele><time>2026-04-18T03:52:43Z</time></trkpt>
      <trkpt lat="30.235119" lon="119.88259"><ele>17</ele><time>2026-04-18T03:53:45Z</time></trkpt>
      <trkpt lat="30.23556" lon="119.883297"><ele>15</ele><time>2026-04-18T03:54:15Z</time></trkpt>
      <trkpt lat="30.235897" lon="119.884151"><ele>15</ele><time>2026-04-18T03:54:47Z</time></trkpt>
      <trkpt lat="30.236042" lon="119.88424"><ele>15</ele><time>2026-04-18T03:54:54Z</time></trkpt>
      <trkpt lat="30.236366" lon="119.884092"><ele>16</ele><time>2026-04-18T03:55:08Z</time></trkpt>
      <trkpt lat="30.236432" lon="119.884141"><ele>16</ele><time>2026-04-18T03:55:12Z</time></trkpt>
      <trkpt lat="30.236669" lon="119.885214"><ele>15</ele><time>2026-04-18T03:55:48Z</time></trkpt>
      <trkpt lat="30.23707" lon="119.885461"><ele>15</ele><time>2026-04-18T03:56:06Z</time></trkpt>
      <trkpt lat="30.240009" lon="119.888959"><ele>16</ele><time>2026-04-18T03:58:57Z</time></trkpt>
      <trkpt lat="30.240621" lon="119.889013"><ele>15</ele><time>2026-04-18T03:59:26Z</time></trkpt>
      <trkpt lat="30.240858" lon="119.889175"><ele>17</ele><time>2026-04-18T03:59:39Z</time></trkpt>
      <trkpt lat="30.240996" lon="119.888922"><ele>17</ele><time>2026-04-18T03:59:50Z</time></trkpt>
      <trkpt lat="30.240995" lon="119.888789"><ele>17</ele><time>2026-04-18T03:59:56Z</time></trkpt>
      <trkpt lat="30.240576" lon="119.888286"><ele>18</ele><time>2026-04-18T04:00:20Z</time></trkpt>
      <trkpt lat="30.24039" lon="119.887892"><ele>19</ele><time>2026-04-18T04:00:41Z</time></trkpt>
      <trkpt lat="30.240465" lon="119.887614"><ele>25</ele><time>2026-04-18T04:01:04Z</time></trkpt>
      <trkpt lat="30.240377" lon="119.887224"><ele>32</ele><time>2026-04-18T04:01:39Z</time></trkpt>
      <trkpt lat="30.240393" lon="119.886942"><ele>34</ele><time>2026-04-18T04:02:00Z</time></trkpt>
      <trkpt lat="30.24061" lon="119.886482"><ele>37</ele><time>2026-04-18T04:02:39Z</time></trkpt>
      <trkpt lat="30.24076" lon="119.886321"><ele>38</ele><time>2026-04-18T04:02:54Z</time></trkpt>
      <trkpt lat="30.240912" lon="119.886319"><ele>41</ele><time>2026-04-18T04:03:06Z</time></trkpt>
      <trkpt lat="30.241155" lon="119.886571"><ele>44</ele><time>2026-04-18T04:03:32Z</time></trkpt>
      <trkpt lat="30.24135" lon="119.886373"><ele>49</ele><time>2026-04-18T04:03:53Z</time></trkpt>
      <trkpt lat="30.241471" lon="119.886044"><ele>55</ele><time>2026-04-18T04:04:19Z</time></trkpt>
      <trkpt lat="30.241563" lon="119.886065"><ele>59</ele><time>2026-04-18T04:04:34Z</time></trkpt>
      <trkpt lat="30.241732" lon="119.885979"><ele>68</ele><time>2026-04-18T04:05:07Z</time></trkpt>
      <trkpt lat="30.241966" lon="119.885019"><ele>87</ele><time>2026-04-18T04:06:35Z</time></trkpt>
      <trkpt lat="30.241909" lon="119.884675"><ele>95</ele><time>2026-04-18T04:07:22Z</time></trkpt>
      <trkpt lat="30.242248" lon="119.884825"><ele>108</ele><time>2026-04-18T04:08:08Z</time></trkpt>
      <trkpt lat="30.242432" lon="119.8851"><ele>115</ele><time>2026-04-18T04:08:46Z</time></trkpt>
      <trkpt lat="30.242552" lon="119.884778"><ele>128</ele><time>2026-04-18T04:09:46Z</time></trkpt>
      <trkpt lat="30.242422" lon="119.884279"><ele>136</ele><time>2026-04-18T04:10:41Z</time></trkpt>
      <trkpt lat="30.242244" lon="119.883932"><ele>143</ele><time>2026-04-18T04:11:26Z</time></trkpt>
      <trkpt lat="30.242333" lon="119.883915"><ele>147</ele><time>2026-04-18T04:11:42Z</time></trkpt>
      <trkpt lat="30.242321" lon="119.883715"><ele>153</ele><time>2026-04-18T04:12:27Z</time></trkpt>
      <trkpt lat="30.242771" lon="119.883673"><ele>179</ele><time>2026-04-18T04:14:22Z</time></trkpt>
      <trkpt lat="30.242813" lon="119.883595"><ele>182</ele><time>2026-04-18T04:14:39Z</time></trkpt>
      <trkpt lat="30.243077" lon="119.883753"><ele>191</ele><time>2026-04-18T04:15:23Z</time></trkpt>
      <trkpt lat="30.24323" lon="119.883965"><ele>196</ele><time>2026-04-18T04:15:58Z</time></trkpt>
      <trkpt lat="30.24329" lon="119.883889"><ele>200</ele><time>2026-04-18T04:16:18Z</time></trkpt>
      <trkpt lat="30.243516" lon="119.883943"><ele>213</ele><time>2026-04-18T04:17:05Z</time></trkpt>
      <trkpt lat="30.243534" lon="119.883676"><ele>220</ele><time>2026-04-18T04:17:50Z</time></trkpt>
      <trkpt lat="30.243568" lon="119.883638"><ele>222</ele><time>2026-04-18T04:17:58Z</time></trkpt>
      <trkpt lat="30.243737" lon="119.88377"><ele>228</ele><time>2026-04-18T04:18:19Z</time></trkpt>
      <trkpt lat="30.243772" lon="119.883623"><ele>231</ele><time>2026-04-18T04:18:45Z</time></trkpt>
      <trkpt lat="30.243884" lon="119.883528"><ele>234</ele><time>2026-04-18T04:18:59Z</time></trkpt>
      <trkpt lat="30.24435" lon="119.884246"><ele>224</ele><time>2026-04-18T04:20:02Z</time></trkpt>
      <trkpt lat="30.244724" lon="119.885006"><ele>225</ele><time>2026-04-18T04:21:05Z</time></trkpt>
      <trkpt lat="30.245357" lon="119.885017"><ele>186</ele><time>2026-04-18T04:24:26Z</time></trkpt>
      <trkpt lat="30.245923" lon="119.885136"><ele>160</ele><time>2026-04-18T04:26:08Z</time></trkpt>
      <trkpt lat="30.246295" lon="119.885052"><ele>140</ele><time>2026-04-18T04:27:25Z</time></trkpt>
      <trkpt lat="30.24663" lon="119.885171"><ele>119</ele><time>2026-04-18T04:28:44Z</time></trkpt>
      <trkpt lat="30.246874" lon="119.885033"><ele>110</ele><time>2026-04-18T04:29:26Z</time></trkpt>
      <trkpt lat="30.247043" lon="119.885423"><ele>97</ele><time>2026-04-18T04:30:45Z</time></trkpt>
      <trkpt lat="30.247021" lon="119.885534"><ele>95</ele><time>2026-04-18T04:30:57Z</time></trkpt>
      <trkpt lat="30.247151" lon="119.885699"><ele>92</ele><time>2026-04-18T04:31:29Z</time></trkpt>
      <trkpt lat="30.247265" lon="119.886077"><ele>86</ele><time>2026-04-18T04:32:20Z</time></trkpt>
      <trkpt lat="30.247417" lon="119.886207"><ele>79</ele><time>2026-04-18T04:32:37Z</time></trkpt>
      <trkpt lat="30.247531" lon="119.886594"><ele>67</ele><time>2026-04-18T04:33:14Z</time></trkpt>
      <trkpt lat="30.247758" lon="119.886616"><ele>57</ele><time>2026-04-18T04:33:42Z</time></trkpt>
      <trkpt lat="30.247952" lon="119.886733"><ele>48</ele><time>2026-04-18T04:34:04Z</time></trkpt>
      <trkpt lat="30.248351" lon="119.887424"><ele>29</ele><time>2026-04-18T04:34:50Z</time></trkpt>
      <trkpt lat="30.248406" lon="119.887632"><ele>28</ele><time>2026-04-18T04:35:01Z</time></trkpt>
      <trkpt lat="30.248625" lon="119.887862"><ele>22</ele><time>2026-04-18T04:35:16Z</time></trkpt>
      <trkpt lat="30.248778" lon="119.888243"><ele>18</ele><time>2026-04-18T04:35:35Z</time></trkpt>
      <trkpt lat="30.248645" lon="119.888774"><ele>16</ele><time>2026-04-18T04:35:54Z</time></trkpt>
      <trkpt lat="30.248237" lon="119.889199"><ele>16</ele><time>2026-04-18T04:36:18Z</time></trkpt>
      <trkpt lat="30.247807" lon="119.889773"><ele>16</ele><time>2026-04-18T04:36:52Z</time></trkpt>
      <trkpt lat="30.248056" lon="119.890044"><ele>15</ele><time>2026-04-18T04:37:18Z</time></trkpt>
      <trkpt lat="30.248133" lon="119.89024"><ele>15</ele><time>2026-04-18T04:37:34Z</time></trkpt>
      <trkpt lat="30.248293" lon="119.889955"><ele>11</ele><time>2026-04-18T04:38:15Z</time></trkpt>
      <trkpt lat="30.24842" lon="119.88996"><ele>11</ele><time>2026-04-18T04:38:33Z</time></trkpt>
    </trkseg>
  </trk>
</gpx>
