<?xml version="1.0" encoding="UTF-8"?>
<gpx version="1.1" creator="MyWorld" xmlns="http://www.topografix.com/GPX/1/1">
  <metadata><name>阿里冈仁波齐大环线</name></metadata>
  <trk>
    <name>阿里冈仁波齐大环线</name>
    <trkseg>
      <trkpt lat="30.970636" lon="81.286114"><ele>4646</ele><time>2026-05-26T00:30:42Z</time></trkpt>
      <trkpt lat="30.971514" lon="81.28621"><ele>4650</ele><time>2026-05-26T00:32:27Z</time></trkpt>
      <trkpt lat="30.97172" lon="81.286174"><ele>4652</ele><time>2026-05-26T00:32:48Z</time></trkpt>
      <trkpt lat="30.971784" lon="81.286095"><ele>4652</ele><time>2026-05-26T00:32:58Z</time></trkpt>
      <trkpt lat="30.971852" lon="81.285538"><ele>4653</ele><time>2026-05-26T00:33:52Z</time></trkpt>
      <trkpt lat="30.972004" lon="81.285309"><ele>4652</ele><time>2026-05-26T00:34:17Z</time></trkpt>
      <trkpt lat="30.972106" lon="81.284572"><ele>4651</ele><time>2026-05-26T00:35:34Z</time></trkpt>
      <trkpt lat="30.97224" lon="81.284515"><ele>4651</ele><time>2026-05-26T00:35:49Z</time></trkpt>
      <trkpt lat="30.974154" lon="81.285117"><ele>4661</ele><time>2026-05-26T00:39:59Z</time></trkpt>
      <trkpt lat="30.975576" lon="81.285331"><ele>4670</ele><time>2026-05-26T00:43:09Z</time></trkpt>
      <trkpt lat="30.977286" lon="81.285789"><ele>4681</ele><time>2026-05-26T00:47:26Z</time></trkpt>
      <trkpt lat="30.977665" lon="81.285828"><ele>4683</ele><time>2026-05-26T00:48:15Z</time></trkpt>
      <trkpt lat="30.977781" lon="81.285668"><ele>4683</ele><time>2026-05-26T00:48:50Z</time></trkpt>
      <trkpt lat="30.977836" lon="81.285278"><ele>4682</ele><time>2026-05-26T00:49:30Z</time></trkpt>
      <trkpt lat="30.977922" lon="81.285074"><ele>4681</ele><time>2026-05-26T00:49:53Z</time></trkpt>
      <trkpt lat="30.978079" lon="81.284255"><ele>4677</ele><time>2026-05-26T00:51:25Z</time></trkpt>
      <trkpt lat="30.97809" lon="81.283798"><ele>4676</ele><time>2026-05-26T00:52:11Z</time></trkpt>
      <trkpt lat="30.978406" lon="81.282643"><ele>4671</ele><time>2026-05-26T00:54:23Z</time></trkpt>
      <trkpt lat="30.978452" lon="81.28242"><ele>4670</ele><time>2026-05-26T00:54:59Z</time></trkpt>
      <trkpt lat="30.978409" lon="81.282457"><ele>4669</ele><time>2026-05-26T00:55:46Z</time></trkpt>
      <trkpt lat="30.978416" lon="81.282347"><ele>4671</ele><time>2026-05-26T00:56:27Z</time></trkpt>
      <trkpt lat="30.978528" lon="81.282312"><ele>4670</ele><time>2026-05-26T00:58:30Z</time></trkpt>
      <trkpt lat="30.97861" lon="81.282172"><ele>4669</ele><time>2026-05-26T00:58:51Z</time></trkpt>
      <trkpt lat="30.978719" lon="81.281754"><ele>4669</ele><time>2026-05-26T01:00:02Z</time></trkpt>
      <trkpt lat="30.979225" lon="81.281154"><ele>4669</ele><time>2026-05-26T01:01:43Z</time></trkpt>
      <trkpt lat="30.980141" lon="81.278437"><ele>4670</ele><time>2026-05-26T01:06:31Z</time></trkpt>
      <trkpt lat="30.980284" lon="81.278295"><ele>4672</ele><time>2026-05-26T01:07:03Z</time></trkpt>
      <trkpt lat="30.98032" lon="81.277805"><ele>4672</ele><time>2026-05-26T01:07:58Z</time></trkpt>
      <trkpt lat="30.980472" lon="81.277588"><ele>4672</ele><time>2026-05-26T01:08:28Z</time></trkpt>
      <trkpt lat="30.980714" lon="81.276664"><ele>4673</ele><time>2026-05-26T01:10:07Z</time></trkpt>
      <trkpt lat="30.98092" lon="81.276175"><ele>4673</ele><time>2026-05-26T01:11:46Z</time></trkpt>
      <trkpt lat="30.981197" lon="81.275706"><ele>4673</ele><time>2026-05-26T01:12:46Z</time></trkpt>
      <trkpt lat="30.981353" lon="81.275577"><ele>4671</ele><time>2026-05-26T01:13:10Z</time></trkpt>
      <trkpt lat="30.981348" lon="81.275462"><ele>4672</ele><time>2026-05-26T01:13:23Z</time></trkpt>
      <trkpt lat="30.981669" lon="81.274922"><ele>4672</ele><time>2026-05-26T01:14:54Z</time></trkpt>
      <trkpt lat="30.982083" lon="81.273896"><ele>4672</ele><time>2026-05-26T01:17:09Z</time></trkpt>
      <trkpt lat="30.982238" lon="81.273668"><ele>4672</ele><time>2026-05-26T01:17:41Z</time></trkpt>
      <trkpt lat="30.982374" lon="81.273657"><ele>4672</ele><time>2026-05-26T01:17:58Z</time></trkpt>
      <trkpt lat="30.982446" lon="81.273466"><ele>4673</ele><time>2026-05-26T01:18:23Z</time></trkpt>
      <trkpt lat="30.982865" lon="81.273223"><ele>4675</ele><time>2026-05-26T01:19:26Z</time></trkpt>
      <trkpt lat="30.98283" lon="81.273064"><ele>4675</ele><time>2026-05-26T01:19:44Z</time></trkpt>
      <trkpt lat="30.982885" lon="81.27297"><ele>4674</ele><time>2026-05-26T01:19:56Z</time></trkpt>
      <trkpt lat="30.983015" lon="81.272884"><ele>4674</ele><time>2026-05-26T01:20:14Z</time></trkpt>
      <trkpt lat="30.983477" lon="81.272228"><ele>4677</ele><time>2026-05-26T01:22:18Z</time></trkpt>
      <trkpt lat="30.983989" lon="81.271678"><ele>4676</ele><time>2026-05-26T01:23:38Z</time></trkpt>
      <trkpt lat="30.985063" lon="81.270144"><ele>4683</ele><time>2026-05-26T01:27:25Z</time></trkpt>
      <trkpt lat="30.985295" lon="81.269725"><ele>4686</ele><time>2026-05-26T01:28:26Z</time></trkpt>
      <trkpt lat="30.986488" lon="81.268214"><ele>4689</ele><time>2026-05-26T01:32:09Z</time></trkpt>
      <trkpt lat="30.98716" lon="81.266771"><ele>4693</ele><time>2026-05-26T01:34:50Z</time></trkpt>
      <trkpt lat="30.987912" lon="81.265467"><ele>4698</ele><time>2026-05-26T01:38:33Z</time></trkpt>
      <trkpt lat="30.988112" lon="81.265293"><ele>4700</ele><time>2026-05-26T01:39:05Z</time></trkpt>
      <trkpt lat="30.988915" lon="81.263995"><ele>4711</ele><time>2026-05-26T01:42:23Z</time></trkpt>
      <trkpt lat="30.98932" lon="81.263556"><ele>4718</ele><time>2026-05-26T01:43:55Z</time></trkpt>
      <trkpt lat="30.990135" lon="81.262022"><ele>4730</ele><time>2026-05-26T01:48:05Z</time></trkpt>
      <trkpt lat="30.99031" lon="81.261823"><ele>4733</ele><time>2026-05-26T01:48:36Z</time></trkpt>
      <trkpt lat="30.990793" lon="81.261475"><ele>4739</ele><time>2026-05-26T01:50:15Z</time></trkpt>
      <trkpt lat="30.990988" lon="81.261407"><ele>4741</ele><time>2026-05-26T01:50:42Z</time></trkpt>
      <trkpt lat="30.991252" lon="81.261154"><ele>4744</ele><time>2026-05-26T01:52:39Z</time></trkpt>
      <trkpt lat="30.991633" lon="81.261041"><ele>4746</ele><time>2026-05-26T01:53:35Z</time></trkpt>
      <trkpt lat="30.991759" lon="81.260742"><ele>4748</ele><time>2026-05-26T01:54:18Z</time></trkpt>
      <trkpt lat="30.992767" lon="81.260046"><ele>4760</ele><time>2026-05-26T01:56:59Z</time></trkpt>
      <trkpt lat="30.992965" lon="81.259793"><ele>4763</ele><time>2026-05-26T01:57:36Z</time></trkpt>
      <trkpt lat="30.993599" lon="81.259384"><ele>4768</ele><time>2026-05-26T01:59:09Z</time></trkpt>
      <trkpt lat="30.993841" lon="81.25899"><ele>4769</ele><time>2026-05-26T02:00:37Z</time></trkpt>
      <trkpt lat="30.993631" lon="81.258372"><ele>4776</ele><time>2026-05-26T02:02:02Z</time></trkpt>
      <trkpt lat="30.993959" lon="81.258302"><ele>4778</ele><time>2026-05-26T02:05:35Z</time></trkpt>
      <trkpt lat="30.994153" lon="81.258348"><ele>4777</ele><time>2026-05-26T02:05:59Z</time></trkpt>
      <trkpt lat="30.994583" lon="81.258312"><ele>4773</ele><time>2026-05-26T02:07:19Z</time></trkpt>
      <trkpt lat="30.995053" lon="81.258158"><ele>4774</ele><time>2026-05-26T02:08:14Z</time></trkpt>
      <trkpt lat="30.995232" lon="81.257977"><ele>4775</ele><time>2026-05-26T02:08:42Z</time></trkpt>
      <trkpt lat="30.995899" lon="81.258065"><ele>4774</ele><time>2026-05-26T02:10:06Z</time></trkpt>
      <trkpt lat="30.996058" lon="81.257926"><ele>4773</ele><time>2026-05-26T02:10:30Z</time></trkpt>
      <trkpt lat="30.996388" lon="81.257835"><ele>4769</ele><time>2026-05-26T02:11:25Z</time></trkpt>
      <trkpt lat="30.996528" lon="81.257683"><ele>4768</ele><time>2026-05-26T02:12:16Z</time></trkpt>
      <trkpt lat="30.996722" lon="81.25775"><ele>4766</ele><time>2026-05-26T02:13:02Z</time></trkpt>
      <trkpt lat="30.997222" lon="81.257601"><ele>4757</ele><time>2026-05-26T02:14:13Z</time></trkpt>
      <trkpt lat="30.997887" lon="81.257639"><ele>4746</ele><time>2026-05-26T02:16:12Z</time></trkpt>
      <trkpt lat="30.998188" lon="81.257458"><ele>4740</ele><time>2026-05-26T02:18:34Z</time></trkpt>
      <trkpt lat="30.998513" lon="81.257402"><ele>4738</ele><time>2026-05-26T02:19:13Z</time></trkpt>
      <trkpt lat="30.998893" lon="81.257496"><ele>4736</ele><time>2026-05-26T02:19:58Z</time></trkpt>
      <trkpt lat="30.999245" lon="81.257456"><ele>4733</ele><time>2026-05-26T02:20:39Z</time></trkpt>
      <trkpt lat="30.999822" lon="81.257616"><ele>4731</ele><time>2026-05-26T02:21:50Z</time></trkpt>
      <trkpt lat="31.000211" lon="81.257555"><ele>4730</ele><time>2026-05-26T02:22:34Z</time></trkpt>
      <trkpt lat="31.00044" lon="81.257648"><ele>4728</ele><time>2026-05-26T02:23:03Z</time></trkpt>
      <trkpt lat="31.000819" lon="81.257628"><ele>4724</ele><time>2026-05-26T02:24:37Z</time></trkpt>
      <trkpt lat="31.002758" lon="81.258077"><ele>4724</ele><time>2026-05-26T02:28:24Z</time></trkpt>
      <trkpt lat="31.00326" lon="81.258051"><ele>4720</ele><time>2026-05-26T02:29:19Z</time></trkpt>
      <trkpt lat="31.004872" lon="81.258452"><ele>4719</ele><time>2026-05-26T02:32:09Z</time></trkpt>
      <trkpt lat="31.005708" lon="81.258443"><ele>4716</ele><time>2026-05-26T02:33:43Z</time></trkpt>
      <trkpt lat="31.006576" lon="81.258524"><ele>4720</ele><time>2026-05-26T02:35:24Z</time></trkpt>
      <trkpt lat="31.007301" lon="81.258677"><ele>4723</ele><time>2026-05-26T02:36:41Z</time></trkpt>
      <trkpt lat="31.009798" lon="81.258926"><ele>4723</ele><time>2026-05-26T02:41:35Z</time></trkpt>
      <trkpt lat="31.011239" lon="81.259159"><ele>4729</ele><time>2026-05-26T02:44:09Z</time></trkpt>
      <trkpt lat="31.011521" lon="81.259258"><ele>4729</ele><time>2026-05-26T02:44:42Z</time></trkpt>
      <trkpt lat="31.011822" lon="81.259287"><ele>4730</ele><time>2026-05-26T02:45:09Z</time></trkpt>
      <trkpt lat="31.012057" lon="81.2592"><ele>4729</ele><time>2026-05-26T02:45:41Z</time></trkpt>
      <trkpt lat="31.01196" lon="81.259315"><ele>4728</ele><time>2026-05-26T02:47:26Z</time></trkpt>
      <trkpt lat="31.012232" lon="81.259322"><ele>4724</ele><time>2026-05-26T02:50:33Z</time></trkpt>
      <trkpt lat="31.012474" lon="81.25941"><ele>4730</ele><time>2026-05-26T02:51:37Z</time></trkpt>
      <trkpt lat="31.013121" lon="81.259395"><ele>4732</ele><time>2026-05-26T02:52:43Z</time></trkpt>
      <trkpt lat="31.013602" lon="81.259254"><ele>4730</ele><time>2026-05-26T02:53:35Z</time></trkpt>
      <trkpt lat="31.014747" lon="81.259198"><ele>4732</ele><time>2026-05-26T02:55:55Z</time></trkpt>
      <trkpt lat="31.015201" lon="81.259284"><ele>4735</ele><time>2026-05-26T02:56:41Z</time></trkpt>
      <trkpt lat="31.015659" lon="81.259493"><ele>4736</ele><time>2026-05-26T02:58:12Z</time></trkpt>
      <trkpt lat="31.015853" lon="81.259503"><ele>4734</ele><time>2026-05-26T02:58:33Z</time></trkpt>
      <trkpt lat="31.016477" lon="81.259865"><ele>4732</ele><time>2026-05-26T02:59:44Z</time></trkpt>
      <trkpt lat="31.017198" lon="81.260101"><ele>4729</ele><time>2026-05-26T03:01:10Z</time></trkpt>
      <trkpt lat="31.01753" lon="81.26038"><ele>4727</ele><time>2026-05-26T03:02:02Z</time></trkpt>
      <trkpt lat="31.01796" lon="81.260608"><ele>4724</ele><time>2026-05-26T03:02:51Z</time></trkpt>
      <trkpt lat="31.018234" lon="81.260888"><ele>4725</ele><time>2026-05-26T03:04:53Z</time></trkpt>
      <trkpt lat="31.01871" lon="81.261075"><ele>4724</ele><time>2026-05-26T03:06:27Z</time></trkpt>
      <trkpt lat="31.019591" lon="81.261736"><ele>4723</ele><time>2026-05-26T03:08:09Z</time></trkpt>
      <trkpt lat="31.02044" lon="81.261862"><ele>4720</ele><time>2026-05-26T03:10:12Z</time></trkpt>
      <trkpt lat="31.021636" lon="81.262858"><ele>4723</ele><time>2026-05-26T03:13:08Z</time></trkpt>
      <trkpt lat="31.022257" lon="81.26323"><ele>4724</ele><time>2026-05-26T03:14:27Z</time></trkpt>
      <trkpt lat="31.022557" lon="81.263666"><ele>4724</ele><time>2026-05-26T03:15:20Z</time></trkpt>
      <trkpt lat="31.023823" lon="81.264605"><ele>4728</ele><time>2026-05-26T03:18:02Z</time></trkpt>
      <trkpt lat="31.024481" lon="81.265373"><ele>4729</ele><time>2026-05-26T03:20:42Z</time></trkpt>
      <trkpt lat="31.025838" lon="81.266508"><ele>4731</ele><time>2026-05-26T03:23:53Z</time></trkpt>
      <trkpt lat="31.027592" lon="81.2676"><ele>4736</ele><time>2026-05-26T03:27:54Z</time></trkpt>
      <trkpt lat="31.028336" lon="81.268218"><ele>4735</ele><time>2026-05-26T03:29:39Z</time></trkpt>
      <trkpt lat="31.028832" lon="81.268498"><ele>4734</ele><time>2026-05-26T03:31:11Z</time></trkpt>
      <trkpt lat="31.029146" lon="81.268774"><ele>4734</ele><time>2026-05-26T03:31:50Z</time></trkpt>
      <trkpt lat="31.029832" lon="81.269115"><ele>4733</ele><time>2026-05-26T03:33:08Z</time></trkpt>
      <trkpt lat="31.030209" lon="81.26938"><ele>4738</ele><time>2026-05-26T03:34:05Z</time></trkpt>
      <trkpt lat="31.030206" lon="81.269318"><ele>4737</ele><time>2026-05-26T03:34:28Z</time></trkpt>
      <trkpt lat="31.0301" lon="81.269689"><ele>4738</ele><time>2026-05-26T03:46:07Z</time></trkpt>
      <trkpt lat="31.030075" lon="81.269588"><ele>4737</ele><time>2026-05-26T03:48:15Z</time></trkpt>
      <trkpt lat="31.030128" lon="81.26966"><ele>4736</ele><time>2026-05-26T03:48:53Z</time></trkpt>
      <trkpt lat="31.03014" lon="81.26944"><ele>4738</ele><time>2026-05-26T03:54:00Z</time></trkpt>
      <trkpt lat="31.030016" lon="81.269268"><ele>4736</ele><time>2026-05-26T03:54:23Z</time></trkpt>
      <trkpt lat="31.029725" lon="81.269073"><ele>4739</ele><time>2026-05-26T03:55:00Z</time></trkpt>
      <trkpt lat="31.029692" lon="81.268972"><ele>4734</ele><time>2026-05-26T03:55:18Z</time></trkpt>
      <trkpt lat="31.029685" lon="81.269027"><ele>4733</ele><time>2026-05-26T03:55:53Z</time></trkpt>
      <trkpt lat="31.030209" lon="81.269449"><ele>4739</ele><time>2026-05-26T03:57:08Z</time></trkpt>
      <trkpt lat="31.030159" lon="81.269609"><ele>4741</ele><time>2026-05-26T03:57:32Z</time></trkpt>
      <trkpt lat="31.030134" lon="81.269527"><ele>4737</ele><time>2026-05-26T03:58:26Z</time></trkpt>
      <trkpt lat="31.030156" lon="81.269575"><ele>4738</ele><time>2026-05-26T03:58:57Z</time></trkpt>
      <trkpt lat="31.030116" lon="81.269603"><ele>4740</ele><time>2026-05-26T03:59:15Z</time></trkpt>
      <trkpt lat="31.030108" lon="81.26955"><ele>4739</ele><time>2026-05-26T03:59:23Z</time></trkpt>
      <trkpt lat="31.030092" lon="81.269614"><ele>4738</ele><time>2026-05-26T03:59:35Z</time></trkpt>
      <trkpt lat="31.030154" lon="81.269505"><ele>4741</ele><time>2026-05-26T04:01:45Z</time></trkpt>
      <trkpt lat="31.030358" lon="81.269436"><ele>4739</ele><time>2026-05-26T04:04:00Z</time></trkpt>
      <trkpt lat="31.030481" lon="81.269609"><ele>4742</ele><time>2026-05-26T04:04:51Z</time></trkpt>
      <trkpt lat="31.03086" lon="81.269866"><ele>4740</ele><time>2026-05-26T04:05:42Z</time></trkpt>
      <trkpt lat="31.030903" lon="81.269973"><ele>4740</ele><time>2026-05-26T04:05:53Z</time></trkpt>
      <trkpt lat="31.031458" lon="81.270459"><ele>4741</ele><time>2026-05-26T04:07:10Z</time></trkpt>
      <trkpt lat="31.032235" lon="81.271435"><ele>4742</ele><time>2026-05-26T04:09:21Z</time></trkpt>
      <trkpt lat="31.032969" lon="81.272116"><ele>4743</ele><time>2026-05-26T04:11:31Z</time></trkpt>
      <trkpt lat="31.035336" lon="81.273833"><ele>4745</ele><time>2026-05-26T04:17:22Z</time></trkpt>
      <trkpt lat="31.035677" lon="81.273914"><ele>4744</ele><time>2026-05-26T04:18:02Z</time></trkpt>
      <trkpt lat="31.036071" lon="81.274153"><ele>4744</ele><time>2026-05-26T04:18:52Z</time></trkpt>
      <trkpt lat="31.036454" lon="81.274283"><ele>4749</ele><time>2026-05-26T04:19:39Z</time></trkpt>
      <trkpt lat="31.03684" lon="81.274549"><ele>4751</ele><time>2026-05-26T04:20:36Z</time></trkpt>
      <trkpt lat="31.037273" lon="81.274663"><ele>4750</ele><time>2026-05-26T04:21:31Z</time></trkpt>
      <trkpt lat="31.038615" lon="81.275271"><ele>4752</ele><time>2026-05-26T04:24:20Z</time></trkpt>
      <trkpt lat="31.038901" lon="81.275302"><ele>4755</ele><time>2026-05-26T04:25:13Z</time></trkpt>
      <trkpt lat="31.039426" lon="81.275497"><ele>4759</ele><time>2026-05-26T04:26:14Z</time></trkpt>
      <trkpt lat="31.039679" lon="81.275481"><ele>4761</ele><time>2026-05-26T04:26:42Z</time></trkpt>
      <trkpt lat="31.040003" lon="81.275601"><ele>4764</ele><time>2026-05-26T04:27:19Z</time></trkpt>
      <trkpt lat="31.040389" lon="81.27587"><ele>4759</ele><time>2026-05-26T04:28:12Z</time></trkpt>
      <trkpt lat="31.040637" lon="81.276221"><ele>4760</ele><time>2026-05-26T04:28:51Z</time></trkpt>
      <trkpt lat="31.040843" lon="81.276383"><ele>4759</ele><time>2026-05-26T04:29:17Z</time></trkpt>
      <trkpt lat="31.04131" lon="81.276565"><ele>4762</ele><time>2026-05-26T04:30:22Z</time></trkpt>
      <trkpt lat="31.041552" lon="81.276755"><ele>4766</ele><time>2026-05-26T04:30:54Z</time></trkpt>
      <trkpt lat="31.041733" lon="81.276761"><ele>4764</ele><time>2026-05-26T04:31:20Z</time></trkpt>
      <trkpt lat="31.042102" lon="81.276912"><ele>4768</ele><time>2026-05-26T04:32:17Z</time></trkpt>
      <trkpt lat="31.042539" lon="81.276904"><ele>4775</ele><time>2026-05-26T04:33:25Z</time></trkpt>
      <trkpt lat="31.043185" lon="81.277098"><ele>4784</ele><time>2026-05-26T04:35:33Z</time></trkpt>
      <trkpt lat="31.043707" lon="81.277024"><ele>4787</ele><time>2026-05-26T04:37:01Z</time></trkpt>
      <trkpt lat="31.044745" lon="81.2772"><ele>4778</ele><time>2026-05-26T04:39:05Z</time></trkpt>
      <trkpt lat="31.045314" lon="81.277613"><ele>4774</ele><time>2026-05-26T04:41:06Z</time></trkpt>
      <trkpt lat="31.045904" lon="81.278163"><ele>4785</ele><time>2026-05-26T04:42:20Z</time></trkpt>
      <trkpt lat="31.046981" lon="81.278673"><ele>4787</ele><time>2026-05-26T04:44:29Z</time></trkpt>
      <trkpt lat="31.048099" lon="81.279045"><ele>4788</ele><time>2026-05-26T04:46:59Z</time></trkpt>
      <trkpt lat="31.048634" lon="81.279137"><ele>4788</ele><time>2026-05-26T04:48:02Z</time></trkpt>
      <trkpt lat="31.048912" lon="81.279057"><ele>4786</ele><time>2026-05-26T04:48:44Z</time></trkpt>
      <trkpt lat="31.049594" lon="81.279252"><ele>4787</ele><time>2026-05-26T04:49:58Z</time></trkpt>
      <trkpt lat="31.049894" lon="81.279269"><ele>4790</ele><time>2026-05-26T04:50:27Z</time></trkpt>
      <trkpt lat="31.050582" lon="81.27954"><ele>4787</ele><time>2026-05-26T04:51:52Z</time></trkpt>
      <trkpt lat="31.051207" lon="81.279698"><ele>4790</ele><time>2026-05-26T04:53:03Z</time></trkpt>
      <trkpt lat="31.051479" lon="81.279835"><ele>4792</ele><time>2026-05-26T04:53:40Z</time></trkpt>
      <trkpt lat="31.051579" lon="81.279959"><ele>4788</ele><time>2026-05-26T04:53:59Z</time></trkpt>
      <trkpt lat="31.051951" lon="81.280116"><ele>4792</ele><time>2026-05-26T04:55:21Z</time></trkpt>
      <trkpt lat="31.052519" lon="81.28068"><ele>4792</ele><time>2026-05-26T04:56:49Z</time></trkpt>
      <trkpt lat="31.052942" lon="81.280879"><ele>4790</ele><time>2026-05-26T04:57:36Z</time></trkpt>
      <trkpt lat="31.053332" lon="81.280923"><ele>4790</ele><time>2026-05-26T04:58:21Z</time></trkpt>
      <trkpt lat="31.054008" lon="81.28076"><ele>4795</ele><time>2026-05-26T04:59:47Z</time></trkpt>
      <trkpt lat="31.055604" lon="81.280644"><ele>4798</ele><time>2026-05-26T05:02:57Z</time></trkpt>
      <trkpt lat="31.057168" lon="81.281208"><ele>4799</ele><time>2026-05-26T05:06:12Z</time></trkpt>
      <trkpt lat="31.058476" lon="81.28113"><ele>4815</ele><time>2026-05-26T05:09:25Z</time></trkpt>
      <trkpt lat="31.059878" lon="81.281291"><ele>4817</ele><time>2026-05-26T05:12:54Z</time></trkpt>
      <trkpt lat="31.060507" lon="81.281482"><ele>4815</ele><time>2026-05-26T05:14:01Z</time></trkpt>
      <trkpt lat="31.061009" lon="81.281544"><ele>4810</ele><time>2026-05-26T05:14:50Z</time></trkpt>
      <trkpt lat="31.061934" lon="81.281999"><ele>4806</ele><time>2026-05-26T05:16:37Z</time></trkpt>
      <trkpt lat="31.062431" lon="81.2821"><ele>4806</ele><time>2026-05-26T05:17:30Z</time></trkpt>
      <trkpt lat="31.064277" lon="81.281841"><ele>4814</ele><time>2026-05-26T05:23:03Z</time></trkpt>
      <trkpt lat="31.066286" lon="81.281854"><ele>4818</ele><time>2026-05-26T05:26:54Z</time></trkpt>
      <trkpt lat="31.06749" lon="81.281759"><ele>4819</ele><time>2026-05-26T05:29:09Z</time></trkpt>
      <trkpt lat="31.06822" lon="81.28191"><ele>4822</ele><time>2026-05-26T05:31:31Z</time></trkpt>
      <trkpt lat="31.069099" lon="81.28199"><ele>4819</ele><time>2026-05-26T05:33:11Z</time></trkpt>
      <trkpt lat="31.070679" lon="81.282444"><ele>4829</ele><time>2026-05-26T05:36:44Z</time></trkpt>
      <trkpt lat="31.071378" lon="81.282495"><ele>4834</ele><time>2026-05-26T05:38:44Z</time></trkpt>
      <trkpt lat="31.071842" lon="81.282368"><ele>4839</ele><time>2026-05-26T05:39:52Z</time></trkpt>
      <trkpt lat="31.072231" lon="81.282396"><ele>4844</ele><time>2026-05-26T05:40:51Z</time></trkpt>
      <trkpt lat="31.072993" lon="81.28225"><ele>4848</ele><time>2026-05-26T05:42:52Z</time></trkpt>
      <trkpt lat="31.072992" lon="81.282307"><ele>4848</ele><time>2026-05-26T05:43:47Z</time></trkpt>
      <trkpt lat="31.073215" lon="81.28218"><ele>4848</ele><time>2026-05-26T05:44:40Z</time></trkpt>
      <trkpt lat="31.073828" lon="81.282084"><ele>4854</ele><time>2026-05-26T05:45:45Z</time></trkpt>
      <trkpt lat="31.074332" lon="81.282298"><ele>4852</ele><time>2026-05-26T05:47:59Z</time></trkpt>
      <trkpt lat="31.074669" lon="81.282543"><ele>4851</ele><time>2026-05-26T05:48:40Z</time></trkpt>
      <trkpt lat="31.075584" lon="81.282691"><ele>4863</ele><time>2026-05-26T05:50:43Z</time></trkpt>
      <trkpt lat="31.076182" lon="81.283146"><ele>4868</ele><time>2026-05-26T05:52:31Z</time></trkpt>
      <trkpt lat="31.076771" lon="81.283831"><ele>4872</ele><time>2026-05-26T05:54:42Z</time></trkpt>
      <trkpt lat="31.077517" lon="81.284296"><ele>4863</ele><time>2026-05-26T05:56:34Z</time></trkpt>
      <trkpt lat="31.080428" lon="81.284602"><ele>4873</ele><time>2026-05-26T06:08:57Z</time></trkpt>
      <trkpt lat="31.082949" lon="81.28604"><ele>4878</ele><time>2026-05-26T06:14:09Z</time></trkpt>
      <trkpt lat="31.083441" lon="81.286428"><ele>4877</ele><time>2026-05-26T06:15:16Z</time></trkpt>
      <trkpt lat="31.083814" lon="81.286924"><ele>4875</ele><time>2026-05-26T06:16:17Z</time></trkpt>
      <trkpt lat="31.084452" lon="81.287212"><ele>4877</ele><time>2026-05-26T06:17:35Z</time></trkpt>
      <trkpt lat="31.084534" lon="81.287284"><ele>4879</ele><time>2026-05-26T06:17:47Z</time></trkpt>
      <trkpt lat="31.084471" lon="81.287301"><ele>4890</ele><time>2026-05-26T06:19:05Z</time></trkpt>
      <trkpt lat="31.084419" lon="81.287046"><ele>4890</ele><time>2026-05-26T06:19:51Z</time></trkpt>
      <trkpt lat="31.08435" lon="81.287195"><ele>4891</ele><time>2026-05-26T06:20:14Z</time></trkpt>
      <trkpt lat="31.084429" lon="81.287034"><ele>4893</ele><time>2026-05-26T06:21:41Z</time></trkpt>
      <trkpt lat="31.084442" lon="81.287155"><ele>4890</ele><time>2026-05-26T06:22:16Z</time></trkpt>
      <trkpt lat="31.084686" lon="81.287235"><ele>4888</ele><time>2026-05-26T06:22:52Z</time></trkpt>
      <trkpt lat="31.084691" lon="81.287127"><ele>4881</ele><time>2026-05-26T06:23:26Z</time></trkpt>
      <trkpt lat="31.084827" lon="81.287196"><ele>4888</ele><time>2026-05-26T06:23:50Z</time></trkpt>
      <trkpt lat="31.084865" lon="81.287067"><ele>4889</ele><time>2026-05-26T06:23:52Z</time></trkpt>
      <trkpt lat="31.08488" lon="81.287322"><ele>4890</ele><time>2026-05-26T06:24:12Z</time></trkpt>
      <trkpt lat="31.08486" lon="81.287171"><ele>4890</ele><time>2026-05-26T06:24:19Z</time></trkpt>
      <trkpt lat="31.084822" lon="81.287199"><ele>4890</ele><time>2026-05-26T06:24:34Z</time></trkpt>
      <trkpt lat="31.084871" lon="81.287025"><ele>4891</ele><time>2026-05-26T06:24:44Z</time></trkpt>
      <trkpt lat="31.084938" lon="81.287045"><ele>4890</ele><time>2026-05-26T06:24:47Z</time></trkpt>
      <trkpt lat="31.084874" lon="81.287012"><ele>4890</ele><time>2026-05-26T06:24:50Z</time></trkpt>
      <trkpt lat="31.084954" lon="81.286877"><ele>4890</ele><time>2026-05-26T06:25:16Z</time></trkpt>
      <trkpt lat="31.08489" lon="81.286742"><ele>4890</ele><time>2026-05-26T06:25:29Z</time></trkpt>
      <trkpt lat="31.08492" lon="81.286783"><ele>4890</ele><time>2026-05-26T06:25:36Z</time></trkpt>
      <trkpt lat="31.084772" lon="81.287195"><ele>4884</ele><time>2026-05-26T06:25:49Z</time></trkpt>
      <trkpt lat="31.084708" lon="81.286963"><ele>4889</ele><time>2026-05-26T06:26:22Z</time></trkpt>
      <trkpt lat="31.084795" lon="81.287028"><ele>4890</ele><time>2026-05-26T06:26:42Z</time></trkpt>
      <trkpt lat="31.084678" lon="81.287241"><ele>4889</ele><time>2026-05-26T06:27:01Z</time></trkpt>
      <trkpt lat="31.084725" lon="81.287039"><ele>4889</ele><time>2026-05-26T06:27:14Z</time></trkpt>
      <trkpt lat="31.084703" lon="81.287247"><ele>4883</ele><time>2026-05-26T06:31:01Z</time></trkpt>
      <trkpt lat="31.084629" lon="81.287067"><ele>4890</ele><time>2026-05-26T06:57:57Z</time></trkpt>
      <trkpt lat="31.084603" lon="81.287261"><ele>4892</ele><time>2026-05-26T07:03:43Z</time></trkpt>
      <trkpt lat="31.084692" lon="81.287125"><ele>4893</ele><time>2026-05-26T07:04:45Z</time></trkpt>
      <trkpt lat="31.084752" lon="81.286568"><ele>4891</ele><time>2026-05-26T07:05:14Z</time></trkpt>
      <trkpt lat="31.084754" lon="81.287032"><ele>4890</ele><time>2026-05-26T07:05:23Z</time></trkpt>
      <trkpt lat="31.084627" lon="81.287183"><ele>4892</ele><time>2026-05-26T07:06:26Z</time></trkpt>
      <trkpt lat="31.085692" lon="81.287253"><ele>4896</ele><time>2026-05-26T07:09:44Z</time></trkpt>
      <trkpt lat="31.087929" lon="81.288065"><ele>4912</ele><time>2026-05-26T07:15:33Z</time></trkpt>
      <trkpt lat="31.089191" lon="81.28888"><ele>4920</ele><time>2026-05-26T07:18:54Z</time></trkpt>
      <trkpt lat="31.090487" lon="81.289893"><ele>4926</ele><time>2026-05-26T07:22:16Z</time></trkpt>
      <trkpt lat="31.090807" lon="81.290233"><ele>4926</ele><time>2026-05-26T07:23:14Z</time></trkpt>
      <trkpt lat="31.091688" lon="81.291744"><ele>4931</ele><time>2026-05-26T07:26:26Z</time></trkpt>
      <trkpt lat="31.092277" lon="81.292158"><ele>4933</ele><time>2026-05-26T07:27:54Z</time></trkpt>
      <trkpt lat="31.093167" lon="81.293121"><ele>4936</ele><time>2026-05-26T07:30:31Z</time></trkpt>
      <trkpt lat="31.094518" lon="81.294222"><ele>4944</ele><time>2026-05-26T07:37:36Z</time></trkpt>
      <trkpt lat="31.09564" lon="81.294861"><ele>4949</ele><time>2026-05-26T07:40:10Z</time></trkpt>
      <trkpt lat="31.09611" lon="81.295258"><ele>4952</ele><time>2026-05-26T07:41:30Z</time></trkpt>
      <trkpt lat="31.096961" lon="81.295713"><ele>4953</ele><time>2026-05-26T07:43:36Z</time></trkpt>
      <trkpt lat="31.097667" lon="81.296579"><ele>4956</ele><time>2026-05-26T07:46:11Z</time></trkpt>
      <trkpt lat="31.098366" lon="81.297782"><ele>4961</ele><time>2026-05-26T07:49:00Z</time></trkpt>
      <trkpt lat="31.098891" lon="81.299344"><ele>4964</ele><time>2026-05-26T07:52:42Z</time></trkpt>
      <trkpt lat="31.099082" lon="81.300151"><ele>4967</ele><time>2026-05-26T07:54:15Z</time></trkpt>
      <trkpt lat="31.099215" lon="81.301156"><ele>4971</ele><time>2026-05-26T07:56:03Z</time></trkpt>
      <trkpt lat="31.099421" lon="81.301678"><ele>4973</ele><time>2026-05-26T07:57:00Z</time></trkpt>
      <trkpt lat="31.099625" lon="81.30251"><ele>4971</ele><time>2026-05-26T07:58:24Z</time></trkpt>
      <trkpt lat="31.099881" lon="81.302996"><ele>4969</ele><time>2026-05-26T07:59:16Z</time></trkpt>
      <trkpt lat="31.100117" lon="81.303692"><ele>4958</ele><time>2026-05-26T08:00:32Z</time></trkpt>
      <trkpt lat="31.100342" lon="81.304686"><ele>4975</ele><time>2026-05-26T08:02:22Z</time></trkpt>
      <trkpt lat="31.10052" lon="81.305648"><ele>4969</ele><time>2026-05-26T08:03:54Z</time></trkpt>
      <trkpt lat="31.100545" lon="81.306916"><ele>4974</ele><time>2026-05-26T08:05:55Z</time></trkpt>
      <trkpt lat="31.100704" lon="81.30745"><ele>4973</ele><time>2026-05-26T08:06:48Z</time></trkpt>
      <trkpt lat="31.100661" lon="81.307781"><ele>4980</ele><time>2026-05-26T08:08:40Z</time></trkpt>
      <trkpt lat="31.10075" lon="81.308408"><ele>4988</ele><time>2026-05-26T08:10:30Z</time></trkpt>
      <trkpt lat="31.100879" lon="81.308455"><ele>4989</ele><time>2026-05-26T08:10:48Z</time></trkpt>
      <trkpt lat="31.101395" lon="81.308267"><ele>4985</ele><time>2026-05-26T08:11:54Z</time></trkpt>
      <trkpt lat="31.101618" lon="81.308395"><ele>4987</ele><time>2026-05-26T08:12:24Z</time></trkpt>
      <trkpt lat="31.101876" lon="81.308733"><ele>4989</ele><time>2026-05-26T08:13:18Z</time></trkpt>
      <trkpt lat="31.10186" lon="81.308785"><ele>4989</ele><time>2026-05-26T08:13:26Z</time></trkpt>
      <trkpt lat="31.102247" lon="81.309481"><ele>4992</ele><time>2026-05-26T08:15:08Z</time></trkpt>
      <trkpt lat="31.102374" lon="81.309546"><ele>4996</ele><time>2026-05-26T08:17:36Z</time></trkpt>
      <trkpt lat="31.10259" lon="81.309855"><ele>4999</ele><time>2026-05-26T08:18:26Z</time></trkpt>
      <trkpt lat="31.103006" lon="81.311006"><ele>5005</ele><time>2026-05-26T08:20:35Z</time></trkpt>
      <trkpt lat="31.103193" lon="81.311354"><ele>5006</ele><time>2026-05-26T08:21:15Z</time></trkpt>
      <trkpt lat="31.103327" lon="81.311895"><ele>5009</ele><time>2026-05-26T08:22:10Z</time></trkpt>
      <trkpt lat="31.103321" lon="81.312185"><ele>5010</ele><time>2026-05-26T08:22:39Z</time></trkpt>
      <trkpt lat="31.103483" lon="81.312609"><ele>5014</ele><time>2026-05-26T08:23:55Z</time></trkpt>
      <trkpt lat="31.103632" lon="81.313432"><ele>5019</ele><time>2026-05-26T08:26:23Z</time></trkpt>
      <trkpt lat="31.103568" lon="81.313781"><ele>5016</ele><time>2026-05-26T08:26:55Z</time></trkpt>
      <trkpt lat="31.103754" lon="81.314438"><ele>5021</ele><time>2026-05-26T08:28:01Z</time></trkpt>
      <trkpt lat="31.103734" lon="81.31483"><ele>5026</ele><time>2026-05-26T08:28:56Z</time></trkpt>
      <trkpt lat="31.104162" lon="81.315864"><ele>5030</ele><time>2026-05-26T08:30:55Z</time></trkpt>
      <trkpt lat="31.104378" lon="81.316185"><ele>5033</ele><time>2026-05-26T08:31:34Z</time></trkpt>
      <trkpt lat="31.104655" lon="81.316284"><ele>5034</ele><time>2026-05-26T08:32:13Z</time></trkpt>
      <trkpt lat="31.104808" lon="81.316428"><ele>5035</ele><time>2026-05-26T08:32:46Z</time></trkpt>
      <trkpt lat="31.105033" lon="81.316926"><ele>5037</ele><time>2026-05-26T08:33:48Z</time></trkpt>
      <trkpt lat="31.105176" lon="81.317073"><ele>5038</ele><time>2026-05-26T08:34:10Z</time></trkpt>
      <trkpt lat="31.105486" lon="81.317628"><ele>5042</ele><time>2026-05-26T08:35:19Z</time></trkpt>
      <trkpt lat="31.105541" lon="81.317956"><ele>5042</ele><time>2026-05-26T08:35:48Z</time></trkpt>
      <trkpt lat="31.105708" lon="81.318073"><ele>5045</ele><time>2026-05-26T08:36:13Z</time></trkpt>
      <trkpt lat="31.105955" lon="81.318768"><ele>5050</ele><time>2026-05-26T08:38:51Z</time></trkpt>
      <trkpt lat="31.106319" lon="81.319386"><ele>5050</ele><time>2026-05-26T08:40:07Z</time></trkpt>
      <trkpt lat="31.106532" lon="81.319592"><ele>5052</ele><time>2026-05-26T08:40:41Z</time></trkpt>
      <trkpt lat="31.106562" lon="81.319749"><ele>5048</ele><time>2026-05-26T08:40:57Z</time></trkpt>
      <trkpt lat="31.106496" lon="81.319901"><ele>5049</ele><time>2026-05-26T08:41:12Z</time></trkpt>
      <trkpt lat="31.106471" lon="81.320248"><ele>5046</ele><time>2026-05-26T08:41:42Z</time></trkpt>
      <trkpt lat="31.106543" lon="81.32077"><ele>5042</ele><time>2026-05-26T08:42:19Z</time></trkpt>
      <trkpt lat="31.106497" lon="81.320986"><ele>5037</ele><time>2026-05-26T08:42:39Z</time></trkpt>
      <trkpt lat="31.106597" lon="81.321513"><ele>5041</ele><time>2026-05-26T08:43:32Z</time></trkpt>
      <trkpt lat="31.106518" lon="81.321441"><ele>5047</ele><time>2026-05-26T08:44:59Z</time></trkpt>
      <trkpt lat="31.106423" lon="81.321474"><ele>5046</ele><time>2026-05-26T08:45:08Z</time></trkpt>
      <trkpt lat="31.106493" lon="81.321553"><ele>5046</ele><time>2026-05-26T08:46:52Z</time></trkpt>
      <trkpt lat="31.106819" lon="81.321554"><ele>5050</ele><time>2026-05-26T08:47:13Z</time></trkpt>
      <trkpt lat="31.106591" lon="81.321553"><ele>5049</ele><time>2026-05-26T08:47:36Z</time></trkpt>
      <trkpt lat="31.106579" lon="81.321459"><ele>5048</ele><time>2026-05-26T08:49:17Z</time></trkpt>
      <trkpt lat="31.106492" lon="81.321493"><ele>5047</ele><time>2026-05-26T08:49:38Z</time></trkpt>
      <trkpt lat="31.106611" lon="81.321956"><ele>5047</ele><time>2026-05-26T22:42:52Z</time></trkpt>
      <trkpt lat="31.106756" lon="81.322081"><ele>5049</ele><time>2026-05-26T22:43:18Z</time></trkpt>
      <trkpt lat="31.106796" lon="81.322632"><ele>5052</ele><time>2026-05-26T22:44:45Z</time></trkpt>
      <trkpt lat="31.106735" lon="81.322846"><ele>5052</ele><time>2026-05-26T22:45:11Z</time></trkpt>
      <trkpt lat="31.106405" lon="81.32329"><ele>5053</ele><time>2026-05-26T22:46:27Z</time></trkpt>
      <trkpt lat="31.106188" lon="81.323843"><ele>5056</ele><time>2026-05-26T22:47:49Z</time></trkpt>
      <trkpt lat="31.106083" lon="81.32456"><ele>5056</ele><time>2026-05-26T22:49:24Z</time></trkpt>
      <trkpt lat="31.1061" lon="81.32513"><ele>5058</ele><time>2026-05-26T22:50:33Z</time></trkpt>
      <trkpt lat="31.106029" lon="81.325638"><ele>5057</ele><time>2026-05-26T22:51:31Z</time></trkpt>
      <trkpt lat="31.106086" lon="81.325796"><ele>5057</ele><time>2026-05-26T22:51:50Z</time></trkpt>
      <trkpt lat="31.105716" lon="81.32607"><ele>5058</ele><time>2026-05-26T22:52:50Z</time></trkpt>
      <trkpt lat="31.105423" lon="81.3269"><ele>5066</ele><time>2026-05-26T22:55:28Z</time></trkpt>
      <trkpt lat="31.105384" lon="81.327172"><ele>5071</ele><time>2026-05-26T22:56:12Z</time></trkpt>
      <trkpt lat="31.10516" lon="81.327637"><ele>5076</ele><time>2026-05-26T22:57:56Z</time></trkpt>
      <trkpt lat="31.105034" lon="81.328095"><ele>5082</ele><time>2026-05-26T22:59:12Z</time></trkpt>
      <trkpt lat="31.104516" lon="81.328737"><ele>5086</ele><time>2026-05-26T23:02:22Z</time></trkpt>
      <trkpt lat="31.104266" lon="81.329208"><ele>5095</ele><time>2026-05-26T23:04:02Z</time></trkpt>
      <trkpt lat="31.103812" lon="81.329633"><ele>5110</ele><time>2026-05-26T23:07:06Z</time></trkpt>
      <trkpt lat="31.10375" lon="81.329839"><ele>5116</ele><time>2026-05-26T23:08:35Z</time></trkpt>
      <trkpt lat="31.10353" lon="81.329869"><ele>5122</ele><time>2026-05-26T23:09:45Z</time></trkpt>
      <trkpt lat="31.103538" lon="81.329924"><ele>5123</ele><time>2026-05-26T23:10:02Z</time></trkpt>
      <trkpt lat="31.103393" lon="81.330047"><ele>5131</ele><time>2026-05-26T23:11:46Z</time></trkpt>
      <trkpt lat="31.103394" lon="81.330157"><ele>5132</ele><time>2026-05-26T23:14:50Z</time></trkpt>
      <trkpt lat="31.103303" lon="81.330171"><ele>5134</ele><time>2026-05-26T23:15:06Z</time></trkpt>
      <trkpt lat="31.103347" lon="81.330321"><ele>5137</ele><time>2026-05-26T23:15:32Z</time></trkpt>
      <trkpt lat="31.10313" lon="81.330472"><ele>5145</ele><time>2026-05-26T23:16:57Z</time></trkpt>
      <trkpt lat="31.102985" lon="81.33067"><ele>5155</ele><time>2026-05-26T23:19:00Z</time></trkpt>
      <trkpt lat="31.102705" lon="81.330683"><ele>5161</ele><time>2026-05-26T23:20:14Z</time></trkpt>
      <trkpt lat="31.102022" lon="81.331254"><ele>5181</ele><time>2026-05-26T23:25:11Z</time></trkpt>
      <trkpt lat="31.101978" lon="81.331463"><ele>5187</ele><time>2026-05-26T23:26:03Z</time></trkpt>
      <trkpt lat="31.102034" lon="81.331733"><ele>5192</ele><time>2026-05-26T23:27:11Z</time></trkpt>
      <trkpt lat="31.101909" lon="81.332307"><ele>5204</ele><time>2026-05-26T23:29:34Z</time></trkpt>
      <trkpt lat="31.101762" lon="81.33244"><ele>5209</ele><time>2026-05-26T23:30:15Z</time></trkpt>
      <trkpt lat="31.101247" lon="81.332642"><ele>5214</ele><time>2026-05-26T23:31:51Z</time></trkpt>
      <trkpt lat="31.1009" lon="81.332908"><ele>5220</ele><time>2026-05-26T23:34:31Z</time></trkpt>
      <trkpt lat="31.100733" lon="81.333118"><ele>5221</ele><time>2026-05-26T23:34:59Z</time></trkpt>
      <trkpt lat="31.10056" lon="81.333201"><ele>5222</ele><time>2026-05-26T23:37:39Z</time></trkpt>
      <trkpt lat="31.100276" lon="81.333512"><ele>5226</ele><time>2026-05-26T23:38:52Z</time></trkpt>
      <trkpt lat="31.098914" lon="81.335688"><ele>5240</ele><time>2026-05-26T23:48:55Z</time></trkpt>
      <trkpt lat="31.098736" lon="81.336328"><ele>5254</ele><time>2026-05-26T23:50:28Z</time></trkpt>
      <trkpt lat="31.098546" lon="81.336725"><ele>5256</ele><time>2026-05-26T23:53:01Z</time></trkpt>
      <trkpt lat="31.098516" lon="81.337001"><ele>5259</ele><time>2026-05-26T23:53:50Z</time></trkpt>
      <trkpt lat="31.098262" lon="81.337808"><ele>5262</ele><time>2026-05-26T23:55:15Z</time></trkpt>
      <trkpt lat="31.098152" lon="81.338663"><ele>5269</ele><time>2026-05-26T23:56:40Z</time></trkpt>
      <trkpt lat="31.098163" lon="81.338935"><ele>5273</ele><time>2026-05-26T23:57:09Z</time></trkpt>
      <trkpt lat="31.098259" lon="81.338985"><ele>5276</ele><time>2026-05-26T23:58:28Z</time></trkpt>
      <trkpt lat="31.098104" lon="81.33893"><ele>5278</ele><time>2026-05-27T00:02:38Z</time></trkpt>
      <trkpt lat="31.098164" lon="81.339017"><ele>5275</ele><time>2026-05-27T00:04:07Z</time></trkpt>
      <trkpt lat="31.098063" lon="81.339688"><ele>5276</ele><time>2026-05-27T00:05:15Z</time></trkpt>
      <trkpt lat="31.098033" lon="81.339649"><ele>5274</ele><time>2026-05-27T00:06:41Z</time></trkpt>
      <trkpt lat="31.098" lon="81.339751"><ele>5273</ele><time>2026-05-27T00:08:49Z</time></trkpt>
      <trkpt lat="31.097845" lon="81.339665"><ele>5271</ele><time>2026-05-27T00:08:59Z</time></trkpt>
      <trkpt lat="31.097925" lon="81.339679"><ele>5268</ele><time>2026-05-27T00:09:12Z</time></trkpt>
      <trkpt lat="31.097936" lon="81.340006"><ele>5271</ele><time>2026-05-27T00:10:26Z</time></trkpt>
      <trkpt lat="31.098003" lon="81.339973"><ele>5275</ele><time>2026-05-27T00:10:33Z</time></trkpt>
      <trkpt lat="31.09804" lon="81.339661"><ele>5273</ele><time>2026-05-27T00:10:58Z</time></trkpt>
      <trkpt lat="31.097986" lon="81.339716"><ele>5270</ele><time>2026-05-27T00:15:21Z</time></trkpt>
      <trkpt lat="31.098086" lon="81.339654"><ele>5274</ele><time>2026-05-27T00:27:53Z</time></trkpt>
      <trkpt lat="31.098093" lon="81.339301"><ele>5276</ele><time>2026-05-27T00:28:29Z</time></trkpt>
      <trkpt lat="31.098002" lon="81.339194"><ele>5275</ele><time>2026-05-27T00:28:45Z</time></trkpt>
      <trkpt lat="31.098062" lon="81.339293"><ele>5272</ele><time>2026-05-27T00:29:32Z</time></trkpt>
      <trkpt lat="31.098043" lon="81.339678"><ele>5273</ele><time>2026-05-27T00:30:10Z</time></trkpt>
      <trkpt lat="31.098103" lon="81.339789"><ele>5273</ele><time>2026-05-27T00:37:06Z</time></trkpt>
      <trkpt lat="31.097999" lon="81.340667"><ele>5279</ele><time>2026-05-27T00:39:02Z</time></trkpt>
      <trkpt lat="31.09769" lon="81.34142"><ele>5284</ele><time>2026-05-27T00:41:34Z</time></trkpt>
      <trkpt lat="31.09762" lon="81.341921"><ele>5288</ele><time>2026-05-27T00:42:41Z</time></trkpt>
      <trkpt lat="31.097415" lon="81.342625"><ele>5294</ele><time>2026-05-27T00:44:07Z</time></trkpt>
      <trkpt lat="31.096938" lon="81.343665"><ele>5307</ele><time>2026-05-27T00:47:08Z</time></trkpt>
      <trkpt lat="31.096967" lon="81.343885"><ele>5310</ele><time>2026-05-27T00:48:19Z</time></trkpt>
      <trkpt lat="31.09677" lon="81.344739"><ele>5320</ele><time>2026-05-27T00:50:17Z</time></trkpt>
      <trkpt lat="31.096753" lon="81.345129"><ele>5324</ele><time>2026-05-27T00:51:06Z</time></trkpt>
      <trkpt lat="31.096514" lon="81.345747"><ele>5330</ele><time>2026-05-27T00:54:30Z</time></trkpt>
      <trkpt lat="31.096451" lon="81.346061"><ele>5336</ele><time>2026-05-27T00:56:01Z</time></trkpt>
      <trkpt lat="31.096524" lon="81.346383"><ele>5343</ele><time>2026-05-27T00:57:00Z</time></trkpt>
      <trkpt lat="31.096447" lon="81.346581"><ele>5348</ele><time>2026-05-27T00:58:37Z</time></trkpt>
      <trkpt lat="31.096456" lon="81.346906"><ele>5356</ele><time>2026-05-27T00:59:50Z</time></trkpt>
      <trkpt lat="31.09666" lon="81.347178"><ele>5368</ele><time>2026-05-27T01:02:49Z</time></trkpt>
      <trkpt lat="31.096754" lon="81.347175"><ele>5370</ele><time>2026-05-27T01:03:06Z</time></trkpt>
      <trkpt lat="31.096692" lon="81.347385"><ele>5374</ele><time>2026-05-27T01:03:56Z</time></trkpt>
      <trkpt lat="31.09676" lon="81.347429"><ele>5376</ele><time>2026-05-27T01:04:18Z</time></trkpt>
      <trkpt lat="31.09681" lon="81.347701"><ele>5384</ele><time>2026-05-27T01:06:51Z</time></trkpt>
      <trkpt lat="31.096972" lon="81.347974"><ele>5389</ele><time>2026-05-27T01:07:55Z</time></trkpt>
      <trkpt lat="31.097903" lon="81.350915"><ele>5406</ele><time>2026-05-27T01:17:30Z</time></trkpt>
      <trkpt lat="31.098257" lon="81.351561"><ele>5414</ele><time>2026-05-27T01:19:14Z</time></trkpt>
      <trkpt lat="31.098233" lon="81.351787"><ele>5417</ele><time>2026-05-27T01:19:39Z</time></trkpt>
      <trkpt lat="31.098487" lon="81.352635"><ele>5419</ele><time>2026-05-27T01:22:42Z</time></trkpt>
      <trkpt lat="31.098926" lon="81.353475"><ele>5421</ele><time>2026-05-27T01:24:41Z</time></trkpt>
      <trkpt lat="31.099075" lon="81.354253"><ele>5420</ele><time>2026-05-27T01:25:54Z</time></trkpt>
      <trkpt lat="31.099368" lon="81.355029"><ele>5424</ele><time>2026-05-27T01:27:13Z</time></trkpt>
      <trkpt lat="31.099373" lon="81.355247"><ele>5424</ele><time>2026-05-27T01:27:54Z</time></trkpt>
      <trkpt lat="31.099753" lon="81.355902"><ele>5429</ele><time>2026-05-27T01:31:08Z</time></trkpt>
      <trkpt lat="31.099986" lon="81.356091"><ele>5433</ele><time>2026-05-27T01:31:46Z</time></trkpt>
      <trkpt lat="31.100036" lon="81.356447"><ele>5433</ele><time>2026-05-27T01:32:28Z</time></trkpt>
      <trkpt lat="31.100236" lon="81.356891"><ele>5435</ele><time>2026-05-27T01:33:19Z</time></trkpt>
      <trkpt lat="31.100826" lon="81.358736"><ele>5444</ele><time>2026-05-27T01:37:38Z</time></trkpt>
      <trkpt lat="31.101099" lon="81.360463"><ele>5455</ele><time>2026-05-27T01:42:45Z</time></trkpt>
      <trkpt lat="31.101108" lon="81.360841"><ele>5459</ele><time>2026-05-27T01:43:46Z</time></trkpt>
      <trkpt lat="31.100971" lon="81.36157"><ele>5462</ele><time>2026-05-27T01:47:43Z</time></trkpt>
      <trkpt lat="31.100834" lon="81.361844"><ele>5468</ele><time>2026-05-27T01:48:37Z</time></trkpt>
      <trkpt lat="31.100225" lon="81.362027"><ele>5481</ele><time>2026-05-27T01:51:15Z</time></trkpt>
      <trkpt lat="31.100309" lon="81.362191"><ele>5487</ele><time>2026-05-27T01:52:59Z</time></trkpt>
      <trkpt lat="31.099818" lon="81.362774"><ele>5504</ele><time>2026-05-27T01:56:48Z</time></trkpt>
      <trkpt lat="31.099845" lon="81.362869"><ele>5507</ele><time>2026-05-27T01:57:03Z</time></trkpt>
      <trkpt lat="31.099708" lon="81.363373"><ele>5519</ele><time>2026-05-27T01:59:39Z</time></trkpt>
      <trkpt lat="31.099593" lon="81.363537"><ele>5522</ele><time>2026-05-27T02:00:16Z</time></trkpt>
      <trkpt lat="31.099465" lon="81.363601"><ele>5523</ele><time>2026-05-27T02:02:06Z</time></trkpt>
      <trkpt lat="31.099368" lon="81.363487"><ele>5524</ele><time>2026-05-27T02:02:26Z</time></trkpt>
      <trkpt lat="31.099171" lon="81.363814"><ele>5532</ele><time>2026-05-27T02:05:04Z</time></trkpt>
      <trkpt lat="31.098899" lon="81.36406"><ele>5540</ele><time>2026-05-27T02:08:01Z</time></trkpt>
      <trkpt lat="31.098889" lon="81.364315"><ele>5551</ele><time>2026-05-27T02:09:00Z</time></trkpt>
      <trkpt lat="31.098846" lon="81.36429"><ele>5552</ele><time>2026-05-27T02:09:10Z</time></trkpt>
      <trkpt lat="31.098385" lon="81.364823"><ele>5566</ele><time>2026-05-27T02:14:48Z</time></trkpt>
      <trkpt lat="31.098328" lon="81.36508"><ele>5575</ele><time>2026-05-27T02:15:45Z</time></trkpt>
      <trkpt lat="31.098035" lon="81.365502"><ele>5581</ele><time>2026-05-27T02:21:20Z</time></trkpt>
      <trkpt lat="31.097938" lon="81.365998"><ele>5589</ele><time>2026-05-27T02:22:29Z</time></trkpt>
      <trkpt lat="31.097844" lon="81.366117"><ele>5592</ele><time>2026-05-27T02:22:51Z</time></trkpt>
      <trkpt lat="31.097856" lon="81.366224"><ele>5594</ele><time>2026-05-27T02:23:09Z</time></trkpt>
      <trkpt lat="31.097464" lon="81.366626"><ele>5598</ele><time>2026-05-27T02:24:26Z</time></trkpt>
      <trkpt lat="31.097451" lon="81.367054"><ele>5603</ele><time>2026-05-27T02:25:23Z</time></trkpt>
      <trkpt lat="31.097196" lon="81.367387"><ele>5606</ele><time>2026-05-27T02:33:55Z</time></trkpt>
      <trkpt lat="31.097159" lon="81.367657"><ele>5606</ele><time>2026-05-27T02:34:49Z</time></trkpt>
      <trkpt lat="31.096948" lon="81.367897"><ele>5608</ele><time>2026-05-27T02:35:26Z</time></trkpt>
      <trkpt lat="31.096808" lon="81.36831"><ele>5611</ele><time>2026-05-27T02:36:20Z</time></trkpt>
      <trkpt lat="31.096667" lon="81.368358"><ele>5612</ele><time>2026-05-27T02:36:37Z</time></trkpt>
      <trkpt lat="31.09647" lon="81.368669"><ele>5617</ele><time>2026-05-27T02:37:23Z</time></trkpt>
      <trkpt lat="31.096098" lon="81.36899"><ele>5623</ele><time>2026-05-27T02:38:36Z</time></trkpt>
      <trkpt lat="31.096033" lon="81.369196"><ele>5626</ele><time>2026-05-27T02:42:04Z</time></trkpt>
      <trkpt lat="31.095767" lon="81.369491"><ele>5632</ele><time>2026-05-27T02:44:27Z</time></trkpt>
      <trkpt lat="31.095654" lon="81.369781"><ele>5637</ele><time>2026-05-27T02:45:25Z</time></trkpt>
      <trkpt lat="31.094757" lon="81.370517"><ele>5636</ele><time>2026-05-27T02:55:49Z</time></trkpt>
      <trkpt lat="31.094679" lon="81.370505"><ele>5635</ele><time>2026-05-27T02:56:59Z</time></trkpt>
      <trkpt lat="31.094605" lon="81.370364"><ele>5630</ele><time>2026-05-27T02:57:50Z</time></trkpt>
      <trkpt lat="31.094483" lon="81.370405"><ele>5624</ele><time>2026-05-27T02:58:24Z</time></trkpt>
      <trkpt lat="31.094439" lon="81.370258"><ele>5622</ele><time>2026-05-27T02:59:08Z</time></trkpt>
      <trkpt lat="31.09422" lon="81.370212"><ele>5617</ele><time>2026-05-27T03:00:03Z</time></trkpt>
      <trkpt lat="31.094176" lon="81.370304"><ele>5613</ele><time>2026-05-27T03:00:26Z</time></trkpt>
      <trkpt lat="31.09408" lon="81.370314"><ele>5613</ele><time>2026-05-27T03:01:02Z</time></trkpt>
      <trkpt lat="31.094117" lon="81.370371"><ele>5610</ele><time>2026-05-27T03:01:22Z</time></trkpt>
      <trkpt lat="31.094011" lon="81.370773"><ele>5600</ele><time>2026-05-27T03:04:05Z</time></trkpt>
      <trkpt lat="31.093939" lon="81.371821"><ele>5592</ele><time>2026-05-27T03:07:28Z</time></trkpt>
      <trkpt lat="31.093703" lon="81.372294"><ele>5584</ele><time>2026-05-27T03:09:27Z</time></trkpt>
      <trkpt lat="31.093662" lon="81.372613"><ele>5588</ele><time>2026-05-27T03:10:29Z</time></trkpt>
      <trkpt lat="31.093178" lon="81.373465"><ele>5592</ele><time>2026-05-27T03:12:14Z</time></trkpt>
      <trkpt lat="31.092982" lon="81.373706"><ele>5596</ele><time>2026-05-27T03:12:54Z</time></trkpt>
      <trkpt lat="31.092705" lon="81.373803"><ele>5595</ele><time>2026-05-27T03:14:24Z</time></trkpt>
      <trkpt lat="31.092504" lon="81.373778"><ele>5594</ele><time>2026-05-27T03:14:47Z</time></trkpt>
      <trkpt lat="31.092175" lon="81.373993"><ele>5589</ele><time>2026-05-27T03:16:34Z</time></trkpt>
      <trkpt lat="31.09218" lon="81.374105"><ele>5586</ele><time>2026-05-27T03:17:01Z</time></trkpt>
      <trkpt lat="31.092102" lon="81.374171"><ele>5583</ele><time>2026-05-27T03:17:12Z</time></trkpt>
      <trkpt lat="31.091928" lon="81.374189"><ele>5580</ele><time>2026-05-27T03:18:13Z</time></trkpt>
      <trkpt lat="31.091787" lon="81.37433"><ele>5574</ele><time>2026-05-27T03:19:31Z</time></trkpt>
      <trkpt lat="31.091847" lon="81.374575"><ele>5568</ele><time>2026-05-27T03:20:26Z</time></trkpt>
      <trkpt lat="31.091659" lon="81.374542"><ele>5561</ele><time>2026-05-27T03:21:20Z</time></trkpt>
      <trkpt lat="31.091655" lon="81.374596"><ele>5560</ele><time>2026-05-27T03:21:30Z</time></trkpt>
      <trkpt lat="31.09182" lon="81.374856"><ele>5553</ele><time>2026-05-27T03:22:30Z</time></trkpt>
      <trkpt lat="31.091808" lon="81.374961"><ele>5550</ele><time>2026-05-27T03:22:47Z</time></trkpt>
      <trkpt lat="31.090905" lon="81.375234"><ele>5538</ele><time>2026-05-27T03:24:52Z</time></trkpt>
      <trkpt lat="31.090821" lon="81.375193"><ele>5537</ele><time>2026-05-27T03:25:04Z</time></trkpt>
      <trkpt lat="31.090594" lon="81.375306"><ele>5537</ele><time>2026-05-27T03:25:33Z</time></trkpt>
      <trkpt lat="31.090407" lon="81.375547"><ele>5536</ele><time>2026-05-27T03:26:23Z</time></trkpt>
      <trkpt lat="31.090441" lon="81.375648"><ele>5533</ele><time>2026-05-27T03:27:11Z</time></trkpt>
      <trkpt lat="31.090326" lon="81.375824"><ele>5530</ele><time>2026-05-27T03:27:53Z</time></trkpt>
      <trkpt lat="31.08933" lon="81.376465"><ele>5515</ele><time>2026-05-27T03:30:43Z</time></trkpt>
      <trkpt lat="31.089069" lon="81.376791"><ele>5513</ele><time>2026-05-27T03:31:35Z</time></trkpt>
      <trkpt lat="31.088868" lon="81.376922"><ele>5512</ele><time>2026-05-27T03:32:06Z</time></trkpt>
      <trkpt lat="31.088693" lon="81.377483"><ele>5506</ele><time>2026-05-27T03:33:59Z</time></trkpt>
      <trkpt lat="31.088327" lon="81.377979"><ele>5498</ele><time>2026-05-27T03:35:32Z</time></trkpt>
      <trkpt lat="31.088324" lon="81.37809"><ele>5497</ele><time>2026-05-27T03:35:47Z</time></trkpt>
      <trkpt lat="31.088084" lon="81.378567"><ele>5488</ele><time>2026-05-27T03:37:14Z</time></trkpt>
      <trkpt lat="31.087766" lon="81.378999"><ele>5482</ele><time>2026-05-27T03:38:25Z</time></trkpt>
      <trkpt lat="31.087764" lon="81.379109"><ele>5481</ele><time>2026-05-27T03:38:37Z</time></trkpt>
      <trkpt lat="31.087484" lon="81.379369"><ele>5474</ele><time>2026-05-27T03:43:23Z</time></trkpt>
      <trkpt lat="31.087386" lon="81.379558"><ele>5472</ele><time>2026-05-27T03:43:45Z</time></trkpt>
      <trkpt lat="31.086978" lon="81.379765"><ele>5466</ele><time>2026-05-27T03:45:06Z</time></trkpt>
      <trkpt lat="31.086498" lon="81.380417"><ele>5448</ele><time>2026-05-27T03:48:00Z</time></trkpt>
      <trkpt lat="31.086244" lon="81.381627"><ele>5436</ele><time>2026-05-27T03:51:18Z</time></trkpt>
      <trkpt lat="31.086061" lon="81.381798"><ele>5434</ele><time>2026-05-27T03:52:09Z</time></trkpt>
      <trkpt lat="31.08603" lon="81.38213"><ele>5432</ele><time>2026-05-27T03:52:44Z</time></trkpt>
      <trkpt lat="31.085899" lon="81.382505"><ele>5430</ele><time>2026-05-27T03:53:47Z</time></trkpt>
      <trkpt lat="31.085453" lon="81.383298"><ele>5419</ele><time>2026-05-27T03:56:14Z</time></trkpt>
      <trkpt lat="31.08506" lon="81.383631"><ele>5410</ele><time>2026-05-27T03:57:14Z</time></trkpt>
      <trkpt lat="31.084963" lon="81.383637"><ele>5407</ele><time>2026-05-27T03:57:34Z</time></trkpt>
      <trkpt lat="31.084579" lon="81.384003"><ele>5403</ele><time>2026-05-27T03:58:24Z</time></trkpt>
      <trkpt lat="31.08399" lon="81.384271"><ele>5392</ele><time>2026-05-27T04:00:17Z</time></trkpt>
      <trkpt lat="31.083845" lon="81.384298"><ele>5388</ele><time>2026-05-27T04:00:48Z</time></trkpt>
      <trkpt lat="31.083618" lon="81.384221"><ele>5383</ele><time>2026-05-27T04:02:06Z</time></trkpt>
      <trkpt lat="31.083245" lon="81.384306"><ele>5375</ele><time>2026-05-27T04:03:38Z</time></trkpt>
      <trkpt lat="31.082926" lon="81.384287"><ele>5366</ele><time>2026-05-27T04:04:56Z</time></trkpt>
      <trkpt lat="31.082906" lon="81.384439"><ele>5364</ele><time>2026-05-27T04:05:49Z</time></trkpt>
      <trkpt lat="31.083064" lon="81.384801"><ele>5358</ele><time>2026-05-27T04:06:55Z</time></trkpt>
      <trkpt lat="31.083109" lon="81.385204"><ele>5349</ele><time>2026-05-27T04:08:40Z</time></trkpt>
      <trkpt lat="31.082934" lon="81.385246"><ele>5344</ele><time>2026-05-27T04:09:29Z</time></trkpt>
      <trkpt lat="31.082936" lon="81.385443"><ele>5336</ele><time>2026-05-27T04:10:32Z</time></trkpt>
      <trkpt lat="31.082693" lon="81.385603"><ele>5327</ele><time>2026-05-27T04:11:47Z</time></trkpt>
      <trkpt lat="31.082892" lon="81.385809"><ele>5318</ele><time>2026-05-27T04:13:49Z</time></trkpt>
      <trkpt lat="31.082946" lon="81.38601"><ele>5311</ele><time>2026-05-27T04:14:55Z</time></trkpt>
      <trkpt lat="31.082678" lon="81.386105"><ele>5301</ele><time>2026-05-27T04:16:10Z</time></trkpt>
      <trkpt lat="31.082565" lon="81.386503"><ele>5286</ele><time>2026-05-27T04:18:09Z</time></trkpt>
      <trkpt lat="31.082019" lon="81.386438"><ele>5267</ele><time>2026-05-27T04:20:50Z</time></trkpt>
      <trkpt lat="31.081592" lon="81.386276"><ele>5258</ele><time>2026-05-27T04:21:58Z</time></trkpt>
      <trkpt lat="31.081356" lon="81.386241"><ele>5254</ele><time>2026-05-27T04:22:40Z</time></trkpt>
      <trkpt lat="31.081214" lon="81.386293"><ele>5250</ele><time>2026-05-27T04:22:58Z</time></trkpt>
      <trkpt lat="31.080905" lon="81.386154"><ele>5246</ele><time>2026-05-27T04:23:50Z</time></trkpt>
      <trkpt lat="31.080389" lon="81.386469"><ele>5234</ele><time>2026-05-27T04:25:37Z</time></trkpt>
      <trkpt lat="31.080062" lon="81.386525"><ele>5228</ele><time>2026-05-27T04:26:42Z</time></trkpt>
      <trkpt lat="31.079939" lon="81.386629"><ele>5225</ele><time>2026-05-27T04:27:01Z</time></trkpt>
      <trkpt lat="31.079597" lon="81.386638"><ele>5224</ele><time>2026-05-27T04:27:46Z</time></trkpt>
      <trkpt lat="31.079672" lon="81.386545"><ele>5226</ele><time>2026-05-27T04:30:15Z</time></trkpt>
      <trkpt lat="31.079685" lon="81.386599"><ele>5224</ele><time>2026-05-27T05:08:37Z</time></trkpt>
      <trkpt lat="31.07966" lon="81.386554"><ele>5224</ele><time>2026-05-27T05:10:01Z</time></trkpt>
      <trkpt lat="31.079679" lon="81.386602"><ele>5225</ele><time>2026-05-27T05:10:59Z</time></trkpt>
      <trkpt lat="31.079541" lon="81.38666"><ele>5224</ele><time>2026-05-27T05:14:07Z</time></trkpt>
      <trkpt lat="31.079101" lon="81.386734"><ele>5218</ele><time>2026-05-27T05:15:16Z</time></trkpt>
      <trkpt lat="31.078861" lon="81.386695"><ele>5213</ele><time>2026-05-27T05:15:51Z</time></trkpt>
      <trkpt lat="31.078619" lon="81.386885"><ele>5214</ele><time>2026-05-27T05:16:49Z</time></trkpt>
      <trkpt lat="31.078373" lon="81.386884"><ele>5212</ele><time>2026-05-27T05:17:14Z</time></trkpt>
      <trkpt lat="31.077855" lon="81.38665"><ele>5209</ele><time>2026-05-27T05:18:12Z</time></trkpt>
      <trkpt lat="31.077404" lon="81.386299"><ele>5204</ele><time>2026-05-27T05:19:45Z</time></trkpt>
      <trkpt lat="31.076809" lon="81.386158"><ele>5200</ele><time>2026-05-27T05:20:42Z</time></trkpt>
      <trkpt lat="31.074909" lon="81.38521"><ele>5188</ele><time>2026-05-27T05:23:35Z</time></trkpt>
      <trkpt lat="31.073457" lon="81.384568"><ele>5178</ele><time>2026-05-27T05:25:43Z</time></trkpt>
      <trkpt lat="31.072959" lon="81.384209"><ele>5175</ele><time>2026-05-27T05:26:31Z</time></trkpt>
      <trkpt lat="31.072463" lon="81.38396"><ele>5168</ele><time>2026-05-27T05:27:17Z</time></trkpt>
      <trkpt lat="31.072064" lon="81.383843"><ele>5165</ele><time>2026-05-27T05:27:51Z</time></trkpt>
      <trkpt lat="31.0711" lon="81.383156"><ele>5159</ele><time>2026-05-27T05:29:23Z</time></trkpt>
      <trkpt lat="31.069119" lon="81.382014"><ele>5153</ele><time>2026-05-27T05:32:25Z</time></trkpt>
      <trkpt lat="31.068728" lon="81.381842"><ele>5151</ele><time>2026-05-27T05:32:57Z</time></trkpt>
      <trkpt lat="31.067335" lon="81.381452"><ele>5146</ele><time>2026-05-27T05:34:54Z</time></trkpt>
      <trkpt lat="31.066783" lon="81.381186"><ele>5146</ele><time>2026-05-27T05:35:42Z</time></trkpt>
      <trkpt lat="31.066212" lon="81.380798"><ele>5146</ele><time>2026-05-27T05:36:43Z</time></trkpt>
      <trkpt lat="31.065532" lon="81.380683"><ele>5146</ele><time>2026-05-27T05:37:54Z</time></trkpt>
      <trkpt lat="31.06544" lon="81.380721"><ele>5145</ele><time>2026-05-27T05:38:04Z</time></trkpt>
      <trkpt lat="31.065208" lon="81.380586"><ele>5144</ele><time>2026-05-27T05:40:37Z</time></trkpt>
      <trkpt lat="31.063027" lon="81.379887"><ele>5133</ele><time>2026-05-27T05:43:47Z</time></trkpt>
      <trkpt lat="31.062046" lon="81.379775"><ele>5127</ele><time>2026-05-27T05:45:09Z</time></trkpt>
      <trkpt lat="31.060588" lon="81.379292"><ele>5122</ele><time>2026-05-27T05:47:13Z</time></trkpt>
      <trkpt lat="31.060344" lon="81.379317"><ele>5119</ele><time>2026-05-27T05:47:34Z</time></trkpt>
      <trkpt lat="31.059857" lon="81.379721"><ele>5117</ele><time>2026-05-27T05:48:24Z</time></trkpt>
      <trkpt lat="31.059674" lon="81.379751"><ele>5117</ele><time>2026-05-27T05:48:39Z</time></trkpt>
      <trkpt lat="31.05859" lon="81.379636"><ele>5110</ele><time>2026-05-27T05:50:13Z</time></trkpt>
      <trkpt lat="31.058313" lon="81.379526"><ele>5107</ele><time>2026-05-27T05:50:36Z</time></trkpt>
      <trkpt lat="31.056365" lon="81.379308"><ele>5096</ele><time>2026-05-27T05:53:18Z</time></trkpt>
      <trkpt lat="31.055696" lon="81.379045"><ele>5090</ele><time>2026-05-27T05:54:15Z</time></trkpt>
      <trkpt lat="31.054598" lon="81.378851"><ele>5082</ele><time>2026-05-27T05:55:43Z</time></trkpt>
      <trkpt lat="31.054252" lon="81.378722"><ele>5080</ele><time>2026-05-27T05:56:12Z</time></trkpt>
      <trkpt lat="31.053719" lon="81.378279"><ele>5075</ele><time>2026-05-27T05:57:05Z</time></trkpt>
      <trkpt lat="31.052631" lon="81.377895"><ele>5064</ele><time>2026-05-27T05:58:33Z</time></trkpt>
      <trkpt lat="31.052401" lon="81.37766"><ele>5062</ele><time>2026-05-27T05:58:57Z</time></trkpt>
      <trkpt lat="31.05229" lon="81.377148"><ele>5063</ele><time>2026-05-27T05:59:43Z</time></trkpt>
      <trkpt lat="31.052186" lon="81.37704"><ele>5061</ele><time>2026-05-27T05:59:55Z</time></trkpt>
      <trkpt lat="31.051791" lon="81.376843"><ele>5056</ele><time>2026-05-27T06:00:36Z</time></trkpt>
      <trkpt lat="31.051441" lon="81.376823"><ele>5053</ele><time>2026-05-27T06:01:05Z</time></trkpt>
      <trkpt lat="31.051263" lon="81.37673"><ele>5052</ele><time>2026-05-27T06:01:21Z</time></trkpt>
      <trkpt lat="31.050167" lon="81.376533"><ele>5047</ele><time>2026-05-27T06:02:51Z</time></trkpt>
      <trkpt lat="31.04905" lon="81.376499"><ele>5041</ele><time>2026-05-27T06:04:58Z</time></trkpt>
      <trkpt lat="31.048593" lon="81.376371"><ele>5041</ele><time>2026-05-27T06:05:45Z</time></trkpt>
      <trkpt lat="31.048012" lon="81.3765"><ele>5037</ele><time>2026-05-27T06:06:35Z</time></trkpt>
      <trkpt lat="31.047048" lon="81.376584"><ele>5028</ele><time>2026-05-27T06:08:01Z</time></trkpt>
      <trkpt lat="31.04508" lon="81.377127"><ele>5026</ele><time>2026-05-27T06:11:26Z</time></trkpt>
      <trkpt lat="31.044126" lon="81.377261"><ele>5017</ele><time>2026-05-27T06:12:43Z</time></trkpt>
      <trkpt lat="31.043634" lon="81.37751"><ele>5009</ele><time>2026-05-27T06:13:29Z</time></trkpt>
      <trkpt lat="31.04299" lon="81.377609"><ele>5006</ele><time>2026-05-27T06:14:22Z</time></trkpt>
      <trkpt lat="31.041465" lon="81.377263"><ele>5000</ele><time>2026-05-27T06:16:42Z</time></trkpt>
      <trkpt lat="31.040318" lon="81.37734"><ele>4991</ele><time>2026-05-27T06:18:22Z</time></trkpt>
      <trkpt lat="31.039377" lon="81.376895"><ele>4982</ele><time>2026-05-27T06:19:47Z</time></trkpt>
      <trkpt lat="31.039128" lon="81.376856"><ele>4979</ele><time>2026-05-27T06:20:08Z</time></trkpt>
      <trkpt lat="31.037876" lon="81.376903"><ele>4976</ele><time>2026-05-27T06:22:01Z</time></trkpt>
      <trkpt lat="31.036462" lon="81.377129"><ele>4963</ele><time>2026-05-27T06:24:06Z</time></trkpt>
      <trkpt lat="31.036048" lon="81.376935"><ele>4962</ele><time>2026-05-27T06:24:44Z</time></trkpt>
      <trkpt lat="31.035529" lon="81.376516"><ele>4960</ele><time>2026-05-27T06:25:35Z</time></trkpt>
      <trkpt lat="31.035189" lon="81.376394"><ele>4958</ele><time>2026-05-27T06:26:05Z</time></trkpt>
      <trkpt lat="31.034828" lon="81.376471"><ele>4958</ele><time>2026-05-27T06:26:35Z</time></trkpt>
      <trkpt lat="31.034351" lon="81.376783"><ele>4955</ele><time>2026-05-27T06:27:21Z</time></trkpt>
      <trkpt lat="31.034159" lon="81.376744"><ele>4956</ele><time>2026-05-27T06:28:10Z</time></trkpt>
      <trkpt lat="31.034201" lon="81.376704"><ele>4955</ele><time>2026-05-27T06:28:52Z</time></trkpt>
      <trkpt lat="31.034151" lon="81.376799"><ele>4956</ele><time>2026-05-27T06:29:21Z</time></trkpt>
      <trkpt lat="31.034188" lon="81.376703"><ele>4954</ele><time>2026-05-27T06:30:42Z</time></trkpt>
      <trkpt lat="31.034145" lon="81.376834"><ele>4955</ele><time>2026-05-27T06:33:10Z</time></trkpt>
      <trkpt lat="31.03419" lon="81.376639"><ele>4956</ele><time>2026-05-27T06:38:05Z</time></trkpt>
      <trkpt lat="31.034146" lon="81.376794"><ele>4957</ele><time>2026-05-27T06:38:43Z</time></trkpt>
      <trkpt lat="31.033959" lon="81.376888"><ele>4953</ele><time>2026-05-27T06:39:10Z</time></trkpt>
      <trkpt lat="31.032909" lon="81.377032"><ele>4946</ele><time>2026-05-27T06:41:24Z</time></trkpt>
      <trkpt lat="31.032409" lon="81.376883"><ele>4943</ele><time>2026-05-27T06:42:13Z</time></trkpt>
      <trkpt lat="31.032051" lon="81.376651"><ele>4939</ele><time>2026-05-27T06:42:53Z</time></trkpt>
      <trkpt lat="31.031436" lon="81.376579"><ele>4936</ele><time>2026-05-27T06:43:47Z</time></trkpt>
      <trkpt lat="31.03063" lon="81.376276"><ele>4935</ele><time>2026-05-27T06:45:14Z</time></trkpt>
      <trkpt lat="31.030069" lon="81.376225"><ele>4936</ele><time>2026-05-27T06:46:37Z</time></trkpt>
      <trkpt lat="31.029326" lon="81.376403"><ele>4934</ele><time>2026-05-27T06:48:51Z</time></trkpt>
      <trkpt lat="31.028711" lon="81.376681"><ele>4937</ele><time>2026-05-27T06:49:48Z</time></trkpt>
      <trkpt lat="31.028443" lon="81.376874"><ele>4933</ele><time>2026-05-27T06:50:17Z</time></trkpt>
      <trkpt lat="31.027959" lon="81.376985"><ele>4930</ele><time>2026-05-27T06:51:16Z</time></trkpt>
      <trkpt lat="31.027611" lon="81.37693"><ele>4931</ele><time>2026-05-27T06:51:59Z</time></trkpt>
      <trkpt lat="31.027413" lon="81.377009"><ele>4930</ele><time>2026-05-27T06:52:20Z</time></trkpt>
      <trkpt lat="31.027225" lon="81.376964"><ele>4929</ele><time>2026-05-27T06:52:43Z</time></trkpt>
      <trkpt lat="31.026976" lon="81.376993"><ele>4926</ele><time>2026-05-27T06:53:11Z</time></trkpt>
      <trkpt lat="31.026847" lon="81.377107"><ele>4926</ele><time>2026-05-27T06:53:29Z</time></trkpt>
      <trkpt lat="31.026511" lon="81.37696"><ele>4925</ele><time>2026-05-27T06:54:07Z</time></trkpt>
      <trkpt lat="31.025107" lon="81.376908"><ele>4918</ele><time>2026-05-27T06:56:21Z</time></trkpt>
      <trkpt lat="31.02416" lon="81.376984"><ele>4910</ele><time>2026-05-27T06:58:09Z</time></trkpt>
      <trkpt lat="31.023457" lon="81.37696"><ele>4892</ele><time>2026-05-27T07:00:24Z</time></trkpt>
      <trkpt lat="31.023123" lon="81.37705"><ele>4894</ele><time>2026-05-27T07:01:19Z</time></trkpt>
      <trkpt lat="31.022248" lon="81.377061"><ele>4898</ele><time>2026-05-27T07:02:37Z</time></trkpt>
      <trkpt lat="31.021645" lon="81.377157"><ele>4898</ele><time>2026-05-27T07:03:31Z</time></trkpt>
      <trkpt lat="31.02076" lon="81.377527"><ele>4893</ele><time>2026-05-27T07:05:31Z</time></trkpt>
      <trkpt lat="31.02035" lon="81.377789"><ele>4889</ele><time>2026-05-27T07:06:13Z</time></trkpt>
      <trkpt lat="31.020101" lon="81.377802"><ele>4892</ele><time>2026-05-27T07:06:33Z</time></trkpt>
      <trkpt lat="31.019851" lon="81.377966"><ele>4886</ele><time>2026-05-27T07:06:58Z</time></trkpt>
      <trkpt lat="31.019001" lon="81.377807"><ele>4894</ele><time>2026-05-27T07:08:21Z</time></trkpt>
      <trkpt lat="31.018679" lon="81.377652"><ele>4894</ele><time>2026-05-27T07:09:03Z</time></trkpt>
      <trkpt lat="31.018037" lon="81.377495"><ele>4895</ele><time>2026-05-27T07:10:04Z</time></trkpt>
      <trkpt lat="31.016445" lon="81.377549"><ele>4891</ele><time>2026-05-27T07:12:39Z</time></trkpt>
      <trkpt lat="31.016117" lon="81.377319"><ele>4889</ele><time>2026-05-27T07:13:20Z</time></trkpt>
      <trkpt lat="31.014789" lon="81.377378"><ele>4890</ele><time>2026-05-27T07:15:31Z</time></trkpt>
      <trkpt lat="31.014558" lon="81.377264"><ele>4889</ele><time>2026-05-27T07:15:54Z</time></trkpt>
      <trkpt lat="31.013954" lon="81.377294"><ele>4875</ele><time>2026-05-27T07:16:54Z</time></trkpt>
      <trkpt lat="31.013212" lon="81.377156"><ele>4861</ele><time>2026-05-27T07:18:13Z</time></trkpt>
      <trkpt lat="31.013014" lon="81.376969"><ele>4858</ele><time>2026-05-27T07:18:38Z</time></trkpt>
      <trkpt lat="31.01276" lon="81.376904"><ele>4854</ele><time>2026-05-27T07:19:01Z</time></trkpt>
      <trkpt lat="31.012518" lon="81.376694"><ele>4844</ele><time>2026-05-27T07:19:34Z</time></trkpt>
      <trkpt lat="31.012238" lon="81.376583"><ele>4841</ele><time>2026-05-27T07:20:04Z</time></trkpt>
      <trkpt lat="31.012056" lon="81.376394"><ele>4842</ele><time>2026-05-27T07:20:27Z</time></trkpt>
      <trkpt lat="31.011086" lon="81.375904"><ele>4836</ele><time>2026-05-27T07:22:12Z</time></trkpt>
      <trkpt lat="31.010025" lon="81.375136"><ele>4827</ele><time>2026-05-27T07:24:10Z</time></trkpt>
      <trkpt lat="31.00933" lon="81.374834"><ele>4824</ele><time>2026-05-27T07:25:18Z</time></trkpt>
      <trkpt lat="31.008795" lon="81.374518"><ele>4820</ele><time>2026-05-27T07:26:11Z</time></trkpt>
      <trkpt lat="31.008259" lon="81.374028"><ele>4815</ele><time>2026-05-27T07:27:14Z</time></trkpt>
      <trkpt lat="31.007597" lon="81.373573"><ele>4812</ele><time>2026-05-27T07:28:26Z</time></trkpt>
      <trkpt lat="31.007544" lon="81.373572"><ele>4812</ele><time>2026-05-27T07:29:11Z</time></trkpt>
      <trkpt lat="31.007578" lon="81.373613"><ele>4812</ele><time>2026-05-27T07:31:22Z</time></trkpt>
      <trkpt lat="31.007416" lon="81.374152"><ele>4812</ele><time>2026-05-27T07:31:41Z</time></trkpt>
      <trkpt lat="31.007241" lon="81.374687"><ele>4809</ele><time>2026-05-27T07:31:55Z</time></trkpt>
      <trkpt lat="31.007141" lon="81.374817"><ele>4809</ele><time>2026-05-27T07:31:59Z</time></trkpt>
      <trkpt lat="31.006968" lon="81.375557"><ele>4809</ele><time>2026-05-27T07:32:19Z</time></trkpt>
      <trkpt lat="31.00821" lon="81.371469"><ele>4809</ele><time>2026-05-27T07:32:31Z</time></trkpt>
      <trkpt lat="31.007591" lon="81.3736"><ele>4812</ele><time>2026-05-27T07:47:19Z</time></trkpt>
      <trkpt lat="31.007518" lon="81.373526"><ele>4813</ele><time>2026-05-27T07:47:35Z</time></trkpt>
      <trkpt lat="31.007622" lon="81.373571"><ele>4813</ele><time>2026-05-27T07:47:48Z</time></trkpt>
      <trkpt lat="31.007705" lon="81.373956"><ele>4814</ele><time>2026-05-27T07:48:52Z</time></trkpt>
      <trkpt lat="31.007574" lon="81.373531"><ele>4812</ele><time>2026-05-27T07:58:42Z</time></trkpt>
      <trkpt lat="31.007364" lon="81.373373"><ele>4813</ele><time>2026-05-27T07:59:08Z</time></trkpt>
      <trkpt lat="31.006699" lon="81.372613"><ele>4812</ele><time>2026-05-27T08:00:26Z</time></trkpt>
      <trkpt lat="31.005993" lon="81.371598"><ele>4814</ele><time>2026-05-27T08:02:11Z</time></trkpt>
      <trkpt lat="31.005702" lon="81.370936"><ele>4814</ele><time>2026-05-27T08:03:08Z</time></trkpt>
      <trkpt lat="31.005076" lon="81.369954"><ele>4810</ele><time>2026-05-27T08:04:39Z</time></trkpt>
      <trkpt lat="31.004466" lon="81.368808"><ele>4807</ele><time>2026-05-27T08:06:15Z</time></trkpt>
      <trkpt lat="31.003829" lon="81.368107"><ele>4807</ele><time>2026-05-27T08:07:27Z</time></trkpt>
      <trkpt lat="31.003454" lon="81.367298"><ele>4807</ele><time>2026-05-27T08:08:33Z</time></trkpt>
      <trkpt lat="31.003388" lon="81.366906"><ele>4807</ele><time>2026-05-27T08:09:03Z</time></trkpt>
      <trkpt lat="31.003111" lon="81.366248"><ele>4807</ele><time>2026-05-27T08:09:57Z</time></trkpt>
      <trkpt lat="31.002706" lon="81.365564"><ele>4804</ele><time>2026-05-27T08:10:57Z</time></trkpt>
      <trkpt lat="31.002656" lon="81.36527"><ele>4803</ele><time>2026-05-27T08:11:20Z</time></trkpt>
      <trkpt lat="31.002257" lon="81.364683"><ele>4796</ele><time>2026-05-27T08:12:14Z</time></trkpt>
      <trkpt lat="31.001641" lon="81.363497"><ele>4793</ele><time>2026-05-27T08:14:19Z</time></trkpt>
      <trkpt lat="31.000113" lon="81.362018"><ele>4794</ele><time>2026-05-27T08:18:32Z</time></trkpt>
      <trkpt lat="30.999822" lon="81.361778"><ele>4793</ele><time>2026-05-27T08:19:03Z</time></trkpt>
      <trkpt lat="30.999417" lon="81.361565"><ele>4791</ele><time>2026-05-27T08:19:44Z</time></trkpt>
      <trkpt lat="30.998992" lon="81.360426"><ele>4788</ele><time>2026-05-27T08:21:24Z</time></trkpt>
      <trkpt lat="30.998913" lon="81.359849"><ele>4786</ele><time>2026-05-27T08:22:12Z</time></trkpt>
      <trkpt lat="30.998677" lon="81.359514"><ele>4785</ele><time>2026-05-27T08:22:46Z</time></trkpt>
      <trkpt lat="30.998462" lon="81.359049"><ele>4783</ele><time>2026-05-27T08:23:30Z</time></trkpt>
      <trkpt lat="30.998109" lon="81.358562"><ele>4785</ele><time>2026-05-27T08:24:38Z</time></trkpt>
      <trkpt lat="30.997876" lon="81.358377"><ele>4784</ele><time>2026-05-27T08:25:08Z</time></trkpt>
      <trkpt lat="30.997586" lon="81.357919"><ele>4786</ele><time>2026-05-27T08:25:57Z</time></trkpt>
      <trkpt lat="30.997408" lon="81.357813"><ele>4787</ele><time>2026-05-27T08:26:16Z</time></trkpt>
      <trkpt lat="30.996972" lon="81.357327"><ele>4781</ele><time>2026-05-27T08:27:16Z</time></trkpt>
      <trkpt lat="30.996906" lon="81.357168"><ele>4780</ele><time>2026-05-27T08:27:29Z</time></trkpt>
      <trkpt lat="30.996663" lon="81.357034"><ele>4777</ele><time>2026-05-27T08:27:54Z</time></trkpt>
      <trkpt lat="30.995951" lon="81.356127"><ele>4774</ele><time>2026-05-27T08:29:28Z</time></trkpt>
      <trkpt lat="30.995271" lon="81.355127"><ele>4775</ele><time>2026-05-27T08:31:19Z</time></trkpt>
      <trkpt lat="30.994986" lon="81.354844"><ele>4777</ele><time>2026-05-27T08:32:52Z</time></trkpt>
      <trkpt lat="30.99482" lon="81.354483"><ele>4777</ele><time>2026-05-27T08:33:25Z</time></trkpt>
      <trkpt lat="30.994589" lon="81.354182"><ele>4779</ele><time>2026-05-27T08:33:55Z</time></trkpt>
      <trkpt lat="30.994455" lon="81.353744"><ele>4779</ele><time>2026-05-27T08:34:33Z</time></trkpt>
      <trkpt lat="30.994303" lon="81.353615"><ele>4779</ele><time>2026-05-27T08:34:50Z</time></trkpt>
      <trkpt lat="30.994197" lon="81.353354"><ele>4776</ele><time>2026-05-27T08:35:12Z</time></trkpt>
      <trkpt lat="30.993782" lon="81.353047"><ele>4775</ele><time>2026-05-27T08:35:55Z</time></trkpt>
      <trkpt lat="30.993521" lon="81.352548"><ele>4774</ele><time>2026-05-27T08:36:42Z</time></trkpt>
      <trkpt lat="30.993203" lon="81.352202"><ele>4771</ele><time>2026-05-27T08:37:56Z</time></trkpt>
      <trkpt lat="30.992975" lon="81.351821"><ele>4769</ele><time>2026-05-27T08:38:35Z</time></trkpt>
      <trkpt lat="30.990996" lon="81.349993"><ele>4763</ele><time>2026-05-27T08:42:47Z</time></trkpt>
      <trkpt lat="30.990222" lon="81.349583"><ele>4769</ele><time>2026-05-27T08:44:18Z</time></trkpt>
      <trkpt lat="30.989514" lon="81.348708"><ele>4758</ele><time>2026-05-27T08:46:54Z</time></trkpt>
      <trkpt lat="30.98927" lon="81.348625"><ele>4755</ele><time>2026-05-27T08:47:18Z</time></trkpt>
      <trkpt lat="30.988591" lon="81.348082"><ele>4751</ele><time>2026-05-27T08:48:34Z</time></trkpt>
      <trkpt lat="30.988069" lon="81.347955"><ele>4756</ele><time>2026-05-27T08:49:24Z</time></trkpt>
      <trkpt lat="30.987747" lon="81.347804"><ele>4758</ele><time>2026-05-27T08:50:47Z</time></trkpt>
      <trkpt lat="30.98745" lon="81.347545"><ele>4752</ele><time>2026-05-27T08:52:14Z</time></trkpt>
      <trkpt lat="30.986849" lon="81.346407"><ele>4744</ele><time>2026-05-27T08:54:26Z</time></trkpt>
      <trkpt lat="30.986348" lon="81.345729"><ele>4742</ele><time>2026-05-27T08:55:40Z</time></trkpt>
      <trkpt lat="30.985754" lon="81.344012"><ele>4740</ele><time>2026-05-27T08:58:21Z</time></trkpt>
      <trkpt lat="30.985509" lon="81.34349"><ele>4738</ele><time>2026-05-27T08:59:09Z</time></trkpt>
      <trkpt lat="30.984514" lon="81.342611"><ele>4735</ele><time>2026-05-27T09:01:08Z</time></trkpt>
      <trkpt lat="30.983413" lon="81.341179"><ele>4731</ele><time>2026-05-27T09:04:44Z</time></trkpt>
      <trkpt lat="30.982751" lon="81.340533"><ele>4733</ele><time>2026-05-27T09:06:08Z</time></trkpt>
      <trkpt lat="30.982203" lon="81.339659"><ele>4731</ele><time>2026-05-27T09:07:50Z</time></trkpt>
      <trkpt lat="30.982001" lon="81.339574"><ele>4733</ele><time>2026-05-27T09:08:10Z</time></trkpt>
      <trkpt lat="30.981768" lon="81.339334"><ele>4732</ele><time>2026-05-27T09:08:39Z</time></trkpt>
      <trkpt lat="30.98074" lon="81.337647"><ele>4727</ele><time>2026-05-27T09:11:15Z</time></trkpt>
      <trkpt lat="30.980396" lon="81.337415"><ele>4725</ele><time>2026-05-27T09:11:55Z</time></trkpt>
      <trkpt lat="30.980114" lon="81.337082"><ele>4727</ele><time>2026-05-27T09:12:31Z</time></trkpt>
      <trkpt lat="30.979892" lon="81.336944"><ele>4726</ele><time>2026-05-27T09:13:19Z</time></trkpt>
      <trkpt lat="30.979461" lon="81.336447"><ele>4726</ele><time>2026-05-27T09:14:13Z</time></trkpt>
      <trkpt lat="30.979019" lon="81.336154"><ele>4722</ele><time>2026-05-27T09:15:08Z</time></trkpt>
      <trkpt lat="30.978063" lon="81.335348"><ele>4725</ele><time>2026-05-27T09:18:01Z</time></trkpt>
      <trkpt lat="30.977857" lon="81.334954"><ele>4726</ele><time>2026-05-27T09:18:38Z</time></trkpt>
      <trkpt lat="30.977377" lon="81.334784"><ele>4731</ele><time>2026-05-27T09:19:37Z</time></trkpt>
      <trkpt lat="30.977095" lon="81.334545"><ele>4737</ele><time>2026-05-27T09:21:38Z</time></trkpt>
      <trkpt lat="30.976198" lon="81.333593"><ele>4737</ele><time>2026-05-27T09:24:10Z</time></trkpt>
      <trkpt lat="30.975242" lon="81.332762"><ele>4735</ele><time>2026-05-27T09:25:55Z</time></trkpt>
      <trkpt lat="30.975142" lon="81.332559"><ele>4733</ele><time>2026-05-27T09:26:17Z</time></trkpt>
      <trkpt lat="30.974603" lon="81.33231"><ele>4724</ele><time>2026-05-27T09:27:10Z</time></trkpt>
      <trkpt lat="30.97355" lon="81.331309"><ele>4718</ele><time>2026-05-27T09:29:09Z</time></trkpt>
      <trkpt lat="30.971976" lon="81.329963"><ele>4718</ele><time>2026-05-27T09:32:15Z</time></trkpt>
      <trkpt lat="30.971049" lon="81.329464"><ele>4720</ele><time>2026-05-27T09:33:53Z</time></trkpt>
      <trkpt lat="30.970884" lon="81.329265"><ele>4720</ele><time>2026-05-27T09:34:26Z</time></trkpt>
      <trkpt lat="30.970775" lon="81.329005"><ele>4724</ele><time>2026-05-27T09:38:19Z</time></trkpt>
      <trkpt lat="30.970329" lon="81.328553"><ele>4731</ele><time>2026-05-27T09:39:37Z</time></trkpt>
      <trkpt lat="30.970084" lon="81.328494"><ele>4734</ele><time>2026-05-27T09:40:17Z</time></trkpt>
      <trkpt lat="30.969419" lon="81.327895"><ele>4736</ele><time>2026-05-27T09:43:43Z</time></trkpt>
      <trkpt lat="30.969192" lon="81.327951"><ele>4735</ele><time>2026-05-27T09:44:11Z</time></trkpt>
      <trkpt lat="30.968847" lon="81.327861"><ele>4726</ele><time>2026-05-27T09:44:55Z</time></trkpt>
      <trkpt lat="30.96863" lon="81.327634"><ele>4724</ele><time>2026-05-27T09:45:27Z</time></trkpt>
      <trkpt lat="30.967975" lon="81.327323"><ele>4715</ele><time>2026-05-27T09:46:38Z</time></trkpt>
      <trkpt lat="30.967754" lon="81.327086"><ele>4712</ele><time>2026-05-27T09:47:08Z</time></trkpt>
      <trkpt lat="30.96732" lon="81.32681"><ele>4706</ele><time>2026-05-27T09:48:03Z</time></trkpt>
      <trkpt lat="30.96689" lon="81.326324"><ele>4700</ele><time>2026-05-27T09:48:58Z</time></trkpt>
      <trkpt lat="30.966571" lon="81.325731"><ele>4697</ele><time>2026-05-27T09:49:53Z</time></trkpt>
      <trkpt lat="30.966283" lon="81.325339"><ele>4696</ele><time>2026-05-27T09:50:34Z</time></trkpt>
      <trkpt lat="30.965743" lon="81.324882"><ele>4689</ele><time>2026-05-27T09:51:34Z</time></trkpt>
      <trkpt lat="30.96547" lon="81.324899"><ele>4692</ele><time>2026-05-27T09:52:07Z</time></trkpt>
      <trkpt lat="30.965119" lon="81.324441"><ele>4693</ele><time>2026-05-27T09:56:12Z</time></trkpt>
      <trkpt lat="30.965025" lon="81.324228"><ele>4692</ele><time>2026-05-27T09:56:31Z</time></trkpt>
      <trkpt lat="30.964888" lon="81.324185"><ele>4693</ele><time>2026-05-27T09:56:45Z</time></trkpt>
      <trkpt lat="30.964618" lon="81.323935"><ele>4693</ele><time>2026-05-27T09:57:20Z</time></trkpt>
      <trkpt lat="30.964014" lon="81.323869"><ele>4695</ele><time>2026-05-27T09:58:21Z</time></trkpt>
      <trkpt lat="30.963785" lon="81.323989"><ele>4698</ele><time>2026-05-27T09:59:19Z</time></trkpt>
      <trkpt lat="30.963195" lon="81.323501"><ele>4694</ele><time>2026-05-27T10:01:30Z</time></trkpt>
      <trkpt lat="30.96277" lon="81.32271"><ele>4687</ele><time>2026-05-27T10:02:52Z</time></trkpt>
      <trkpt lat="30.962672" lon="81.322247"><ele>4685</ele><time>2026-05-27T10:03:31Z</time></trkpt>
      <trkpt lat="30.962708" lon="81.321953"><ele>4680</ele><time>2026-05-27T10:03:57Z</time></trkpt>
      <trkpt lat="30.962614" lon="81.32181"><ele>4678</ele><time>2026-05-27T10:04:12Z</time></trkpt>
      <trkpt lat="30.962508" lon="81.321283"><ele>4676</ele><time>2026-05-27T10:04:54Z</time></trkpt>
      <trkpt lat="30.962578" lon="81.32107"><ele>4673</ele><time>2026-05-27T10:05:12Z</time></trkpt>
      <trkpt lat="30.962283" lon="81.320562"><ele>4675</ele><time>2026-05-27T10:06:03Z</time></trkpt>
      <trkpt lat="30.962297" lon="81.320387"><ele>4673</ele><time>2026-05-27T10:06:16Z</time></trkpt>
      <trkpt lat="30.962036" lon="81.320123"><ele>4674</ele><time>2026-05-27T10:06:56Z</time></trkpt>
      <trkpt lat="30.96203" lon="81.319911"><ele>4672</ele><time>2026-05-27T10:07:19Z</time></trkpt>
      <trkpt lat="30.96172" lon="81.319854"><ele>4673</ele><time>2026-05-27T10:07:50Z</time></trkpt>
      <trkpt lat="30.96129" lon="81.319552"><ele>4673</ele><time>2026-05-27T10:09:28Z</time></trkpt>
      <trkpt lat="30.961415" lon="81.31957"><ele>4672</ele><time>2026-05-27T10:10:22Z</time></trkpt>
      <trkpt lat="30.961375" lon="81.319647"><ele>4673</ele><time>2026-05-27T10:11:12Z</time></trkpt>
      <trkpt lat="30.961441" lon="81.319553"><ele>4672</ele><time>2026-05-27T10:11:39Z</time></trkpt>
      <trkpt lat="30.96139" lon="81.319647"><ele>4671</ele><time>2026-05-27T10:12:08Z</time></trkpt>
      <trkpt lat="30.961447" lon="81.319602"><ele>4670</ele><time>2026-05-27T10:12:19Z</time></trkpt>
      <trkpt lat="30.961391" lon="81.319578"><ele>4673</ele><time>2026-05-27T10:12:47Z</time></trkpt>
      <trkpt lat="30.961411" lon="81.319528"><ele>4672</ele><time>2026-05-27T10:14:17Z</time></trkpt>
      <trkpt lat="30.961414" lon="81.319615"><ele>4670</ele><time>2026-05-27T10:14:31Z</time></trkpt>
      <trkpt lat="30.961369" lon="81.319604"><ele>4670</ele><time>2026-05-27T10:15:26Z</time></trkpt>
      <trkpt lat="30.961465" lon="81.319593"><ele>4670</ele><time>2026-05-27T10:17:17Z</time></trkpt>
      <trkpt lat="30.961434" lon="81.319463"><ele>4673</ele><time>2026-05-27T10:17:31Z</time></trkpt>
      <trkpt lat="30.961389" lon="81.319608"><ele>4670</ele><time>2026-05-27T10:18:09Z</time></trkpt>
      <trkpt lat="30.961305" lon="81.319647"><ele>4671</ele><time>2026-05-27T10:20:12Z</time></trkpt>
      <trkpt lat="30.961476" lon="81.319541"><ele>4675</ele><time>2026-05-27T10:20:42Z</time></trkpt>
      <trkpt lat="30.961367" lon="81.319647"><ele>4668</ele><time>2026-05-27T10:21:38Z</time></trkpt>
      <trkpt lat="30.961385" lon="81.319535"><ele>4667</ele><time>2026-05-27T10:22:17Z</time></trkpt>
      <trkpt lat="30.961433" lon="81.31964"><ele>4670</ele><time>2026-05-27T10:22:50Z</time></trkpt>
      <trkpt lat="30.961363" lon="81.319622"><ele>4670</ele><time>2026-05-27T10:23:08Z</time></trkpt>
      <trkpt lat="30.961399" lon="81.31973"><ele>4670</ele><time>2026-05-27T10:23:51Z</time></trkpt>
      <trkpt lat="30.961441" lon="81.319438"><ele>4675</ele><time>2026-05-27T10:24:17Z</time></trkpt>
      <trkpt lat="30.961376" lon="81.319515"><ele>4669</ele><time>2026-05-27T10:24:29Z</time></trkpt>
      <trkpt lat="30.961427" lon="81.319628"><ele>4670</ele><time>2026-05-27T10:25:06Z</time></trkpt>
      <trkpt lat="30.961452" lon="81.319585"><ele>4669</ele><time>2026-05-27T10:25:39Z</time></trkpt>
      <trkpt lat="30.961424" lon="81.319649"><ele>4671</ele><time>2026-05-27T10:26:04Z</time></trkpt>
      <trkpt lat="30.961373" lon="81.31961"><ele>4670</ele><time>2026-05-27T10:26:12Z</time></trkpt>
      <trkpt lat="30.961431" lon="81.319579"><ele>4666</ele><time>2026-05-27T10:26:26Z</time></trkpt>
      <trkpt lat="30.961457" lon="81.319625"><ele>4670</ele><time>2026-05-27T10:27:09Z</time></trkpt>
      <trkpt lat="30.96141" lon="81.31963"><ele>4674</ele><time>2026-05-27T10:27:23Z</time></trkpt>
      <trkpt lat="30.961459" lon="81.319591"><ele>4668</ele><time>2026-05-27T10:27:48Z</time></trkpt>
      <trkpt lat="30.961474" lon="81.319642"><ele>4670</ele><time>2026-05-27T10:27:58Z</time></trkpt>
      <trkpt lat="30.961562" lon="81.319419"><ele>4676</ele><time>2026-05-27T10:28:16Z</time></trkpt>
      <trkpt lat="30.961443" lon="81.319645"><ele>4672</ele><time>2026-05-27T10:30:36Z</time></trkpt>
      <trkpt lat="30.961453" lon="81.319433"><ele>4674</ele><time>2026-05-27T10:30:54Z</time></trkpt>
      <trkpt lat="30.961504" lon="81.319395"><ele>4677</ele><time>2026-05-27T10:30:58Z</time></trkpt>
      <trkpt lat="30.961336" lon="81.31955"><ele>4677</ele><time>2026-05-27T10:31:12Z</time></trkpt>
      <trkpt lat="30.961221" lon="81.319466"><ele>4674</ele><time>2026-05-27T10:32:49Z</time></trkpt>
      <trkpt lat="30.961255" lon="81.31943"><ele>4674</ele><time>2026-05-27T10:33:46Z</time></trkpt>
      <trkpt lat="30.961093" lon="81.319066"><ele>4668</ele><time>2026-05-27T10:34:38Z</time></trkpt>
      <trkpt lat="30.960987" lon="81.318627"><ele>4668</ele><time>2026-05-27T10:35:17Z</time></trkpt>
      <trkpt lat="30.961028" lon="81.318186"><ele>4668</ele><time>2026-05-27T10:36:01Z</time></trkpt>
      <trkpt lat="30.960916" lon="81.317148"><ele>4657</ele><time>2026-05-27T10:37:24Z</time></trkpt>
      <trkpt lat="30.961064" lon="81.315798"><ele>4655</ele><time>2026-05-27T10:39:13Z</time></trkpt>
      <trkpt lat="30.961303" lon="81.314851"><ele>4652</ele><time>2026-05-27T10:40:31Z</time></trkpt>
      <trkpt lat="30.961914" lon="81.31334"><ele>4652</ele><time>2026-05-27T10:42:57Z</time></trkpt>
      <trkpt lat="30.962188" lon="81.312914"><ele>4651</ele><time>2026-05-27T10:43:56Z</time></trkpt>
      <trkpt lat="30.96241" lon="81.312369"><ele>4650</ele><time>2026-05-27T10:44:46Z</time></trkpt>
      <trkpt lat="30.9633" lon="81.309962"><ele>4657</ele><time>2026-05-27T10:48:39Z</time></trkpt>
      <trkpt lat="30.963479" lon="81.309693"><ele>4657</ele><time>2026-05-27T10:49:08Z</time></trkpt>
      <trkpt lat="30.963754" lon="81.309"><ele>4655</ele><time>2026-05-27T10:50:17Z</time></trkpt>
      <trkpt lat="30.963999" lon="81.308186"><ele>4657</ele><time>2026-05-27T10:51:33Z</time></trkpt>
      <trkpt lat="30.964135" lon="81.308006"><ele>4655</ele><time>2026-05-27T10:51:54Z</time></trkpt>
      <trkpt lat="30.964577" lon="81.307053"><ele>4649</ele><time>2026-05-27T10:53:25Z</time></trkpt>
      <trkpt lat="30.965099" lon="81.305613"><ele>4646</ele><time>2026-05-27T10:55:46Z</time></trkpt>
      <trkpt lat="30.965634" lon="81.304771"><ele>4644</ele><time>2026-05-27T10:57:14Z</time></trkpt>
      <trkpt lat="30.965835" lon="81.304174"><ele>4648</ele><time>2026-05-27T10:58:10Z</time></trkpt>
      <trkpt lat="30.966037" lon="81.303841"><ele>4647</ele><time>2026-05-27T10:59:11Z</time></trkpt>
      <trkpt lat="30.966361" lon="81.303551"><ele>4646</ele><time>2026-05-27T10:59:50Z</time></trkpt>
      <trkpt lat="30.966898" lon="81.302394"><ele>4645</ele><time>2026-05-27T11:01:40Z</time></trkpt>
      <trkpt lat="30.967715" lon="81.301291"><ele>4646</ele><time>2026-05-27T11:03:38Z</time></trkpt>
      <trkpt lat="30.968146" lon="81.300893"><ele>4648</ele><time>2026-05-27T11:04:32Z</time></trkpt>
      <trkpt lat="30.968883" lon="81.299838"><ele>4649</ele><time>2026-05-27T11:06:32Z</time></trkpt>
      <trkpt lat="30.969497" lon="81.299105"><ele>4652</ele><time>2026-05-27T11:07:55Z</time></trkpt>
      <trkpt lat="30.969804" lon="81.298509"><ele>4655</ele><time>2026-05-27T11:08:55Z</time></trkpt>
      <trkpt lat="30.971737" lon="81.29591"><ele>4658</ele><time>2026-05-27T11:16:08Z</time></trkpt>
      <trkpt lat="30.973667" lon="81.2931"><ele>4662</ele><time>2026-05-27T11:21:51Z</time></trkpt>
      <trkpt lat="30.974004" lon="81.292865"><ele>4660</ele><time>2026-05-27T11:23:38Z</time></trkpt>
      <trkpt lat="30.974404" lon="81.292423"><ele>4658</ele><time>2026-05-27T11:24:33Z</time></trkpt>
      <trkpt lat="30.975043" lon="81.291865"><ele>4664</ele><time>2026-05-27T11:26:04Z</time></trkpt>
      <trkpt lat="30.976506" lon="81.290207"><ele>4673</ele><time>2026-05-27T11:30:09Z</time></trkpt>
      <trkpt lat="30.976843" lon="81.289638"><ele>4677</ele><time>2026-05-27T11:32:29Z</time></trkpt>
      <trkpt lat="30.977272" lon="81.288619"><ele>4682</ele><time>2026-05-27T11:35:45Z</time></trkpt>
      <trkpt lat="30.977369" lon="81.287582"><ele>4682</ele><time>2026-05-27T11:37:49Z</time></trkpt>
      <trkpt lat="30.977341" lon="81.287409"><ele>4685</ele><time>2026-05-27T11:38:04Z</time></trkpt>
      <trkpt lat="30.976402" lon="81.287229"><ele>4676</ele><time>2026-05-27T11:39:49Z</time></trkpt>
      <trkpt lat="30.97601" lon="81.287071"><ele>4674</ele><time>2026-05-27T11:40:27Z</time></trkpt>
      <trkpt lat="30.975812" lon="81.287109"><ele>4674</ele><time>2026-05-27T11:40:44Z</time></trkpt>
      <trkpt lat="30.974864" lon="81.286901"><ele>4666</ele><time>2026-05-27T11:42:17Z</time></trkpt>
      <trkpt lat="30.974771" lon="81.286784"><ele>4665</ele><time>2026-05-27T11:42:29Z</time></trkpt>
      <trkpt lat="30.974708" lon="81.286508"><ele>4666</ele><time>2026-05-27T11:43:17Z</time></trkpt>
      <trkpt lat="30.974567" lon="81.286524"><ele>4666</ele><time>2026-05-27T11:43:40Z</time></trkpt>
      <trkpt lat="30.974424" lon="81.286442"><ele>4664</ele><time>2026-05-27T11:43:57Z</time></trkpt>
      <trkpt lat="30.974337" lon="81.286575"><ele>4664</ele><time>2026-05-27T11:44:25Z</time></trkpt>
      <trkpt lat="30.974105" lon="81.286637"><ele>4663</ele><time>2026-05-27T11:44:58Z</time></trkpt>
      <trkpt lat="30.973988" lon="81.286536"><ele>4664</ele><time>2026-05-27T11:45:18Z</time></trkpt>
      <trkpt lat="30.973689" lon="81.286592"><ele>4660</ele><time>2026-05-27T11:46:25Z</time></trkpt>
      <trkpt lat="30.973485" lon="81.286469"><ele>4660</ele><time>2026-05-27T11:47:03Z</time></trkpt>
      <trkpt lat="30.973486" lon="81.286356"><ele>4659</ele><time>2026-05-27T11:47:07Z</time></trkpt>
      <trkpt lat="30.973385" lon="81.286564"><ele>4659</ele><time>2026-05-27T11:48:04Z</time></trkpt>
      <trkpt lat="30.973399" lon="81.286429"><ele>4659</ele><time>2026-05-27T11:48:15Z</time></trkpt>
    </trkseg>
  </trk>
</gpx>
