<?xml version="1.0" encoding="UTF-8"?>
<gpx version="1.1" creator="MyWorld" xmlns="http://www.topografix.com/GPX/1/1">
  <metadata><name>福州鼓岭</name></metadata>
  <trk>
    <name>福州鼓岭</name>
    <trkseg>
      <trkpt lat="26.091657" lon="119.366265"><ele>20</ele><time>2026-04-12T00:38:54Z</time></trkpt>
      <trkpt lat="26.091873" lon="119.366768"><ele>25</ele><time>2026-04-12T00:39:42Z</time></trkpt>
      <trkpt lat="26.091976" lon="119.366887"><ele>26</ele><time>2026-04-12T00:40:01Z</time></trkpt>
      <trkpt lat="26.09258" lon="119.366921"><ele>30</ele><time>2026-04-12T00:40:54Z</time></trkpt>
      <trkpt lat="26.092839" lon="119.367173"><ele>30</ele><time>2026-04-12T00:41:23Z</time></trkpt>
      <trkpt lat="26.093358" lon="119.367419"><ele>32</ele><time>2026-04-12T00:42:12Z</time></trkpt>
      <trkpt lat="26.093419" lon="119.367569"><ele>32</ele><time>2026-04-12T00:42:25Z</time></trkpt>
      <trkpt lat="26.093609" lon="119.367744"><ele>35</ele><time>2026-04-12T00:42:46Z</time></trkpt>
      <trkpt lat="26.093563" lon="119.368016"><ele>37</ele><time>2026-04-12T00:43:10Z</time></trkpt>
      <trkpt lat="26.093621" lon="119.368207"><ele>39</ele><time>2026-04-12T00:43:30Z</time></trkpt>
      <trkpt lat="26.093569" lon="119.36848"><ele>40</ele><time>2026-04-12T00:43:55Z</time></trkpt>
      <trkpt lat="26.093441" lon="119.368721"><ele>46</ele><time>2026-04-12T00:44:21Z</time></trkpt>
      <trkpt lat="26.093093" lon="119.368875"><ele>49</ele><time>2026-04-12T00:45:14Z</time></trkpt>
      <trkpt lat="26.093233" lon="119.369032"><ele>48</ele><time>2026-04-12T00:45:48Z</time></trkpt>
      <trkpt lat="26.093096" lon="119.369196"><ele>51</ele><time>2026-04-12T00:46:07Z</time></trkpt>
      <trkpt lat="26.093367" lon="119.368868"><ele>46</ele><time>2026-04-12T00:46:55Z</time></trkpt>
      <trkpt lat="26.093332" lon="119.368821"><ele>47</ele><time>2026-04-12T00:47:00Z</time></trkpt>
      <trkpt lat="26.093055" lon="119.368863"><ele>52</ele><time>2026-04-12T00:47:40Z</time></trkpt>
      <trkpt lat="26.092933" lon="119.368795"><ele>57</ele><time>2026-04-12T00:48:02Z</time></trkpt>
      <trkpt lat="26.092832" lon="119.368954"><ele>67</ele><time>2026-04-12T00:48:40Z</time></trkpt>
      <trkpt lat="26.092628" lon="119.368998"><ele>71</ele><time>2026-04-12T00:49:10Z</time></trkpt>
      <trkpt lat="26.09266" lon="119.369258"><ele>84</ele><time>2026-04-12T00:49:55Z</time></trkpt>
      <trkpt lat="26.092792" lon="119.36989"><ele>92</ele><time>2026-04-12T00:51:07Z</time></trkpt>
      <trkpt lat="26.09307" lon="119.370213"><ele>94</ele><time>2026-04-12T00:51:55Z</time></trkpt>
      <trkpt lat="26.093101" lon="119.370432"><ele>96</ele><time>2026-04-12T00:52:15Z</time></trkpt>
      <trkpt lat="26.093184" lon="119.370503"><ele>96</ele><time>2026-04-12T00:52:24Z</time></trkpt>
      <trkpt lat="26.093225" lon="119.370882"><ele>96</ele><time>2026-04-12T00:52:56Z</time></trkpt>
      <trkpt lat="26.093348" lon="119.371139"><ele>98</ele><time>2026-04-12T00:53:21Z</time></trkpt>
      <trkpt lat="26.093351" lon="119.371352"><ele>100</ele><time>2026-04-12T00:53:45Z</time></trkpt>
      <trkpt lat="26.093473" lon="119.371704"><ele>100</ele><time>2026-04-12T00:54:21Z</time></trkpt>
      <trkpt lat="26.093454" lon="119.372145"><ele>112</ele><time>2026-04-12T00:55:12Z</time></trkpt>
      <trkpt lat="26.093546" lon="119.372562"><ele>114</ele><time>2026-04-12T00:56:07Z</time></trkpt>
      <trkpt lat="26.093513" lon="119.372669"><ele>118</ele><time>2026-04-12T00:56:20Z</time></trkpt>
      <trkpt lat="26.093639" lon="119.373003"><ele>125</ele><time>2026-04-12T00:57:09Z</time></trkpt>
      <trkpt lat="26.093488" lon="119.373396"><ele>139</ele><time>2026-04-12T00:58:16Z</time></trkpt>
      <trkpt lat="26.093626" lon="119.373627"><ele>144</ele><time>2026-04-12T00:58:45Z</time></trkpt>
      <trkpt lat="26.09377" lon="119.373727"><ele>151</ele><time>2026-04-12T00:59:02Z</time></trkpt>
      <trkpt lat="26.093739" lon="119.373878"><ele>151</ele><time>2026-04-12T00:59:20Z</time></trkpt>
      <trkpt lat="26.093803" lon="119.373975"><ele>153</ele><time>2026-04-12T00:59:32Z</time></trkpt>
      <trkpt lat="26.093786" lon="119.374074"><ele>154</ele><time>2026-04-12T00:59:44Z</time></trkpt>
      <trkpt lat="26.094183" lon="119.374363"><ele>163</ele><time>2026-04-12T01:00:38Z</time></trkpt>
      <trkpt lat="26.094115" lon="119.374614"><ele>170</ele><time>2026-04-12T01:01:19Z</time></trkpt>
      <trkpt lat="26.094327" lon="119.374818"><ele>173</ele><time>2026-04-12T01:01:54Z</time></trkpt>
      <trkpt lat="26.094477" lon="119.375256"><ele>190</ele><time>2026-04-12T01:02:50Z</time></trkpt>
      <trkpt lat="26.09455" lon="119.375323"><ele>194</ele><time>2026-04-12T01:03:01Z</time></trkpt>
      <trkpt lat="26.094651" lon="119.375732"><ele>206</ele><time>2026-04-12T01:04:04Z</time></trkpt>
      <trkpt lat="26.095139" lon="119.376209"><ele>213</ele><time>2026-04-12T01:05:33Z</time></trkpt>
      <trkpt lat="26.09525" lon="119.376068"><ele>214</ele><time>2026-04-12T01:06:49Z</time></trkpt>
      <trkpt lat="26.095337" lon="119.375757"><ele>216</ele><time>2026-04-12T01:07:49Z</time></trkpt>
      <trkpt lat="26.095483" lon="119.375861"><ele>224</ele><time>2026-04-12T01:08:32Z</time></trkpt>
      <trkpt lat="26.095547" lon="119.375807"><ele>231</ele><time>2026-04-12T01:08:53Z</time></trkpt>
      <trkpt lat="26.095947" lon="119.376215"><ele>248</ele><time>2026-04-12T01:10:25Z</time></trkpt>
      <trkpt lat="26.09624" lon="119.376354"><ele>260</ele><time>2026-04-12T01:11:41Z</time></trkpt>
      <trkpt lat="26.096443" lon="119.376637"><ele>280</ele><time>2026-04-12T01:12:58Z</time></trkpt>
      <trkpt lat="26.096684" lon="119.376814"><ele>290</ele><time>2026-04-12T01:13:42Z</time></trkpt>
      <trkpt lat="26.096785" lon="119.376832"><ele>300</ele><time>2026-04-12T01:14:30Z</time></trkpt>
      <trkpt lat="26.096815" lon="119.376787"><ele>302</ele><time>2026-04-12T01:14:38Z</time></trkpt>
      <trkpt lat="26.096763" lon="119.376706"><ele>300</ele><time>2026-04-12T01:15:02Z</time></trkpt>
      <trkpt lat="26.097009" lon="119.376668"><ele>311</ele><time>2026-04-12T01:15:53Z</time></trkpt>
      <trkpt lat="26.09753" lon="119.376993"><ele>325</ele><time>2026-04-12T01:17:48Z</time></trkpt>
      <trkpt lat="26.098244" lon="119.377615"><ele>339</ele><time>2026-04-12T01:20:07Z</time></trkpt>
      <trkpt lat="26.098515" lon="119.378001"><ele>346</ele><time>2026-04-12T01:21:07Z</time></trkpt>
      <trkpt lat="26.098859" lon="119.378319"><ele>368</ele><time>2026-04-12T01:22:50Z</time></trkpt>
      <trkpt lat="26.098983" lon="119.378042"><ele>377</ele><time>2026-04-12T01:23:46Z</time></trkpt>
      <trkpt lat="26.099012" lon="119.378082"><ele>381</ele><time>2026-04-12T01:24:02Z</time></trkpt>
      <trkpt lat="26.099029" lon="119.378335"><ele>385</ele><time>2026-04-12T01:24:43Z</time></trkpt>
      <trkpt lat="26.099172" lon="119.378614"><ele>398</ele><time>2026-04-12T01:25:42Z</time></trkpt>
      <trkpt lat="26.099063" lon="119.378903"><ele>401</ele><time>2026-04-12T01:26:50Z</time></trkpt>
      <trkpt lat="26.099127" lon="119.379424"><ele>414</ele><time>2026-04-12T01:27:51Z</time></trkpt>
      <trkpt lat="26.099014" lon="119.379596"><ele>418</ele><time>2026-04-12T01:28:19Z</time></trkpt>
      <trkpt lat="26.098877" lon="119.37967"><ele>417</ele><time>2026-04-12T01:28:50Z</time></trkpt>
      <trkpt lat="26.098689" lon="119.379509"><ele>420</ele><time>2026-04-12T01:29:20Z</time></trkpt>
      <trkpt lat="26.098666" lon="119.379558"><ele>421</ele><time>2026-04-12T01:29:26Z</time></trkpt>
      <trkpt lat="26.098485" lon="119.379498"><ele>423</ele><time>2026-04-12T01:29:47Z</time></trkpt>
      <trkpt lat="26.09834" lon="119.379699"><ele>432</ele><time>2026-04-12T01:30:30Z</time></trkpt>
      <trkpt lat="26.098305" lon="119.379902"><ele>441</ele><time>2026-04-12T01:31:15Z</time></trkpt>
      <trkpt lat="26.098342" lon="119.379934"><ele>444</ele><time>2026-04-12T01:31:25Z</time></trkpt>
      <trkpt lat="26.098457" lon="119.379841"><ele>447</ele><time>2026-04-12T01:31:56Z</time></trkpt>
      <trkpt lat="26.098563" lon="119.379963"><ele>457</ele><time>2026-04-12T01:32:31Z</time></trkpt>
      <trkpt lat="26.098554" lon="119.380343"><ele>470</ele><time>2026-04-12T01:34:01Z</time></trkpt>
      <trkpt lat="26.098609" lon="119.380589"><ele>481</ele><time>2026-04-12T01:34:59Z</time></trkpt>
      <trkpt lat="26.098716" lon="119.380709"><ele>488</ele><time>2026-04-12T01:35:37Z</time></trkpt>
      <trkpt lat="26.098883" lon="119.381203"><ele>509</ele><time>2026-04-12T01:37:26Z</time></trkpt>
      <trkpt lat="26.098817" lon="119.381607"><ele>524</ele><time>2026-04-12T01:38:41Z</time></trkpt>
      <trkpt lat="26.098921" lon="119.381913"><ele>532</ele><time>2026-04-12T01:39:14Z</time></trkpt>
      <trkpt lat="26.098848" lon="119.382122"><ele>537</ele><time>2026-04-12T01:39:35Z</time></trkpt>
      <trkpt lat="26.098887" lon="119.382334"><ele>547</ele><time>2026-04-12T01:40:01Z</time></trkpt>
      <trkpt lat="26.098715" lon="119.382498"><ele>549</ele><time>2026-04-12T01:40:51Z</time></trkpt>
      <trkpt lat="26.098442" lon="119.382565"><ele>551</ele><time>2026-04-12T01:41:32Z</time></trkpt>
      <trkpt lat="26.0981" lon="119.382911"><ele>560</ele><time>2026-04-12T01:42:39Z</time></trkpt>
      <trkpt lat="26.097905" lon="119.382967"><ele>562</ele><time>2026-04-12T01:42:58Z</time></trkpt>
      <trkpt lat="26.097758" lon="119.383217"><ele>559</ele><time>2026-04-12T01:43:24Z</time></trkpt>
      <trkpt lat="26.097654" lon="119.38324"><ele>559</ele><time>2026-04-12T01:43:33Z</time></trkpt>
      <trkpt lat="26.097481" lon="119.383456"><ele>559</ele><time>2026-04-12T01:43:56Z</time></trkpt>
      <trkpt lat="26.097337" lon="119.383506"><ele>560</ele><time>2026-04-12T01:44:16Z</time></trkpt>
      <trkpt lat="26.097231" lon="119.383786"><ele>562</ele><time>2026-04-12T01:44:53Z</time></trkpt>
      <trkpt lat="26.096902" lon="119.383923"><ele>564</ele><time>2026-04-12T01:45:30Z</time></trkpt>
      <trkpt lat="26.096723" lon="119.384133"><ele>566</ele><time>2026-04-12T01:45:54Z</time></trkpt>
      <trkpt lat="26.096588" lon="119.384172"><ele>569</ele><time>2026-04-12T01:46:07Z</time></trkpt>
      <trkpt lat="26.096548" lon="119.38427"><ele>574</ele><time>2026-04-12T01:46:24Z</time></trkpt>
      <trkpt lat="26.096167" lon="119.384313"><ele>582</ele><time>2026-04-12T01:47:33Z</time></trkpt>
      <trkpt lat="26.095405" lon="119.385186"><ele>587</ele><time>2026-04-12T01:49:25Z</time></trkpt>
      <trkpt lat="26.094783" lon="119.385634"><ele>585</ele><time>2026-04-12T01:50:31Z</time></trkpt>
      <trkpt lat="26.094554" lon="119.386321"><ele>593</ele><time>2026-04-12T01:51:26Z</time></trkpt>
      <trkpt lat="26.094152" lon="119.386659"><ele>595</ele><time>2026-04-12T01:52:12Z</time></trkpt>
      <trkpt lat="26.094104" lon="119.386805"><ele>599</ele><time>2026-04-12T01:52:37Z</time></trkpt>
      <trkpt lat="26.093668" lon="119.386917"><ele>601</ele><time>2026-04-12T01:53:19Z</time></trkpt>
      <trkpt lat="26.093425" lon="119.387122"><ele>603</ele><time>2026-04-12T01:53:45Z</time></trkpt>
      <trkpt lat="26.093216" lon="119.387433"><ele>606</ele><time>2026-04-12T01:54:19Z</time></trkpt>
      <trkpt lat="26.092819" lon="119.387612"><ele>606</ele><time>2026-04-12T01:55:02Z</time></trkpt>
      <trkpt lat="26.092454" lon="119.387972"><ele>614</ele><time>2026-04-12T01:56:05Z</time></trkpt>
      <trkpt lat="26.091789" lon="119.388256"><ele>615</ele><time>2026-04-12T01:57:15Z</time></trkpt>
      <trkpt lat="26.091439" lon="119.388237"><ele>615</ele><time>2026-04-12T01:57:48Z</time></trkpt>
      <trkpt lat="26.091289" lon="119.38851"><ele>619</ele><time>2026-04-12T01:58:18Z</time></trkpt>
      <trkpt lat="26.090847" lon="119.388624"><ele>621</ele><time>2026-04-12T01:59:02Z</time></trkpt>
      <trkpt lat="26.090629" lon="119.388761"><ele>620</ele><time>2026-04-12T01:59:27Z</time></trkpt>
      <trkpt lat="26.090539" lon="119.388841"><ele>623</ele><time>2026-04-12T01:59:36Z</time></trkpt>
      <trkpt lat="26.090456" lon="119.389093"><ele>625</ele><time>2026-04-12T02:00:10Z</time></trkpt>
      <trkpt lat="26.090176" lon="119.389572"><ele>631</ele><time>2026-04-12T02:01:09Z</time></trkpt>
      <trkpt lat="26.090094" lon="119.389542"><ele>630</ele><time>2026-04-12T02:01:21Z</time></trkpt>
      <trkpt lat="26.089865" lon="119.389805"><ele>643</ele><time>2026-04-12T02:02:13Z</time></trkpt>
      <trkpt lat="26.089732" lon="119.390039"><ele>645</ele><time>2026-04-12T02:02:45Z</time></trkpt>
      <trkpt lat="26.089639" lon="119.390394"><ele>661</ele><time>2026-04-12T02:03:36Z</time></trkpt>
      <trkpt lat="26.089459" lon="119.390431"><ele>662</ele><time>2026-04-12T02:04:04Z</time></trkpt>
      <trkpt lat="26.08933" lon="119.390615"><ele>662</ele><time>2026-04-12T02:04:21Z</time></trkpt>
      <trkpt lat="26.088977" lon="119.390795"><ele>662</ele><time>2026-04-12T02:05:18Z</time></trkpt>
      <trkpt lat="26.088971" lon="119.390957"><ele>668</ele><time>2026-04-12T02:05:45Z</time></trkpt>
      <trkpt lat="26.088791" lon="119.391212"><ele>672</ele><time>2026-04-12T02:06:20Z</time></trkpt>
      <trkpt lat="26.088854" lon="119.391132"><ele>674</ele><time>2026-04-12T02:06:33Z</time></trkpt>
      <trkpt lat="26.089179" lon="119.391065"><ele>688</ele><time>2026-04-12T02:07:22Z</time></trkpt>
      <trkpt lat="26.089534" lon="119.391294"><ele>702</ele><time>2026-04-12T02:08:36Z</time></trkpt>
      <trkpt lat="26.089612" lon="119.391734"><ele>702</ele><time>2026-04-12T02:09:24Z</time></trkpt>
      <trkpt lat="26.089563" lon="119.392393"><ele>707</ele><time>2026-04-12T02:10:15Z</time></trkpt>
      <trkpt lat="26.089722" lon="119.392608"><ele>710</ele><time>2026-04-12T02:10:39Z</time></trkpt>
      <trkpt lat="26.089824" lon="119.392618"><ele>711</ele><time>2026-04-12T02:10:50Z</time></trkpt>
      <trkpt lat="26.090575" lon="119.392129"><ele>714</ele><time>2026-04-12T02:12:11Z</time></trkpt>
      <trkpt lat="26.090895" lon="119.391709"><ele>718</ele><time>2026-04-12T02:12:58Z</time></trkpt>
      <trkpt lat="26.091493" lon="119.392032"><ele>727</ele><time>2026-04-12T02:14:00Z</time></trkpt>
      <trkpt lat="26.091872" lon="119.392327"><ele>726</ele><time>2026-04-12T02:14:41Z</time></trkpt>
      <trkpt lat="26.09224" lon="119.392202"><ele>725</ele><time>2026-04-12T02:15:36Z</time></trkpt>
      <trkpt lat="26.092376" lon="119.392239"><ele>725</ele><time>2026-04-12T02:15:53Z</time></trkpt>
      <trkpt lat="26.092786" lon="119.392153"><ele>724</ele><time>2026-04-12T02:16:28Z</time></trkpt>
      <trkpt lat="26.093085" lon="119.391879"><ele>720</ele><time>2026-04-12T02:17:21Z</time></trkpt>
      <trkpt lat="26.093493" lon="119.391672"><ele>717</ele><time>2026-04-12T02:18:00Z</time></trkpt>
      <trkpt lat="26.093749" lon="119.391331"><ele>714</ele><time>2026-04-12T02:18:36Z</time></trkpt>
      <trkpt lat="26.094135" lon="119.391193"><ele>716</ele><time>2026-04-12T02:19:16Z</time></trkpt>
      <trkpt lat="26.09433" lon="119.391482"><ele>709</ele><time>2026-04-12T02:19:48Z</time></trkpt>
      <trkpt lat="26.094791" lon="119.392518"><ele>707</ele><time>2026-04-12T02:21:17Z</time></trkpt>
      <trkpt lat="26.095279" lon="119.392832"><ele>701</ele><time>2026-04-12T02:22:05Z</time></trkpt>
      <trkpt lat="26.095386" lon="119.39283"><ele>703</ele><time>2026-04-12T02:22:15Z</time></trkpt>
      <trkpt lat="26.09555" lon="119.392728"><ele>700</ele><time>2026-04-12T02:22:29Z</time></trkpt>
      <trkpt lat="26.095645" lon="119.392531"><ele>700</ele><time>2026-04-12T02:22:44Z</time></trkpt>
      <trkpt lat="26.095693" lon="119.392306"><ele>704</ele><time>2026-04-12T02:23:01Z</time></trkpt>
      <trkpt lat="26.09566" lon="119.392003"><ele>702</ele><time>2026-04-12T02:23:27Z</time></trkpt>
      <trkpt lat="26.095724" lon="119.391924"><ele>700</ele><time>2026-04-12T02:23:37Z</time></trkpt>
      <trkpt lat="26.096135" lon="119.391755"><ele>699</ele><time>2026-04-12T02:24:20Z</time></trkpt>
      <trkpt lat="26.096553" lon="119.391793"><ele>706</ele><time>2026-04-12T02:24:59Z</time></trkpt>
      <trkpt lat="26.096701" lon="119.391719"><ele>705</ele><time>2026-04-12T02:25:12Z</time></trkpt>
      <trkpt lat="26.096815" lon="119.391887"><ele>704</ele><time>2026-04-12T02:25:33Z</time></trkpt>
      <trkpt lat="26.096746" lon="119.391807"><ele>703</ele><time>2026-04-12T02:25:53Z</time></trkpt>
      <trkpt lat="26.096759" lon="119.391693"><ele>704</ele><time>2026-04-12T02:26:02Z</time></trkpt>
      <trkpt lat="26.096931" lon="119.391468"><ele>705</ele><time>2026-04-12T02:26:28Z</time></trkpt>
      <trkpt lat="26.096968" lon="119.391497"><ele>705</ele><time>2026-04-12T02:26:35Z</time></trkpt>
      <trkpt lat="26.097004" lon="119.391341"><ele>703</ele><time>2026-04-12T02:26:59Z</time></trkpt>
      <trkpt lat="26.097187" lon="119.391288"><ele>704</ele><time>2026-04-12T02:27:21Z</time></trkpt>
      <trkpt lat="26.096929" lon="119.39104"><ele>702</ele><time>2026-04-12T02:27:55Z</time></trkpt>
      <trkpt lat="26.097076" lon="119.390592"><ele>702</ele><time>2026-04-12T02:28:55Z</time></trkpt>
      <trkpt lat="26.097288" lon="119.390552"><ele>704</ele><time>2026-04-12T02:29:13Z</time></trkpt>
      <trkpt lat="26.097443" lon="119.390398"><ele>696</ele><time>2026-04-12T02:30:31Z</time></trkpt>
      <trkpt lat="26.097367" lon="119.390465"><ele>695</ele><time>2026-04-12T02:30:57Z</time></trkpt>
      <trkpt lat="26.097799" lon="119.390347"><ele>695</ele><time>2026-04-12T02:33:23Z</time></trkpt>
      <trkpt lat="26.098047" lon="119.390157"><ele>696</ele><time>2026-04-12T02:33:50Z</time></trkpt>
      <trkpt lat="26.09802" lon="119.390001"><ele>693</ele><time>2026-04-12T02:34:16Z</time></trkpt>
      <trkpt lat="26.09792" lon="119.389955"><ele>694</ele><time>2026-04-12T02:34:24Z</time></trkpt>
      <trkpt lat="26.09788" lon="119.389983"><ele>694</ele><time>2026-04-12T02:34:29Z</time></trkpt>
      <trkpt lat="26.097911" lon="119.390035"><ele>693</ele><time>2026-04-12T02:34:35Z</time></trkpt>
      <trkpt lat="26.097965" lon="119.390022"><ele>693</ele><time>2026-04-12T02:35:54Z</time></trkpt>
      <trkpt lat="26.097964" lon="119.390081"><ele>695</ele><time>2026-04-12T02:36:05Z</time></trkpt>
      <trkpt lat="26.097923" lon="119.390058"><ele>693</ele><time>2026-04-12T02:36:16Z</time></trkpt>
      <trkpt lat="26.097362" lon="119.389462"><ele>688</ele><time>2026-04-12T02:37:37Z</time></trkpt>
      <trkpt lat="26.097281" lon="119.389287"><ele>687</ele><time>2026-04-12T02:38:05Z</time></trkpt>
      <trkpt lat="26.097439" lon="119.389174"><ele>686</ele><time>2026-04-12T02:38:31Z</time></trkpt>
      <trkpt lat="26.097357" lon="119.388911"><ele>683</ele><time>2026-04-12T02:38:52Z</time></trkpt>
      <trkpt lat="26.097276" lon="119.388775"><ele>682</ele><time>2026-04-12T02:39:05Z</time></trkpt>
      <trkpt lat="26.097175" lon="119.38873"><ele>681</ele><time>2026-04-12T02:39:17Z</time></trkpt>
      <trkpt lat="26.097097" lon="119.388789"><ele>679</ele><time>2026-04-12T02:41:05Z</time></trkpt>
    </trkseg>
  </trk>
</gpx>
